{
"type": "FeatureCollection",
"name": "PLS_SE-12",
"crs": { "type": "name", "properties": { "name": "urn:ogc:def:crs:OGC:1.3:CRS84" } },
"features": [
{ "type": "Feature", "properties": { "state": "Perlis", "parlimen": "P.001 Padang Besar", "code_parlimen": "P.001", "dun": "N.01 Titi Tinggi", "code_dun": "N.01" }, "geometry": { "type": "Polygon", "coordinates": [ [ [ 100.280967959522073, 6.647868637029593 ], [ 100.280949074204628, 6.647152284404275 ], [ 100.280892470015615, 6.646437894212225 ], [ 100.280798302103207, 6.64572742456024 ], [ 100.280666828575079, 6.645022822817554 ], [ 100.280498409791036, 6.644326020278046 ], [ 100.280293507375291, 6.643638926866294 ], [ 100.280052682951094, 6.642963425902281 ], [ 100.279776596601437, 6.642301368938817 ], [ 100.279466005059845, 6.641654570685993 ], [ 100.279121759636141, 6.641024804036562 ], [ 100.2787448038831, 6.640413795205855 ], [ 100.27833617101021, 6.639823218999592 ], [ 100.277896981051825, 6.639254694222567 ], [ 100.277428437797056, 6.638709779240774 ], [ 100.276931825490394, 6.638189967709152 ], [ 100.276408505311679, 6.637696684476746 ], [ 100.275859911645142, 6.637231281680316 ], [ 100.275287548147858, 6.636795035037416 ], [ 100.274692983628412, 6.63638914034881 ], [ 100.274077847746838, 6.636014710219994 ], [ 100.273443826547791, 6.635672771010835 ], [ 100.272792657839332, 6.635364260021511 ], [ 100.272126126429669, 6.635090022922799 ], [ 100.271446059234989, 6.63485081143732 ], [ 100.270754320272232, 6.63464728127861 ], [ 100.270052805549824, 6.634479990353212 ], [ 100.269343437870845, 6.634349397231067 ], [ 100.268628161562802, 6.634255859888149 ], [ 100.267908937148349, 6.634199634724947 ], [ 100.267187735971575, 6.634180875863549 ], [ 100.266466534794816, 6.634199634724947 ], [ 100.265747310380362, 6.634255859888149 ], [ 100.26503203407232, 6.634349397231067 ], [ 100.264322666393355, 6.634479990353212 ], [ 100.263621151670932, 6.63464728127861 ], [ 100.262929412708189, 6.63485081143732 ], [ 100.26224934551351, 6.635090022922799 ], [ 100.261582814103832, 6.635364260021511 ], [ 100.260931645395388, 6.635672771010835 ], [ 100.26029762419634, 6.636014710219994 ], [ 100.259682488314752, 6.63638914034881 ], [ 100.25908792379532, 6.636795035037416 ], [ 100.258515560298036, 6.637231281680316 ], [ 100.257966966631486, 6.637696684476746 ], [ 100.257443646452771, 6.638189967709152 ], [ 100.256947034146123, 6.638709779240774 ], [ 100.25647849089134, 6.639254694222567 ], [ 100.256039300932954, 6.639823218999592 ], [ 100.255630668060078, 6.640413795205855 ], [ 100.255253712307038, 6.641024804036562 ], [ 100.254909466883319, 6.641654570685993 ], [ 100.254598875341742, 6.642301368938817 ], [ 100.254322788992084, 6.642963425902281 ], [ 100.254081964567888, 6.643638926866294 ], [ 100.253877062152128, 6.644326020278046 ], [ 100.253708643368086, 6.645022822817554 ], [ 100.253577169839971, 6.64572742456024 ], [ 100.253483001927563, 6.646437894212225 ], [ 100.253426397738551, 6.647152284404275 ], [ 100.253407512421091, 6.647868637029593 ], [ 100.253426397738551, 6.648584988611066 ], [ 100.253483001927563, 6.649299375682954 ], [ 100.253577169839971, 6.650009840172657 ], [ 100.253708643368086, 6.650714434767504 ], [ 100.253877062152128, 6.651411228251948 ], [ 100.254081964567888, 6.652098310800592 ], [ 100.254322788992084, 6.652773799212494 ], [ 100.254598875341742, 6.653435842072348 ], [ 100.254909466883319, 6.6540826248246 ], [ 100.255253712307038, 6.654712374746323 ], [ 100.255630668060078, 6.655323365805452 ], [ 100.256039300932954, 6.655913923390991 ], [ 100.25647849089134, 6.656482428902125 ], [ 100.256947034146123, 6.657027324183983 ], [ 100.257443646452771, 6.657547115797432 ], [ 100.257966966631486, 6.658040379111664 ], [ 100.258515560298036, 6.658505762208146 ], [ 100.25908792379532, 6.658941989585167 ], [ 100.259682488314752, 6.659347865653037 ], [ 100.26029762419634, 6.659722278010262 ], [ 100.260931645395388, 6.660064200491727 ], [ 100.261582814103832, 6.660372695980477 ], [ 100.26224934551351, 6.660646918975592 ], [ 100.262929412708189, 6.66088611790896 ], [ 100.263621151670932, 6.661089637204575 ], [ 100.264322666393355, 6.661256919074884 ], [ 100.26503203407232, 6.661387505049203 ], [ 100.265747310380362, 6.661481037229852 ], [ 100.266466534794816, 6.661537259272878 ], [ 100.267187735971575, 6.661556017090418 ], [ 100.267908937148349, 6.661537259272878 ], [ 100.268628161562802, 6.661481037229852 ], [ 100.269343437870845, 6.661387505049203 ], [ 100.270052805549824, 6.661256919074884 ], [ 100.270754320272232, 6.661089637204575 ], [ 100.271446059234989, 6.66088611790896 ], [ 100.272126126429669, 6.660646918975592 ], [ 100.272792657839332, 6.660372695980477 ], [ 100.273443826547791, 6.660064200491727 ], [ 100.274077847746838, 6.659722278010262 ], [ 100.274692983628412, 6.659347865653037 ], [ 100.275287548147858, 6.658941989585167 ], [ 100.275859911645142, 6.658505762208146 ], [ 100.276408505311679, 6.658040379111664 ], [ 100.276931825490394, 6.657547115797432 ], [ 100.277428437797056, 6.657027324183983 ], [ 100.277896981051825, 6.656482428902125 ], [ 100.27833617101021, 6.655913923390991 ], [ 100.2787448038831, 6.655323365805452 ], [ 100.279121759636141, 6.654712374746323 ], [ 100.279466005059845, 6.6540826248246 ], [ 100.279776596601437, 6.653435842072348 ], [ 100.280052682951094, 6.652773799212494 ], [ 100.280293507375291, 6.652098310800592 ], [ 100.280498409791036, 6.651411228251948 ], [ 100.280666828575079, 6.650714434767504 ], [ 100.280798302103207, 6.650009840172657 ], [ 100.280892470015615, 6.649299375682954 ], [ 100.280949074204628, 6.648584988611066 ], [ 100.280967959522073, 6.647868637029593 ] ] ] } },
{ "type": "Feature", "properties": { "state": "Perlis", "parlimen": "P.001 Padang Besar", "code_parlimen": "P.001", "dun": "N.02 Beseri", "code_dun": "N.02" }, "geometry": { "type": "Polygon", "coordinates": [ [ [ 100.223500410256008, 6.605646649213683 ], [ 100.223481524938549, 6.604930235260299 ], [ 100.223424920749551, 6.604215783914769 ], [ 100.223330752837128, 6.603505253451444 ], [ 100.223199279309014, 6.602800591406077 ], [ 100.223030860524986, 6.602103729237633 ], [ 100.222825958109226, 6.601416577033937 ], [ 100.222585133685016, 6.600741018275824 ], [ 100.222309047335358, 6.600078904674187 ], [ 100.221998455793781, 6.59943205109401 ], [ 100.221654210370076, 6.598802230579266 ], [ 100.221277254617021, 6.598191169492528 ], [ 100.220868621744145, 6.597600542782277 ], [ 100.22042943178576, 6.597031969391262 ], [ 100.219960888530977, 6.596487007818235 ], [ 100.219464276224329, 6.595967151845346 ], [ 100.218940956045628, 6.595473826442895 ], [ 100.218392362379078, 6.595008383862763 ], [ 100.217819998881779, 6.594572099931027 ], [ 100.217225434362348, 6.594166170550153 ], [ 100.216610298480759, 6.593791708420275 ], [ 100.215976277281712, 6.593449739988484 ], [ 100.215325108573268, 6.593141202634652 ], [ 100.21465857716359, 6.592866942101397 ], [ 100.213978509968911, 6.592627710175231 ], [ 100.213286771006167, 6.592424162625401 ], [ 100.212585256283745, 6.592256857405839 ], [ 100.21187588860478, 6.592126253125418 ], [ 100.211160612296737, 6.592032707790503 ], [ 100.210441387882284, 6.591976477823392 ], [ 100.209720186705525, 6.591957717359236 ], [ 100.208998985528751, 6.591976477823392 ], [ 100.208279761114298, 6.592032707790503 ], [ 100.207564484806269, 6.592126253125418 ], [ 100.20685511712729, 6.592256857405839 ], [ 100.206153602404868, 6.592424162625401 ], [ 100.20546186344211, 6.592627710175231 ], [ 100.204781796247445, 6.592866942101397 ], [ 100.204115264837768, 6.593141202634652 ], [ 100.203464096129309, 6.593449739988484 ], [ 100.202830074930262, 6.593791708420275 ], [ 100.202214939048687, 6.594166170550153 ], [ 100.201620374529242, 6.594572099931027 ], [ 100.201048011031972, 6.595008383862763 ], [ 100.200499417365421, 6.595473826442895 ], [ 100.199976097186706, 6.595967151845346 ], [ 100.199479484880044, 6.596487007818235 ], [ 100.199010941625275, 6.597031969391262 ], [ 100.19857175166689, 6.597600542782277 ], [ 100.198163118794, 6.598191169492528 ], [ 100.197786163040959, 6.598802230579266 ], [ 100.197441917617255, 6.59943205109401 ], [ 100.197131326075663, 6.600078904674187 ], [ 100.19685523972602, 6.600741018275824 ], [ 100.196614415301809, 6.601416577033937 ], [ 100.196409512886063, 6.602103729237633 ], [ 100.196241094102021, 6.602800591406077 ], [ 100.196109620573907, 6.603505253451444 ], [ 100.196015452661484, 6.604215783914769 ], [ 100.195958848472486, 6.604930235260299 ], [ 100.195939963155027, 6.605646649213683 ], [ 100.195958848472486, 6.60636306212971 ], [ 100.196015452661484, 6.607077510374529 ], [ 100.196109620573907, 6.607788035707798 ], [ 100.196241094102021, 6.608492690649918 ], [ 100.196409512886063, 6.609189543819771 ], [ 100.196614415301809, 6.609876685228117 ], [ 100.19685523972602, 6.610552231512413 ], [ 100.197131326075663, 6.611214331098426 ], [ 100.197441917617255, 6.611861169274731 ], [ 100.197786163040959, 6.612490973166103 ], [ 100.198163118794, 6.613102016592124 ], [ 100.19857175166689, 6.613692624797794 ], [ 100.199010941625275, 6.614261179043105 ], [ 100.199479484880044, 6.614806121039067 ], [ 100.199976097186706, 6.61532595721804 ], [ 100.200499417365421, 6.615819262826563 ], [ 100.201048011031972, 6.616284685829631 ], [ 100.201620374529242, 6.616720950615674 ], [ 100.202214939048687, 6.617126861491954 ], [ 100.202830074930262, 6.617501305961128 ], [ 100.203464096129309, 6.617843257769558 ], [ 100.204115264837768, 6.618151779719506 ], [ 100.204781796247445, 6.618426026237127 ], [ 100.20546186344211, 6.618665245689474 ], [ 100.206153602404868, 6.618868782443967 ], [ 100.20685511712729, 6.619036078664939 ], [ 100.207564484806269, 6.619166675842125 ], [ 100.208279761114298, 6.619260216046958 ], [ 100.208998985528751, 6.619316442913371 ], [ 100.209720186705525, 6.619335202340183 ], [ 100.210441387882284, 6.619316442913371 ], [ 100.211160612296737, 6.619260216046958 ], [ 100.21187588860478, 6.619166675842125 ], [ 100.212585256283745, 6.619036078664939 ], [ 100.213286771006167, 6.618868782443967 ], [ 100.213978509968911, 6.618665245689474 ], [ 100.21465857716359, 6.618426026237127 ], [ 100.215325108573268, 6.618151779719506 ], [ 100.215976277281712, 6.617843257769558 ], [ 100.216610298480759, 6.617501305961128 ], [ 100.217225434362348, 6.617126861491954 ], [ 100.217819998881779, 6.616720950615674 ], [ 100.218392362379078, 6.616284685829631 ], [ 100.218940956045628, 6.615819262826563 ], [ 100.219464276224329, 6.61532595721804 ], [ 100.219960888530977, 6.614806121039067 ], [ 100.22042943178576, 6.614261179043105 ], [ 100.220868621744145, 6.613692624797794 ], [ 100.221277254617021, 6.613102016592124 ], [ 100.221654210370076, 6.612490973166103 ], [ 100.221998455793781, 6.611861169274731 ], [ 100.222309047335358, 6.611214331098426 ], [ 100.222585133685016, 6.610552231512413 ], [ 100.222825958109226, 6.609876685228117 ], [ 100.223030860524986, 6.609189543819771 ], [ 100.223199279309014, 6.608492690649918 ], [ 100.223330752837128, 6.607788035707798 ], [ 100.223424920749551, 6.607077510374529 ], [ 100.223481524938549, 6.60636306212971 ], [ 100.223500410256008, 6.605646649213683 ] ] ] } },
{ "type": "Feature", "properties": { "state": "Perlis", "parlimen": "P.001 Padang Besar", "code_parlimen": "P.001", "dun": "N.03 Chuping", "code_dun": "N.03" }, "geometry": { "type": "Polygon", "coordinates": [ [ [ 100.323721313944716, 6.530273568202772 ], [ 100.323702428627257, 6.529557045736076 ], [ 100.323645824438259, 6.528842486186232 ], [ 100.323551656525837, 6.52813184812403 ], [ 100.323420182997722, 6.527427079379932 ], [ 100.323251764213694, 6.526730111705022 ], [ 100.323046861797934, 6.526042855475878 ], [ 100.322806037373724, 6.52536719445797 ], [ 100.32252995102408, 6.524704980641928 ], [ 100.322219359482489, 6.524058029166734 ], [ 100.321875114058784, 6.523428113344022 ], [ 100.321498158305744, 6.522816959796792 ], [ 100.321089525432868, 6.522226243726147 ], [ 100.320650335474468, 6.521657584318925 ], [ 100.320181792219714, 6.521112540308746 ], [ 100.319685179913051, 6.520592605702825 ], [ 100.319161859734336, 6.520099205686088 ], [ 100.318613266067786, 6.519633692713996 ], [ 100.318040902570516, 6.519197342804669 ], [ 100.31744633805107, 6.518791352040539 ], [ 100.316831202169482, 6.518416833289142 ], [ 100.316197180970434, 6.518074813151914 ], [ 100.315546012261976, 6.517766229149739 ], [ 100.314879480852298, 6.517491927152342 ], [ 100.314199413657633, 6.517252659059262 ], [ 100.313507674694876, 6.517049080738278 ], [ 100.312806159972453, 6.516881750227187 ], [ 100.312096792293488, 6.516751126203753 ], [ 100.31138151598546, 6.516657566728155 ], [ 100.310662291570992, 6.51660132826119 ], [ 100.309941090394233, 6.516582564961175 ], [ 100.309219889217459, 6.51660132826119 ], [ 100.308500664803006, 6.516657566728155 ], [ 100.307785388494977, 6.516751126203753 ], [ 100.307076020815998, 6.516881750227187 ], [ 100.30637450609359, 6.517049080738278 ], [ 100.305682767130847, 6.517252659059262 ], [ 100.305002699936153, 6.517491927152342 ], [ 100.304336168526476, 6.517766229149739 ], [ 100.303684999818032, 6.518074813151914 ], [ 100.303050978618984, 6.518416833289142 ], [ 100.302435842737395, 6.518791352040539 ], [ 100.301841278217964, 6.519197342804669 ], [ 100.30126891472068, 6.519633692713996 ], [ 100.300720321054129, 6.520099205686088 ], [ 100.300197000875414, 6.520592605702825 ], [ 100.299700388568766, 6.521112540308746 ], [ 100.299231845313983, 6.521657584318925 ], [ 100.298792655355598, 6.522226243726147 ], [ 100.298384022482722, 6.522816959796792 ], [ 100.298007066729667, 6.523428113344022 ], [ 100.297662821305977, 6.524058029166734 ], [ 100.297352229764385, 6.524704980641928 ], [ 100.297076143414728, 6.52536719445797 ], [ 100.296835318990532, 6.526042855475878 ], [ 100.296630416574772, 6.526730111705022 ], [ 100.296461997790729, 6.527427079379932 ], [ 100.296330524262615, 6.52813184812403 ], [ 100.296236356350192, 6.528842486186232 ], [ 100.296179752161194, 6.529557045736076 ], [ 100.296160866843749, 6.530273568202772 ], [ 100.296179752161194, 6.530990089643765 ], [ 100.296236356350192, 6.531704646127657 ], [ 100.296330524262615, 6.532415279117294 ], [ 100.296461997790729, 6.533120040837797 ], [ 100.296630416574772, 6.533816999615005 ], [ 100.296835318990532, 6.534504245169825 ], [ 100.297076143414728, 6.535179893853745 ], [ 100.297352229764385, 6.535842093811297 ], [ 100.297662821305977, 6.536489030055298 ], [ 100.298007066729667, 6.537118929441018 ], [ 100.298384022482722, 6.537730065525527 ], [ 100.298792655355598, 6.53832076329904 ], [ 100.299231845313983, 6.538889403775205 ], [ 100.299700388568766, 6.539434428427791 ], [ 100.300197000875414, 6.539954343461697 ], [ 100.300720321054129, 6.54044772390642 ], [ 100.30126891472068, 6.540913217520931 ], [ 100.301841278217964, 6.541349548499189 ], [ 100.302435842737395, 6.541755520966186 ], [ 100.303050978618984, 6.542130022254875 ], [ 100.303684999818032, 6.542472025955086 ], [ 100.304336168526476, 6.54278059472608 ], [ 100.305002699936153, 6.543054882864974 ], [ 100.305682767130847, 6.543294138624079 ], [ 100.30637450609359, 6.543497706270752 ], [ 100.307076020815998, 6.54366502788414 ], [ 100.307785388494977, 6.543795644883955 ], [ 100.308500664803006, 6.543889199287 ], [ 100.309219889217459, 6.543945434688013 ], [ 100.309941090394233, 6.543964196962312 ], [ 100.310662291570992, 6.543945434688013 ], [ 100.31138151598546, 6.543889199287 ], [ 100.312096792293488, 6.543795644883955 ], [ 100.312806159972453, 6.54366502788414 ], [ 100.313507674694876, 6.543497706270752 ], [ 100.314199413657633, 6.543294138624079 ], [ 100.314879480852298, 6.543054882864974 ], [ 100.315546012261976, 6.54278059472608 ], [ 100.316197180970434, 6.542472025955086 ], [ 100.316831202169482, 6.542130022254875 ], [ 100.31744633805107, 6.541755520966186 ], [ 100.318040902570516, 6.541349548499189 ], [ 100.318613266067786, 6.540913217520931 ], [ 100.319161859734336, 6.54044772390642 ], [ 100.319685179913051, 6.539954343461697 ], [ 100.320181792219714, 6.539434428427791 ], [ 100.320650335474468, 6.538889403775205 ], [ 100.321089525432868, 6.53832076329904 ], [ 100.321498158305744, 6.537730065525527 ], [ 100.321875114058784, 6.537118929441018 ], [ 100.322219359482489, 6.536489030055298 ], [ 100.32252995102408, 6.535842093811297 ], [ 100.322806037373724, 6.535179893853745 ], [ 100.323046861797934, 6.534504245169825 ], [ 100.323251764213694, 6.533816999615005 ], [ 100.323420182997722, 6.533120040837797 ], [ 100.323551656525837, 6.532415279117294 ], [ 100.323645824438259, 6.531704646127657 ], [ 100.323702428627257, 6.530990089643765 ], [ 100.323721313944716, 6.530273568202772 ] ] ] } },
{ "type": "Feature", "properties": { "state": "Perlis", "parlimen": "P.001 Padang Besar", "code_parlimen": "P.001", "dun": "N.04 Mata Ayer", "code_dun": "N.04" }, "geometry": { "type": "Polygon", "coordinates": [ [ [ 100.272905847821079, 6.47938176260573 ], [ 100.272886962503634, 6.478665167572223 ], [ 100.272830358314621, 6.47795053566233 ], [ 100.272736190402213, 6.477239825645015 ], [ 100.272604716874085, 6.476534985547832 ], [ 100.272436298090057, 6.475837947317213 ], [ 100.272231395674297, 6.475150621522864 ], [ 100.2719905712501, 6.474474892120575 ], [ 100.271714484900457, 6.473812611288007 ], [ 100.271403893358851, 6.473165594347442 ], [ 100.271059647935161, 6.472535614789404 ], [ 100.27068269218212, 6.471924399411122 ], [ 100.27027405930923, 6.471333623582625 ], [ 100.269834869350831, 6.470764906653953 ], [ 100.269366326096076, 6.470219807515779 ], [ 100.268869713789414, 6.469699820325837 ], [ 100.268346393610699, 6.469206370412532 ], [ 100.267797799944162, 6.468740810367519 ], [ 100.267225436446878, 6.468304416337295 ], [ 100.266630871927433, 6.467898384524648 ], [ 100.266015736045844, 6.467523827909013 ], [ 100.265381714846811, 6.467181773195123 ], [ 100.264730546138367, 6.466873157998068 ], [ 100.264064014728675, 6.466598828272608 ], [ 100.263383947533995, 6.466359535993853 ], [ 100.262692208571238, 6.466155937095494 ], [ 100.26199069384883, 6.465988589671371 ], [ 100.261281326169865, 6.465857952445353 ], [ 100.260566049861822, 6.465764383513546 ], [ 100.259846825447354, 6.465708139362548 ], [ 100.259125624270595, 6.465689374166121 ], [ 100.258404423093836, 6.465708139362548 ], [ 100.257685198679383, 6.465764383513546 ], [ 100.25696992237134, 6.465857952445353 ], [ 100.256260554692375, 6.465988589671371 ], [ 100.255559039969967, 6.466155937095494 ], [ 100.254867301007209, 6.466359535993853 ], [ 100.25418723381253, 6.466598828272608 ], [ 100.253520702402838, 6.466873157998068 ], [ 100.252869533694394, 6.467181773195123 ], [ 100.252235512495346, 6.467523827909013 ], [ 100.251620376613772, 6.467898384524648 ], [ 100.251025812094326, 6.468304416337295 ], [ 100.250453448597042, 6.468740810367519 ], [ 100.249904854930506, 6.469206370412532 ], [ 100.249381534751777, 6.469699820325837 ], [ 100.248884922445129, 6.470219807515779 ], [ 100.24841637919036, 6.470764906653953 ], [ 100.247977189231975, 6.471333623582625 ], [ 100.247568556359084, 6.471924399411122 ], [ 100.247191600606044, 6.472535614789404 ], [ 100.246847355182339, 6.473165594347442 ], [ 100.246536763640748, 6.473812611288007 ], [ 100.246260677291104, 6.474474892120575 ], [ 100.246019852866908, 6.475150621522864 ], [ 100.245814950451148, 6.475837947317213 ], [ 100.245646531667106, 6.476534985547832 ], [ 100.245515058138992, 6.477239825645015 ], [ 100.245420890226569, 6.47795053566233 ], [ 100.245364286037557, 6.478665167572223 ], [ 100.245345400720112, 6.47938176260573 ], [ 100.245364286037557, 6.480098356621371 ], [ 100.245420890226569, 6.480812985488821 ], [ 100.245515058138992, 6.481523690472413 ], [ 100.245646531667106, 6.482228523599779 ], [ 100.245814950451148, 6.482925553000847 ], [ 100.246019852866908, 6.483612868202639 ], [ 100.246260677291104, 6.484288585365428 ], [ 100.246536763640748, 6.484950852445635 ], [ 100.246847355182339, 6.485597854271681 ], [ 100.247191600606044, 6.486227817518601 ], [ 100.247568556359084, 6.48683901556791 ], [ 100.247977189231975, 6.487429773239421 ], [ 100.24841637919036, 6.487998471382046 ], [ 100.248884922445129, 6.488543551310904 ], [ 100.249381534751777, 6.489063519078738 ], [ 100.249904854930506, 6.489556949569921 ], [ 100.250453448597042, 6.490022490405631 ], [ 100.251025812094326, 6.490458865649794 ], [ 100.251620376613772, 6.490864879305457 ], [ 100.252235512495346, 6.491239418592106 ], [ 100.252869533694394, 6.491581456994891 ], [ 100.253520702402838, 6.491890057077429 ], [ 100.25418723381253, 6.492164373050526 ], [ 100.254867301007209, 6.492403653089782 ], [ 100.255559039969967, 6.492607241395583 ], [ 100.256260554692375, 6.492774579990156 ], [ 100.25696992237134, 6.492905210246371 ], [ 100.257685198679383, 6.492998774144453 ], [ 100.258404423093836, 6.493055015252995 ], [ 100.259125624270595, 6.493073779431557 ], [ 100.259846825447354, 6.493055015252995 ], [ 100.260566049861822, 6.492998774144453 ], [ 100.261281326169865, 6.492905210246371 ], [ 100.26199069384883, 6.492774579990156 ], [ 100.262692208571238, 6.492607241395583 ], [ 100.263383947533995, 6.492403653089782 ], [ 100.264064014728675, 6.492164373050526 ], [ 100.264730546138367, 6.491890057077429 ], [ 100.265381714846811, 6.491581456994891 ], [ 100.266015736045844, 6.491239418592106 ], [ 100.266630871927433, 6.490864879305457 ], [ 100.267225436446878, 6.490458865649794 ], [ 100.267797799944162, 6.490022490405631 ], [ 100.268346393610699, 6.489556949569921 ], [ 100.268869713789414, 6.489063519078738 ], [ 100.269366326096076, 6.488543551310904 ], [ 100.269834869350831, 6.487998471382046 ], [ 100.27027405930923, 6.487429773239421 ], [ 100.27068269218212, 6.48683901556791 ], [ 100.271059647935161, 6.486227817518601 ], [ 100.271403893358851, 6.485597854271681 ], [ 100.271714484900457, 6.484950852445635 ], [ 100.2719905712501, 6.484288585365428 ], [ 100.272231395674297, 6.483612868202639 ], [ 100.272436298090057, 6.482925553000847 ], [ 100.272604716874085, 6.482228523599779 ], [ 100.272736190402213, 6.481523690472413 ], [ 100.272830358314621, 6.480812985488821 ], [ 100.272886962503634, 6.480098356621371 ], [ 100.272905847821079, 6.47938176260573 ] ] ] } },
{ "type": "Feature", "properties": { "state": "Perlis", "parlimen": "P.001 Padang Besar", "code_parlimen": "P.001", "dun": "N.05 Santan", "code_dun": "N.05" }, "geometry": { "type": "Polygon", "coordinates": [ [ [ 100.233606083658685, 6.506183620581736 ], [ 100.233587198341226, 6.50546706369462 ], [ 100.233530594152214, 6.504752469822443 ], [ 100.233436426239805, 6.50404179762995 ], [ 100.233304952711691, 6.503336995041125 ], [ 100.233136533927663, 6.502639993899705 ], [ 100.232931631511903, 6.501952704673847 ], [ 100.232690807087693, 6.501277011219331 ], [ 100.232414720738049, 6.500614765615477 ], [ 100.232104129196458, 6.499967783088223 ], [ 100.231759883772767, 6.499337837034059 ], [ 100.231382928019713, 6.498726654158602 ], [ 100.230974295146822, 6.498135909743121 ], [ 100.230535105188437, 6.497567223051843 ], [ 100.230066561933668, 6.497022152892898 ], [ 100.22956994962702, 6.496502193344851 ], [ 100.229046629448291, 6.496008769660754 ], [ 100.228498035781755, 6.495543234360622 ], [ 100.227925672284471, 6.495106863523486 ], [ 100.227331107765039, 6.494700853288866 ], [ 100.226715971883436, 6.49432631657736 ], [ 100.226081950684403, 6.493984280039424 ], [ 100.225430781975959, 6.493675681240608 ], [ 100.224764250566267, 6.493401366090982 ], [ 100.224084183371588, 6.493162086525934 ], [ 100.223392444408844, 6.492958498444502 ], [ 100.222690929686422, 6.492791159911072 ], [ 100.221981562007457, 6.492660529625265 ], [ 100.221266285699429, 6.49256696566431 ], [ 100.220547061284961, 6.49251072450124 ], [ 100.219825860108202, 6.492491960301701 ], [ 100.219104658931442, 6.49251072450124 ], [ 100.218385434516975, 6.49256696566431 ], [ 100.217670158208946, 6.492660529625265 ], [ 100.216960790529967, 6.492791159911072 ], [ 100.216259275807559, 6.492958498444502 ], [ 100.215567536844802, 6.493162086525934 ], [ 100.214887469650137, 6.493401366090982 ], [ 100.214220938240445, 6.493675681240608 ], [ 100.213569769531986, 6.493984280039424 ], [ 100.212935748332939, 6.49432631657736 ], [ 100.212320612451364, 6.494700853288866 ], [ 100.211726047931919, 6.495106863523486 ], [ 100.211153684434635, 6.495543234360622 ], [ 100.210605090768098, 6.496008769660754 ], [ 100.210081770589383, 6.496502193344851 ], [ 100.209585158282721, 6.497022152892898 ], [ 100.209116615027966, 6.497567223051843 ], [ 100.208677425069567, 6.498135909743121 ], [ 100.208268792196677, 6.498726654158602 ], [ 100.207891836443636, 6.499337837034059 ], [ 100.207547591019946, 6.499967783088223 ], [ 100.20723699947834, 6.500614765615477 ], [ 100.206960913128697, 6.501277011219331 ], [ 100.2067200887045, 6.501952704673847 ], [ 100.20651518628874, 6.502639993899705 ], [ 100.206346767504712, 6.503336995041125 ], [ 100.206215293976584, 6.50404179762995 ], [ 100.206121126064161, 6.504752469822443 ], [ 100.206064521875163, 6.50546706369462 ], [ 100.206045636557718, 6.506183620581736 ], [ 100.206064521875163, 6.506900176446839 ], [ 100.206121126064161, 6.507614767264208 ], [ 100.206215293976584, 6.508325434402519 ], [ 100.206346767504712, 6.509030229993195 ], [ 100.20651518628874, 6.509727222269175 ], [ 100.2067200887045, 6.510414500859412 ], [ 100.206960913128697, 6.51109018202467 ], [ 100.20723699947834, 6.511752413820261 ], [ 100.207547591019946, 6.51239938117155 ], [ 100.207891836443636, 6.5130293108483 ], [ 100.208268792196677, 6.513640476324328 ], [ 100.208677425069567, 6.51423120250901 ], [ 100.209116615027966, 6.514799870337856 ], [ 100.209585158282721, 6.515344921209408 ], [ 100.210081770589383, 6.515864861256368 ], [ 100.210605090768098, 6.516358265439415 ], [ 100.211153684434635, 6.516823781452129 ], [ 100.211726047931919, 6.517260133426833 ], [ 100.212320612451364, 6.517666125430666 ], [ 100.212935748332939, 6.518040644742745 ], [ 100.213569769531986, 6.518382664903267 ], [ 100.214220938240445, 6.518691248526117 ], [ 100.214887469650137, 6.518965549867479 ], [ 100.215567536844802, 6.519204817143271 ], [ 100.216259275807559, 6.519408394589081 ], [ 100.216960790529967, 6.519575724257071 ], [ 100.217670158208946, 6.519706347544728 ], [ 100.218385434516975, 6.519799906451502 ], [ 100.219104658931442, 6.519856144559752 ], [ 100.219825860108202, 6.519874907737277 ], [ 100.220547061284961, 6.519856144559752 ], [ 100.221266285699429, 6.519799906451502 ], [ 100.221981562007457, 6.519706347544728 ], [ 100.222690929686422, 6.519575724257071 ], [ 100.223392444408844, 6.519408394589081 ], [ 100.224084183371588, 6.519204817143271 ], [ 100.224764250566267, 6.518965549867479 ], [ 100.225430781975959, 6.518691248526117 ], [ 100.226081950684403, 6.518382664903267 ], [ 100.226715971883436, 6.518040644742745 ], [ 100.227331107765039, 6.517666125430666 ], [ 100.227925672284471, 6.517260133426833 ], [ 100.228498035781755, 6.516823781452129 ], [ 100.229046629448291, 6.516358265439415 ], [ 100.22956994962702, 6.515864861256368 ], [ 100.230066561933668, 6.515344921209408 ], [ 100.230535105188437, 6.514799870337856 ], [ 100.230974295146822, 6.51423120250901 ], [ 100.231382928019713, 6.513640476324328 ], [ 100.231759883772767, 6.5130293108483 ], [ 100.232104129196458, 6.51239938117155 ], [ 100.232414720738049, 6.511752413820261 ], [ 100.232690807087693, 6.51109018202467 ], [ 100.232931631511903, 6.510414500859412 ], [ 100.233136533927663, 6.509727222269175 ], [ 100.233304952711691, 6.509030229993195 ], [ 100.233436426239805, 6.508325434402519 ], [ 100.233530594152214, 6.507614767264208 ], [ 100.233587198341226, 6.506900176446839 ], [ 100.233606083658685, 6.506183620581736 ] ] ] } },
{ "type": "Feature", "properties": { "state": "Perlis", "parlimen": "P.002 Kangar", "code_parlimen": "P.002", "dun": "N.06 Bintong", "code_dun": "N.06" }, "geometry": { "type": "Polygon", "coordinates": [ [ [ 100.190405757807426, 6.492175491440064 ], [ 100.190386872489967, 6.491458914595971 ], [ 100.190330268300968, 6.490744300823675 ], [ 100.19023610038856, 6.490033608842444 ], [ 100.190104626860432, 6.48932878663045 ], [ 100.189936208076389, 6.48863176608514 ], [ 100.189731305660644, 6.487944457727813 ], [ 100.189490481236433, 6.487268745466563 ], [ 100.18921439488679, 6.486606481432171 ], [ 100.188903803345184, 6.485959480900954 ], [ 100.188559557921494, 6.485329517318625 ], [ 100.188182602168453, 6.484718317438716 ], [ 100.187773969295563, 6.484127556588927 ], [ 100.187334779337178, 6.483558854078396 ], [ 100.186866236082409, 6.483013768758421 ], [ 100.186369623775747, 6.482493794749016 ], [ 100.185846303597032, 6.482000357342607 ], [ 100.185297709930495, 6.481534809096726 ], [ 100.184725346433211, 6.481098426125699 ], [ 100.184130781913765, 6.480692404602119 ], [ 100.183515646032191, 6.480317857477401 ], [ 100.182881624833144, 6.479975811430382 ], [ 100.182230456124685, 6.479667204052504 ], [ 100.181563924715022, 6.479392881277269 ], [ 100.180883857520328, 6.479153595060803 ], [ 100.180192118557585, 6.478950001320274 ], [ 100.179490603835163, 6.478782658135511 ], [ 100.178781236156198, 6.478652024218796 ], [ 100.178065959848155, 6.478558457657254 ], [ 100.177346735433701, 6.478502214930992 ], [ 100.176625534256928, 6.478483450209918 ], [ 100.175904333080169, 6.478502214930992 ], [ 100.175185108665715, 6.478558457657254 ], [ 100.174469832357673, 6.478652024218796 ], [ 100.173760464678708, 6.478782658135511 ], [ 100.173058949956285, 6.478950001320274 ], [ 100.172367210993542, 6.479153595060803 ], [ 100.171687143798863, 6.479392881277269 ], [ 100.171020612389185, 6.479667204052504 ], [ 100.170369443680741, 6.479975811430382 ], [ 100.169735422481693, 6.480317857477401 ], [ 100.169120286600105, 6.480692404602119 ], [ 100.168525722080659, 6.481098426125699 ], [ 100.167953358583375, 6.481534809096726 ], [ 100.167404764916839, 6.482000357342607 ], [ 100.166881444738124, 6.482493794749016 ], [ 100.166384832431461, 6.483013768758421 ], [ 100.165916289176693, 6.483558854078396 ], [ 100.165477099218307, 6.484127556588927 ], [ 100.165068466345431, 6.484718317438716 ], [ 100.164691510592391, 6.485329517318625 ], [ 100.164347265168672, 6.485959480900954 ], [ 100.164036673627095, 6.486606481432171 ], [ 100.163760587277437, 6.487268745466563 ], [ 100.163519762853227, 6.487944457727813 ], [ 100.163314860437467, 6.48863176608514 ], [ 100.163146441653439, 6.48932878663045 ], [ 100.163014968125324, 6.490033608842444 ], [ 100.162920800212916, 6.490744300823675 ], [ 100.162864196023904, 6.491458914595971 ], [ 100.162845310706444, 6.492175491440064 ], [ 100.162864196023904, 6.492892067264292 ], [ 100.162920800212916, 6.493606677988231 ], [ 100.163014968125324, 6.494317364925979 ], [ 100.163146441653439, 6.495022180154645 ], [ 100.163314860437467, 6.495719191853269 ], [ 100.163519762853227, 6.496406489597479 ], [ 100.163760587277437, 6.497082189595477 ], [ 100.164036673627095, 6.497744439850829 ], [ 100.164347265168672, 6.498391425238191 ], [ 100.164691510592391, 6.499021372477761 ], [ 100.165068466345431, 6.49963255499506 ], [ 100.165477099218307, 6.500223297652624 ], [ 100.165916289176693, 6.500791981340631 ], [ 100.166384832431461, 6.501337047414014 ], [ 100.166881444738124, 6.501857001963629 ], [ 100.167404764916839, 6.50235041991022 ], [ 100.167953358583375, 6.502815948909522 ], [ 100.168525722080659, 6.503252313058027 ], [ 100.169120286600105, 6.50365831638938 ], [ 100.169735422481693, 6.504032846151502 ], [ 100.170369443680741, 6.504374875855762 ], [ 100.171020612389185, 6.504683468089786 ], [ 100.171687143798863, 6.504957777085992 ], [ 100.172367210993542, 6.505197051039193 ], [ 100.173058949956285, 6.505400634166594 ], [ 100.173760464678708, 6.505567968504669 ], [ 100.174469832357673, 6.505698595438043 ], [ 100.175185108665715, 6.505792156956104 ], [ 100.175904333080169, 6.505848396634007 ], [ 100.176625534256928, 6.505867160335243 ], [ 100.177346735433701, 6.505848396634007 ], [ 100.178065959848155, 6.505792156956104 ], [ 100.178781236156198, 6.505698595438043 ], [ 100.179490603835163, 6.505567968504669 ], [ 100.180192118557585, 6.505400634166594 ], [ 100.180883857520328, 6.505197051039193 ], [ 100.181563924715022, 6.504957777085992 ], [ 100.182230456124685, 6.504683468089786 ], [ 100.182881624833144, 6.504374875855762 ], [ 100.183515646032191, 6.504032846151502 ], [ 100.184130781913765, 6.50365831638938 ], [ 100.184725346433211, 6.503252313058027 ], [ 100.185297709930495, 6.502815948909522 ], [ 100.185846303597032, 6.50235041991022 ], [ 100.186369623775747, 6.501857001963629 ], [ 100.186866236082409, 6.501337047414014 ], [ 100.187334779337178, 6.500791981340631 ], [ 100.187773969295563, 6.500223297652624 ], [ 100.188182602168453, 6.49963255499506 ], [ 100.188559557921494, 6.499021372477761 ], [ 100.188903803345184, 6.498391425238191 ], [ 100.18921439488679, 6.497744439850829 ], [ 100.189490481236433, 6.497082189595477 ], [ 100.189731305660644, 6.496406489597479 ], [ 100.189936208076389, 6.495719191853269 ], [ 100.190104626860432, 6.495022180154645 ], [ 100.19023610038856, 6.494317364925979 ], [ 100.190330268300968, 6.493606677988231 ], [ 100.190386872489967, 6.492892067264292 ], [ 100.190405757807426, 6.492175491440064 ] ] ] } },
{ "type": "Feature", "properties": { "state": "Perlis", "parlimen": "P.002 Kangar", "code_parlimen": "P.002", "dun": "N.07 Sena", "code_dun": "N.07" }, "geometry": { "type": "Polygon", "coordinates": [ [ [ 100.235736014493654, 6.442105190850669 ], [ 100.235717129176209, 6.441388543023084 ], [ 100.23566052498721, 6.44067385846954 ], [ 100.235566357074788, 6.439963096103258 ], [ 100.23543488354666, 6.439258204095124 ], [ 100.235266464762631, 6.438561114533711 ], [ 100.235061562346871, 6.437873738129193 ], [ 100.234820737922661, 6.437197958975853 ], [ 100.234544651573032, 6.436535629387429 ], [ 100.234234060031426, 6.43588856481951 ], [ 100.233889814607736, 6.435258538892839 ], [ 100.233512858854695, 6.434647278531323 ], [ 100.233104225981805, 6.434056459227901 ], [ 100.232665036023405, 6.433487700451348 ], [ 100.232196492768651, 6.43294256120662 ], [ 100.231699880461989, 6.432422535760903 ], [ 100.231176560283274, 6.431929049547051 ], [ 100.230627966616737, 6.43146345525572 ], [ 100.230055603119453, 6.431027029126855 ], [ 100.229461038600007, 6.430620967450783 ], [ 100.228845902718433, 6.430246383288365 ], [ 100.228211881519385, 6.42990430341943 ], [ 100.227560712810927, 6.429595665527653 ], [ 100.226894181401249, 6.42932131562964 ], [ 100.22621411420657, 6.429082005755471 ], [ 100.225522375243813, 6.428878391886776 ], [ 100.22482086052139, 6.428711032158206 ], [ 100.224111492842439, 6.428580385327103 ], [ 100.223396216534397, 6.428486809515795 ], [ 100.222676992119929, 6.428430561229581 ], [ 100.22195579094317, 6.428411794653492 ], [ 100.221234589766411, 6.428430561229581 ], [ 100.220515365351957, 6.428486809515795 ], [ 100.219800089043915, 6.428580385327103 ], [ 100.21909072136495, 6.428711032158206 ], [ 100.218389206642527, 6.428878391886776 ], [ 100.217697467679784, 6.429082005755471 ], [ 100.217017400485105, 6.42932131562964 ], [ 100.216350869075413, 6.429595665527653 ], [ 100.215699700366969, 6.42990430341943 ], [ 100.215065679167921, 6.430246383288365 ], [ 100.214450543286347, 6.430620967450783 ], [ 100.213855978766901, 6.431027029126855 ], [ 100.213283615269617, 6.43146345525572 ], [ 100.212735021603081, 6.431929049547051 ], [ 100.212211701424351, 6.432422535760903 ], [ 100.211715089117703, 6.43294256120662 ], [ 100.211246545862934, 6.433487700451348 ], [ 100.210807355904549, 6.434056459227901 ], [ 100.210398723031659, 6.434647278531323 ], [ 100.210021767278619, 6.435258538892839 ], [ 100.209677521854914, 6.43588856481951 ], [ 100.209366930313323, 6.436535629387429 ], [ 100.209090843963679, 6.437197958975853 ], [ 100.208850019539469, 6.437873738129193 ], [ 100.208645117123709, 6.438561114533711 ], [ 100.20847669833968, 6.439258204095124 ], [ 100.208345224811566, 6.439963096103258 ], [ 100.208251056899144, 6.44067385846954 ], [ 100.208194452710131, 6.441388543023084 ], [ 100.208175567392686, 6.442105190850669 ], [ 100.208194452710131, 6.442821837666138 ], [ 100.208251056899144, 6.443536519194439 ], [ 100.208345224811566, 6.444247276555482 ], [ 100.20847669833968, 6.444952161633227 ], [ 100.208645117123709, 6.44564924241501 ], [ 100.208850019539469, 6.446336608286881 ], [ 100.209090843963679, 6.447012375269942 ], [ 100.209366930313323, 6.447674691183787 ], [ 100.209677521854914, 6.448321740722657 ], [ 100.210021767278619, 6.448951750430472 ], [ 100.210398723031659, 6.449562993561027 ], [ 100.210807355904549, 6.450153794810145 ], [ 100.211246545862934, 6.45072253490688 ], [ 100.211715089117703, 6.451267655050926 ], [ 100.212211701424351, 6.45178766118438 ], [ 100.212735021603081, 6.452281128085967 ], [ 100.213283615269617, 6.452746703276617 ], [ 100.213855978766901, 6.453183110725664 ], [ 100.214450543286347, 6.453589154347445 ], [ 100.215065679167921, 6.45396372127889 ], [ 100.215699700366969, 6.454305784928955 ], [ 100.216350869075413, 6.454614407791707 ], [ 100.217017400485105, 6.454888744015142 ], [ 100.217697467679784, 6.45512804171902 ], [ 100.218389206642527, 6.455331645055067 ], [ 100.21909072136495, 6.455498996004021 ], [ 100.219800089043915, 6.455629635904721 ], [ 100.220515365351957, 6.45572320671079 ], [ 100.221234589766411, 6.455779451971763 ], [ 100.22195579094317, 6.455798217535735 ], [ 100.222676992119929, 6.455779451971763 ], [ 100.223396216534397, 6.45572320671079 ], [ 100.224111492842439, 6.455629635904721 ], [ 100.22482086052139, 6.455498996004021 ], [ 100.225522375243813, 6.455331645055067 ], [ 100.22621411420657, 6.45512804171902 ], [ 100.226894181401249, 6.454888744015142 ], [ 100.227560712810927, 6.454614407791707 ], [ 100.228211881519385, 6.454305784928955 ], [ 100.228845902718433, 6.45396372127889 ], [ 100.229461038600007, 6.453589154347445 ], [ 100.230055603119453, 6.453183110725664 ], [ 100.230627966616737, 6.452746703276617 ], [ 100.231176560283274, 6.452281128085967 ], [ 100.231699880461989, 6.45178766118438 ], [ 100.232196492768651, 6.451267655050926 ], [ 100.232665036023405, 6.45072253490688 ], [ 100.233104225981805, 6.450153794810145 ], [ 100.233512858854695, 6.449562993561027 ], [ 100.233889814607736, 6.448951750430472 ], [ 100.234234060031426, 6.448321740722657 ], [ 100.234544651573032, 6.447674691183787 ], [ 100.234820737922661, 6.447012375269942 ], [ 100.235061562346871, 6.446336608286881 ], [ 100.235266464762631, 6.44564924241501 ], [ 100.23543488354666, 6.444952161633227 ], [ 100.235566357074788, 6.444247276555482 ], [ 100.23566052498721, 6.443536519194439 ], [ 100.235717129176209, 6.442821837666138 ], [ 100.235736014493654, 6.442105190850669 ] ] ] } },
{ "type": "Feature", "properties": { "state": "Perlis", "parlimen": "P.002 Kangar", "code_parlimen": "P.002", "dun": "N.08 Indera Kayangan", "code_dun": "N.08" }, "geometry": { "type": "Polygon", "coordinates": [ [ [ 100.212636820804192, 6.423547556520774 ], [ 100.212617935486733, 6.422830882523471 ], [ 100.212561331297721, 6.422116171874799 ], [ 100.212467163385313, 6.42140538355944 ], [ 100.212335689857198, 6.420700465819397 ], [ 100.212167271073142, 6.420003350813649 ], [ 100.211962368657396, 6.419315949322034 ], [ 100.2117215442332, 6.418640145507462 ], [ 100.211445457883542, 6.417977791751136 ], [ 100.211134866341965, 6.417330703574697 ], [ 100.210790620918246, 6.416700654663442 ], [ 100.210413665165206, 6.416089372004114 ], [ 100.210005032292315, 6.415498531150538 ], [ 100.209565842333944, 6.414929751630344 ], [ 100.209097299079161, 6.414384592505153 ], [ 100.208600686772513, 6.413864548096395 ], [ 100.208077366593784, 6.413371043888682 ], [ 100.207528772927247, 6.412905432621777 ], [ 100.206956409429964, 6.41246899058192 ], [ 100.206361844910518, 6.412062914102822 ], [ 100.205746709028944, 6.411688316285735 ], [ 100.205112687829896, 6.411346223947702 ], [ 100.204461519121452, 6.411037574806367 ], [ 100.203794987711774, 6.410763214909021 ], [ 100.203114920517095, 6.410523896312982 ], [ 100.202423181554337, 6.410320275023659 ], [ 100.201721666831929, 6.410152909195879 ], [ 100.20101229915295, 6.410022257603651 ], [ 100.200297022844907, 6.409928678382229 ], [ 100.199577798430468, 6.409872428046236 ], [ 100.198856597253695, 6.409853660786277 ], [ 100.198135396076935, 6.409872428046236 ], [ 100.197416171662468, 6.409928678382229 ], [ 100.196700895354425, 6.410022257603651 ], [ 100.19599152767546, 6.410152909195879 ], [ 100.195290012953052, 6.410320275023659 ], [ 100.194598273990295, 6.410523896312982 ], [ 100.193918206795615, 6.410763214909021 ], [ 100.193251675385937, 6.411037574806367 ], [ 100.192600506677493, 6.411346223947702 ], [ 100.191966485478446, 6.411688316285735 ], [ 100.191351349596857, 6.412062914102822 ], [ 100.190756785077426, 6.41246899058192 ], [ 100.190184421580142, 6.412905432621777 ], [ 100.189635827913591, 6.413371043888682 ], [ 100.18911250773489, 6.413864548096395 ], [ 100.188615895428228, 6.414384592505153 ], [ 100.188147352173459, 6.414929751630344 ], [ 100.187708162215074, 6.415498531150538 ], [ 100.187299529342184, 6.416089372004114 ], [ 100.186922573589143, 6.416700654663442 ], [ 100.186578328165439, 6.417330703574697 ], [ 100.186267736623847, 6.417977791751136 ], [ 100.18599165027419, 6.418640145507462 ], [ 100.185750825849993, 6.419315949322034 ], [ 100.185545923434233, 6.420003350813649 ], [ 100.185377504650205, 6.420700465819397 ], [ 100.185246031122077, 6.42140538355944 ], [ 100.185151863209668, 6.422116171874799 ], [ 100.185095259020656, 6.422830882523471 ], [ 100.185076373703211, 6.423547556520774 ], [ 100.185095259020656, 6.424264229508823 ], [ 100.185151863209668, 6.424978937140816 ], [ 100.185246031122077, 6.425689720465095 ], [ 100.185377504650205, 6.426394631294391 ], [ 100.185545923434233, 6.42709173754537 ], [ 100.185750825849993, 6.427779128534183 ], [ 100.18599165027419, 6.428454920212928 ], [ 100.186267736623847, 6.429117260333415 ], [ 100.186578328165439, 6.429764333523374 ], [ 100.186922573589143, 6.430394366261698 ], [ 100.187299529342184, 6.431005631738856 ], [ 100.187708162215074, 6.431596454589271 ], [ 100.188147352173459, 6.432165215482547 ], [ 100.188615895428228, 6.432710355561165 ], [ 100.18911250773489, 6.433230380712337 ], [ 100.189635827913591, 6.433723865662479 ], [ 100.190184421580142, 6.434189457882811 ], [ 100.190756785077426, 6.434625881295762 ], [ 100.191351349596857, 6.435031939771687 ], [ 100.191966485478446, 6.435406520406603 ], [ 100.192600506677493, 6.435748596571718 ], [ 100.193251675385937, 6.436057230726572 ], [ 100.193918206795615, 6.436331576988066 ], [ 100.194598273990295, 6.436570883448291 ], [ 100.195290012953052, 6.4367744942348 ], [ 100.19599152767546, 6.436941851307823 ], [ 100.196700895354425, 6.437072495989291 ], [ 100.197416171662468, 6.437166070219634 ], [ 100.198135396076935, 6.437222317538961 ], [ 100.198856597253695, 6.437241083789678 ], [ 100.199577798430468, 6.437222317538961 ], [ 100.200297022844907, 6.437166070219634 ], [ 100.20101229915295, 6.437072495989291 ], [ 100.201721666831929, 6.436941851307823 ], [ 100.202423181554337, 6.4367744942348 ], [ 100.203114920517095, 6.436570883448291 ], [ 100.203794987711774, 6.436331576988066 ], [ 100.204461519121452, 6.436057230726572 ], [ 100.205112687829896, 6.435748596571718 ], [ 100.205746709028944, 6.435406520406603 ], [ 100.206361844910518, 6.435031939771687 ], [ 100.206956409429964, 6.434625881295762 ], [ 100.207528772927247, 6.434189457882811 ], [ 100.208077366593784, 6.433723865662479 ], [ 100.208600686772513, 6.433230380712337 ], [ 100.209097299079161, 6.432710355561165 ], [ 100.209565842333944, 6.432165215482547 ], [ 100.210005032292315, 6.431596454589271 ], [ 100.210413665165206, 6.431005631738856 ], [ 100.210790620918246, 6.430394366261698 ], [ 100.211134866341965, 6.429764333523374 ], [ 100.211445457883542, 6.429117260333415 ], [ 100.2117215442332, 6.428454920212928 ], [ 100.211962368657396, 6.427779128534183 ], [ 100.212167271073142, 6.42709173754537 ], [ 100.212335689857198, 6.426394631294391 ], [ 100.212467163385313, 6.425689720465095 ], [ 100.212561331297721, 6.424978937140816 ], [ 100.212617935486733, 6.424264229508823 ], [ 100.212636820804192, 6.423547556520774 ] ] ] } },
{ "type": "Feature", "properties": { "state": "Perlis", "parlimen": "P.002 Kangar", "code_parlimen": "P.002", "dun": "N.09 Kuala Perlis", "code_dun": "N.09" }, "geometry": { "type": "Polygon", "coordinates": [ [ [ 100.155042529207577, 6.410734149408551 ], [ 100.155023643890118, 6.410017457385848 ], [ 100.15496703970112, 6.409302728763124 ], [ 100.154872871788697, 6.408591922574371 ], [ 100.154741398260583, 6.407886987110471 ], [ 100.154572979476555, 6.407189854578975 ], [ 100.154368077060795, 6.406502435807662 ], [ 100.154127252636584, 6.405826615006727 ], [ 100.153851166286927, 6.405164244603848 ], [ 100.15354057474535, 6.404517140166162 ], [ 100.153196329321645, 6.403887075423442 ], [ 100.15281937356859, 6.403275777405647 ], [ 100.152410740695714, 6.402684921708613 ], [ 100.151971550737329, 6.40211612790049 ], [ 100.15150300748256, 6.401570955081878 ], [ 100.151006395175898, 6.401050897611639 ], [ 100.150483074997197, 6.400557381010016 ], [ 100.149934481330646, 6.400091758050553 ], [ 100.149362117833363, 6.399655305051421 ], [ 100.148767553313931, 6.399249218376227 ], [ 100.148152417432328, 6.398874611153985 ], [ 100.147518396233281, 6.398532510227413 ], [ 100.146867227524837, 6.398223853337559 ], [ 100.146200696115159, 6.397949486552811 ], [ 100.14552062892048, 6.397710161949277 ], [ 100.144828889957736, 6.397506535548713 ], [ 100.144127375235314, 6.397339165519904 ], [ 100.143418007556349, 6.397208510648283 ], [ 100.14270273124832, 6.397114929078033 ], [ 100.141983506833853, 6.397058677330166 ], [ 100.141262305657094, 6.397039909599155 ], [ 100.14054110448032, 6.397058677330166 ], [ 100.139821880065867, 6.397114929078033 ], [ 100.139106603757838, 6.397208510648283 ], [ 100.138397236078859, 6.397339165519904 ], [ 100.137695721356437, 6.397506535548713 ], [ 100.137003982393693, 6.397710161949277 ], [ 100.136323915199014, 6.397949486552811 ], [ 100.135657383789336, 6.398223853337559 ], [ 100.135006215080878, 6.398532510227413 ], [ 100.134372193881831, 6.398874611153985 ], [ 100.133757058000256, 6.399249218376227 ], [ 100.13316249348081, 6.399655305051421 ], [ 100.132590129983541, 6.400091758050553 ], [ 100.13204153631699, 6.400557381010016 ], [ 100.131518216138275, 6.401050897611639 ], [ 100.131021603831613, 6.401570955081878 ], [ 100.130553060576844, 6.40211612790049 ], [ 100.130113870618459, 6.402684921708613 ], [ 100.129705237745569, 6.403275777405647 ], [ 100.129328281992528, 6.403887075423442 ], [ 100.128984036568824, 6.404517140166162 ], [ 100.128673445027232, 6.405164244603848 ], [ 100.128397358677589, 6.405826615006727 ], [ 100.128156534253378, 6.406502435807662 ], [ 100.127951631837632, 6.407189854578975 ], [ 100.12778321305359, 6.407886987110471 ], [ 100.127651739525476, 6.408591922574371 ], [ 100.127557571613053, 6.409302728763124 ], [ 100.127500967424055, 6.410017457385848 ], [ 100.127482082106596, 6.410734149408551 ], [ 100.127500967424055, 6.411450840423984 ], [ 100.127557571613053, 6.412165566035932 ], [ 100.127651739525476, 6.412876367243414 ], [ 100.12778321305359, 6.413581295810104 ], [ 100.127951631837632, 6.414278419604018 ], [ 100.128156534253378, 6.414965827893101 ], [ 100.128397358677589, 6.415641636582025 ], [ 100.128673445027232, 6.416303993375807 ], [ 100.128984036568824, 6.416951082856401 ], [ 100.129328281992528, 6.41758113145792 ], [ 100.129705237745569, 6.418192412327232 ], [ 100.130113870618459, 6.418783250056422 ], [ 100.130553060576844, 6.419352025274179 ], [ 100.131021603831613, 6.419897179083543 ], [ 100.131518216138275, 6.420417217333983 ], [ 100.13204153631699, 6.420910714715819 ], [ 100.132590129983541, 6.421376318666062 ], [ 100.13316249348081, 6.421812753074802 ], [ 100.133757058000256, 6.422218821782151 ], [ 100.134372193881831, 6.422593411855923 ], [ 100.135006215080878, 6.422935496641283 ], [ 100.135657383789336, 6.423244138574068 ], [ 100.136323915199014, 6.423518491749706 ], [ 100.137003982393693, 6.423757804241218 ], [ 100.137695721356437, 6.423961420159564 ], [ 100.138397236078859, 6.424128781450792 ], [ 100.139106603757838, 6.424259429425202 ], [ 100.139821880065867, 6.424353006014168 ], [ 100.14054110448032, 6.424409254751271 ], [ 100.141262305657094, 6.424428021475014 ], [ 100.141983506833853, 6.424409254751271 ], [ 100.14270273124832, 6.424353006014168 ], [ 100.143418007556349, 6.424259429425202 ], [ 100.144127375235314, 6.424128781450792 ], [ 100.144828889957736, 6.423961420159564 ], [ 100.14552062892048, 6.423757804241218 ], [ 100.146200696115159, 6.423518491749706 ], [ 100.146867227524837, 6.423244138574068 ], [ 100.147518396233281, 6.422935496641283 ], [ 100.148152417432328, 6.422593411855923 ], [ 100.148767553313931, 6.422218821782151 ], [ 100.149362117833363, 6.421812753074802 ], [ 100.149934481330646, 6.421376318666062 ], [ 100.150483074997197, 6.420910714715819 ], [ 100.151006395175898, 6.420417217333983 ], [ 100.15150300748256, 6.419897179083543 ], [ 100.151971550737329, 6.419352025274179 ], [ 100.152410740695714, 6.418783250056422 ], [ 100.15281937356859, 6.418192412327232 ], [ 100.153196329321645, 6.41758113145792 ], [ 100.15354057474535, 6.416951082856401 ], [ 100.153851166286927, 6.416303993375807 ], [ 100.154127252636584, 6.415641636582025 ], [ 100.154368077060795, 6.414965827893101 ], [ 100.154572979476555, 6.414278419604018 ], [ 100.154741398260583, 6.413581295810104 ], [ 100.154872871788697, 6.412876367243414 ], [ 100.15496703970112, 6.412165566035932 ], [ 100.155023643890118, 6.411450840423984 ], [ 100.155042529207577, 6.410734149408551 ] ] ] } },
{ "type": "Feature", "properties": { "state": "Perlis", "parlimen": "P.002 Kangar", "code_parlimen": "P.002", "dun": "N.10 Kayang", "code_dun": "N.10" }, "geometry": { "type": "Polygon", "coordinates": [ [ [ 100.189898946642259, 6.404745831320946 ], [ 100.189880061324814, 6.404029130886388 ], [ 100.189823457135802, 6.403314393875804 ], [ 100.189729289223393, 6.402603579346136 ], [ 100.189597815695265, 6.401898635611126 ], [ 100.189429396911237, 6.401201494900961 ], [ 100.189224494495477, 6.400514068065823 ], [ 100.188983670071266, 6.39983823933794 ], [ 100.188707583721637, 6.399175861166671 ], [ 100.188396992180031, 6.398528749140436 ], [ 100.188052746756341, 6.397898677009707 ], [ 100.187675791003301, 6.397287371824673 ], [ 100.18726715813041, 6.396696509200696 ], [ 100.186827968172011, 6.396127708724882 ], [ 100.186359424917256, 6.395582529516053 ], [ 100.185862812610594, 6.395062465950472 ], [ 100.185339492431879, 6.394568943565036 ], [ 100.184790898765343, 6.394103315149077 ], [ 100.184218535268059, 6.393666857035638 ], [ 100.183623970748613, 6.39326076560227 ], [ 100.183008834867024, 6.392886153990979 ], [ 100.182374813667991, 6.392544049056435 ], [ 100.181723644959533, 6.39223538855061 ], [ 100.181057113549855, 6.391961018551771 ], [ 100.180377046355176, 6.391721691144756 ], [ 100.179685307392418, 6.391518062358954 ], [ 100.178983792669996, 6.391350690369677 ], [ 100.178274424991045, 6.391220033967661 ], [ 100.177559148683002, 6.391126451301305 ], [ 100.176839924268535, 6.391070198894579 ], [ 100.176118723091776, 6.39105143094374 ], [ 100.175397521915016, 6.391070198894579 ], [ 100.174678297500563, 6.391126451301305 ], [ 100.17396302119252, 6.391220033967661 ], [ 100.173253653513555, 6.391350690369677 ], [ 100.172552138791133, 6.391518062358954 ], [ 100.17186039982839, 6.391721691144756 ], [ 100.17118033263371, 6.391961018551771 ], [ 100.170513801224018, 6.39223538855061 ], [ 100.169862632515574, 6.392544049056435 ], [ 100.169228611316527, 6.392886153990979 ], [ 100.168613475434952, 6.39326076560227 ], [ 100.168018910915507, 6.393666857035638 ], [ 100.167446547418223, 6.394103315149077 ], [ 100.166897953751686, 6.394568943565036 ], [ 100.166374633572957, 6.395062465950472 ], [ 100.165878021266309, 6.395582529516053 ], [ 100.16540947801154, 6.396127708724882 ], [ 100.164970288053155, 6.396696509200696 ], [ 100.164561655180265, 6.397287371824673 ], [ 100.164184699427224, 6.397898677009707 ], [ 100.16384045400352, 6.398528749140436 ], [ 100.163529862461928, 6.399175861166671 ], [ 100.163253776112285, 6.39983823933794 ], [ 100.163012951688074, 6.400514068065823 ], [ 100.162808049272314, 6.401201494900961 ], [ 100.162639630488286, 6.401898635611126 ], [ 100.162508156960172, 6.402603579346136 ], [ 100.162413989047749, 6.403314393875804 ], [ 100.162357384858737, 6.404029130886388 ], [ 100.162338499541292, 6.404745831320946 ], [ 100.162357384858737, 6.405462530749163 ], [ 100.162413989047749, 6.406177264751731 ], [ 100.162508156960172, 6.406888074304709 ], [ 100.162639630488286, 6.407593011148844 ], [ 100.162808049272314, 6.408290143129442 ], [ 100.163012951688074, 6.408977559492007 ], [ 100.163253776112285, 6.409653376118985 ], [ 100.163529862461928, 6.41031574069365 ], [ 100.16384045400352, 6.410962837776546 ], [ 100.164184699427224, 6.411592893780882 ], [ 100.164561655180265, 6.41220418183321 ], [ 100.164970288053155, 6.412795026505831 ], [ 100.16540947801154, 6.413363808408337 ], [ 100.165878021266309, 6.4139089686254 ], [ 100.166374633572957, 6.41442901298884 ], [ 100.166897953751686, 6.414922516172123 ], [ 100.167446547418223, 6.415388125596329 ], [ 100.168018910915507, 6.415824565136448 ], [ 100.168613475434952, 6.416230638618472 ], [ 100.169228611316527, 6.416605233097032 ], [ 100.169862632515574, 6.416947321905195 ], [ 100.170513801224018, 6.417255967467681 ], [ 100.17118033263371, 6.417530323869916 ], [ 100.17186039982839, 6.417769639176052 ], [ 100.172552138791133, 6.417973257489255 ], [ 100.173253653513555, 6.418140620748979 ], [ 100.17396302119252, 6.418271270260118 ], [ 100.174678297500563, 6.418364847949773 ], [ 100.175397521915016, 6.418421097348495 ], [ 100.176118723091776, 6.418439864292993 ], [ 100.176839924268535, 6.418421097348495 ], [ 100.177559148683002, 6.418364847949773 ], [ 100.178274424991045, 6.418271270260118 ], [ 100.178983792669996, 6.418140620748979 ], [ 100.179685307392418, 6.417973257489255 ], [ 100.180377046355176, 6.417769639176052 ], [ 100.181057113549855, 6.417530323869916 ], [ 100.181723644959533, 6.417255967467681 ], [ 100.182374813667991, 6.416947321905195 ], [ 100.183008834867024, 6.416605233097032 ], [ 100.183623970748613, 6.416230638618472 ], [ 100.184218535268059, 6.415824565136448 ], [ 100.184790898765343, 6.415388125596329 ], [ 100.185339492431879, 6.414922516172123 ], [ 100.185862812610594, 6.41442901298884 ], [ 100.186359424917256, 6.4139089686254 ], [ 100.186827968172011, 6.413363808408337 ], [ 100.18726715813041, 6.412795026505831 ], [ 100.187675791003301, 6.41220418183321 ], [ 100.188052746756341, 6.411592893780882 ], [ 100.188396992180031, 6.410962837776546 ], [ 100.188707583721637, 6.41031574069365 ], [ 100.188983670071266, 6.409653376118985 ], [ 100.189224494495477, 6.408977559492007 ], [ 100.189429396911237, 6.408290143129442 ], [ 100.189597815695265, 6.407593011148844 ], [ 100.189729289223393, 6.406888074304709 ], [ 100.189823457135802, 6.406177264751731 ], [ 100.189880061324814, 6.405462530749163 ], [ 100.189898946642259, 6.404745831320946 ] ] ] } },
{ "type": "Feature", "properties": { "state": "Perlis", "parlimen": "P.003 Arau", "code_parlimen": "P.003", "dun": "N.11 Pauh", "code_dun": "N.11" }, "geometry": { "type": "Polygon", "coordinates": [ [ [ 100.329325938158178, 6.448010467704192 ], [ 100.329307052840718, 6.447293828219914 ], [ 100.32925044865172, 6.4465791519859 ], [ 100.329156280739298, 6.445868397892572 ], [ 100.329024807211184, 6.445163514088182 ], [ 100.328856388427141, 6.444466432638812 ], [ 100.328651486011395, 6.443779064232459 ], [ 100.328410661587185, 6.443103292941514 ], [ 100.328134575237542, 6.442440971058201 ], [ 100.32782398369595, 6.441793914017039 ], [ 100.327479738272245, 6.441163895418213 ], [ 100.327102782519191, 6.440552642165606 ], [ 100.326694149646315, 6.439961829732717 ], [ 100.32625495968793, 6.439393077569567 ], [ 100.325786416433161, 6.438847944663062 ], [ 100.325289804126498, 6.43832792526307 ], [ 100.324766483947784, 6.437834444785945 ], [ 100.324217890281233, 6.437368855906711 ], [ 100.323645526783963, 6.436932434850525 ], [ 100.323050962264517, 6.4365263778939 ], [ 100.322435826382943, 6.436151798084821 ], [ 100.321801805183895, 6.435809722191249 ], [ 100.321150636475437, 6.435501087886006 ], [ 100.320484105065759, 6.435226741175939 ], [ 100.31980403787108, 6.434987434082453 ], [ 100.319112298908337, 6.434783822579582 ], [ 100.318410784185915, 6.434616464795526 ], [ 100.317701416506949, 6.434485819482362 ], [ 100.316986140198907, 6.434392244758245 ], [ 100.316266915784453, 6.434335997125544 ], [ 100.31554571460768, 6.434317230767476 ], [ 100.314824513430921, 6.434335997125544 ], [ 100.314105289016467, 6.434392244758245 ], [ 100.313390012708425, 6.434485819482362 ], [ 100.312680645029459, 6.434616464795526 ], [ 100.311979130307037, 6.434783822579582 ], [ 100.311287391344294, 6.434987434082453 ], [ 100.310607324149615, 6.435226741175939 ], [ 100.309940792739937, 6.435501087886006 ], [ 100.309289624031493, 6.435809722191249 ], [ 100.308655602832431, 6.436151798084821 ], [ 100.308040466950857, 6.4365263778939 ], [ 100.307445902431425, 6.436932434850525 ], [ 100.306873538934141, 6.437368855906711 ], [ 100.306324945267576, 6.437834444785945 ], [ 100.305801625088876, 6.43832792526307 ], [ 100.305305012782227, 6.438847944663062 ], [ 100.304836469527444, 6.439393077569567 ], [ 100.304397279569059, 6.439961829732717 ], [ 100.303988646696183, 6.440552642165606 ], [ 100.303611690943129, 6.441163895418213 ], [ 100.303267445519424, 6.441793914017039 ], [ 100.302956853977847, 6.442440971058201 ], [ 100.302680767628189, 6.443103292941514 ], [ 100.302439943203979, 6.443779064232459 ], [ 100.302235040788219, 6.444466432638812 ], [ 100.30206662200419, 6.445163514088182 ], [ 100.301935148476076, 6.445868397892572 ], [ 100.301840980563654, 6.4465791519859 ], [ 100.301784376374655, 6.447293828219914 ], [ 100.301765491057196, 6.448010467704192 ], [ 100.301784376374655, 6.448727106175437 ], [ 100.301840980563654, 6.449441779381474 ], [ 100.301935148476076, 6.450152528465047 ], [ 100.30206662200419, 6.450857405332799 ], [ 100.302235040788219, 6.45155447799464 ], [ 100.302439943203979, 6.452241835858853 ], [ 100.302680767628189, 6.452917594968554 ], [ 100.302956853977847, 6.453579903164961 ], [ 100.303267445519424, 6.454226945163538 ], [ 100.303611690943129, 6.454856947528888 ], [ 100.303988646696183, 6.455468183535 ], [ 100.304397279569059, 6.456058977897315 ], [ 100.304836469527444, 6.456627711363816 ], [ 100.305305012782227, 6.457172825152439 ], [ 100.305801625088876, 6.457692825222749 ], [ 100.306324945267576, 6.458186286370205 ], [ 100.306873538934141, 6.458651856131559 ], [ 100.307445902431425, 6.459088258491083 ], [ 100.308040466950857, 6.459494297377158 ], [ 100.308655602832431, 6.459868859939729 ], [ 100.309289624031493, 6.460210919599827 ], [ 100.309940792739937, 6.460519538862483 ], [ 100.310607324149615, 6.460793871885644 ], [ 100.311287391344294, 6.461033166797886 ], [ 100.311979130307037, 6.461236767758618 ], [ 100.312680645029459, 6.461404116755144 ], [ 100.313390012708425, 6.461534755131671 ], [ 100.314105289016467, 6.461628324846034 ], [ 100.314824513430921, 6.461684569450757 ], [ 100.31554571460768, 6.461703334795792 ], [ 100.316266915784453, 6.461684569450757 ], [ 100.316986140198907, 6.461628324846034 ], [ 100.317701416506949, 6.461534755131671 ], [ 100.318410784185915, 6.461404116755144 ], [ 100.319112298908337, 6.461236767758618 ], [ 100.31980403787108, 6.461033166797886 ], [ 100.320484105065759, 6.460793871885644 ], [ 100.321150636475437, 6.460519538862483 ], [ 100.321801805183895, 6.460210919599827 ], [ 100.322435826382943, 6.459868859939729 ], [ 100.323050962264517, 6.459494297377158 ], [ 100.323645526783963, 6.459088258491083 ], [ 100.324217890281233, 6.458651856131559 ], [ 100.324766483947784, 6.458186286370205 ], [ 100.325289804126498, 6.457692825222749 ], [ 100.325786416433161, 6.457172825152439 ], [ 100.32625495968793, 6.456627711363816 ], [ 100.326694149646315, 6.456058977897315 ], [ 100.327102782519191, 6.455468183535 ], [ 100.327479738272245, 6.454856947528888 ], [ 100.32782398369595, 6.454226945163538 ], [ 100.328134575237542, 6.453579903164961 ], [ 100.328410661587185, 6.452917594968554 ], [ 100.328651486011395, 6.452241835858853 ], [ 100.328856388427141, 6.45155447799464 ], [ 100.329024807211184, 6.450857405332799 ], [ 100.329156280739298, 6.450152528465047 ], [ 100.32925044865172, 6.449441779381474 ], [ 100.329307052840718, 6.448727106175437 ], [ 100.329325938158178, 6.448010467704192 ] ] ] } },
{ "type": "Feature", "properties": { "state": "Perlis", "parlimen": "P.003 Arau", "code_parlimen": "P.003", "dun": "N.12 Tambun Tulang", "code_dun": "N.12" }, "geometry": { "type": "Polygon", "coordinates": [ [ [ 100.253330571164014, 6.407634806357649 ], [ 100.253311685846569, 6.406918109980296 ], [ 100.253255081657557, 6.406203377015339 ], [ 100.253160913745148, 6.40549256650864 ], [ 100.25302944021702, 6.404787626762949 ], [ 100.252861021432977, 6.404090489997512 ], [ 100.252656119017232, 6.403403067051707 ], [ 100.252415294593035, 6.402727242147145 ], [ 100.252139208243378, 6.402064867722721 ], [ 100.251828616701786, 6.401417759356579 ], [ 100.251484371278082, 6.40078769078923 ], [ 100.251107415525041, 6.400176389061089 ], [ 100.250698782652151, 6.399585529778107 ], [ 100.250259592693766, 6.399016732518242 ], [ 100.249791049438997, 6.398471556391535 ], [ 100.249294437132335, 6.397951495765855 ], [ 100.24877111695362, 6.397457976170059 ], [ 100.248222523287083, 6.396992350385868 ], [ 100.247650159789799, 6.396555894739152 ], [ 100.247055595270353, 6.396149805600734 ], [ 100.246440459388779, 6.395775196106381 ], [ 100.245806438189732, 6.395433093104954 ], [ 100.245155269481288, 6.395124434343179 ], [ 100.24448873807161, 6.394850065894542 ], [ 100.243808670876916, 6.394610739839709 ], [ 100.243116931914173, 6.394407112204352 ], [ 100.242415417191765, 6.39423974116064 ], [ 100.241706049512786, 6.394109085496768 ], [ 100.240990773204743, 6.394015503359083 ], [ 100.24027154879029, 6.393959251270132 ], [ 100.239550347613516, 6.393940483425334 ], [ 100.238829146436757, 6.393959251270132 ], [ 100.238109922022304, 6.394015503359083 ], [ 100.237394645714261, 6.394109085496768 ], [ 100.236685278035296, 6.39423974116064 ], [ 100.235983763312888, 6.394407112204352 ], [ 100.23529202435013, 6.394610739839709 ], [ 100.234611957155451, 6.394850065894542 ], [ 100.233945425745773, 6.395124434343179 ], [ 100.233294257037329, 6.395433093104954 ], [ 100.232660235838281, 6.395775196106381 ], [ 100.232045099956693, 6.396149805600734 ], [ 100.231450535437247, 6.396555894739152 ], [ 100.230878171939963, 6.396992350385868 ], [ 100.230329578273427, 6.397457976170059 ], [ 100.229806258094712, 6.397951495765855 ], [ 100.229309645788049, 6.398471556391535 ], [ 100.228841102533295, 6.399016732518242 ], [ 100.228401912574896, 6.399585529778107 ], [ 100.227993279702019, 6.400176389061089 ], [ 100.227616323948979, 6.40078769078923 ], [ 100.22727207852526, 6.401417759356579 ], [ 100.226961486983683, 6.402064867722721 ], [ 100.226685400634025, 6.402727242147145 ], [ 100.226444576209829, 6.403403067051707 ], [ 100.226239673794069, 6.404090489997512 ], [ 100.226071255010027, 6.404787626762949 ], [ 100.225939781481912, 6.40549256650864 ], [ 100.225845613569504, 6.406203377015339 ], [ 100.225789009380492, 6.406918109980296 ], [ 100.225770124063033, 6.407634806357649 ], [ 100.225789009380492, 6.408351501728228 ], [ 100.225845613569504, 6.409066231683846 ], [ 100.225939781481912, 6.409777037211629 ], [ 100.226071255010027, 6.410481970063391 ], [ 100.226239673794069, 6.411179098095394 ], [ 100.226444576209829, 6.411866510563968 ], [ 100.226685400634025, 6.41254232336227 ], [ 100.226961486983683, 6.413204684184072 ], [ 100.22727207852526, 6.413851777600221 ], [ 100.227616323948979, 6.414481830034041 ], [ 100.227993279702019, 6.415093114621867 ], [ 100.228401912574896, 6.415683955945542 ], [ 100.228841102533295, 6.416252734623856 ], [ 100.229309645788049, 6.416797891750374 ], [ 100.229806258094712, 6.417317933165389 ], [ 100.230329578273427, 6.417811433550534 ], [ 100.230878171939963, 6.418277040334536 ], [ 100.231450535437247, 6.418713477399701 ], [ 100.232045099956693, 6.4191195485788 ], [ 100.232660235838281, 6.419494140932851 ], [ 100.233294257037329, 6.419836227800737 ], [ 100.233945425745773, 6.420144871612543 ], [ 100.234611957155451, 6.420419226458532 ], [ 100.23529202435013, 6.420658540407119 ], [ 100.235983763312888, 6.420862157565245 ], [ 100.236685278035296, 6.421029519875523 ], [ 100.237394645714261, 6.421160168645466 ], [ 100.238109922022304, 6.421253745804234 ], [ 100.238829146436757, 6.421309994883845 ], [ 100.239550347613516, 6.421328761721871 ], [ 100.24027154879029, 6.421309994883845 ], [ 100.240990773204743, 6.421253745804234 ], [ 100.241706049512786, 6.421160168645466 ], [ 100.242415417191765, 6.421029519875523 ], [ 100.243116931914173, 6.420862157565245 ], [ 100.243808670876916, 6.420658540407119 ], [ 100.24448873807161, 6.420419226458532 ], [ 100.245155269481288, 6.420144871612543 ], [ 100.245806438189732, 6.419836227800737 ], [ 100.246440459388779, 6.419494140932851 ], [ 100.247055595270353, 6.4191195485788 ], [ 100.247650159789799, 6.418713477399701 ], [ 100.248222523287083, 6.418277040334536 ], [ 100.24877111695362, 6.417811433550534 ], [ 100.249294437132335, 6.417317933165389 ], [ 100.249791049438997, 6.416797891750374 ], [ 100.250259592693766, 6.416252734623856 ], [ 100.250698782652151, 6.415683955945542 ], [ 100.251107415525041, 6.415093114621867 ], [ 100.251484371278082, 6.414481830034041 ], [ 100.251828616701786, 6.413851777600221 ], [ 100.252139208243378, 6.413204684184072 ], [ 100.252415294593035, 6.41254232336227 ], [ 100.252656119017232, 6.411866510563968 ], [ 100.252861021432977, 6.411179098095394 ], [ 100.25302944021702, 6.410481970063391 ], [ 100.253160913745148, 6.409777037211629 ], [ 100.253255081657557, 6.409066231683846 ], [ 100.253311685846569, 6.408351501728228 ], [ 100.253330571164014, 6.407634806357649 ] ] ] } },
{ "type": "Feature", "properties": { "state": "Perlis", "parlimen": "P.003 Arau", "code_parlimen": "P.003", "dun": "N.13 Guar Sanji", "code_dun": "N.13" }, "geometry": { "type": "Polygon", "coordinates": [ [ [ 100.274552945315065, 6.377106570840819 ], [ 100.27453405999762, 6.376389831682589 ], [ 100.274477455808608, 6.375675056058735 ], [ 100.274383287896185, 6.37496420313196 ], [ 100.274251814368071, 6.374259221321181 ], [ 100.274083395584043, 6.373562042960832 ], [ 100.273878493168283, 6.372874579004116 ], [ 100.273637668744072, 6.372198713784853 ], [ 100.273361582394429, 6.37153629985219 ], [ 100.273050990852838, 6.370889152892344 ], [ 100.272706745429147, 6.37025904675127 ], [ 100.272329789676093, 6.36964770857209 ], [ 100.271921156803216, 6.369056814060317 ], [ 100.271481966844817, 6.368487982890142 ], [ 100.271013423590063, 6.367942774264185 ], [ 100.2705168112834, 6.367422682639011 ], [ 100.269993491104685, 6.366929133628097 ], [ 100.269444897438134, 6.366463480093427 ], [ 100.268872533940865, 6.366026998436542 ], [ 100.268277969421419, 6.365620885099217 ], [ 100.267662833539831, 6.365246253283171 ], [ 100.267028812340783, 6.364904129898154 ], [ 100.266377643632339, 6.364595452746437 ], [ 100.265711112222647, 6.364321067951633 ], [ 100.265031045027968, 6.364081727638919 ], [ 100.264339306065224, 6.363878087872863 ], [ 100.263637791342802, 6.363710706858647 ], [ 100.262928423663837, 6.363580043411627 ], [ 100.262213147355808, 6.363486455699357 ], [ 100.261493922941341, 6.363430200259579 ], [ 100.260772721764582, 6.363411431296815 ], [ 100.260051520587822, 6.363430200259579 ], [ 100.259332296173355, 6.363486455699357 ], [ 100.258617019865326, 6.363580043411627 ], [ 100.257907652186361, 6.363710706858647 ], [ 100.257206137463939, 6.363878087872863 ], [ 100.256514398501196, 6.364081727638919 ], [ 100.255834331306517, 6.364321067951633 ], [ 100.255167799896824, 6.364595452746437 ], [ 100.25451663118838, 6.364904129898154 ], [ 100.253882609989319, 6.365246253283171 ], [ 100.253267474107744, 6.365620885099217 ], [ 100.252672909588298, 6.366026998436542 ], [ 100.252100546091029, 6.366463480093427 ], [ 100.251551952424478, 6.366929133628097 ], [ 100.251028632245763, 6.367422682639011 ], [ 100.250532019939101, 6.367942774264185 ], [ 100.250063476684346, 6.368487982890142 ], [ 100.249624286725947, 6.369056814060317 ], [ 100.249215653853071, 6.36964770857209 ], [ 100.248838698100016, 6.37025904675127 ], [ 100.248494452676326, 6.370889152892344 ], [ 100.248183861134734, 6.37153629985219 ], [ 100.247907774785091, 6.372198713784853 ], [ 100.24766695036088, 6.372874579004116 ], [ 100.24746204794512, 6.373562042960832 ], [ 100.247293629161092, 6.374259221321181 ], [ 100.247162155632978, 6.37496420313196 ], [ 100.247067987720541, 6.375675056058735 ], [ 100.247011383531543, 6.376389831682589 ], [ 100.246992498214098, 6.377106570840819 ], [ 100.247011383531543, 6.377823308996958 ], [ 100.247067987720541, 6.378538081625583 ], [ 100.247162155632978, 6.379248929596786 ], [ 100.247293629161092, 6.379953904545925 ], [ 100.24746204794512, 6.380651074213767 ], [ 100.24766695036088, 6.381338527742335 ], [ 100.247907774785091, 6.382014380912067 ], [ 100.248183861134734, 6.382676781305809 ], [ 100.248494452676326, 6.383323913385734 ], [ 100.248838698100016, 6.383954003468862 ], [ 100.249215653853071, 6.38456532458803 ], [ 100.249624286725947, 6.385156201224627 ], [ 100.250063476684346, 6.385725013900323 ], [ 100.250532019939101, 6.386270203615109 ], [ 100.251028632245763, 6.386790276119615 ], [ 100.251551952424478, 6.387283806009874 ], [ 100.252100546091029, 6.387749440633386 ], [ 100.252672909588298, 6.388185903795778 ], [ 100.253267474107744, 6.388591999257953 ], [ 100.253882609989319, 6.388966614013974 ], [ 100.25451663118838, 6.389308721341045 ], [ 100.255167799896824, 6.389617383612829 ], [ 100.255834331306517, 6.389891754868724 ], [ 100.256514398501196, 6.390131083131907 ], [ 100.257206137463939, 6.390334712469827 ], [ 100.257907652186361, 6.390502084791537 ], [ 100.258617019865326, 6.390632741376917 ], [ 100.259332296173355, 6.390726324133603 ], [ 100.260051520587822, 6.390782576578138 ], [ 100.260772721764582, 6.390801344538836 ], [ 100.261493922941341, 6.390782576578138 ], [ 100.262213147355808, 6.390726324133603 ], [ 100.262928423663837, 6.390632741376917 ], [ 100.263637791342802, 6.390502084791537 ], [ 100.264339306065224, 6.390334712469827 ], [ 100.265031045027968, 6.390131083131907 ], [ 100.265711112222647, 6.389891754868724 ], [ 100.266377643632339, 6.389617383612829 ], [ 100.267028812340783, 6.389308721341045 ], [ 100.267662833539831, 6.388966614013974 ], [ 100.268277969421419, 6.388591999257953 ], [ 100.268872533940865, 6.388185903795778 ], [ 100.269444897438134, 6.387749440633386 ], [ 100.269993491104685, 6.387283806009874 ], [ 100.2705168112834, 6.386790276119615 ], [ 100.271013423590063, 6.386270203615109 ], [ 100.271481966844817, 6.385725013900323 ], [ 100.271921156803216, 6.385156201224627 ], [ 100.272329789676093, 6.38456532458803 ], [ 100.272706745429147, 6.383954003468862 ], [ 100.273050990852838, 6.383323913385734 ], [ 100.273361582394429, 6.382676781305809 ], [ 100.273637668744072, 6.382014380912067 ], [ 100.273878493168283, 6.381338527742335 ], [ 100.274083395584043, 6.380651074213767 ], [ 100.274251814368071, 6.379953904545925 ], [ 100.274383287896185, 6.379248929596786 ], [ 100.274477455808608, 6.378538081625583 ], [ 100.27453405999762, 6.377823308996958 ], [ 100.274552945315065, 6.377106570840819 ] ] ] } },
{ "type": "Feature", "properties": { "state": "Perlis", "parlimen": "P.003 Arau", "code_parlimen": "P.003", "dun": "N.14 Simpang Empat", "code_dun": "N.14" }, "geometry": { "type": "Polygon", "coordinates": [ [ [ 100.189345608686054, 6.351955454086157 ], [ 100.189326723368595, 6.351238679835201 ], [ 100.189270119179596, 6.350523869218655 ], [ 100.189175951267188, 6.349812981495123 ], [ 100.18904447773906, 6.349107965178813 ], [ 100.188876058955032, 6.348410752698605 ], [ 100.188671156539272, 6.347723255101099 ], [ 100.188430332115061, 6.34704735681217 ], [ 100.188154245765418, 6.346384910471398 ], [ 100.187843654223826, 6.345737731853597 ], [ 100.187499408800122, 6.345107594891282 ], [ 100.187122453047081, 6.344496226811809 ], [ 100.186713820174191, 6.343905303402343 ], [ 100.186274630215806, 6.343336444416003 ], [ 100.185806086961037, 6.342791209131374 ], [ 100.185309474654375, 6.342271092077781 ], [ 100.184786154475674, 6.341777518938084 ], [ 100.184237560809123, 6.341311842640095 ], [ 100.183665197311839, 6.34087533964749 ], [ 100.183070632792408, 6.340469206460157 ], [ 100.182455496910819, 6.340094556334002 ], [ 100.181821475711772, 6.339752416228656 ], [ 100.181170307003313, 6.339443723991963 ], [ 100.18050377559365, 6.339169325788678 ], [ 100.17982370839897, 6.338929973780467 ], [ 100.179131969436213, 6.338726324063791 ], [ 100.178430454713805, 6.338558934870932 ], [ 100.17772108703484, 6.338428265039533 ], [ 100.177005810726783, 6.338334672754542 ], [ 100.17628658631233, 6.338278414566128 ], [ 100.17556538513557, 6.338259644686309 ], [ 100.174844183958797, 6.338278414566128 ], [ 100.174124959544358, 6.338334672754542 ], [ 100.173409683236315, 6.338428265039533 ], [ 100.172700315557336, 6.338558934870932 ], [ 100.171998800834913, 6.338726324063791 ], [ 100.17130706187217, 6.338929973780467 ], [ 100.170626994677491, 6.339169325788678 ], [ 100.169960463267813, 6.339443723991963 ], [ 100.169309294559369, 6.339752416228656 ], [ 100.168675273360321, 6.340094556334002 ], [ 100.168060137478747, 6.340469206460157 ], [ 100.167465572959301, 6.34087533964749 ], [ 100.166893209462017, 6.341311842640095 ], [ 100.166344615795481, 6.341777518938084 ], [ 100.165821295616752, 6.342271092077781 ], [ 100.165324683310104, 6.342791209131374 ], [ 100.164856140055321, 6.343336444416003 ], [ 100.16441695009695, 6.343905303402343 ], [ 100.164008317224059, 6.344496226811809 ], [ 100.163631361471019, 6.345107594891282 ], [ 100.1632871160473, 6.345737731853597 ], [ 100.162976524505723, 6.346384910471398 ], [ 100.162700438156065, 6.34704735681217 ], [ 100.162459613731869, 6.347723255101099 ], [ 100.162254711316109, 6.348410752698605 ], [ 100.162086292532067, 6.349107965178813 ], [ 100.161954819003952, 6.349812981495123 ], [ 100.161860651091544, 6.350523869218655 ], [ 100.161804046902532, 6.351238679835201 ], [ 100.161785161585073, 6.351955454086157 ], [ 100.161804046902532, 6.352672227338942 ], [ 100.161860651091544, 6.353387034971861 ], [ 100.161954819003952, 6.354097917759031 ], [ 100.162086292532067, 6.354802927240329 ], [ 100.162254711316109, 6.355500131061757 ], [ 100.162459613731869, 6.356187618271546 ], [ 100.162700438156065, 6.356863504557685 ], [ 100.162976524505723, 6.357525937412078 ], [ 100.1632871160473, 6.358173101207655 ], [ 100.163631361471019, 6.358803222174313 ], [ 100.164008317224059, 6.359414573259967 ], [ 100.16441695009695, 6.360005478863593 ], [ 100.164856140055321, 6.360574319427181 ], [ 100.165324683310104, 6.361119535873996 ], [ 100.165821295616752, 6.361639633881104 ], [ 100.166344615795481, 6.362133187974304 ], [ 100.166893209462017, 6.362598845434478 ], [ 100.167465572959301, 6.363035330004356 ], [ 100.168060137478747, 6.36344144538585 ], [ 100.168675273360321, 6.363816078518174 ], [ 100.169309294559369, 6.364158202627862 ], [ 100.169960463267813, 6.364466880042342 ], [ 100.170626994677491, 6.364741264759249 ], [ 100.17130706187217, 6.364980604764657 ], [ 100.171998800834913, 6.365184244093629 ], [ 100.172700315557336, 6.365351624627708 ], [ 100.173409683236315, 6.365482287624082 ], [ 100.174124959544358, 6.365575874972725 ], [ 100.174844183958797, 6.365632130177512 ], [ 100.17556538513557, 6.365650899059146 ], [ 100.17628658631233, 6.365632130177512 ], [ 100.177005810726783, 6.365575874972725 ], [ 100.17772108703484, 6.365482287624082 ], [ 100.178430454713805, 6.365351624627708 ], [ 100.179131969436213, 6.365184244093629 ], [ 100.17982370839897, 6.364980604764657 ], [ 100.18050377559365, 6.364741264759249 ], [ 100.181170307003313, 6.364466880042342 ], [ 100.181821475711772, 6.364158202627862 ], [ 100.182455496910819, 6.363816078518174 ], [ 100.183070632792408, 6.36344144538585 ], [ 100.183665197311839, 6.363035330004356 ], [ 100.184237560809123, 6.362598845434478 ], [ 100.184786154475674, 6.362133187974304 ], [ 100.185309474654375, 6.361639633881104 ], [ 100.185806086961037, 6.361119535873996 ], [ 100.186274630215806, 6.360574319427181 ], [ 100.186713820174191, 6.360005478863593 ], [ 100.187122453047081, 6.359414573259967 ], [ 100.187499408800122, 6.358803222174313 ], [ 100.187843654223826, 6.358173101207655 ], [ 100.188154245765418, 6.357525937412078 ], [ 100.188430332115061, 6.356863504557685 ], [ 100.188671156539272, 6.356187618271546 ], [ 100.188876058955032, 6.355500131061757 ], [ 100.18904447773906, 6.354802927240329 ], [ 100.189175951267188, 6.354097917759031 ], [ 100.189270119179596, 6.353387034971861 ], [ 100.189326723368595, 6.352672227338942 ], [ 100.189345608686054, 6.351955454086157 ] ] ] } },
{ "type": "Feature", "properties": { "state": "Perlis", "parlimen": "P.003 Arau", "code_parlimen": "P.003", "dun": "N.15 Sanglang", "code_dun": "N.15" }, "geometry": { "type": "Polygon", "coordinates": [ [ [ 100.212327868717139, 6.307754950562952 ], [ 100.212308983399694, 6.307038114974769 ], [ 100.212252379210696, 6.306323243195915 ], [ 100.212158211298259, 6.30561229465257 ], [ 100.212026737770145, 6.304907218025475 ], [ 100.211858318986117, 6.304209945908658 ], [ 100.211653416570357, 6.303522389511919 ], [ 100.211412592146146, 6.30284643342202 ], [ 100.211136505796503, 6.302183930436613 ], [ 100.210825914254912, 6.301536696485403 ], [ 100.210481668831221, 6.300906505652163 ], [ 100.210104713078167, 6.300295085311406 ], [ 100.209696080205291, 6.299704111393129 ], [ 100.209256890246891, 6.299135203788372 ], [ 100.208788346992122, 6.298589921908438 ], [ 100.208291734685474, 6.298069760409851 ], [ 100.207768414506759, 6.297576145096762 ], [ 100.207219820840209, 6.297110429012031 ], [ 100.206647457342925, 6.296673888727855 ], [ 100.206052892823493, 6.296267720845837 ], [ 100.205437756941919, 6.295893038716456 ], [ 100.204803735742857, 6.295550869386609 ], [ 100.204152567034413, 6.29524215078378 ], [ 100.203486035624721, 6.294967729144552 ], [ 100.202805968430042, 6.294728356694484 ], [ 100.202114229467298, 6.294524689585708 ], [ 100.201412714744876, 6.294357286097883 ], [ 100.200703347065911, 6.294226605107598 ], [ 100.199988070757882, 6.294133004830191 ], [ 100.199268846343415, 6.294076741837612 ], [ 100.198547645166656, 6.294057970354946 ], [ 100.197826443989896, 6.294076741837612 ], [ 100.197107219575429, 6.294133004830191 ], [ 100.1963919432674, 6.294226605107598 ], [ 100.195682575588435, 6.294357286097883 ], [ 100.194981060866013, 6.294524689585708 ], [ 100.19428932190327, 6.294728356694484 ], [ 100.193609254708591, 6.294967729144552 ], [ 100.192942723298898, 6.29524215078378 ], [ 100.19229155459044, 6.295550869386609 ], [ 100.191657533391407, 6.295893038716456 ], [ 100.191042397509818, 6.296267720845837 ], [ 100.190447832990372, 6.296673888727855 ], [ 100.189875469493103, 6.297110429012031 ], [ 100.189326875826552, 6.297576145096762 ], [ 100.188803555647837, 6.298069760409851 ], [ 100.188306943341175, 6.298589921908438 ], [ 100.18783840008642, 6.299135203788372 ], [ 100.187399210128021, 6.299704111393129 ], [ 100.186990577255131, 6.300295085311406 ], [ 100.18661362150209, 6.300906505652163 ], [ 100.1862693760784, 6.301536696485403 ], [ 100.185958784536794, 6.302183930436613 ], [ 100.185682698187165, 6.30284643342202 ], [ 100.185441873762954, 6.303522389511919 ], [ 100.185236971347194, 6.304209945908658 ], [ 100.185068552563166, 6.304907218025475 ], [ 100.184937079035052, 6.30561229465257 ], [ 100.18484291112263, 6.306323243195915 ], [ 100.184786306933617, 6.307038114974769 ], [ 100.184767421616172, 6.307754950562952 ], [ 100.184786306933617, 6.308471785159794 ], [ 100.18484291112263, 6.30918665397544 ], [ 100.184937079035052, 6.309897597616227 ], [ 100.185068552563166, 6.31060266745509 ], [ 100.185236971347194, 6.311299930972386 ], [ 100.185441873762954, 6.311987477052525 ], [ 100.185682698187165, 6.312663421221807 ], [ 100.185958784536794, 6.313325910813148 ], [ 100.1862693760784, 6.313973130043606 ], [ 100.18661362150209, 6.314603304990688 ], [ 100.186990577255131, 6.315214708453933 ], [ 100.187399210128021, 6.315805664688262 ], [ 100.18783840008642, 6.316374553996383 ], [ 100.188306943341175, 6.316919817167467 ], [ 100.188803555647837, 6.317439959749934 ], [ 100.189326875826552, 6.317933556146915 ], [ 100.189875469493103, 6.318399253522784 ], [ 100.190447832990372, 6.318835775510335 ], [ 100.191042397509818, 6.319241925708394 ], [ 100.191657533391407, 6.319616590960262 ], [ 100.19229155459044, 6.319958744403964 ], [ 100.192942723298898, 6.320267448286041 ], [ 100.193609254708591, 6.320541856531203 ], [ 100.19428932190327, 6.320781217060642 ], [ 100.194981060866013, 6.32098487385283 ], [ 100.195682575588435, 6.321152268741135 ], [ 100.1963919432674, 6.321282942943188 ], [ 100.197107219575429, 6.321376538318024 ], [ 100.197826443989896, 6.321432798347407 ], [ 100.198547645166656, 6.32145156883872 ], [ 100.199268846343415, 6.321432798347407 ], [ 100.199988070757882, 6.321376538318024 ], [ 100.200703347065911, 6.321282942943188 ], [ 100.201412714744876, 6.321152268741135 ], [ 100.202114229467298, 6.32098487385283 ], [ 100.202805968430042, 6.320781217060642 ], [ 100.203486035624721, 6.320541856531203 ], [ 100.204152567034413, 6.320267448286041 ], [ 100.204803735742857, 6.319958744403964 ], [ 100.205437756941919, 6.319616590960262 ], [ 100.206052892823493, 6.319241925708394 ], [ 100.206647457342925, 6.318835775510335 ], [ 100.207219820840209, 6.318399253522784 ], [ 100.207768414506759, 6.317933556146915 ], [ 100.208291734685474, 6.317439959749934 ], [ 100.208788346992122, 6.316919817167467 ], [ 100.209256890246891, 6.316374553996383 ], [ 100.209696080205291, 6.315805664688262 ], [ 100.210104713078167, 6.315214708453933 ], [ 100.210481668831221, 6.314603304990688 ], [ 100.210825914254912, 6.313973130043606 ], [ 100.211136505796503, 6.313325910813148 ], [ 100.211412592146146, 6.312663421221807 ], [ 100.211653416570357, 6.311987477052525 ], [ 100.211858318986117, 6.311299930972386 ], [ 100.212026737770145, 6.31060266745509 ], [ 100.212158211298259, 6.309897597616227 ], [ 100.212252379210696, 6.30918665397544 ], [ 100.212308983399694, 6.308471785159794 ], [ 100.212327868717139, 6.307754950562952 ] ] ] } }
]
}
