{
"type": "FeatureCollection",
"name": "PLS_SE-02",
"crs": { "type": "name", "properties": { "name": "urn:ogc:def:crs:OGC:1.3:CRS84" } },
"features": [
{ "type": "Feature", "properties": { "state": "Perlis", "parlimen": "P.001 Perlis Utara", "code_parlimen": "P.001", "dun": "N.01 Kaki Bukit", "code_dun": "N.01" }, "geometry": { "type": "Polygon", "coordinates": [ [ [ 100.248525992625446, 6.621536577342059 ], [ 100.248507393265655, 6.620831033877779 ], [ 100.248451646165861, 6.620127423254797 ], [ 100.24835890412497, 6.619427674033371 ], [ 100.248229421342458, 6.618733704198099 ], [ 100.248063552721632, 6.618047415900521 ], [ 100.247861752896895, 6.61737069024515 ], [ 100.247624574987498, 6.616705382133157 ], [ 100.247352669081621, 6.616053315177714 ], [ 100.247046780454454, 6.615416276705025 ], [ 100.246707747525434, 6.614796012854813 ], [ 100.2463364995603, 6.614194223793562 ], [ 100.245934054123893, 6.613612559053784 ], [ 100.245501514291178, 6.613052613011983 ], [ 100.245040065623783, 6.612515920517755 ], [ 100.244550972920408, 6.612003952686037 ], [ 100.244035576750179, 6.611518112864062 ], [ 100.243495289778181, 6.611059732783983 ], [ 100.242931592893413, 6.610630068911812 ], [ 100.242346031149879, 6.610230299002752 ], [ 100.241740209531628, 6.609861518872097 ], [ 100.241115788553586, 6.609524739391011 ], [ 100.240474479710244, 6.609220883714908 ], [ 100.239818040784584, 6.608950784752484 ], [ 100.239148271030075, 6.608715182882102 ], [ 100.238467006239034, 6.608514723921838 ], [ 100.237776113710922, 6.608349957358798 ], [ 100.237077487134115, 6.60822133484256 ], [ 100.236373041395524, 6.608129208946797 ], [ 100.235664707331949, 6.608073832202638 ], [ 100.234954426437795, 6.608055356406243 ], [ 100.234244145543656, 6.608073832202638 ], [ 100.233535811480081, 6.608129208946797 ], [ 100.23283136574149, 6.60822133484256 ], [ 100.232132739164683, 6.608349957358798 ], [ 100.231441846636571, 6.608514723921838 ], [ 100.23076058184553, 6.608715182882102 ], [ 100.230090812091007, 6.608950784752484 ], [ 100.229434373165361, 6.609220883714908 ], [ 100.228793064322019, 6.609524739391011 ], [ 100.228168643343977, 6.609861518872097 ], [ 100.227562821725712, 6.610230299002752 ], [ 100.226977259982178, 6.610630068911812 ], [ 100.226413563097424, 6.611059732783983 ], [ 100.225873276125412, 6.611518112864062 ], [ 100.225357879955197, 6.612003952686037 ], [ 100.224868787251836, 6.612515920517755 ], [ 100.224407338584413, 6.613052613011983 ], [ 100.223974798751712, 6.613612559053784 ], [ 100.223572353315305, 6.614194223793562 ], [ 100.223201105350157, 6.614796012854813 ], [ 100.222862072421151, 6.615416276705025 ], [ 100.222556183793984, 6.616053315177714 ], [ 100.222284277888107, 6.616705382133157 ], [ 100.22204709997871, 6.61737069024515 ], [ 100.221845300153959, 6.618047415900521 ], [ 100.221679431533147, 6.618733704198099 ], [ 100.221549948750635, 6.619427674033371 ], [ 100.221457206709744, 6.620127423254797 ], [ 100.221401459609936, 6.620831033877779 ], [ 100.221382860250159, 6.621536577342059 ], [ 100.221401459609936, 6.622242119797786 ], [ 100.221457206709744, 6.622945727406162 ], [ 100.221549948750635, 6.62364547163993 ], [ 100.221679431533147, 6.624339434569163 ], [ 100.221845300153959, 6.625025714117989 ], [ 100.22204709997871, 6.62570242927772 ], [ 100.222284277888107, 6.626367725262208 ], [ 100.222556183793984, 6.627019778591124 ], [ 100.222862072421151, 6.627656802087598 ], [ 100.223201105350157, 6.628277049775962 ], [ 100.223572353315305, 6.628878821666797 ], [ 100.223974798751712, 6.629460468415729 ], [ 100.224407338584413, 6.630020395843373 ], [ 100.224868787251836, 6.630557069304054 ], [ 100.225357879955197, 6.631069017891381 ], [ 100.225873276125412, 6.631554838468964 ], [ 100.226413563097424, 6.632013199515498 ], [ 100.226977259982178, 6.632442844773498 ], [ 100.227562821725712, 6.632842596691725 ], [ 100.228168643343977, 6.633211359651952 ], [ 100.228793064322019, 6.633548122971201 ], [ 100.229434373165361, 6.633851963671078 ], [ 100.230090812091007, 6.634122049006987 ], [ 100.23076058184553, 6.634357638749864 ], [ 100.231441846636571, 6.634558087214488 ], [ 100.232132739164683, 6.634722845028764 ], [ 100.23283136574149, 6.634851460638974 ], [ 100.233535811480081, 6.634943581547081 ], [ 100.234244145543656, 6.634998955276633 ], [ 100.234954426437795, 6.635017430064463 ], [ 100.235664707331949, 6.634998955276633 ], [ 100.236373041395524, 6.634943581547081 ], [ 100.237077487134115, 6.634851460638974 ], [ 100.237776113710922, 6.634722845028764 ], [ 100.238467006239034, 6.634558087214488 ], [ 100.239148271030075, 6.634357638749864 ], [ 100.239818040784584, 6.634122049006987 ], [ 100.240474479710244, 6.633851963671078 ], [ 100.241115788553586, 6.633548122971201 ], [ 100.241740209531628, 6.633211359651952 ], [ 100.242346031149879, 6.632842596691725 ], [ 100.242931592893413, 6.632442844773498 ], [ 100.243495289778181, 6.632013199515498 ], [ 100.244035576750179, 6.631554838468964 ], [ 100.244550972920408, 6.631069017891381 ], [ 100.245040065623783, 6.630557069304054 ], [ 100.245501514291178, 6.630020395843373 ], [ 100.245934054123893, 6.629460468415729 ], [ 100.2463364995603, 6.628878821666797 ], [ 100.246707747525434, 6.628277049775962 ], [ 100.247046780454454, 6.627656802087598 ], [ 100.247352669081621, 6.627019778591124 ], [ 100.247624574987498, 6.626367725262208 ], [ 100.247861752896895, 6.62570242927772 ], [ 100.248063552721632, 6.625025714117989 ], [ 100.248229421342458, 6.624339434569163 ], [ 100.24835890412497, 6.62364547163993 ], [ 100.248451646165861, 6.622945727406162 ], [ 100.248507393265655, 6.622242119797786 ], [ 100.248525992625446, 6.621536577342059 ] ] ] } },
{ "type": "Feature", "properties": { "state": "Perlis", "parlimen": "P.001 Perlis Utara", "code_parlimen": "P.001", "dun": "N.02 Paya", "code_dun": "N.02" }, "geometry": { "type": "Polygon", "coordinates": [ [ [ 100.24066047505498, 6.487012344953274 ], [ 100.240641875695175, 6.48630661114492 ], [ 100.240586128595368, 6.485602810719628 ], [ 100.240493386554476, 6.484902872757688 ], [ 100.240363903771978, 6.484208715760551 ], [ 100.240198035151153, 6.483522242392222 ], [ 100.239996235326416, 6.48284533426376 ], [ 100.239759057417032, 6.482179846775619 ], [ 100.239487151511142, 6.481527604031619 ], [ 100.239181262883974, 6.480890393838696 ], [ 100.238842229954955, 6.480269962805998 ], [ 100.238470981989806, 6.479668011556941 ], [ 100.238068536553413, 6.479086190067152 ], [ 100.237635996720698, 6.4785260931413 ], [ 100.237174548053289, 6.477989256041043 ], [ 100.236685455349914, 6.477477150276084 ], [ 100.236170059179699, 6.476991179570162 ], [ 100.235629772207687, 6.476532676012591 ], [ 100.235066075322933, 6.476102896406257 ], [ 100.234480513579399, 6.475703018822062 ], [ 100.233874691961148, 6.475334139368969 ], [ 100.233250270983092, 6.474997269188935 ], [ 100.23260896213975, 6.474693331684666 ], [ 100.231952523214105, 6.474423159987931 ], [ 100.231282753459595, 6.474187494675316 ], [ 100.23060148866854, 6.473986981737808 ], [ 100.229910596140428, 6.47382217080958 ], [ 100.229211969563636, 6.473693513661109 ], [ 100.228507523825044, 6.473601362960416 ], [ 100.227799189761456, 6.473545971306224 ], [ 100.227088908867316, 6.473527490535301 ], [ 100.226378627973176, 6.473545971306224 ], [ 100.225670293909587, 6.473601362960416 ], [ 100.224965848170996, 6.473693513661109 ], [ 100.224267221594189, 6.47382217080958 ], [ 100.223576329066077, 6.473986981737808 ], [ 100.22289506427505, 6.474187494675316 ], [ 100.222225294520527, 6.474423159987931 ], [ 100.221568855594867, 6.474693331684666 ], [ 100.22092754675154, 6.474997269188935 ], [ 100.220303125773484, 6.475334139368969 ], [ 100.219697304155233, 6.475703018822062 ], [ 100.219111742411698, 6.476102896406257 ], [ 100.218548045526944, 6.476532676012591 ], [ 100.218007758554933, 6.476991179570162 ], [ 100.217492362384704, 6.477477150276084 ], [ 100.217003269681356, 6.477989256041043 ], [ 100.216541821013934, 6.4785260931413 ], [ 100.216109281181218, 6.479086190067152 ], [ 100.215706835744811, 6.479668011556941 ], [ 100.215335587779677, 6.480269962805998 ], [ 100.214996554850657, 6.480890393838696 ], [ 100.21469066622349, 6.481527604031619 ], [ 100.214418760317614, 6.482179846775619 ], [ 100.214181582408216, 6.48284533426376 ], [ 100.213979782583479, 6.483522242392222 ], [ 100.213813913962667, 6.484208715760551 ], [ 100.213684431180155, 6.484902872757688 ], [ 100.213591689139264, 6.485602810719628 ], [ 100.213535942039456, 6.48630661114492 ], [ 100.213517342679665, 6.487012344953274 ], [ 100.213535942039456, 6.487718077773188 ], [ 100.213591689139264, 6.488421875244051 ], [ 100.213684431180155, 6.48912180831791 ], [ 100.213813913962667, 6.489815958546878 ], [ 100.213979782583479, 6.490502423341119 ], [ 100.214181582408216, 6.491179321183489 ], [ 100.214418760317614, 6.491844796786228 ], [ 100.21469066622349, 6.49249702617574 ], [ 100.214996554850657, 6.493134221691434 ], [ 100.215335587779677, 6.493754636884931 ], [ 100.215706835744811, 6.494356571306373 ], [ 100.216109281181218, 6.49493837516449 ], [ 100.216541821013934, 6.495498453847775 ], [ 100.217003269681356, 6.496035272294486 ], [ 100.217492362384704, 6.496547359199251 ], [ 100.218007758554933, 6.497033311044967 ], [ 100.218548045526944, 6.497491795948992 ], [ 100.219111742411698, 6.497921557312758 ], [ 100.219697304155233, 6.498321417265294 ], [ 100.220303125773484, 6.498690279890772 ], [ 100.22092754675154, 6.499027134231606 ], [ 100.221568855594867, 6.499331057058621 ], [ 100.222225294520527, 6.499601215400893 ], [ 100.22289506427505, 6.499836868828106 ], [ 100.223576329066077, 6.500037371479522 ], [ 100.224267221594189, 6.500202173833649 ], [ 100.224965848170996, 6.500330824213963 ], [ 100.225670293909587, 6.500422970026576 ], [ 100.226378627973176, 6.500478358726338 ], [ 100.227088908867316, 6.500496838508833 ], [ 100.227799189761456, 6.500478358726338 ], [ 100.228507523825044, 6.500422970026576 ], [ 100.229211969563636, 6.500330824213963 ], [ 100.229910596140428, 6.500202173833649 ], [ 100.23060148866854, 6.500037371479522 ], [ 100.231282753459595, 6.499836868828106 ], [ 100.231952523214105, 6.499601215400893 ], [ 100.23260896213975, 6.499331057058621 ], [ 100.233250270983092, 6.499027134231606 ], [ 100.233874691961148, 6.498690279890772 ], [ 100.234480513579399, 6.498321417265294 ], [ 100.235066075322933, 6.497921557312758 ], [ 100.235629772207687, 6.497491795948992 ], [ 100.236170059179699, 6.497033311044967 ], [ 100.236685455349914, 6.496547359199251 ], [ 100.237174548053289, 6.496035272294486 ], [ 100.237635996720698, 6.495498453847775 ], [ 100.238068536553413, 6.49493837516449 ], [ 100.238470981989806, 6.494356571306373 ], [ 100.238842229954955, 6.493754636884931 ], [ 100.239181262883974, 6.493134221691434 ], [ 100.239487151511142, 6.49249702617574 ], [ 100.239759057417032, 6.491844796786228 ], [ 100.239996235326416, 6.491179321183489 ], [ 100.240198035151153, 6.490502423341119 ], [ 100.240363903771978, 6.489815958546878 ], [ 100.240493386554476, 6.48912180831791 ], [ 100.240586128595368, 6.488421875244051 ], [ 100.240641875695175, 6.487718077773188 ], [ 100.24066047505498, 6.487012344953274 ] ] ] } },
{ "type": "Feature", "properties": { "state": "Perlis", "parlimen": "P.001 Perlis Utara", "code_parlimen": "P.001", "dun": "N.03 Mata Ayer", "code_dun": "N.03" }, "geometry": { "type": "Polygon", "coordinates": [ [ [ 100.302599690657232, 6.537175213681979 ], [ 100.302581091297455, 6.536469550396382 ], [ 100.302525344197647, 6.535765820293077 ], [ 100.302432602156756, 6.535065952259678 ], [ 100.30230311937423, 6.534371864606152 ], [ 100.302137250753432, 6.533685459806599 ], [ 100.301935450928681, 6.533008619284453 ], [ 100.301698273019284, 6.53234319825516 ], [ 100.301426367113407, 6.531691020640777 ], [ 100.30112047848624, 6.531053874070093 ], [ 100.300781445557234, 6.530433504978379 ], [ 100.300410197592086, 6.529831613819733 ], [ 100.300007752155679, 6.529249850405625 ], [ 100.299575212322978, 6.528689809382093 ], [ 100.299113763655555, 6.528153025858114 ], [ 100.298624670952194, 6.527640971197176 ], [ 100.298109274781979, 6.527155048983479 ], [ 100.297568987809967, 6.52669659117404 ], [ 100.297005290925213, 6.526266854446939 ], [ 100.296419729181665, 6.525867016756098 ], [ 100.295813907563414, 6.525498174101704 ], [ 100.295189486585372, 6.525161337525375 ], [ 100.29454817774203, 6.524857430338192 ], [ 100.29389173881637, 6.524587285589291 ], [ 100.293221969061861, 6.524351643781828 ], [ 100.29254070427082, 6.524151150842707 ], [ 100.291849811742708, 6.523986356351636 ], [ 100.291151185165901, 6.523857712034286 ], [ 100.29044673942731, 6.523765570523742 ], [ 100.289738405363735, 6.523710184393652 ], [ 100.289028124469596, 6.523691705465784 ], [ 100.288317843575442, 6.523710184393652 ], [ 100.287609509511867, 6.523765570523742 ], [ 100.286905063773276, 6.523857712034286 ], [ 100.286206437196469, 6.523986356351636 ], [ 100.285515544668357, 6.524151150842707 ], [ 100.284834279877316, 6.524351643781828 ], [ 100.284164510122807, 6.524587285589291 ], [ 100.283508071197147, 6.524857430338192 ], [ 100.282866762353805, 6.525161337525375 ], [ 100.282242341375763, 6.525498174101704 ], [ 100.281636519757512, 6.525867016756098 ], [ 100.281050958013978, 6.526266854446939 ], [ 100.28048726112921, 6.52669659117404 ], [ 100.279946974157212, 6.527155048983479 ], [ 100.279431577986983, 6.527640971197176 ], [ 100.278942485283608, 6.528153025858114 ], [ 100.278481036616213, 6.528689809382093 ], [ 100.278048496783498, 6.529249850405625 ], [ 100.277646051347091, 6.529831613819733 ], [ 100.277274803381943, 6.530433504978379 ], [ 100.276935770452937, 6.531053874070093 ], [ 100.27662988182577, 6.531691020640777 ], [ 100.276357975919879, 6.53234319825516 ], [ 100.276120798010496, 6.533008619284453 ], [ 100.275918998185759, 6.533685459806599 ], [ 100.275753129564933, 6.534371864606152 ], [ 100.275623646782421, 6.535065952259678 ], [ 100.27553090474153, 6.535765820293077 ], [ 100.275475157641722, 6.536469550396382 ], [ 100.275456558281931, 6.537175213681979 ], [ 100.275475157641722, 6.53788087597163 ], [ 100.27553090474153, 6.53858460309805 ], [ 100.275623646782421, 6.539284466206221 ], [ 100.275753129564933, 6.539978547040167 ], [ 100.275918998185759, 6.540664943200455 ], [ 100.276120798010496, 6.541341773358344 ], [ 100.276357975919879, 6.54200718241192 ], [ 100.27662988182577, 6.542659346570368 ], [ 100.276935770452937, 6.543296478352286 ], [ 100.277274803381943, 6.543916831484448 ], [ 100.277646051347091, 6.544518705687608 ], [ 100.278048496783498, 6.545100451336066 ], [ 100.278481036616213, 6.545660473978423 ], [ 100.278942485283608, 6.546197238707092 ], [ 100.279431577986983, 6.546709274364534 ], [ 100.279946974157212, 6.547195177574721 ], [ 100.28048726112921, 6.547653616588864 ], [ 100.281050958013978, 6.548083334934788 ], [ 100.281636519757512, 6.54848315485998 ], [ 100.282242341375763, 6.548851980558887 ], [ 100.282866762353805, 6.549188801175664 ], [ 100.283508071197147, 6.549492693574082 ], [ 100.284164510122807, 6.549762824867022 ], [ 100.284834279877316, 6.549998454698781 ], [ 100.285515544668357, 6.550198937273645 ], [ 100.286206437196469, 6.550363723125464 ], [ 100.286905063773276, 6.550492360623222 ], [ 100.287609509511867, 6.55058449720855 ], [ 100.288317843575442, 6.550639880361754 ], [ 100.289028124469596, 6.550658358293689 ], [ 100.289738405363735, 6.550639880361754 ], [ 100.29044673942731, 6.55058449720855 ], [ 100.291151185165901, 6.550492360623222 ], [ 100.291849811742708, 6.550363723125464 ], [ 100.29254070427082, 6.550198937273645 ], [ 100.293221969061861, 6.549998454698781 ], [ 100.29389173881637, 6.549762824867022 ], [ 100.29454817774203, 6.549492693574082 ], [ 100.295189486585372, 6.549188801175664 ], [ 100.295813907563414, 6.548851980558887 ], [ 100.296419729181665, 6.54848315485998 ], [ 100.297005290925213, 6.548083334934788 ], [ 100.297568987809967, 6.547653616588864 ], [ 100.298109274781979, 6.547195177574721 ], [ 100.298624670952194, 6.546709274364534 ], [ 100.299113763655555, 6.546197238707092 ], [ 100.299575212322978, 6.545660473978423 ], [ 100.300007752155679, 6.545100451336066 ], [ 100.300410197592086, 6.544518705687608 ], [ 100.300781445557234, 6.543916831484448 ], [ 100.30112047848624, 6.543296478352286 ], [ 100.301426367113407, 6.542659346570368 ], [ 100.301698273019284, 6.54200718241192 ], [ 100.301935450928681, 6.541341773358344 ], [ 100.302137250753432, 6.540664943200455 ], [ 100.30230311937423, 6.539978547040167 ], [ 100.302432602156756, 6.539284466206221 ], [ 100.302525344197647, 6.53858460309805 ], [ 100.302581091297455, 6.53788087597163 ], [ 100.302599690657232, 6.537175213681979 ] ] ] } },
{ "type": "Feature", "properties": { "state": "Perlis", "parlimen": "P.001 Perlis Utara", "code_parlimen": "P.001", "dun": "N.04 Bandar Kangar", "code_dun": "N.04" }, "geometry": { "type": "Polygon", "coordinates": [ [ [ 100.206336554416694, 6.440217745015265 ], [ 100.206317955056917, 6.439511945907223 ], [ 100.206262207957096, 6.43880808036819 ], [ 100.206169465916204, 6.438108077656862 ], [ 100.206039983133707, 6.43741385645201 ], [ 100.205874114512881, 6.436727319593436 ], [ 100.205672314688144, 6.436050348865971 ], [ 100.205435136778746, 6.435384799841361 ], [ 100.205163230872856, 6.434732496791741 ], [ 100.204857342245688, 6.434095227688928 ], [ 100.204518309316683, 6.433474739303146 ], [ 100.204147061351534, 6.432872732414521 ], [ 100.203744615915141, 6.432290857150725 ], [ 100.203312076082426, 6.431730708463278 ], [ 100.202850627415017, 6.431193821755184 ], [ 100.202361534711642, 6.430681668671601 ], [ 100.201846138541427, 6.430195653065368 ], [ 100.201305851569415, 6.429737107148356 ], [ 100.200742154684662, 6.429307287839018 ], [ 100.200156592941127, 6.428907373316522 ], [ 100.199550771322876, 6.428538459790567 ], [ 100.19892635034482, 6.428201558496006 ], [ 100.198285041501478, 6.42789759292039 ], [ 100.197628602575833, 6.427627396271988 ], [ 100.196958832821323, 6.427391709195384 ], [ 100.196277568030268, 6.427191177740878 ], [ 100.195586675502156, 6.427026351593097 ], [ 100.194888048925364, 6.42689768256397 ], [ 100.194183603186772, 6.426805523353906 ], [ 100.193475269123184, 6.426750126584797 ], [ 100.192764988229044, 6.426731644107367 ], [ 100.192054707334904, 6.426750126584797 ], [ 100.191346373271315, 6.426805523353906 ], [ 100.190641927532724, 6.42689768256397 ], [ 100.189943300955917, 6.427026351593097 ], [ 100.189252408427805, 6.427191177740878 ], [ 100.188571143636779, 6.427391709195384 ], [ 100.187901373882255, 6.427627396271988 ], [ 100.187244934956595, 6.42789759292039 ], [ 100.186603626113268, 6.428201558496006 ], [ 100.185979205135212, 6.428538459790567 ], [ 100.185373383516961, 6.428907373316522 ], [ 100.184787821773426, 6.429307287839018 ], [ 100.184224124888658, 6.429737107148356 ], [ 100.183683837916661, 6.430195653065368 ], [ 100.183168441746432, 6.430681668671601 ], [ 100.18267934904307, 6.431193821755184 ], [ 100.182217900375662, 6.431730708463278 ], [ 100.181785360542946, 6.432290857150725 ], [ 100.181382915106539, 6.432872732414521 ], [ 100.181011667141405, 6.433474739303146 ], [ 100.180672634212385, 6.434095227688928 ], [ 100.180366745585218, 6.434732496791741 ], [ 100.180094839679342, 6.435384799841361 ], [ 100.179857661769944, 6.436050348865971 ], [ 100.179655861945207, 6.436727319593436 ], [ 100.179489993324395, 6.43741385645201 ], [ 100.179360510541883, 6.438108077656862 ], [ 100.179267768500992, 6.43880808036819 ], [ 100.179212021401185, 6.439511945907223 ], [ 100.179193422041394, 6.440217745015265 ], [ 100.179212021401185, 6.440923543141915 ], [ 100.179267768500992, 6.441627405747459 ], [ 100.179360510541883, 6.442327403605375 ], [ 100.179489993324395, 6.443021618090059 ], [ 100.179655861945207, 6.443708146435332 ], [ 100.179857661769944, 6.444385106949642 ], [ 100.180094839679342, 6.445050644173134 ], [ 100.180366745585218, 6.445702933962982 ], [ 100.180672634212385, 6.446340188492634 ], [ 100.181011667141405, 6.44696066115154 ], [ 100.181382915106539, 6.447562651331859 ], [ 100.181785360542946, 6.448144509089031 ], [ 100.182217900375662, 6.448704639663281 ], [ 100.18267934904307, 6.449241507850089 ], [ 100.183168441746432, 6.449753642207216 ], [ 100.183683837916661, 6.450239639086978 ], [ 100.184224124888658, 6.450698166482717 ], [ 100.184787821773426, 6.451127967678873 ], [ 100.185373383516961, 6.45152786469473 ], [ 100.185979205135212, 6.451896761512406 ], [ 100.186603626113268, 6.452233647080065 ], [ 100.187244934956595, 6.452537598082519 ], [ 100.187901373882255, 6.452807781471151 ], [ 100.188571143636779, 6.453043456746649 ], [ 100.189252408427805, 6.453243977988 ], [ 100.189943300955917, 6.453408795622479 ], [ 100.190641927532724, 6.453537457931438 ], [ 100.191346373271315, 6.453629612288077 ], [ 100.192054707334904, 6.453685006123697 ], [ 100.192764988229044, 6.453703487619736 ], [ 100.193475269123184, 6.453685006123697 ], [ 100.194183603186772, 6.453629612288077 ], [ 100.194888048925364, 6.453537457931438 ], [ 100.195586675502156, 6.453408795622479 ], [ 100.196277568030268, 6.453243977988 ], [ 100.196958832821323, 6.453043456746649 ], [ 100.197628602575833, 6.452807781471151 ], [ 100.198285041501478, 6.452537598082519 ], [ 100.19892635034482, 6.452233647080065 ], [ 100.199550771322876, 6.451896761512406 ], [ 100.200156592941127, 6.45152786469473 ], [ 100.200742154684662, 6.451127967678873 ], [ 100.201305851569415, 6.450698166482717 ], [ 100.201846138541427, 6.450239639086978 ], [ 100.202361534711642, 6.449753642207216 ], [ 100.202850627415017, 6.449241507850089 ], [ 100.203312076082426, 6.448704639663281 ], [ 100.203744615915141, 6.448144509089031 ], [ 100.204147061351534, 6.447562651331859 ], [ 100.204518309316683, 6.44696066115154 ], [ 100.204857342245688, 6.446340188492634 ], [ 100.205163230872856, 6.445702933962982 ], [ 100.205435136778746, 6.445050644173134 ], [ 100.205672314688144, 6.444385106949642 ], [ 100.205874114512881, 6.443708146435332 ], [ 100.206039983133707, 6.443021618090059 ], [ 100.206169465916204, 6.442327403605375 ], [ 100.206262207957096, 6.441627405747459 ], [ 100.206317955056917, 6.440923543141915 ], [ 100.206336554416694, 6.440217745015265 ] ] ] } },
{ "type": "Feature", "properties": { "state": "Perlis", "parlimen": "P.001 Perlis Utara", "code_parlimen": "P.001", "dun": "N.05 Sena", "code_dun": "N.05" }, "geometry": { "type": "Polygon", "coordinates": [ [ [ 100.246737517901437, 6.437779709868423 ], [ 100.246718918541646, 6.437073907371104 ], [ 100.246663171441824, 6.436370038452465 ], [ 100.246570429400947, 6.435670032380435 ], [ 100.246440946618435, 6.434975807843012 ], [ 100.246275077997623, 6.434289267689089 ], [ 100.246073278172886, 6.433612293712548 ], [ 100.245836100263489, 6.432946741494 ], [ 100.245564194357598, 6.432294435314345 ], [ 100.245258305730431, 6.431657163153938 ], [ 100.244919272801425, 6.431036671791347 ], [ 100.244548024836277, 6.430434662014868 ], [ 100.244145579399884, 6.429852783960033 ], [ 100.243713039567169, 6.429292632586023 ], [ 100.243251590899746, 6.42875574330313 ], [ 100.242762498196385, 6.428243587763572 ], [ 100.24224710202617, 6.427757569826897 ], [ 100.241706815054158, 6.427299021711295 ], [ 100.241143118169404, 6.426869200341263 ], [ 100.24055755642587, 6.426469283901555 ], [ 100.239951734807619, 6.426100368607121 ], [ 100.239327313829563, 6.425763465697639 ], [ 100.238686004986221, 6.425459498665037 ], [ 100.238029566060575, 6.425189300721564 ], [ 100.237359796306052, 6.424953612515355 ], [ 100.236678531515011, 6.424753080099761 ], [ 100.235987638986899, 6.424588253162045 ], [ 100.235289012410107, 6.424459583516285 ], [ 100.234584566671515, 6.424367423864569 ], [ 100.233876232607926, 6.424312026829973 ], [ 100.233165951713787, 6.42429354426397 ], [ 100.232455670819647, 6.424312026829973 ], [ 100.231747336756058, 6.424367423864569 ], [ 100.231042891017466, 6.424459583516285 ], [ 100.23034426444066, 6.424588253162045 ], [ 100.229653371912548, 6.424753080099761 ], [ 100.228972107121507, 6.424953612515355 ], [ 100.228302337366998, 6.425189300721564 ], [ 100.227645898441338, 6.425459498665037 ], [ 100.22700458959801, 6.425763465697639 ], [ 100.226380168619954, 6.426100368607121 ], [ 100.225774347001703, 6.426469283901555 ], [ 100.225188785258169, 6.426869200341263 ], [ 100.224625088373415, 6.427299021711295 ], [ 100.224084801401403, 6.427757569826897 ], [ 100.223569405231174, 6.428243587763572 ], [ 100.223080312527813, 6.42875574330313 ], [ 100.222618863860404, 6.429292632586023 ], [ 100.222186324027689, 6.429852783960033 ], [ 100.221783878591282, 6.430434662014868 ], [ 100.221412630626148, 6.431036671791347 ], [ 100.221073597697114, 6.431657163153938 ], [ 100.22076770906996, 6.432294435314345 ], [ 100.22049580316407, 6.432946741494 ], [ 100.220258625254687, 6.433612293712548 ], [ 100.22005682542995, 6.434289267689089 ], [ 100.219890956809124, 6.434975807843012 ], [ 100.219761474026626, 6.435670032380435 ], [ 100.21966873198572, 6.436370038452465 ], [ 100.219612984885913, 6.437073907371104 ], [ 100.219594385526122, 6.437779709868423 ], [ 100.219612984885913, 6.438485511384691 ], [ 100.21966873198572, 6.439189377370936 ], [ 100.219761474026626, 6.43988937859136 ], [ 100.219890956809124, 6.440583596411109 ], [ 100.22005682542995, 6.441270128054898 ], [ 100.220258625254687, 6.441947091822088 ], [ 100.22049580316407, 6.44261263224392 ], [ 100.22076770906996, 6.44326492516874 ], [ 100.221073597697114, 6.443902182761405 ], [ 100.221412630626148, 6.44452265840296 ], [ 100.221783878591282, 6.445124651477367 ], [ 100.222186324027689, 6.445706512032078 ], [ 100.222618863860404, 6.446266645299635 ], [ 100.223080312527813, 6.446803516068137 ], [ 100.223569405231174, 6.447315652888222 ], [ 100.224084801401403, 6.447801652105412 ], [ 100.224625088373415, 6.448260181706612 ], [ 100.225188785258169, 6.448689984970204 ], [ 100.225774347001703, 6.449089883909788 ], [ 100.226380168619954, 6.449458782502148 ], [ 100.22700458959801, 6.449795669690594 ], [ 100.227645898441338, 6.450099622155454 ], [ 100.228302337366998, 6.450369806844093 ], [ 100.228972107121507, 6.450605483253586 ], [ 100.229653371912548, 6.450806005459829 ], [ 100.23034426444066, 6.450970823887411 ], [ 100.231042891017466, 6.451099486815509 ], [ 100.231747336756058, 6.451191641615619 ], [ 100.232455670819647, 6.451247035717808 ], [ 100.233165951713787, 6.451265517302774 ], [ 100.233876232607926, 6.451247035717808 ], [ 100.234584566671515, 6.451191641615619 ], [ 100.235289012410107, 6.451099486815509 ], [ 100.235987638986899, 6.450970823887411 ], [ 100.236678531515011, 6.450806005459829 ], [ 100.237359796306052, 6.450605483253586 ], [ 100.238029566060575, 6.450369806844093 ], [ 100.238686004986221, 6.450099622155454 ], [ 100.239327313829563, 6.449795669690594 ], [ 100.239951734807619, 6.449458782502148 ], [ 100.24055755642587, 6.449089883909788 ], [ 100.241143118169404, 6.448689984970204 ], [ 100.241706815054158, 6.448260181706612 ], [ 100.24224710202617, 6.447801652105412 ], [ 100.242762498196385, 6.447315652888222 ], [ 100.243251590899746, 6.446803516068137 ], [ 100.243713039567169, 6.446266645299635 ], [ 100.244145579399884, 6.445706512032078 ], [ 100.244548024836277, 6.445124651477367 ], [ 100.244919272801425, 6.44452265840296 ], [ 100.245258305730431, 6.443902182761405 ], [ 100.245564194357598, 6.44326492516874 ], [ 100.245836100263489, 6.44261263224392 ], [ 100.246073278172886, 6.441947091822088 ], [ 100.246275077997623, 6.441270128054898 ], [ 100.246440946618435, 6.440583596411109 ], [ 100.246570429400947, 6.43988937859136 ], [ 100.246663171441824, 6.439189377370936 ], [ 100.246718918541646, 6.438485511384691 ], [ 100.246737517901437, 6.437779709868423 ] ] ] } },
{ "type": "Feature", "properties": { "state": "Perlis", "parlimen": "P.001 Perlis Utara", "code_parlimen": "P.001", "dun": "N.06 Bintong", "code_dun": "N.06" }, "geometry": { "type": "Polygon", "coordinates": [ [ [ 100.18588172104721, 6.49523024883274 ], [ 100.185863121687433, 6.494524526540691 ], [ 100.185807374587625, 6.493820737598918 ], [ 100.185714632546734, 6.493120811056239 ], [ 100.185585149764222, 6.492426665382844 ], [ 100.18541928114341, 6.491740203211708 ], [ 100.185217481318659, 6.491063306123269 ], [ 100.184980303409262, 6.490397829487779 ], [ 100.184708397503385, 6.489745597379363 ], [ 100.184402508876218, 6.489108397575862 ], [ 100.184063475947212, 6.488487976658041 ], [ 100.183692227982064, 6.487886035221656 ], [ 100.183289782545657, 6.48730422321553 ], [ 100.182857242712956, 6.486744135418443 ], [ 100.182395794045533, 6.486207307067103 ], [ 100.181906701342172, 6.485695209647347 ], [ 100.181391305171957, 6.485209246860116 ], [ 100.180851018199945, 6.484750750773133 ], [ 100.180287321315191, 6.484320978168918 ], [ 100.179701759571657, 6.483921107099224 ], [ 100.179095937953406, 6.483552233655293 ], [ 100.17847151697535, 6.483215368962682 ], [ 100.177830208132008, 6.482911436409137 ], [ 100.177173769206362, 6.482641269112929 ], [ 100.176503999451839, 6.482405607638658 ], [ 100.175822734660798, 6.482205097966842 ], [ 100.175131842132686, 6.482040289722773 ], [ 100.174433215555879, 6.481911634669588 ], [ 100.173728769817288, 6.481819485469633 ], [ 100.173020435753713, 6.481764094717524 ], [ 100.172310154859574, 6.481745614247557 ], [ 100.17159987396542, 6.481764094717524 ], [ 100.170891539901845, 6.481819485469633 ], [ 100.170187094163254, 6.481911634669588 ], [ 100.169488467586447, 6.482040289722773 ], [ 100.168797575058335, 6.482205097966842 ], [ 100.168116310267294, 6.482405607638658 ], [ 100.167446540512785, 6.482641269112929 ], [ 100.166790101587125, 6.482911436409137 ], [ 100.166148792743783, 6.483215368962682 ], [ 100.165524371765741, 6.483552233655293 ], [ 100.16491855014749, 6.483921107099224 ], [ 100.164332988403956, 6.484320978168918 ], [ 100.163769291519188, 6.484750750773133 ], [ 100.16322900454719, 6.485209246860116 ], [ 100.162713608376961, 6.485695209647347 ], [ 100.162224515673586, 6.486207307067103 ], [ 100.161763067006191, 6.486744135418443 ], [ 100.161330527173476, 6.48730422321553 ], [ 100.160928081737069, 6.487886035221656 ], [ 100.160556833771935, 6.488487976658041 ], [ 100.160217800842915, 6.489108397575862 ], [ 100.159911912215748, 6.489745597379363 ], [ 100.159640006309857, 6.490397829487779 ], [ 100.159402828400474, 6.491063306123269 ], [ 100.159201028575737, 6.491740203211708 ], [ 100.159035159954911, 6.492426665382844 ], [ 100.158905677172399, 6.493120811056239 ], [ 100.158812935131508, 6.493820737598918 ], [ 100.158757188031714, 6.494524526540691 ], [ 100.158738588671909, 6.49523024883274 ], [ 100.158757188031714, 6.49593597013514 ], [ 100.158812935131508, 6.496639756118807 ], [ 100.158905677172399, 6.497339677767325 ], [ 100.159035159954911, 6.498033816664129 ], [ 100.159201028575737, 6.49872027025049 ], [ 100.159402828400474, 6.499397157040012 ], [ 100.159640006309857, 6.500062621775317 ], [ 100.159911912215748, 6.50071484051263 ], [ 100.160217800842915, 6.50135202562062 ], [ 100.160556833771935, 6.501972430679522 ], [ 100.160928081737069, 6.50257435526735 ], [ 100.161330527173476, 6.503156149619833 ], [ 100.161763067006191, 6.503716219151657 ], [ 100.162224515673586, 6.50425302882622 ], [ 100.162713608376961, 6.504765107362284 ], [ 100.16322900454719, 6.505251051265837 ], [ 100.163769291519188, 6.505709528676043 ], [ 100.164332988403956, 6.506139283014995 ], [ 100.16491855014749, 6.506539136431058 ], [ 100.165524371765741, 6.50690799302642 ], [ 100.166148792743783, 6.507244841860123 ], [ 100.166790101587125, 6.507548759718144 ], [ 100.167446540512785, 6.507818913643263 ], [ 100.168116310267294, 6.508054563217335 ], [ 100.168797575058335, 6.508255062590248 ], [ 100.169488467586447, 6.508419862249542 ], [ 100.170187094163254, 6.508548510526135 ], [ 100.170891539901845, 6.508640654831929 ], [ 100.17159987396542, 6.508696042625933 ], [ 100.172310154859574, 6.508714522106237 ], [ 100.173020435753713, 6.508696042625933 ], [ 100.173728769817288, 6.508640654831929 ], [ 100.174433215555879, 6.508548510526135 ], [ 100.175131842132686, 6.508419862249542 ], [ 100.175822734660798, 6.508255062590248 ], [ 100.176503999451839, 6.508054563217335 ], [ 100.177173769206362, 6.507818913643263 ], [ 100.177830208132008, 6.507548759718144 ], [ 100.17847151697535, 6.507244841860123 ], [ 100.179095937953406, 6.50690799302642 ], [ 100.179701759571657, 6.506539136431058 ], [ 100.180287321315191, 6.506139283014995 ], [ 100.180851018199945, 6.505709528676043 ], [ 100.181391305171957, 6.505251051265837 ], [ 100.181906701342172, 6.504765107362284 ], [ 100.182395794045533, 6.50425302882622 ], [ 100.182857242712956, 6.503716219151657 ], [ 100.183289782545657, 6.503156149619833 ], [ 100.183692227982064, 6.50257435526735 ], [ 100.184063475947212, 6.501972430679522 ], [ 100.184402508876218, 6.50135202562062 ], [ 100.184708397503385, 6.50071484051263 ], [ 100.184980303409262, 6.500062621775317 ], [ 100.185217481318659, 6.499397157040012 ], [ 100.18541928114341, 6.49872027025049 ], [ 100.185585149764222, 6.498033816664129 ], [ 100.185714632546734, 6.497339677767325 ], [ 100.185807374587625, 6.496639756118807 ], [ 100.185863121687433, 6.49593597013514 ], [ 100.18588172104721, 6.49523024883274 ] ] ] } },
{ "type": "Feature", "properties": { "state": "Perlis", "parlimen": "P.002 Perlis Selatan", "code_parlimen": "P.002", "dun": "N.07 Kurong Anai", "code_dun": "N.07" }, "geometry": { "type": "Polygon", "coordinates": [ [ [ 100.338167787519993, 6.474109858770392 ], [ 100.338149188160202, 6.473404106910215 ], [ 100.338093441060394, 6.472700288484509 ], [ 100.338000699019489, 6.472000332622853 ], [ 100.337871216236991, 6.471306157875754 ], [ 100.337705347616179, 6.470619666955787 ], [ 100.337503547791428, 6.469942741522067 ], [ 100.337266369882045, 6.469277237022386 ], [ 100.336994463976168, 6.468624977607127 ], [ 100.336688575349001, 6.467987751128785 ], [ 100.336349542419981, 6.467367304241022 ], [ 100.335978294454847, 6.466765337610586 ], [ 100.33557584901844, 6.466183501255151 ], [ 100.335143309185725, 6.465623390019983 ], [ 100.334681860518302, 6.465086539205798 ], [ 100.334192767814955, 6.464574420359752 ], [ 100.333677371644725, 6.464088437241283 ], [ 100.333137084672714, 6.463629921973571 ], [ 100.332573387787946, 6.463200131391462 ], [ 100.331987826044426, 6.462800243595778 ], [ 100.33138200442616, 6.462431354723345 ], [ 100.330757583448118, 6.462094475941793 ], [ 100.330116274604777, 6.461790530677275 ], [ 100.329459835679117, 6.46152035208272 ], [ 100.328790065924608, 6.461284680753513 ], [ 100.328108801133581, 6.46108416269703 ], [ 100.327417908605469, 6.460919347561398 ], [ 100.326719282028662, 6.460790687128546 ], [ 100.326014836290071, 6.460698534075465 ], [ 100.325306502226468, 6.460643141007262 ], [ 100.324596221332342, 6.460624659764586 ], [ 100.323885940438203, 6.460643141007262 ], [ 100.323177606374614, 6.460698534075465 ], [ 100.322473160636008, 6.460790687128546 ], [ 100.321774534059216, 6.460919347561398 ], [ 100.321083641531104, 6.46108416269703 ], [ 100.320402376740063, 6.461284680753513 ], [ 100.319732606985554, 6.46152035208272 ], [ 100.319076168059908, 6.461790530677275 ], [ 100.318434859216552, 6.462094475941793 ], [ 100.31781043823851, 6.462431354723345 ], [ 100.317204616620259, 6.462800243595778 ], [ 100.316619054876725, 6.463200131391462 ], [ 100.316055357991971, 6.463629921973571 ], [ 100.315515071019959, 6.464088437241283 ], [ 100.314999674849744, 6.464574420359752 ], [ 100.314510582146369, 6.465086539205798 ], [ 100.314049133478946, 6.465623390019983 ], [ 100.313616593646231, 6.466183501255151 ], [ 100.313214148209838, 6.466765337610586 ], [ 100.312842900244689, 6.467367304241022 ], [ 100.312503867315684, 6.467987751128785 ], [ 100.312197978688516, 6.468624977607127 ], [ 100.311926072782626, 6.469277237022386 ], [ 100.311688894873242, 6.469942741522067 ], [ 100.311487095048491, 6.470619666955787 ], [ 100.31132122642768, 6.471306157875754 ], [ 100.311191743645182, 6.472000332622853 ], [ 100.31109900160429, 6.472700288484509 ], [ 100.311043254504469, 6.473404106910215 ], [ 100.311024655144678, 6.474109858770392 ], [ 100.311043254504469, 6.474815609644089 ], [ 100.31109900160429, 6.47551942512114 ], [ 100.311191743645182, 6.476219376104283 ], [ 100.31132122642768, 6.476913544096445 ], [ 100.311487095048491, 6.477600026459077 ], [ 100.311688894873242, 6.478276941626807 ], [ 100.311926072782626, 6.478942434264317 ], [ 100.312197978688516, 6.479594680351207 ], [ 100.312503867315684, 6.480231892181021 ], [ 100.312842900244689, 6.480852323260536 ], [ 100.313214148209838, 6.481454273096257 ], [ 100.313616593646231, 6.482036091854484 ], [ 100.314049133478946, 6.482596184882757 ], [ 100.314510582146369, 6.483133017079871 ], [ 100.314999674849744, 6.48364511710258 ], [ 100.315515071019959, 6.484131081397725 ], [ 100.316055357991971, 6.48458957804834 ], [ 100.316619054876725, 6.485019350423556 ], [ 100.317204616620259, 6.485419220622044 ], [ 100.31781043823851, 6.485788092699762 ], [ 100.318434859216552, 6.48612495567308 ], [ 100.319076168059908, 6.486428886289043 ], [ 100.319732606985554, 6.486699051555231 ], [ 100.320402376740063, 6.486934711022278 ], [ 100.321083641531104, 6.487135218812797 ], [ 100.321774534059216, 6.487300025391082 ], [ 100.322473160636008, 6.487428679068995 ], [ 100.323177606374614, 6.487520827243564 ], [ 100.323885940438203, 6.487576217363101 ], [ 100.324596221332342, 6.487594697619295 ], [ 100.325306502226468, 6.487576217363101 ], [ 100.326014836290071, 6.487520827243564 ], [ 100.326719282028662, 6.487428679068995 ], [ 100.327417908605469, 6.487300025391082 ], [ 100.328108801133581, 6.487135218812797 ], [ 100.328790065924608, 6.486934711022278 ], [ 100.329459835679117, 6.486699051555231 ], [ 100.330116274604777, 6.486428886289043 ], [ 100.330757583448118, 6.48612495567308 ], [ 100.33138200442616, 6.485788092699762 ], [ 100.331987826044426, 6.485419220622044 ], [ 100.332573387787946, 6.485019350423556 ], [ 100.333137084672714, 6.48458957804834 ], [ 100.333677371644725, 6.484131081397725 ], [ 100.334192767814955, 6.48364511710258 ], [ 100.334681860518302, 6.483133017079871 ], [ 100.335143309185725, 6.482596184882757 ], [ 100.33557584901844, 6.482036091854484 ], [ 100.335978294454847, 6.481454273096257 ], [ 100.336349542419981, 6.480852323260536 ], [ 100.336688575349001, 6.480231892181021 ], [ 100.336994463976168, 6.479594680351207 ], [ 100.337266369882045, 6.478942434264317 ], [ 100.337503547791428, 6.478276941626807 ], [ 100.337705347616179, 6.477600026459077 ], [ 100.337871216236991, 6.476913544096445 ], [ 100.338000699019489, 6.476219376104283 ], [ 100.338093441060394, 6.47551942512114 ], [ 100.338149188160202, 6.474815609644089 ], [ 100.338167787519993, 6.474109858770392 ] ] ] } },
{ "type": "Feature", "properties": { "state": "Perlis", "parlimen": "P.002 Perlis Selatan", "code_parlimen": "P.002", "dun": "N.08 Arau", "code_dun": "N.08" }, "geometry": { "type": "Polygon", "coordinates": [ [ [ 100.278765464992617, 6.414428114750938 ], [ 100.278746865632826, 6.41372227985588 ], [ 100.278691118533018, 6.413018378631786 ], [ 100.278598376492113, 6.412318340435073 ], [ 100.278468893709615, 6.411624084041735 ], [ 100.278303025088803, 6.410937512387892 ], [ 100.278101225264052, 6.410260507353641 ], [ 100.277864047354669, 6.409594924604554 ], [ 100.277592141448793, 6.408942588505028 ], [ 100.277286252821625, 6.40830528711727 ], [ 100.276947219892605, 6.407684767299731 ], [ 100.276575971927471, 6.407082729918442 ], [ 100.276173526491064, 6.40650082518439 ], [ 100.275740986658349, 6.405940648129602 ], [ 100.275279537990926, 6.405403734234521 ], [ 100.274790445287579, 6.404891555218513 ], [ 100.27427504911735, 6.404405515005233 ], [ 100.273734762145338, 6.403946945873644 ], [ 100.27317106526057, 6.403517104805571 ], [ 100.27258550351705, 6.403117170039494 ], [ 100.271979681898785, 6.402748237840362 ], [ 100.271355260920743, 6.402411319493906 ], [ 100.270713952077401, 6.402107338534176 ], [ 100.270057513151741, 6.401837128211335 ], [ 100.269387743397232, 6.401601429207283 ], [ 100.268706478606205, 6.401400887604772 ], [ 100.268015586078093, 6.401236053116139 ], [ 100.267316959501287, 6.401107377575983 ], [ 100.266612513762695, 6.401015213702489 ], [ 100.265904179699092, 6.40095981413023 ], [ 100.265193898804966, 6.400941330717551 ], [ 100.264483617910827, 6.40095981413023 ], [ 100.263775283847224, 6.401015213702489 ], [ 100.263070838108632, 6.401107377575983 ], [ 100.26237221153184, 6.401236053116139 ], [ 100.261681319003728, 6.401400887604772 ], [ 100.261000054212687, 6.401601429207283 ], [ 100.260330284458178, 6.401837128211335 ], [ 100.259673845532532, 6.402107338534176 ], [ 100.259032536689176, 6.402411319493906 ], [ 100.258408115711134, 6.402748237840362 ], [ 100.257802294092869, 6.403117170039494 ], [ 100.257216732349349, 6.403517104805571 ], [ 100.256653035464595, 6.403946945873644 ], [ 100.256112748492583, 6.404405515005233 ], [ 100.255597352322368, 6.404891555218513 ], [ 100.255108259618993, 6.405403734234521 ], [ 100.25464681095157, 6.405940648129602 ], [ 100.254214271118855, 6.40650082518439 ], [ 100.253811825682462, 6.407082729918442 ], [ 100.253440577717313, 6.407684767299731 ], [ 100.253101544788308, 6.40830528711727 ], [ 100.25279565616114, 6.408942588505028 ], [ 100.25252375025525, 6.409594924604554 ], [ 100.252286572345866, 6.410260507353641 ], [ 100.252084772521115, 6.410937512387892 ], [ 100.251918903900304, 6.411624084041735 ], [ 100.251789421117806, 6.412318340435073 ], [ 100.251696679076915, 6.413018378631786 ], [ 100.251640931977093, 6.41372227985588 ], [ 100.251622332617302, 6.414428114750938 ], [ 100.251640931977093, 6.415133948668459 ], [ 100.251696679076915, 6.415837846970628 ], [ 100.251789421117806, 6.416537880333025 ], [ 100.251918903900304, 6.417232130032644 ], [ 100.252084772521115, 6.417918693206708 ], [ 100.252286572345866, 6.418595688068019 ], [ 100.25252375025525, 6.419261259062463 ], [ 100.25279565616114, 6.419913581954417 ], [ 100.253101544788308, 6.420550868826392 ], [ 100.253440577717313, 6.421171372978972 ], [ 100.253811825682462, 6.421773393717755 ], [ 100.254214271118855, 6.422355281014074 ], [ 100.25464681095157, 6.422915440026999 ], [ 100.255108259618993, 6.423452335473718 ], [ 100.255597352322368, 6.423964495837007 ], [ 100.256112748492583, 6.424450517397568 ], [ 100.256653035464595, 6.424909068080782 ], [ 100.257216732349349, 6.425338891106979 ], [ 100.257802294092869, 6.425738808435335 ], [ 100.258408115711134, 6.426107723991973 ], [ 100.259032536689176, 6.426444626673459 ], [ 100.259673845532532, 6.426748593117417 ], [ 100.260330284458178, 6.427018790232688 ], [ 100.261000054212687, 6.427254477482096 ], [ 100.261681319003728, 6.427455008911642 ], [ 100.26237221153184, 6.427619834920509 ], [ 100.263070838108632, 6.427748503766945 ], [ 100.263775283847224, 6.427840662806136 ], [ 100.264483617910827, 6.42789605945647 ], [ 100.265193898804966, 6.427914541891599 ], [ 100.265904179699092, 6.42789605945647 ], [ 100.266612513762695, 6.427840662806136 ], [ 100.267316959501287, 6.427748503766945 ], [ 100.268015586078093, 6.427619834920509 ], [ 100.268706478606205, 6.427455008911642 ], [ 100.269387743397232, 6.427254477482096 ], [ 100.270057513151741, 6.427018790232688 ], [ 100.270713952077401, 6.426748593117417 ], [ 100.271355260920743, 6.426444626673459 ], [ 100.271979681898785, 6.426107723991973 ], [ 100.27258550351705, 6.425738808435335 ], [ 100.27317106526057, 6.425338891106979 ], [ 100.273734762145338, 6.424909068080782 ], [ 100.27427504911735, 6.424450517397568 ], [ 100.274790445287579, 6.423964495837007 ], [ 100.275279537990926, 6.423452335473718 ], [ 100.275740986658349, 6.422915440026999 ], [ 100.276173526491064, 6.422355281014074 ], [ 100.276575971927471, 6.421773393717755 ], [ 100.276947219892605, 6.421171372978972 ], [ 100.277286252821625, 6.420550868826392 ], [ 100.277592141448793, 6.419913581954417 ], [ 100.277864047354669, 6.419261259062463 ], [ 100.278101225264052, 6.418595688068019 ], [ 100.278303025088803, 6.417918693206708 ], [ 100.278468893709615, 6.417232130032644 ], [ 100.278598376492113, 6.416537880333025 ], [ 100.278691118533018, 6.415837846970628 ], [ 100.278746865632826, 6.415133948668459 ], [ 100.278765464992617, 6.414428114750938 ] ] ] } },
{ "type": "Feature", "properties": { "state": "Perlis", "parlimen": "P.002 Perlis Selatan", "code_parlimen": "P.002", "dun": "N.09 Hutan Aji", "code_dun": "N.09" }, "geometry": { "type": "Polygon", "coordinates": [ [ [ 100.233995038522664, 6.376144654865781 ], [ 100.233976439162888, 6.375438767110337 ], [ 100.23392069206308, 6.374734813176451 ], [ 100.233827950022189, 6.37403472256496 ], [ 100.233698467239662, 6.373340414195416 ], [ 100.233532598618865, 6.372653791146202 ], [ 100.233330798794114, 6.371976735438094 ], [ 100.233093620884716, 6.371311102875325 ], [ 100.23282171497884, 6.370658717958547 ], [ 100.232515826351673, 6.370021368883434 ], [ 100.232176793422667, 6.369400802638805 ], [ 100.231805545457519, 6.368798720217579 ], [ 100.231403100021112, 6.36821677195378 ], [ 100.23097056018841, 6.367656552998327 ], [ 100.230509111521002, 6.367119598946059 ], [ 100.230020018817626, 6.366607381626007 ], [ 100.229504622647397, 6.366121305066341 ], [ 100.2289643356754, 6.365662701645192 ], [ 100.228400638790632, 6.36523282843792 ], [ 100.227815077047097, 6.364832863770685 ], [ 100.227209255428846, 6.364463903989948 ], [ 100.226584834450804, 6.364126960456667 ], [ 100.225943525607462, 6.363822956773502 ], [ 100.225287086681803, 6.363552726252612 ], [ 100.224617316927294, 6.363317009630882 ], [ 100.223936052136253, 6.363116453039116 ], [ 100.22324515960814, 6.362951606230453 ], [ 100.222546533031334, 6.362822921073076 ], [ 100.221842087292742, 6.362730750311365 ], [ 100.221133753229168, 6.362675346598647 ], [ 100.220423472335028, 6.362656861804564 ], [ 100.219713191440874, 6.362675346598647 ], [ 100.2190048573773, 6.362730750311365 ], [ 100.218300411638708, 6.362822921073076 ], [ 100.217601785061902, 6.362951606230453 ], [ 100.216910892533789, 6.363116453039116 ], [ 100.216229627742763, 6.363317009630882 ], [ 100.215559857988239, 6.363552726252612 ], [ 100.21490341906258, 6.363822956773502 ], [ 100.214262110219238, 6.364126960456667 ], [ 100.213637689241196, 6.364463903989948 ], [ 100.213031867622945, 6.364832863770685 ], [ 100.212446305879411, 6.36523282843792 ], [ 100.211882608994642, 6.365662701645192 ], [ 100.211342322022645, 6.366121305066341 ], [ 100.210826925852416, 6.366607381626007 ], [ 100.210337833149055, 6.367119598946059 ], [ 100.209876384481646, 6.367656552998327 ], [ 100.209443844648931, 6.36821677195378 ], [ 100.209041399212524, 6.368798720217579 ], [ 100.208670151247375, 6.369400802638805 ], [ 100.20833111831837, 6.370021368883434 ], [ 100.208025229691202, 6.370658717958547 ], [ 100.207753323785326, 6.371311102875325 ], [ 100.207516145875928, 6.371976735438094 ], [ 100.207314346051191, 6.372653791146202 ], [ 100.20714847743038, 6.373340414195416 ], [ 100.207018994647854, 6.37403472256496 ], [ 100.206926252606962, 6.374734813176451 ], [ 100.206870505507155, 6.375438767110337 ], [ 100.206851906147378, 6.376144654865781 ], [ 100.206870505507155, 6.376850541649414 ], [ 100.206926252606962, 6.377554492678513 ], [ 100.207018994647854, 6.378254578484071 ], [ 100.20714847743038, 6.378948880199194 ], [ 100.207314346051191, 6.3796354948184 ], [ 100.207516145875928, 6.380312540413272 ], [ 100.207753323785326, 6.380978161290377 ], [ 100.208025229691202, 6.381630533077102 ], [ 100.20833111831837, 6.38226786772163 ], [ 100.208670151247375, 6.382888418393233 ], [ 100.209041399212524, 6.383490484269621 ], [ 100.209443844648931, 6.384072415198047 ], [ 100.209876384481646, 6.384632616217526 ], [ 100.210337833149055, 6.385169551929698 ], [ 100.210826925852416, 6.385681750706505 ], [ 100.211342322022645, 6.386167808722927 ], [ 100.211882608994642, 6.386626393803993 ], [ 100.212446305879411, 6.387056249075277 ], [ 100.213031867622945, 6.387456196407141 ], [ 100.213637689241196, 6.387825139643052 ], [ 100.214262110219238, 6.388162067603307 ], [ 100.21490341906258, 6.388466056855876 ], [ 100.215559857988239, 6.388736274246736 ], [ 100.216229627742763, 6.388971979182802 ], [ 100.216910892533789, 6.38917252566132 ], [ 100.217601785061902, 6.389337364039988 ], [ 100.218300411638708, 6.389466042542919 ], [ 100.2190048573773, 6.38955820849871 ], [ 100.219713191440874, 6.38961360930664 ], [ 100.220423472335028, 6.389632093128911 ], [ 100.221133753229168, 6.38961360930664 ], [ 100.221842087292742, 6.38955820849871 ], [ 100.222546533031334, 6.389466042542919 ], [ 100.22324515960814, 6.389337364039988 ], [ 100.223936052136253, 6.38917252566132 ], [ 100.224617316927294, 6.388971979182802 ], [ 100.225287086681803, 6.388736274246736 ], [ 100.225943525607462, 6.388466056855876 ], [ 100.226584834450804, 6.388162067603307 ], [ 100.227209255428846, 6.387825139643052 ], [ 100.227815077047097, 6.387456196407141 ], [ 100.228400638790632, 6.387056249075277 ], [ 100.2289643356754, 6.386626393803993 ], [ 100.229504622647397, 6.386167808722927 ], [ 100.230020018817626, 6.385681750706505 ], [ 100.230509111521002, 6.385169551929698 ], [ 100.23097056018841, 6.384632616217526 ], [ 100.231403100021112, 6.384072415198047 ], [ 100.231805545457519, 6.383490484269621 ], [ 100.232176793422667, 6.382888418393233 ], [ 100.232515826351673, 6.38226786772163 ], [ 100.23282171497884, 6.381630533077102 ], [ 100.233093620884716, 6.380978161290377 ], [ 100.233330798794114, 6.380312540413272 ], [ 100.233532598618865, 6.3796354948184 ], [ 100.233698467239662, 6.378948880199194 ], [ 100.233827950022189, 6.378254578484071 ], [ 100.23392069206308, 6.377554492678513 ], [ 100.233976439162888, 6.376850541649414 ], [ 100.233995038522664, 6.376144654865781 ] ] ] } },
{ "type": "Feature", "properties": { "state": "Perlis", "parlimen": "P.002 Perlis Selatan", "code_parlimen": "P.002", "dun": "N.10 Kayang", "code_dun": "N.10" }, "geometry": { "type": "Polygon", "coordinates": [ [ [ 100.190325845061352, 6.368664987512632 ], [ 100.190307245701575, 6.367959089466351 ], [ 100.190251498601768, 6.367255125270939 ], [ 100.190158756560876, 6.366555024455363 ], [ 100.190029273778364, 6.365860705967102 ], [ 100.189863405157553, 6.365174072912269 ], [ 100.189661605332802, 6.364497007338997 ], [ 100.189424427423404, 6.363831365078538 ], [ 100.189152521517528, 6.363178970658059 ], [ 100.18884663289036, 6.362541612299212 ], [ 100.188507599961355, 6.361921037016198 ], [ 100.188136351996206, 6.361318945826653 ], [ 100.187733906559799, 6.360736989088521 ], [ 100.187301366727098, 6.360176761975899 ], [ 100.186839918059675, 6.359639800105879 ], [ 100.186350825356314, 6.359127575328839 ], [ 100.185835429186099, 6.358641491693303 ], [ 100.185295142214088, 6.358182881596704 ], [ 100.184731445329334, 6.357753002132633 ], [ 100.184145883585799, 6.357353031644283 ], [ 100.183540061967534, 6.356984066493993 ], [ 100.182915640989492, 6.356647118057379 ], [ 100.18227433214615, 6.356343109950443 ], [ 100.181617893220505, 6.356072875497434 ], [ 100.180948123465981, 6.355837155445921 ], [ 100.180266858674941, 6.355636595936073 ], [ 100.179575966146828, 6.355471746728965 ], [ 100.178877339570022, 6.355343059699337 ], [ 100.17817289383143, 6.355250887596627 ], [ 100.177464559767856, 6.355195483077855 ], [ 100.176754278873716, 6.35517699801485 ], [ 100.176043997979562, 6.355195483077855 ], [ 100.175335663915988, 6.355250887596627 ], [ 100.174631218177396, 6.355343059699337 ], [ 100.17393259160059, 6.355471746728965 ], [ 100.173241699072477, 6.355636595936073 ], [ 100.172560434281436, 6.355837155445921 ], [ 100.171890664526927, 6.356072875497434 ], [ 100.171234225601268, 6.356343109950443 ], [ 100.170592916757926, 6.356647118057379 ], [ 100.169968495779884, 6.356984066493993 ], [ 100.169362674161633, 6.357353031644283 ], [ 100.168777112418098, 6.357753002132633 ], [ 100.16821341553333, 6.358182881596704 ], [ 100.167673128561333, 6.358641491693303 ], [ 100.167157732391104, 6.359127575328839 ], [ 100.166668639687728, 6.359639800105879 ], [ 100.166207191020334, 6.360176761975899 ], [ 100.165774651187618, 6.360736989088521 ], [ 100.165372205751211, 6.361318945826653 ], [ 100.165000957786063, 6.361921037016198 ], [ 100.164661924857057, 6.362541612299212 ], [ 100.16435603622989, 6.363178970658059 ], [ 100.164084130323999, 6.363831365078538 ], [ 100.163846952414616, 6.364497007338997 ], [ 100.163645152589879, 6.365174072912269 ], [ 100.163479283969053, 6.365860705967102 ], [ 100.163349801186541, 6.366555024455363 ], [ 100.16325705914565, 6.367255125270939 ], [ 100.163201312045857, 6.367959089466351 ], [ 100.163182712686051, 6.368664987512632 ], [ 100.163201312045857, 6.369370884588235 ], [ 100.16325705914565, 6.370074845882217 ], [ 100.163349801186541, 6.370774941897407 ], [ 100.163479283969053, 6.37146925373892 ], [ 100.163645152589879, 6.372155878373463 ], [ 100.163846952414616, 6.372832933845154 ], [ 100.164084130323999, 6.373498564433435 ], [ 100.16435603622989, 6.374150945739024 ], [ 100.164661924857057, 6.374788289683927 ], [ 100.165000957786063, 6.37540884941188 ], [ 100.165372205751211, 6.376010924075695 ], [ 100.165774651187618, 6.376592863498442 ], [ 100.166207191020334, 6.377153072695788 ], [ 100.166668639687728, 6.37769001624687 ], [ 100.167157732391104, 6.378202222502051 ], [ 100.167673128561333, 6.378688287615741 ], [ 100.16821341553333, 6.379146879393401 ], [ 100.168777112418098, 6.379576740942198 ], [ 100.169362674161633, 6.379976694115162 ], [ 100.169968495779884, 6.380345642739709 ], [ 100.170592916757926, 6.380682575621274 ], [ 100.171234225601268, 6.380986569314266 ], [ 100.171890664526927, 6.381256790652386 ], [ 100.172560434281436, 6.381492499031708 ], [ 100.173241699072477, 6.381693048439987 ], [ 100.17393259160059, 6.381857889226818 ], [ 100.174631218177396, 6.381986569609698 ], [ 100.175335663915988, 6.38207873691201 ], [ 100.176043997979562, 6.38213413852934 ], [ 100.176754278873716, 6.382152622621665 ], [ 100.177464559767856, 6.38213413852934 ], [ 100.17817289383143, 6.38207873691201 ], [ 100.178877339570022, 6.381986569609698 ], [ 100.179575966146828, 6.381857889226818 ], [ 100.180266858674941, 6.381693048439987 ], [ 100.180948123465981, 6.381492499031708 ], [ 100.181617893220505, 6.381256790652386 ], [ 100.18227433214615, 6.380986569314266 ], [ 100.182915640989492, 6.380682575621274 ], [ 100.183540061967534, 6.380345642739709 ], [ 100.184145883585799, 6.379976694115162 ], [ 100.184731445329334, 6.379576740942198 ], [ 100.185295142214088, 6.379146879393401 ], [ 100.185835429186099, 6.378688287615741 ], [ 100.186350825356314, 6.378202222502051 ], [ 100.186839918059675, 6.37769001624687 ], [ 100.187301366727098, 6.377153072695788 ], [ 100.187733906559799, 6.376592863498442 ], [ 100.188136351996206, 6.376010924075695 ], [ 100.188507599961355, 6.37540884941188 ], [ 100.18884663289036, 6.374788289683927 ], [ 100.189152521517528, 6.374150945739024 ], [ 100.189424427423404, 6.373498564433435 ], [ 100.189661605332802, 6.372832933845154 ], [ 100.189863405157553, 6.372155878373463 ], [ 100.190029273778364, 6.37146925373892 ], [ 100.190158756560876, 6.370774941897407 ], [ 100.190251498601768, 6.370074845882217 ], [ 100.190307245701575, 6.369370884588235 ], [ 100.190325845061352, 6.368664987512632 ] ] ] } },
{ "type": "Feature", "properties": { "state": "Perlis", "parlimen": "P.002 Perlis Selatan", "code_parlimen": "P.002", "dun": "N.11 Kuala Perlis", "code_dun": "N.11" }, "geometry": { "type": "Polygon", "coordinates": [ [ [ 100.156273271663892, 6.401551025339679 ], [ 100.156254672304115, 6.400845172629228 ], [ 100.156198925204308, 6.400141253640502 ], [ 100.156106183163416, 6.399441197778594 ], [ 100.15597670038089, 6.398746923867855 ], [ 100.155810831760093, 6.398060334892367 ], [ 100.155609031935342, 6.39738331277962 ], [ 100.155371854025944, 6.396717713241949 ], [ 100.155099948120068, 6.396065360689668 ], [ 100.1547940594929, 6.395428043229956 ], [ 100.154455026563895, 6.394807507765196 ], [ 100.154083778598746, 6.3942054552042 ], [ 100.153681333162339, 6.393623535799419 ], [ 100.153248793329638, 6.393063344622931 ], [ 100.152787344662215, 6.39252641719375 ], [ 100.152298251958854, 6.392014225268201 ], [ 100.151782855788625, 6.391528172805168 ], [ 100.151242568816627, 6.391069592117046 ], [ 100.150678871931859, 6.390639740217149 ], [ 100.150093310188325, 6.390239795373549 ], [ 100.149487488570074, 6.389870853878622 ], [ 100.148863067592032, 6.389533927043495 ], [ 100.14822175874869, 6.389229938425319 ], [ 100.14756531982303, 6.388959721295163 ], [ 100.146895550068521, 6.388724016353447 ], [ 100.14621428527748, 6.388523469699146 ], [ 100.145523392749368, 6.3883586310583 ], [ 100.144824766172562, 6.38822995227688 ], [ 100.14412032043397, 6.388137786081847 ], [ 100.143411986370396, 6.388082385114139 ], [ 100.142701705476256, 6.38806390123589 ], [ 100.141991424582102, 6.388082385114139 ], [ 100.141283090518527, 6.388137786081847 ], [ 100.140578644779936, 6.38822995227688 ], [ 100.139880018203129, 6.3883586310583 ], [ 100.139189125675017, 6.388523469699146 ], [ 100.138507860883976, 6.388724016353447 ], [ 100.137838091129467, 6.388959721295163 ], [ 100.137181652203807, 6.389229938425319 ], [ 100.136540343360465, 6.389533927043495 ], [ 100.135915922382424, 6.389870853878622 ], [ 100.135310100764173, 6.390239795373549 ], [ 100.134724539020638, 6.390639740217149 ], [ 100.13416084213587, 6.391069592117046 ], [ 100.133620555163873, 6.391528172805168 ], [ 100.133105158993644, 6.392014225268201 ], [ 100.132616066290268, 6.39252641719375 ], [ 100.132154617622874, 6.393063344622931 ], [ 100.131722077790158, 6.393623535799419 ], [ 100.131319632353751, 6.3942054552042 ], [ 100.130948384388603, 6.394807507765196 ], [ 100.130609351459597, 6.395428043229956 ], [ 100.13030346283243, 6.396065360689668 ], [ 100.130031556926539, 6.396717713241949 ], [ 100.129794379017156, 6.39738331277962 ], [ 100.129592579192419, 6.398060334892367 ], [ 100.129426710571593, 6.398746923867855 ], [ 100.129297227789081, 6.399441197778594 ], [ 100.12920448574819, 6.400141253640502 ], [ 100.129148738648382, 6.400845172629228 ], [ 100.129130139288591, 6.401551025339679 ], [ 100.129148738648382, 6.402256877074502 ], [ 100.12920448574819, 6.402960793147066 ], [ 100.129297227789081, 6.403660844184213 ], [ 100.129426710571593, 6.404355111414452 ], [ 100.129592579192419, 6.405041691926903 ], [ 100.129794379017156, 6.405718703886773 ], [ 100.130031556926539, 6.406384291693006 ], [ 100.13030346283243, 6.407036631063783 ], [ 100.130609351459597, 6.407673934036374 ], [ 100.130948384388603, 6.408294453867092 ], [ 100.131319632353751, 6.40889648981843 ], [ 100.131722077790158, 6.409478391819929 ], [ 100.132154617622874, 6.410038564990152 ], [ 100.132616066290268, 6.410575474007381 ], [ 100.133105158993644, 6.411087647317029 ], [ 100.133620555163873, 6.411573681164149 ], [ 100.13416084213587, 6.412032243440332 ], [ 100.134724539020638, 6.412462077333964 ], [ 100.135310100764173, 6.412862004774269 ], [ 100.135915922382424, 6.413230929659537 ], [ 100.136540343360465, 6.413567840860636 ], [ 100.137181652203807, 6.413871814991677 ], [ 100.137838091129467, 6.414142018940343 ], [ 100.138507860883976, 6.414377712150607 ], [ 100.139189125675017, 6.414578248652056 ], [ 100.139880018203129, 6.414743078829854 ], [ 100.140578644779936, 6.414871750930773 ], [ 100.141283090518527, 6.414963912301032 ], [ 100.141991424582102, 6.415019310352578 ], [ 100.142701705476256, 6.415037793255212 ], [ 100.143411986370396, 6.415019310352578 ], [ 100.14412032043397, 6.414963912301032 ], [ 100.144824766172562, 6.414871750930773 ], [ 100.145523392749368, 6.414743078829854 ], [ 100.14621428527748, 6.414578248652056 ], [ 100.146895550068521, 6.414377712150607 ], [ 100.14756531982303, 6.414142018940343 ], [ 100.14822175874869, 6.413871814991677 ], [ 100.148863067592032, 6.413567840860636 ], [ 100.149487488570074, 6.413230929659537 ], [ 100.150093310188325, 6.412862004774269 ], [ 100.150678871931859, 6.412462077333964 ], [ 100.151242568816627, 6.412032243440332 ], [ 100.151782855788625, 6.411573681164149 ], [ 100.152298251958854, 6.411087647317029 ], [ 100.152787344662215, 6.410575474007381 ], [ 100.153248793329638, 6.410038564990152 ], [ 100.153681333162339, 6.409478391819929 ], [ 100.154083778598746, 6.40889648981843 ], [ 100.154455026563895, 6.408294453867092 ], [ 100.1547940594929, 6.407673934036374 ], [ 100.155099948120068, 6.407036631063783 ], [ 100.155371854025944, 6.406384291693006 ], [ 100.155609031935342, 6.405718703886773 ], [ 100.155810831760093, 6.405041691926903 ], [ 100.15597670038089, 6.404355111414452 ], [ 100.156106183163416, 6.403660844184213 ], [ 100.156198925204308, 6.402960793147066 ], [ 100.156254672304115, 6.402256877074502 ], [ 100.156273271663892, 6.401551025339679 ] ] ] } },
{ "type": "Feature", "properties": { "state": "Perlis", "parlimen": "P.002 Perlis Selatan", "code_parlimen": "P.002", "dun": "N.12 Sanglang", "code_dun": "N.12" }, "geometry": { "type": "Polygon", "coordinates": [ [ [ 100.205848047186038, 6.305439584182524 ], [ 100.205829447826261, 6.304733599628653 ], [ 100.205773700726439, 6.304029549172222 ], [ 100.205680958685548, 6.303329362578499 ], [ 100.205551475903036, 6.302634959029865 ], [ 100.205385607282224, 6.30194824186534 ], [ 100.205183807457473, 6.301271093363252 ], [ 100.20494662954809, 6.300605369581742 ], [ 100.204674723642199, 6.299952895270932 ], [ 100.204368835015032, 6.299315458870968 ], [ 100.204029802086026, 6.298694807609349 ], [ 100.203658554120878, 6.298092642711341 ], [ 100.203256108684471, 6.297510614736251 ], [ 100.20282356885177, 6.29695031905274 ], [ 100.202362120184361, 6.296413291465146 ], [ 100.201873027480985, 6.295901004003228 ], [ 100.201357631310771, 6.295414860886574 ], [ 100.200817344338759, 6.294956194674927 ], [ 100.200253647454005, 6.294526262614913 ], [ 100.199668085710471, 6.294126243193208 ], [ 100.19906226409222, 6.293757232905556 ], [ 100.198437843114164, 6.293420243250644 ], [ 100.197796534270822, 6.293116197956829 ], [ 100.197140095345176, 6.292845930449675 ], [ 100.196470325590667, 6.292610181566855 ], [ 100.195789060799612, 6.292409597527093 ], [ 100.1950981682715, 6.292244728158271 ], [ 100.194399541694693, 6.292116025390087 ], [ 100.193695095956102, 6.29202384201483 ], [ 100.192986761892527, 6.291968430720217 ], [ 100.192276480998387, 6.29194994339655 ], [ 100.191566200104234, 6.291968430720217 ], [ 100.190857866040659, 6.29202384201483 ], [ 100.190153420302067, 6.292116025390087 ], [ 100.189454793725261, 6.292244728158271 ], [ 100.188763901197149, 6.292409597527093 ], [ 100.188082636406122, 6.292610181566855 ], [ 100.187412866651599, 6.292845930449675 ], [ 100.186756427725939, 6.293116197956829 ], [ 100.186115118882597, 6.293420243250644 ], [ 100.185490697904555, 6.293757232905556 ], [ 100.184884876286304, 6.294126243193208 ], [ 100.18429931454277, 6.294526262614913 ], [ 100.183735617658002, 6.294956194674927 ], [ 100.183195330686004, 6.295414860886574 ], [ 100.182679934515775, 6.295901004003228 ], [ 100.182190841812414, 6.296413291465146 ], [ 100.181729393145005, 6.29695031905274 ], [ 100.18129685331229, 6.297510614736251 ], [ 100.180894407875883, 6.298092642711341 ], [ 100.180523159910749, 6.298694807609349 ], [ 100.180184126981729, 6.299315458870968 ], [ 100.179878238354561, 6.299952895270932 ], [ 100.179606332448685, 6.300605369581742 ], [ 100.179369154539287, 6.301271093363252 ], [ 100.179167354714551, 6.30194824186534 ], [ 100.179001486093739, 6.302634959029865 ], [ 100.178872003311213, 6.303329362578499 ], [ 100.178779261270321, 6.304029549172222 ], [ 100.178723514170528, 6.304733599628653 ], [ 100.178704914810737, 6.305439584182524 ], [ 100.178723514170528, 6.30614556777518 ], [ 100.178779261270321, 6.306849615358502 ], [ 100.178872003311213, 6.307549797198734 ], [ 100.179001486093739, 6.308244194165515 ], [ 100.179167354714551, 6.308930902991987 ], [ 100.179369154539287, 6.309608041491154 ], [ 100.179606332448685, 6.31027375371449 ], [ 100.179878238354561, 6.310926215038459 ], [ 100.180184126981729, 6.311563637165264 ], [ 100.180523159910749, 6.312184273023724 ], [ 100.180894407875883, 6.312786421557385 ], [ 100.18129685331229, 6.313368432386205 ], [ 100.181729393145005, 6.31392871032937 ], [ 100.182190841812414, 6.31446571977694 ], [ 100.182679934515775, 6.314977988897883 ], [ 100.183195330686004, 6.315464113673576 ], [ 100.183735617658002, 6.315922761745195 ], [ 100.18429931454277, 6.316352676064877 ], [ 100.184884876286304, 6.316752678340314 ], [ 100.185490697904555, 6.317121672263606 ], [ 100.186115118882597, 6.317458646515384 ], [ 100.186756427725939, 6.317762677536014 ], [ 100.187412866651599, 6.318032932056352 ], [ 100.188082636406122, 6.318268669380974 ], [ 100.188763901197149, 6.318469243417828 ], [ 100.189454793725261, 6.318634104448583 ], [ 100.190153420302067, 6.31876280063494 ], [ 100.190857866040659, 6.318854979256693 ], [ 100.191566200104234, 6.318910387678196 ], [ 100.192276480998387, 6.318928874040648 ], [ 100.192986761892527, 6.318910387678196 ], [ 100.193695095956102, 6.318854979256693 ], [ 100.194399541694693, 6.31876280063494 ], [ 100.1950981682715, 6.318634104448583 ], [ 100.195789060799612, 6.318469243417828 ], [ 100.196470325590667, 6.318268669380974 ], [ 100.197140095345176, 6.318032932056352 ], [ 100.197796534270822, 6.317762677536014 ], [ 100.198437843114164, 6.317458646515384 ], [ 100.19906226409222, 6.317121672263606 ], [ 100.199668085710471, 6.316752678340314 ], [ 100.200253647454005, 6.316352676064877 ], [ 100.200817344338759, 6.315922761745195 ], [ 100.201357631310771, 6.315464113673576 ], [ 100.201873027480985, 6.314977988897883 ], [ 100.202362120184361, 6.31446571977694 ], [ 100.20282356885177, 6.31392871032937 ], [ 100.203256108684471, 6.313368432386205 ], [ 100.203658554120878, 6.312786421557385 ], [ 100.204029802086026, 6.312184273023724 ], [ 100.204368835015032, 6.311563637165264 ], [ 100.204674723642199, 6.310926215038459 ], [ 100.20494662954809, 6.31027375371449 ], [ 100.205183807457473, 6.309608041491154 ], [ 100.205385607282224, 6.308930902991987 ], [ 100.205551475903036, 6.308244194165515 ], [ 100.205680958685548, 6.307549797198734 ], [ 100.205773700726439, 6.306849615358502 ], [ 100.205829447826261, 6.30614556777518 ], [ 100.205848047186038, 6.305439584182524 ] ] ] } }
]
}
