<?xml version="1.0" encoding="UTF-8"?>
<kml xmlns="http://www.opengis.net/kml/2.2">
  <Document id="root_doc">
    <Schema id="PLS_SE_04" name="PLS_SE_04">
      <SimpleField name="state" type="string"/>
      <SimpleField name="parlimen" type="string"/>
      <SimpleField name="code_parlimen" type="string"/>
      <SimpleField name="dun" type="string"/>
      <SimpleField name="code_dun" type="string"/>
    </Schema>
    <Schema id="PLS_SE-04.schema">
      <SimpleField name="state" type="string"/>
      <SimpleField name="parlimen" type="string"/>
      <SimpleField name="code_parlimen" type="string"/>
      <SimpleField name="dun" type="string"/>
      <SimpleField name="code_dun" type="string"/>
    </Schema>
    <Schema id="PLS_SE-04.schema">
      <SimpleField name="state" type="string"/>
      <SimpleField name="parlimen" type="string"/>
      <SimpleField name="code_parlimen" type="string"/>
      <SimpleField name="dun" type="string"/>
      <SimpleField name="code_dun" type="string"/>
    </Schema>
    <Folder>
      <name>PLS_SE_04</name>
      <Placemark id="PLS_SE_04.1">
        <name>Perlis</name>
        <description>P.001 Kangar</description>
        <Style>
          <LineStyle>
            <color>ff0000ff</color>
          </LineStyle>
          <PolyStyle>
            <fill>0</fill>
          </PolyStyle>
        </Style>
        <ExtendedData>
          <SchemaData schemaUrl="#PLS_SE_04">
            <SimpleData name="state">P.001</SimpleData>
            <SimpleData name="parlimen">N.01 Titi Tinggi</SimpleData>
            <SimpleData name="code_parlimen">N.01</SimpleData>
          </SchemaData>
        </ExtendedData>
        <Polygon>
          <outerBoundaryIs>
            <LinearRing>
              <coordinates>
                100.303203,6.599876,0
                100.28446,6.595442,0
                100.276158,6.593257,0
                100.265314,6.590404,0
                100.262918,6.587323,0
                100.262039,6.58039,0
                100.259724,6.571901,0
                100.259692,6.571905,0
                100.258566,6.572055,0
                100.253241,6.578538,0
                100.252006,6.587491,0
                100.249459,6.592507,0
                100.243516,6.594746,0
                100.236493,6.592121,0
                100.230705,6.591273,0
                100.22893,6.590038,0
                100.227618,6.586719,0
                100.224608,6.585021,0
                100.219746,6.584635,0
                100.214498,6.578693,0
                100.189415,6.577535,0
                100.183266,6.577326,0
                100.183506,6.57995,0
                100.181707,6.582453,0
                100.180807,6.587816,0
                100.178108,6.591748,0
                100.178108,6.596039,0
                100.180267,6.597469,0
                100.180447,6.60015,0
                100.178108,6.604797,0
                100.176128,6.604261,0
                100.16947,6.609266,0
                100.165511,6.631609,0
                100.16875,6.632861,0
                100.166951,6.647875,0
                100.17091,6.651092,0
                100.174149,6.650913,0
                100.181347,6.65556,0
                100.178647,6.667714,0
                100.180494,6.67522,0
                100.179187,6.682727,0
                100.175228,6.682905,0
                100.17109,6.693271,0
                100.178288,6.696131,0
                100.185665,6.717576,0
                100.20438,6.726869,0
                100.20474,6.723474,0
                100.206539,6.720793,0
                100.211218,6.721508,0
                100.214457,6.719721,0
                100.215176,6.71293,0
                100.218235,6.710785,0
                100.217876,6.703637,0
                100.221627,6.700099,0
                100.226873,6.697203,0
                100.228492,6.693271,0
                100.231191,6.695058,0
                100.240729,6.692378,0
                100.243428,6.69345,0
                100.244148,6.696488,0
                100.246667,6.695416,0
                100.249186,6.69756,0
                100.250985,6.703458,0
                100.253145,6.703994,0
                100.252785,6.707926,0
                100.257284,6.711321,0
                100.261602,6.70739,0
                100.264121,6.699169,0
                100.266641,6.699169,0
                100.26952,6.703101,0
                100.274918,6.70453,0
                100.274918,6.706318,0
                100.284275,6.708998,0
                100.285535,6.707747,0
                100.290213,6.710785,0
                100.295432,6.704888,0
                100.291113,6.698275,0
                100.290753,6.69059,0
                100.294352,6.680046,0
                100.298311,6.67808,0
                100.30047,6.680403,0
                100.30281,6.680046,0
                100.305689,6.668429,0
                100.311987,6.666463,0
                100.315406,6.667714,0
                100.318285,6.664318,0
                100.321524,6.66539,0
                100.327282,6.664318,0
                100.325843,6.660207,0
                100.323323,6.656096,0
                100.319725,6.654666,0
                100.322424,6.649662,0
                100.321704,6.641976,0
                100.317925,6.640189,0
                100.316845,6.635005,0
                100.320984,6.635899,0
                100.326023,6.622851,0
                100.317025,6.613914,0
                100.310367,6.610875,0
                100.305689,6.610696,0
                100.305509,6.606585,0
                100.311447,6.603546,0
                100.309048,6.60169,0
                100.303203,6.599876,0
              </coordinates>
            </LinearRing>
          </outerBoundaryIs>
        </Polygon>
      </Placemark>
      <Placemark id="PLS_SE_04.2">
        <name>Perlis</name>
        <description>P.001 Kangar</description>
        <Style>
          <LineStyle>
            <color>ff0000ff</color>
          </LineStyle>
          <PolyStyle>
            <fill>0</fill>
          </PolyStyle>
        </Style>
        <ExtendedData>
          <SchemaData schemaUrl="#PLS_SE_04">
            <SimpleData name="state">P.001</SimpleData>
            <SimpleData name="parlimen">N.02 Chuping</SimpleData>
            <SimpleData name="code_parlimen">N.02</SimpleData>
          </SchemaData>
        </ExtendedData>
        <Polygon>
          <outerBoundaryIs>
            <LinearRing>
              <coordinates>
                100.241124,6.496344,0
                100.247144,6.499277,0
                100.248687,6.501669,0
                100.251564,6.50833,0
                100.25162,6.508461,0
                100.251674,6.508837,0
                100.251972,6.510926,0
                100.251836,6.51276,0
                100.243902,6.51232,0
                100.233946,6.512937,0
                100.23001,6.513555,0
                100.227618,6.514326,0
                100.224685,6.5134,0
                100.219669,6.515793,0
                100.217276,6.514481,0
                100.211025,6.517105,0
                100.210793,6.515098,0
                100.201841,6.518417,0
                100.198136,6.505528,0
                100.187022,6.507226,0
                100.175139,6.567348,0
                100.176488,6.571102,0
                100.178468,6.573873,0
                100.182966,6.574051,0
                100.183266,6.577326,0
                100.189415,6.577535,0
                100.214498,6.578693,0
                100.219746,6.584635,0
                100.224608,6.585021,0
                100.227618,6.586719,0
                100.22893,6.590038,0
                100.230705,6.591273,0
                100.236493,6.592121,0
                100.243516,6.594746,0
                100.249459,6.592507,0
                100.252006,6.587491,0
                100.253241,6.578538,0
                100.258566,6.572055,0
                100.259692,6.571905,0
                100.259724,6.571901,0
                100.262039,6.58039,0
                100.262918,6.587323,0
                100.265314,6.590404,0
                100.276158,6.593257,0
                100.28446,6.595442,0
                100.303203,6.599876,0
                100.309048,6.60169,0
                100.311447,6.603546,0
                100.315226,6.604261,0
                100.317025,6.601937,0
                100.317141,6.599399,0
                100.317205,6.598005,0
                100.319545,6.593,0
                100.324943,6.588531,0
                100.325483,6.585492,0
                100.33394,6.585313,0
                100.341498,6.580487,0
                100.341318,6.575839,0
                100.345097,6.571906,0
                100.350855,6.573515,0
                100.353914,6.568152,0
                100.353014,6.562432,0
                100.359672,6.557247,0
                100.358233,6.554923,0
                100.360932,6.546342,0
                100.363271,6.545449,0
                100.366761,6.539764,0
                100.32355,6.541493,0
                100.299022,6.504886,0
                100.287662,6.487932,0
                100.286582,6.485153,0
                100.286273,6.481603,0
                100.281025,6.482761,0
                100.276471,6.48361,0
                100.271995,6.483301,0
                100.269525,6.489321,0
                100.263583,6.488395,0
                100.263042,6.484613,0
                100.259878,6.484536,0
                100.259029,6.487932,0
                100.253009,6.487623,0
                100.252932,6.484999,0
                100.250308,6.485539,0
                100.244057,6.490478,0
                100.239889,6.49179,0
                100.241124,6.496344,0
              </coordinates>
            </LinearRing>
          </outerBoundaryIs>
        </Polygon>
      </Placemark>
      <Placemark id="PLS_SE_04.3">
        <name>Perlis</name>
        <description>P.001 Kangar</description>
        <Style>
          <LineStyle>
            <color>ff0000ff</color>
          </LineStyle>
          <PolyStyle>
            <fill>0</fill>
          </PolyStyle>
        </Style>
        <ExtendedData>
          <SchemaData schemaUrl="#PLS_SE_04">
            <SimpleData name="state">P.001</SimpleData>
            <SimpleData name="parlimen">N.03 Bintong</SimpleData>
            <SimpleData name="code_parlimen">N.03</SimpleData>
          </SchemaData>
        </ExtendedData>
        <Polygon>
          <outerBoundaryIs>
            <LinearRing>
              <coordinates>
                100.158312,6.434216,0
                100.154145,6.432827,0
                100.15207,6.440357,0
                100.150903,6.444558,0
                100.151366,6.45706,0
                100.145836,6.456646,0
                100.144908,6.459184,0
                100.144278,6.464011,0
                100.145358,6.469018,0
                100.146977,6.468392,0
                100.151296,6.471878,0
                100.150576,6.47608,0
                100.152915,6.477153,0
                100.153815,6.478762,0
                100.155345,6.477421,0
                100.157684,6.478673,0
                100.158404,6.480461,0
                100.156244,6.483053,0
                100.154085,6.483053,0
                100.154355,6.486897,0
                100.159663,6.487702,0
                100.159843,6.49691,0
                100.159933,6.503435,0
                100.157594,6.507994,0
                100.158314,6.50871,0
                100.154175,6.522565,0
                100.156334,6.522386,0
                100.157144,6.533381,0
                100.155704,6.537493,0
                100.153095,6.555549,0
                100.153995,6.559303,0
                100.157594,6.560465,0
                100.159573,6.563057,0
                100.158224,6.568867,0
                100.159213,6.570655,0
                100.156244,6.575035,0
                100.156874,6.580397,0
                100.162992,6.57566,0
                100.163082,6.571996,0
                100.165871,6.570119,0
                100.167941,6.57137,0
                100.16875,6.574409,0
                100.17073,6.574766,0
                100.172889,6.573158,0
                100.173069,6.571281,0
                100.175139,6.567348,0
                100.187022,6.507226,0
                100.198136,6.505528,0
                100.206548,6.50329,0
                100.214112,6.499663,0
                100.213417,6.497579,0
                100.213031,6.493566,0
                100.211642,6.493257,0
                100.209665,6.49048,0
                100.209378,6.490078,0
                100.205465,6.484582,0
                100.204387,6.483069,0
                100.204907,6.479349,0
                100.205313,6.476432,0
                100.204964,6.475594,0
                100.20377,6.472728,0
                100.197287,6.475197,0
                100.192039,6.477049,0
                100.189106,6.47103,0
                100.187717,6.467171,0
                100.184167,6.464238,0
                100.183549,6.458836,0
                100.184012,6.450192,0
                100.184476,6.448648,0
                100.187871,6.447259,0
                100.187794,6.446024,0
                100.182469,6.44587,0
                100.18216,6.440159,0
                100.183704,6.439541,0
                100.183318,6.434293,0
                100.179768,6.433135,0
                100.177838,6.433907,0
                100.177684,6.432055,0
                100.17506,6.43329,0
                100.170969,6.432132,0
                100.16904,6.431437,0
                100.166647,6.432595,0
                100.166107,6.430125,0
                100.164486,6.431283,0
                100.163174,6.42835,0
                100.161477,6.429122,0
                100.159789,6.428538,0
                100.15754,6.430974,0
                100.158312,6.434216,0
              </coordinates>
            </LinearRing>
          </outerBoundaryIs>
        </Polygon>
      </Placemark>
      <Placemark id="PLS_SE_04.4">
        <name>Perlis</name>
        <description>P.001 Kangar</description>
        <Style>
          <LineStyle>
            <color>ff0000ff</color>
          </LineStyle>
          <PolyStyle>
            <fill>0</fill>
          </PolyStyle>
        </Style>
        <ExtendedData>
          <SchemaData schemaUrl="#PLS_SE_04">
            <SimpleData name="state">P.001</SimpleData>
            <SimpleData name="parlimen">N.04 Bandar Kangar</SimpleData>
            <SimpleData name="code_parlimen">N.04</SimpleData>
          </SchemaData>
        </ExtendedData>
        <Polygon>
          <outerBoundaryIs>
            <LinearRing>
              <coordinates>
                100.187177,6.406586,0
                100.185942,6.397325,0
                100.18409,6.394392,0
                100.184553,6.388835,0
                100.17915,6.38899,0
                100.175754,6.398868,0
                100.174365,6.401647,0
                100.175832,6.403885,0
                100.177144,6.405814,0
                100.176063,6.407435,0
                100.174828,6.404811,0
                100.173748,6.404657,0
                100.174134,6.408284,0
                100.173902,6.411834,0
                100.172204,6.412915,0
                100.16958,6.411063,0
                100.168654,6.413069,0
                100.168654,6.416002,0
                100.165104,6.419552,0
                100.164641,6.423257,0
                100.161245,6.424646,0
                100.161245,6.426961,0
                100.159789,6.428538,0
                100.161477,6.429122,0
                100.163174,6.42835,0
                100.164486,6.431283,0
                100.166107,6.430125,0
                100.166647,6.432595,0
                100.16904,6.431437,0
                100.170969,6.432132,0
                100.17506,6.43329,0
                100.177684,6.432055,0
                100.177838,6.433907,0
                100.179768,6.433135,0
                100.183318,6.434293,0
                100.183704,6.439541,0
                100.18216,6.440159,0
                100.182469,6.44587,0
                100.187794,6.446024,0
                100.187871,6.447259,0
                100.184476,6.448648,0
                100.184012,6.450192,0
                100.183549,6.458836,0
                100.184167,6.464238,0
                100.187717,6.467171,0
                100.189106,6.47103,0
                100.192039,6.477049,0
                100.197287,6.475197,0
                100.20377,6.472728,0
                100.204964,6.475594,0
                100.205313,6.476432,0
                100.204907,6.479349,0
                100.204387,6.483069,0
                100.205465,6.484582,0
                100.209378,6.490078,0
                100.209665,6.49048,0
                100.211642,6.493257,0
                100.213031,6.493566,0
                100.213417,6.497579,0
                100.214112,6.499663,0
                100.215501,6.500589,0
                100.216581,6.499971,0
                100.215192,6.496112,0
                100.214961,6.493411,0
                100.214189,6.48662,0
                100.211642,6.475043,0
                100.206471,6.461305,0
                100.201377,6.448031,0
                100.20732,6.448262,0
                100.208246,6.446256,0
                100.212568,6.447027,0
                100.21635,6.446641,0
                100.215578,6.444712,0
                100.213803,6.442705,0
                100.211719,6.443246,0
                100.207089,6.440313,0
                100.206162,6.438692,0
                100.201532,6.439232,0
                100.200374,6.436454,0
                100.198985,6.435528,0
                100.200104,6.433405,0
                100.200644,6.431978,0
                100.205082,6.430357,0
                100.203693,6.424646,0
                100.207243,6.417854,0
                100.212182,6.409828,0
                100.215424,6.408284,0
                100.214343,6.399023,0
                100.206626,6.40458,0
                100.196747,6.406432,0
                100.190264,6.405197,0
                100.187177,6.406586,0
              </coordinates>
            </LinearRing>
          </outerBoundaryIs>
        </Polygon>
      </Placemark>
      <Placemark id="PLS_SE_04.5">
        <name>Perlis</name>
        <description>P.001 Kangar</description>
        <Style>
          <LineStyle>
            <color>ff0000ff</color>
          </LineStyle>
          <PolyStyle>
            <fill>0</fill>
          </PolyStyle>
        </Style>
        <ExtendedData>
          <SchemaData schemaUrl="#PLS_SE_04">
            <SimpleData name="state">P.001</SimpleData>
            <SimpleData name="parlimen">N.05 Paya</SimpleData>
            <SimpleData name="code_parlimen">N.05</SimpleData>
          </SchemaData>
        </ExtendedData>
        <Polygon>
          <outerBoundaryIs>
            <LinearRing>
              <coordinates>
                100.233483,6.486002,0
                100.235181,6.485462,0
                100.234255,6.479056,0
                100.235413,6.477358,0
                100.233715,6.476201,0
                100.235104,6.474194,0
                100.237651,6.473576,0
                100.237728,6.470489,0
                100.237651,6.468637,0
                100.236262,6.465859,0
                100.233329,6.46447,0
                100.233792,6.458913,0
                100.235644,6.457215,0
                100.233483,6.453665,0
                100.229161,6.450886,0
                100.225303,6.445021,0
                100.227,6.436068,0
                100.226383,6.432055,0
                100.224531,6.422639,0
                100.219128,6.422176,0
                100.217585,6.424955,0
                100.212028,6.425263,0
                100.205082,6.430357,0
                100.200644,6.431978,0
                100.200104,6.433405,0
                100.198985,6.435528,0
                100.200374,6.436454,0
                100.201532,6.439232,0
                100.206162,6.438692,0
                100.207089,6.440313,0
                100.211719,6.443246,0
                100.213803,6.442705,0
                100.215578,6.444712,0
                100.21635,6.446641,0
                100.212568,6.447027,0
                100.208246,6.446256,0
                100.20732,6.448262,0
                100.201377,6.448031,0
                100.206471,6.461305,0
                100.211642,6.475043,0
                100.214189,6.48662,0
                100.214961,6.493411,0
                100.215192,6.496112,0
                100.216581,6.499971,0
                100.215501,6.500589,0
                100.214112,6.499663,0
                100.206548,6.50329,0
                100.198136,6.505528,0
                100.201841,6.518417,0
                100.210793,6.515098,0
                100.211025,6.517105,0
                100.217276,6.514481,0
                100.219669,6.515793,0
                100.224685,6.5134,0
                100.227618,6.514326,0
                100.23001,6.513555,0
                100.233946,6.512937,0
                100.243902,6.51232,0
                100.251836,6.51276,0
                100.251972,6.510926,0
                100.251674,6.508837,0
                100.25162,6.508461,0
                100.251564,6.50833,0
                100.248687,6.501669,0
                100.247144,6.499277,0
                100.241124,6.496344,0
                100.239889,6.49179,0
                100.235413,6.491327,0
                100.233483,6.486002,0
              </coordinates>
            </LinearRing>
          </outerBoundaryIs>
        </Polygon>
      </Placemark>
      <Placemark id="PLS_SE_04.6">
        <name>Perlis</name>
        <description>P.001 Kangar</description>
        <Style>
          <LineStyle>
            <color>ff0000ff</color>
          </LineStyle>
          <PolyStyle>
            <fill>0</fill>
          </PolyStyle>
        </Style>
        <ExtendedData>
          <SchemaData schemaUrl="#PLS_SE_04">
            <SimpleData name="state">P.001</SimpleData>
            <SimpleData name="parlimen">N.06 Oran</SimpleData>
            <SimpleData name="code_parlimen">N.06</SimpleData>
          </SchemaData>
        </ExtendedData>
        <Polygon>
          <outerBoundaryIs>
            <LinearRing>
              <coordinates>
                100.366761,6.539764,0
                100.36714,6.539147,0
                100.370739,6.532175,0
                100.365701,6.484841,0
                100.363001,6.453328,0
                100.360055,6.455363,0
                100.349404,6.457832,0
                100.344465,6.457215,0
                100.334432,6.458604,0
                100.322546,6.453665,0
                100.316681,6.455054,0
                100.312668,6.454282,0
                100.30603,6.446101,0
                100.303406,6.446256,0
                100.300782,6.444095,0
                100.290595,6.445175,0
                100.287353,6.444403,0
                100.28936,6.449343,0
                100.287353,6.453356,0
                100.287508,6.457832,0
                100.282568,6.459376,0
                100.278555,6.461074,0
                100.272844,6.459684,0
                100.26775,6.462463,0
                100.265589,6.457832,0
                100.263737,6.460456,0
                100.26065,6.45953,0
                100.260033,6.45706,0
                100.256791,6.464315,0
                100.254476,6.460611,0
                100.24398,6.464624,0
                100.243362,6.466785,0
                100.237651,6.468637,0
                100.237728,6.470489,0
                100.237651,6.473576,0
                100.235104,6.474194,0
                100.233715,6.476201,0
                100.235413,6.477358,0
                100.234255,6.479056,0
                100.235181,6.485462,0
                100.233483,6.486002,0
                100.235413,6.491327,0
                100.239889,6.49179,0
                100.244057,6.490478,0
                100.250308,6.485539,0
                100.252932,6.484999,0
                100.253009,6.487623,0
                100.259029,6.487932,0
                100.259878,6.484536,0
                100.263042,6.484613,0
                100.263583,6.488395,0
                100.269525,6.489321,0
                100.271995,6.483301,0
                100.276471,6.48361,0
                100.281025,6.482761,0
                100.286273,6.481603,0
                100.286582,6.485153,0
                100.287662,6.487932,0
                100.299022,6.504886,0
                100.32355,6.541493,0
                100.366761,6.539764,0
              </coordinates>
            </LinearRing>
          </outerBoundaryIs>
        </Polygon>
      </Placemark>
      <Placemark id="PLS_SE_04.7">
        <name>Perlis</name>
        <description>P.002 Arau</description>
        <Style>
          <LineStyle>
            <color>ff0000ff</color>
          </LineStyle>
          <PolyStyle>
            <fill>0</fill>
          </PolyStyle>
        </Style>
        <ExtendedData>
          <SchemaData schemaUrl="#PLS_SE_04">
            <SimpleData name="state">P.002</SimpleData>
            <SimpleData name="parlimen">N.07 Kuala Perlis</SimpleData>
            <SimpleData name="code_parlimen">N.07</SimpleData>
          </SchemaData>
        </ExtendedData>
        <Polygon>
          <outerBoundaryIs>
            <LinearRing>
              <coordinates>
                100.144728,6.358329,0
                100.139779,6.372546,0
                100.127273,6.396241,0
                100.121065,6.410726,0
                100.118906,6.422528,0
                100.123584,6.422885,0
                100.124934,6.425478,0
                100.128443,6.426372,0
                100.129612,6.428428,0
                100.133571,6.429233,0
                100.134831,6.433256,0
                100.134021,6.439962,0
                100.13627,6.440498,0
                100.135101,6.444343,0
                100.139509,6.448098,0
                100.141579,6.447561,0
                100.144368,6.451048,0
                100.147427,6.4523,0
                100.145836,6.456646,0
                100.151366,6.45706,0
                100.150903,6.444558,0
                100.15207,6.440357,0
                100.154145,6.432827,0
                100.154916,6.431052,0
                100.154916,6.428582,0
                100.153682,6.42673,0
                100.153527,6.42426,0
                100.152292,6.42179,0
                100.149668,6.42071,0
                100.148588,6.417623,0
                100.145964,6.420092,0
                100.145346,6.418549,0
                100.146118,6.410214,0
                100.148279,6.396167,0
                100.151212,6.38953,0
                100.152601,6.384899,0
                100.155071,6.381195,0
                100.158158,6.376718,0
                100.156769,6.375329,0
                100.160628,6.367766,0
                100.163869,6.362209,0
                100.163406,6.353411,0
                100.154762,6.351558,0
                100.147607,6.349597,0
                100.144728,6.358329,0
              </coordinates>
            </LinearRing>
          </outerBoundaryIs>
        </Polygon>
      </Placemark>
      <Placemark id="PLS_SE_04.8">
        <name>Perlis</name>
        <description>P.002 Arau</description>
        <Style>
          <LineStyle>
            <color>ff0000ff</color>
          </LineStyle>
          <PolyStyle>
            <fill>0</fill>
          </PolyStyle>
        </Style>
        <ExtendedData>
          <SchemaData schemaUrl="#PLS_SE_04">
            <SimpleData name="state">P.002</SimpleData>
            <SimpleData name="parlimen">N.08 Kayang</SimpleData>
            <SimpleData name="code_parlimen">N.08</SimpleData>
          </SchemaData>
        </ExtendedData>
        <Polygon>
          <outerBoundaryIs>
            <LinearRing>
              <coordinates>
                100.184398,6.373014,0
                100.216041,6.371316,0
                100.216659,6.362363,0
                100.216919,6.358324,0
                100.214035,6.35588,0
                100.203538,6.348471,0
                100.196592,6.343995,0
                100.195821,6.341988,0
                100.191962,6.340136,0
                100.192425,6.337049,0
                100.189338,6.335814,0
                100.187331,6.33921,0
                100.182855,6.338284,0
                100.18162,6.339673,0
                100.168345,6.335814,0
                100.159393,6.333345,0
                100.153568,6.331609,0
                100.153455,6.33186,0
                100.147607,6.349597,0
                100.154762,6.351558,0
                100.163406,6.353411,0
                100.163869,6.362209,0
                100.160628,6.367766,0
                100.156769,6.375329,0
                100.158158,6.376718,0
                100.155071,6.381195,0
                100.152601,6.384899,0
                100.151212,6.38953,0
                100.148279,6.396167,0
                100.146118,6.410214,0
                100.145346,6.418549,0
                100.145964,6.420092,0
                100.148588,6.417623,0
                100.149668,6.42071,0
                100.152292,6.42179,0
                100.153527,6.42426,0
                100.153682,6.42673,0
                100.154916,6.428582,0
                100.154916,6.431052,0
                100.154145,6.432827,0
                100.158312,6.434216,0
                100.15754,6.430974,0
                100.159789,6.428538,0
                100.161245,6.426961,0
                100.161245,6.424646,0
                100.164641,6.423257,0
                100.165104,6.419552,0
                100.168654,6.416002,0
                100.168654,6.413069,0
                100.16958,6.411063,0
                100.172204,6.412915,0
                100.173902,6.411834,0
                100.174134,6.408284,0
                100.173748,6.404657,0
                100.174828,6.404811,0
                100.176063,6.407435,0
                100.177144,6.405814,0
                100.175832,6.403885,0
                100.174365,6.401647,0
                100.175754,6.398868,0
                100.17915,6.38899,0
                100.184553,6.388835,0
                100.183935,6.378879,0
                100.184398,6.373014,0
              </coordinates>
            </LinearRing>
          </outerBoundaryIs>
        </Polygon>
      </Placemark>
      <Placemark id="PLS_SE_04.9">
        <name>Perlis</name>
        <description>P.002 Arau</description>
        <Style>
          <LineStyle>
            <color>ff0000ff</color>
          </LineStyle>
          <PolyStyle>
            <fill>0</fill>
          </PolyStyle>
        </Style>
        <ExtendedData>
          <SchemaData schemaUrl="#PLS_SE_04">
            <SimpleData name="state">P.002</SimpleData>
            <SimpleData name="parlimen">N.09 Utan Aji</SimpleData>
            <SimpleData name="code_parlimen">N.09</SimpleData>
          </SchemaData>
        </ExtendedData>
        <Polygon>
          <outerBoundaryIs>
            <LinearRing>
              <coordinates>
                100.185942,6.397325,0
                100.187177,6.406586,0
                100.190264,6.405197,0
                100.196747,6.406432,0
                100.206626,6.40458,0
                100.214343,6.399023,0
                100.215424,6.408284,0
                100.212182,6.409828,0
                100.207243,6.417854,0
                100.203693,6.424646,0
                100.205082,6.430357,0
                100.212028,6.425263,0
                100.217585,6.424955,0
                100.219128,6.422176,0
                100.224531,6.422639,0
                100.226383,6.432055,0
                100.227,6.436068,0
                100.225303,6.445021,0
                100.229161,6.450886,0
                100.233483,6.453665,0
                100.235644,6.457215,0
                100.233792,6.458913,0
                100.233329,6.46447,0
                100.236262,6.465859,0
                100.237651,6.468637,0
                100.243362,6.466785,0
                100.24398,6.464624,0
                100.254476,6.460611,0
                100.256791,6.464315,0
                100.260033,6.45706,0
                100.260496,6.452507,0
                100.258335,6.448031,0
                100.259569,6.443091,0
                100.25463,6.440159,0
                100.250617,6.435065,0
                100.250154,6.430897,0
                100.247993,6.428582,0
                100.242899,6.427193,0
                100.239966,6.423488,0
                100.238886,6.422099,0
                100.236725,6.422408,0
                100.231631,6.419012,0
                100.231014,6.416079,0
                100.22947,6.416388,0
                100.229301,6.415373,0
                100.229007,6.413609,0
                100.233483,6.411603,0
                100.232249,6.40157,0
                100.229933,6.390456,0
                100.227618,6.381503,0
                100.229161,6.378725,0
                100.234255,6.373014,0
                100.225148,6.365296,0
                100.216919,6.358324,0
                100.216659,6.362363,0
                100.216041,6.371316,0
                100.184398,6.373014,0
                100.183935,6.378879,0
                100.184553,6.388835,0
                100.18409,6.394392,0
                100.185942,6.397325,0
              </coordinates>
            </LinearRing>
          </outerBoundaryIs>
        </Polygon>
      </Placemark>
      <Placemark id="PLS_SE_04.10">
        <name>Perlis</name>
        <description>P.002 Arau</description>
        <Style>
          <LineStyle>
            <color>ff0000ff</color>
          </LineStyle>
          <PolyStyle>
            <fill>0</fill>
          </PolyStyle>
        </Style>
        <ExtendedData>
          <SchemaData schemaUrl="#PLS_SE_04">
            <SimpleData name="state">P.002</SimpleData>
            <SimpleData name="parlimen">N.10 Bandar Arau</SimpleData>
            <SimpleData name="code_parlimen">N.10</SimpleData>
          </SchemaData>
        </ExtendedData>
        <Polygon>
          <outerBoundaryIs>
            <LinearRing>
              <coordinates>
                100.285038,6.432904,0
                100.283803,6.423025,0
                100.285192,6.417005,0
                100.283958,6.415925,0
                100.285038,6.412375,0
                100.280253,6.40867,0
                100.280407,6.407126,0
                100.278864,6.406663,0
                100.278555,6.404811,0
                100.274696,6.402959,0
                100.275005,6.40157,0
                100.272072,6.399254,0
                100.270066,6.397093,0
                100.260804,6.39308,0
                100.258798,6.395395,0
                100.250154,6.387986,0
                100.24259,6.380423,0
                100.237034,6.375021,0
                100.235642,6.374016,0
                100.235184,6.373684,0
                100.234255,6.373014,0
                100.229161,6.378725,0
                100.227618,6.381503,0
                100.229933,6.390456,0
                100.232249,6.40157,0
                100.233483,6.411603,0
                100.229007,6.413609,0
                100.229301,6.415373,0
                100.22947,6.416388,0
                100.231014,6.416079,0
                100.231631,6.419012,0
                100.236725,6.422408,0
                100.238886,6.422099,0
                100.239966,6.423488,0
                100.242899,6.427193,0
                100.247993,6.428582,0
                100.250154,6.430897,0
                100.250617,6.435065,0
                100.25463,6.440159,0
                100.259569,6.443091,0
                100.258335,6.448031,0
                100.260496,6.452507,0
                100.260033,6.45706,0
                100.26065,6.45953,0
                100.263737,6.460456,0
                100.265589,6.457832,0
                100.26775,6.462463,0
                100.272844,6.459684,0
                100.278555,6.461074,0
                100.282568,6.459376,0
                100.287508,6.457832,0
                100.287353,6.453356,0
                100.28936,6.449343,0
                100.287353,6.444403,0
                100.284112,6.440313,0
                100.285038,6.432904,0
              </coordinates>
            </LinearRing>
          </outerBoundaryIs>
        </Polygon>
      </Placemark>
      <Placemark id="PLS_SE_04.11">
        <name>Perlis</name>
        <description>P.002 Arau</description>
        <Style>
          <LineStyle>
            <color>ff0000ff</color>
          </LineStyle>
          <PolyStyle>
            <fill>0</fill>
          </PolyStyle>
        </Style>
        <ExtendedData>
          <SchemaData schemaUrl="#PLS_SE_04">
            <SimpleData name="state">P.002</SimpleData>
            <SimpleData name="parlimen">N.11 Kurong Anai</SimpleData>
            <SimpleData name="code_parlimen">N.11</SimpleData>
          </SchemaData>
        </ExtendedData>
        <Polygon>
          <outerBoundaryIs>
            <LinearRing>
              <coordinates>
                100.245926,6.360689,0
                100.236719,6.372829,0
                100.235642,6.374016,0
                100.237034,6.375021,0
                100.24259,6.380423,0
                100.250154,6.387986,0
                100.258798,6.395395,0
                100.260804,6.39308,0
                100.270066,6.397093,0
                100.272072,6.399254,0
                100.275005,6.40157,0
                100.274696,6.402959,0
                100.278555,6.404811,0
                100.278864,6.406663,0
                100.280407,6.407126,0
                100.280253,6.40867,0
                100.285038,6.412375,0
                100.283958,6.415925,0
                100.285192,6.417005,0
                100.283803,6.423025,0
                100.285038,6.432904,0
                100.284112,6.440313,0
                100.287353,6.444403,0
                100.290595,6.445175,0
                100.300782,6.444095,0
                100.303406,6.446256,0
                100.30603,6.446101,0
                100.312668,6.454282,0
                100.316681,6.455054,0
                100.322546,6.453665,0
                100.334432,6.458604,0
                100.344465,6.457215,0
                100.349404,6.457832,0
                100.360055,6.455363,0
                100.363001,6.453328,0
                100.355804,6.447606,0
                100.310277,6.408446,0
                100.309738,6.410592,0
                100.306315,6.408929,0
                100.304699,6.406479,0
                100.305239,6.404333,0
                100.30092,6.403439,0
                100.290367,6.386694,0
                100.279507,6.369461,0
                100.273569,6.366779,0
                100.264031,6.354797,0
                100.255929,6.349327,0
                100.254494,6.348358,0
                100.25334,6.351075,0
                100.245926,6.360689,0
              </coordinates>
            </LinearRing>
          </outerBoundaryIs>
        </Polygon>
      </Placemark>
      <Placemark id="PLS_SE_04.12">
        <name>Perlis</name>
        <description>P.002 Arau</description>
        <Style>
          <LineStyle>
            <color>ff0000ff</color>
          </LineStyle>
          <PolyStyle>
            <fill>0</fill>
          </PolyStyle>
        </Style>
        <ExtendedData>
          <SchemaData schemaUrl="#PLS_SE_04">
            <SimpleData name="state">P.002</SimpleData>
            <SimpleData name="parlimen">N.12 Sanglang</SimpleData>
            <SimpleData name="code_parlimen">N.12</SimpleData>
          </SchemaData>
        </ExtendedData>
        <Polygon>
          <outerBoundaryIs>
            <LinearRing>
              <coordinates>
                100.231101,6.320458,0
                100.227514,6.317094,0
                100.220125,6.307223,0
                100.217965,6.299532,0
                100.20411,6.288979,0
                100.20429,6.285223,0
                100.201231,6.281646,0
                100.20393,6.275922,0
                100.20177,6.265906,0
                100.193133,6.248018,0
                100.16893,6.289561,0
                100.162297,6.30902,0
                100.159663,6.318088,0
                100.154779,6.328924,0
                100.153568,6.331609,0
                100.159393,6.333345,0
                100.168345,6.335814,0
                100.18162,6.339673,0
                100.182855,6.338284,0
                100.187331,6.33921,0
                100.189338,6.335814,0
                100.192425,6.337049,0
                100.191962,6.340136,0
                100.195821,6.341988,0
                100.196592,6.343995,0
                100.203538,6.348471,0
                100.214035,6.35588,0
                100.225148,6.365296,0
                100.234255,6.373014,0
                100.235184,6.373684,0
                100.235642,6.374016,0
                100.236719,6.372829,0
                100.245926,6.360689,0
                100.25334,6.351075,0
                100.254494,6.348358,0
                100.249636,6.335124,0
                100.243158,6.332083,0
                100.23722,6.324572,0
                100.231101,6.320458,0
              </coordinates>
            </LinearRing>
          </outerBoundaryIs>
        </Polygon>
      </Placemark>
    </Folder>
    <Document id="PLS_SE-04">
      <name>PLS_SE-04</name>
      <Placemark id="PLS_SE-04.1">
        <name>P.001 Kangar</name>
        <ExtendedData>
          <SchemaData schemaUrl="#PLS_SE-04.schema">
            <SimpleData name="state">Perlis</SimpleData>
            <SimpleData name="parlimen">P.001 Kangar</SimpleData>
            <SimpleData name="code_parlimen">P.001</SimpleData>
            <SimpleData name="dun">N.01 Titi Tinggi</SimpleData>
            <SimpleData name="code_dun">N.01</SimpleData>
          </SchemaData>
        </ExtendedData>
        <Polygon>
          <outerBoundaryIs>
            <LinearRing>
              <coordinates>
                100.303203,6.599876,0
                100.28446,6.595442,0
                100.276158,6.593257,0
                100.265314,6.590404,0
                100.262918,6.587323,0
                100.262039,6.58039,0
                100.259724,6.571901,0
                100.259692,6.571905,0
                100.258566,6.572055,0
                100.253241,6.578538,0
                100.252006,6.587491,0
                100.249459,6.592507,0
                100.243516,6.594746,0
                100.236493,6.592121,0
                100.230705,6.591273,0
                100.22893,6.590038,0
                100.227618,6.586719,0
                100.224608,6.585021,0
                100.219746,6.584635,0
                100.214498,6.578693,0
                100.189415,6.577535,0
                100.183266,6.577326,0
                100.183506,6.57995,0
                100.181707,6.582453,0
                100.180807,6.587816,0
                100.178108,6.591748,0
                100.178108,6.596039,0
                100.180267,6.597469,0
                100.180447,6.60015,0
                100.178108,6.604797,0
                100.176128,6.604261,0
                100.16947,6.609266,0
                100.165511,6.631609,0
                100.16875,6.632861,0
                100.166951,6.647875,0
                100.17091,6.651092,0
                100.174149,6.650913,0
                100.181347,6.65556,0
                100.178647,6.667714,0
                100.180494,6.67522,0
                100.179187,6.682727,0
                100.175228,6.682905,0
                100.17109,6.693271,0
                100.178288,6.696131,0
                100.185665,6.717576,0
                100.20438,6.726869,0
                100.20474,6.723474,0
                100.206539,6.720793,0
                100.211218,6.721508,0
                100.214457,6.719721,0
                100.215176,6.71293,0
                100.218235,6.710785,0
                100.217876,6.703637,0
                100.221627,6.700099,0
                100.226873,6.697203,0
                100.228492,6.693271,0
                100.231191,6.695058,0
                100.240729,6.692378,0
                100.243428,6.69345,0
                100.244148,6.696488,0
                100.246667,6.695416,0
                100.249186,6.69756,0
                100.250985,6.703458,0
                100.253145,6.703994,0
                100.252785,6.707926,0
                100.257284,6.711321,0
                100.261602,6.70739,0
                100.264121,6.699169,0
                100.266641,6.699169,0
                100.26952,6.703101,0
                100.274918,6.70453,0
                100.274918,6.706318,0
                100.284275,6.708998,0
                100.285535,6.707747,0
                100.290213,6.710785,0
                100.295432,6.704888,0
                100.291113,6.698275,0
                100.290753,6.69059,0
                100.294352,6.680046,0
                100.298311,6.67808,0
                100.30047,6.680403,0
                100.30281,6.680046,0
                100.305689,6.668429,0
                100.311987,6.666463,0
                100.315406,6.667714,0
                100.318285,6.664318,0
                100.321524,6.66539,0
                100.327282,6.664318,0
                100.325843,6.660207,0
                100.323323,6.656096,0
                100.319725,6.654666,0
                100.322424,6.649662,0
                100.321704,6.641976,0
                100.317925,6.640189,0
                100.316845,6.635005,0
                100.320984,6.635899,0
                100.326023,6.622851,0
                100.317025,6.613914,0
                100.310367,6.610875,0
                100.305689,6.610696,0
                100.305509,6.606585,0
                100.311447,6.603546,0
                100.309048,6.60169,0
                100.303203,6.599876,0
              </coordinates>
            </LinearRing>
          </outerBoundaryIs>
        </Polygon>
      </Placemark>
      <Placemark id="PLS_SE-04.2">
        <name>P.001 Kangar</name>
        <ExtendedData>
          <SchemaData schemaUrl="#PLS_SE-04.schema">
            <SimpleData name="state">Perlis</SimpleData>
            <SimpleData name="parlimen">P.001 Kangar</SimpleData>
            <SimpleData name="code_parlimen">P.001</SimpleData>
            <SimpleData name="dun">N.02 Chuping</SimpleData>
            <SimpleData name="code_dun">N.02</SimpleData>
          </SchemaData>
        </ExtendedData>
        <Polygon>
          <outerBoundaryIs>
            <LinearRing>
              <coordinates>
                100.241124,6.496344,0
                100.247144,6.499277,0
                100.248687,6.501669,0
                100.251564,6.50833,0
                100.25162,6.508461,0
                100.251674,6.508837,0
                100.251972,6.510926,0
                100.251836,6.51276,0
                100.243902,6.51232,0
                100.233946,6.512937,0
                100.23001,6.513555,0
                100.227618,6.514326,0
                100.224685,6.5134,0
                100.219669,6.515793,0
                100.217276,6.514481,0
                100.211025,6.517105,0
                100.210793,6.515098,0
                100.201841,6.518417,0
                100.198136,6.505528,0
                100.187022,6.507226,0
                100.175139,6.567348,0
                100.176488,6.571102,0
                100.178468,6.573873,0
                100.182966,6.574051,0
                100.183266,6.577326,0
                100.189415,6.577535,0
                100.214498,6.578693,0
                100.219746,6.584635,0
                100.224608,6.585021,0
                100.227618,6.586719,0
                100.22893,6.590038,0
                100.230705,6.591273,0
                100.236493,6.592121,0
                100.243516,6.594746,0
                100.249459,6.592507,0
                100.252006,6.587491,0
                100.253241,6.578538,0
                100.258566,6.572055,0
                100.259692,6.571905,0
                100.259724,6.571901,0
                100.262039,6.58039,0
                100.262918,6.587323,0
                100.265314,6.590404,0
                100.276158,6.593257,0
                100.28446,6.595442,0
                100.303203,6.599876,0
                100.309048,6.60169,0
                100.311447,6.603546,0
                100.315226,6.604261,0
                100.317025,6.601937,0
                100.317141,6.599399,0
                100.317205,6.598005,0
                100.319545,6.593,0
                100.324943,6.588531,0
                100.325483,6.585492,0
                100.33394,6.585313,0
                100.341498,6.580487,0
                100.341318,6.575839,0
                100.345097,6.571906,0
                100.350855,6.573515,0
                100.353914,6.568152,0
                100.353014,6.562432,0
                100.359672,6.557247,0
                100.358233,6.554923,0
                100.360932,6.546342,0
                100.363271,6.545449,0
                100.366761,6.539764,0
                100.32355,6.541493,0
                100.299022,6.504886,0
                100.287662,6.487932,0
                100.286582,6.485153,0
                100.286273,6.481603,0
                100.281025,6.482761,0
                100.276471,6.48361,0
                100.271995,6.483301,0
                100.269525,6.489321,0
                100.263583,6.488395,0
                100.263042,6.484613,0
                100.259878,6.484536,0
                100.259029,6.487932,0
                100.253009,6.487623,0
                100.252932,6.484999,0
                100.250308,6.485539,0
                100.244057,6.490478,0
                100.239889,6.49179,0
                100.241124,6.496344,0
              </coordinates>
            </LinearRing>
          </outerBoundaryIs>
        </Polygon>
      </Placemark>
      <Placemark id="PLS_SE-04.3">
        <name>P.001 Kangar</name>
        <ExtendedData>
          <SchemaData schemaUrl="#PLS_SE-04.schema">
            <SimpleData name="state">Perlis</SimpleData>
            <SimpleData name="parlimen">P.001 Kangar</SimpleData>
            <SimpleData name="code_parlimen">P.001</SimpleData>
            <SimpleData name="dun">N.03 Bintong</SimpleData>
            <SimpleData name="code_dun">N.03</SimpleData>
          </SchemaData>
        </ExtendedData>
        <Polygon>
          <outerBoundaryIs>
            <LinearRing>
              <coordinates>
                100.158312,6.434216,0
                100.154145,6.432827,0
                100.15207,6.440357,0
                100.150903,6.444558,0
                100.151366,6.45706,0
                100.145836,6.456646,0
                100.144908,6.459184,0
                100.144278,6.464011,0
                100.145358,6.469018,0
                100.146977,6.468392,0
                100.151296,6.471878,0
                100.150576,6.47608,0
                100.152915,6.477153,0
                100.153815,6.478762,0
                100.155345,6.477421,0
                100.157684,6.478673,0
                100.158404,6.480461,0
                100.156244,6.483053,0
                100.154085,6.483053,0
                100.154355,6.486897,0
                100.159663,6.487702,0
                100.159843,6.49691,0
                100.159933,6.503435,0
                100.157594,6.507994,0
                100.158314,6.50871,0
                100.154175,6.522565,0
                100.156334,6.522386,0
                100.157144,6.533381,0
                100.155704,6.537493,0
                100.153095,6.555549,0
                100.153995,6.559303,0
                100.157594,6.560465,0
                100.159573,6.563057,0
                100.158224,6.568867,0
                100.159213,6.570655,0
                100.156244,6.575035,0
                100.156874,6.580397,0
                100.162992,6.57566,0
                100.163082,6.571996,0
                100.165871,6.570119,0
                100.167941,6.57137,0
                100.16875,6.574409,0
                100.17073,6.574766,0
                100.172889,6.573158,0
                100.173069,6.571281,0
                100.175139,6.567348,0
                100.187022,6.507226,0
                100.198136,6.505528,0
                100.206548,6.50329,0
                100.214112,6.499663,0
                100.213417,6.497579,0
                100.213031,6.493566,0
                100.211642,6.493257,0
                100.209665,6.49048,0
                100.209378,6.490078,0
                100.205465,6.484582,0
                100.204387,6.483069,0
                100.204907,6.479349,0
                100.205313,6.476432,0
                100.204964,6.475594,0
                100.20377,6.472728,0
                100.197287,6.475197,0
                100.192039,6.477049,0
                100.189106,6.47103,0
                100.187717,6.467171,0
                100.184167,6.464238,0
                100.183549,6.458836,0
                100.184012,6.450192,0
                100.184476,6.448648,0
                100.187871,6.447259,0
                100.187794,6.446024,0
                100.182469,6.44587,0
                100.18216,6.440159,0
                100.183704,6.439541,0
                100.183318,6.434293,0
                100.179768,6.433135,0
                100.177838,6.433907,0
                100.177684,6.432055,0
                100.17506,6.43329,0
                100.170969,6.432132,0
                100.16904,6.431437,0
                100.166647,6.432595,0
                100.166107,6.430125,0
                100.164486,6.431283,0
                100.163174,6.42835,0
                100.161477,6.429122,0
                100.159789,6.428538,0
                100.15754,6.430974,0
                100.158312,6.434216,0
              </coordinates>
            </LinearRing>
          </outerBoundaryIs>
        </Polygon>
      </Placemark>
      <Placemark id="PLS_SE-04.4">
        <name>P.001 Kangar</name>
        <ExtendedData>
          <SchemaData schemaUrl="#PLS_SE-04.schema">
            <SimpleData name="state">Perlis</SimpleData>
            <SimpleData name="parlimen">P.001 Kangar</SimpleData>
            <SimpleData name="code_parlimen">P.001</SimpleData>
            <SimpleData name="dun">N.04 Bandar Kangar</SimpleData>
            <SimpleData name="code_dun">N.04</SimpleData>
          </SchemaData>
        </ExtendedData>
        <Polygon>
          <outerBoundaryIs>
            <LinearRing>
              <coordinates>
                100.187177,6.406586,0
                100.185942,6.397325,0
                100.18409,6.394392,0
                100.184553,6.388835,0
                100.17915,6.38899,0
                100.175754,6.398868,0
                100.174365,6.401647,0
                100.175832,6.403885,0
                100.177144,6.405814,0
                100.176063,6.407435,0
                100.174828,6.404811,0
                100.173748,6.404657,0
                100.174134,6.408284,0
                100.173902,6.411834,0
                100.172204,6.412915,0
                100.16958,6.411063,0
                100.168654,6.413069,0
                100.168654,6.416002,0
                100.165104,6.419552,0
                100.164641,6.423257,0
                100.161245,6.424646,0
                100.161245,6.426961,0
                100.159789,6.428538,0
                100.161477,6.429122,0
                100.163174,6.42835,0
                100.164486,6.431283,0
                100.166107,6.430125,0
                100.166647,6.432595,0
                100.16904,6.431437,0
                100.170969,6.432132,0
                100.17506,6.43329,0
                100.177684,6.432055,0
                100.177838,6.433907,0
                100.179768,6.433135,0
                100.183318,6.434293,0
                100.183704,6.439541,0
                100.18216,6.440159,0
                100.182469,6.44587,0
                100.187794,6.446024,0
                100.187871,6.447259,0
                100.184476,6.448648,0
                100.184012,6.450192,0
                100.183549,6.458836,0
                100.184167,6.464238,0
                100.187717,6.467171,0
                100.189106,6.47103,0
                100.192039,6.477049,0
                100.197287,6.475197,0
                100.20377,6.472728,0
                100.204964,6.475594,0
                100.205313,6.476432,0
                100.204907,6.479349,0
                100.204387,6.483069,0
                100.205465,6.484582,0
                100.209378,6.490078,0
                100.209665,6.49048,0
                100.211642,6.493257,0
                100.213031,6.493566,0
                100.213417,6.497579,0
                100.214112,6.499663,0
                100.215501,6.500589,0
                100.216581,6.499971,0
                100.215192,6.496112,0
                100.214961,6.493411,0
                100.214189,6.48662,0
                100.211642,6.475043,0
                100.206471,6.461305,0
                100.201377,6.448031,0
                100.20732,6.448262,0
                100.208246,6.446256,0
                100.212568,6.447027,0
                100.21635,6.446641,0
                100.215578,6.444712,0
                100.213803,6.442705,0
                100.211719,6.443246,0
                100.207089,6.440313,0
                100.206162,6.438692,0
                100.201532,6.439232,0
                100.200374,6.436454,0
                100.198985,6.435528,0
                100.200104,6.433405,0
                100.200644,6.431978,0
                100.205082,6.430357,0
                100.203693,6.424646,0
                100.207243,6.417854,0
                100.212182,6.409828,0
                100.215424,6.408284,0
                100.214343,6.399023,0
                100.206626,6.40458,0
                100.196747,6.406432,0
                100.190264,6.405197,0
                100.187177,6.406586,0
              </coordinates>
            </LinearRing>
          </outerBoundaryIs>
        </Polygon>
      </Placemark>
      <Placemark id="PLS_SE-04.5">
        <name>P.001 Kangar</name>
        <ExtendedData>
          <SchemaData schemaUrl="#PLS_SE-04.schema">
            <SimpleData name="state">Perlis</SimpleData>
            <SimpleData name="parlimen">P.001 Kangar</SimpleData>
            <SimpleData name="code_parlimen">P.001</SimpleData>
            <SimpleData name="dun">N.05 Paya</SimpleData>
            <SimpleData name="code_dun">N.05</SimpleData>
          </SchemaData>
        </ExtendedData>
        <Polygon>
          <outerBoundaryIs>
            <LinearRing>
              <coordinates>
                100.233483,6.486002,0
                100.235181,6.485462,0
                100.234255,6.479056,0
                100.235413,6.477358,0
                100.233715,6.476201,0
                100.235104,6.474194,0
                100.237651,6.473576,0
                100.237728,6.470489,0
                100.237651,6.468637,0
                100.236262,6.465859,0
                100.233329,6.46447,0
                100.233792,6.458913,0
                100.235644,6.457215,0
                100.233483,6.453665,0
                100.229161,6.450886,0
                100.225303,6.445021,0
                100.227,6.436068,0
                100.226383,6.432055,0
                100.224531,6.422639,0
                100.219128,6.422176,0
                100.217585,6.424955,0
                100.212028,6.425263,0
                100.205082,6.430357,0
                100.200644,6.431978,0
                100.200104,6.433405,0
                100.198985,6.435528,0
                100.200374,6.436454,0
                100.201532,6.439232,0
                100.206162,6.438692,0
                100.207089,6.440313,0
                100.211719,6.443246,0
                100.213803,6.442705,0
                100.215578,6.444712,0
                100.21635,6.446641,0
                100.212568,6.447027,0
                100.208246,6.446256,0
                100.20732,6.448262,0
                100.201377,6.448031,0
                100.206471,6.461305,0
                100.211642,6.475043,0
                100.214189,6.48662,0
                100.214961,6.493411,0
                100.215192,6.496112,0
                100.216581,6.499971,0
                100.215501,6.500589,0
                100.214112,6.499663,0
                100.206548,6.50329,0
                100.198136,6.505528,0
                100.201841,6.518417,0
                100.210793,6.515098,0
                100.211025,6.517105,0
                100.217276,6.514481,0
                100.219669,6.515793,0
                100.224685,6.5134,0
                100.227618,6.514326,0
                100.23001,6.513555,0
                100.233946,6.512937,0
                100.243902,6.51232,0
                100.251836,6.51276,0
                100.251972,6.510926,0
                100.251674,6.508837,0
                100.25162,6.508461,0
                100.251564,6.50833,0
                100.248687,6.501669,0
                100.247144,6.499277,0
                100.241124,6.496344,0
                100.239889,6.49179,0
                100.235413,6.491327,0
                100.233483,6.486002,0
              </coordinates>
            </LinearRing>
          </outerBoundaryIs>
        </Polygon>
      </Placemark>
      <Placemark id="PLS_SE-04.6">
        <name>P.001 Kangar</name>
        <ExtendedData>
          <SchemaData schemaUrl="#PLS_SE-04.schema">
            <SimpleData name="state">Perlis</SimpleData>
            <SimpleData name="parlimen">P.001 Kangar</SimpleData>
            <SimpleData name="code_parlimen">P.001</SimpleData>
            <SimpleData name="dun">N.06 Oran</SimpleData>
            <SimpleData name="code_dun">N.06</SimpleData>
          </SchemaData>
        </ExtendedData>
        <Polygon>
          <outerBoundaryIs>
            <LinearRing>
              <coordinates>
                100.366761,6.539764,0
                100.36714,6.539147,0
                100.370739,6.532175,0
                100.365701,6.484841,0
                100.363001,6.453328,0
                100.360055,6.455363,0
                100.349404,6.457832,0
                100.344465,6.457215,0
                100.334432,6.458604,0
                100.322546,6.453665,0
                100.316681,6.455054,0
                100.312668,6.454282,0
                100.30603,6.446101,0
                100.303406,6.446256,0
                100.300782,6.444095,0
                100.290595,6.445175,0
                100.287353,6.444403,0
                100.28936,6.449343,0
                100.287353,6.453356,0
                100.287508,6.457832,0
                100.282568,6.459376,0
                100.278555,6.461074,0
                100.272844,6.459684,0
                100.26775,6.462463,0
                100.265589,6.457832,0
                100.263737,6.460456,0
                100.26065,6.45953,0
                100.260033,6.45706,0
                100.256791,6.464315,0
                100.254476,6.460611,0
                100.24398,6.464624,0
                100.243362,6.466785,0
                100.237651,6.468637,0
                100.237728,6.470489,0
                100.237651,6.473576,0
                100.235104,6.474194,0
                100.233715,6.476201,0
                100.235413,6.477358,0
                100.234255,6.479056,0
                100.235181,6.485462,0
                100.233483,6.486002,0
                100.235413,6.491327,0
                100.239889,6.49179,0
                100.244057,6.490478,0
                100.250308,6.485539,0
                100.252932,6.484999,0
                100.253009,6.487623,0
                100.259029,6.487932,0
                100.259878,6.484536,0
                100.263042,6.484613,0
                100.263583,6.488395,0
                100.269525,6.489321,0
                100.271995,6.483301,0
                100.276471,6.48361,0
                100.281025,6.482761,0
                100.286273,6.481603,0
                100.286582,6.485153,0
                100.287662,6.487932,0
                100.299022,6.504886,0
                100.32355,6.541493,0
                100.366761,6.539764,0
              </coordinates>
            </LinearRing>
          </outerBoundaryIs>
        </Polygon>
      </Placemark>
      <Placemark id="PLS_SE-04.7">
        <name>P.002 Arau</name>
        <ExtendedData>
          <SchemaData schemaUrl="#PLS_SE-04.schema">
            <SimpleData name="state">Perlis</SimpleData>
            <SimpleData name="parlimen">P.002 Arau</SimpleData>
            <SimpleData name="code_parlimen">P.002</SimpleData>
            <SimpleData name="dun">N.07 Kuala Perlis</SimpleData>
            <SimpleData name="code_dun">N.07</SimpleData>
          </SchemaData>
        </ExtendedData>
        <Polygon>
          <outerBoundaryIs>
            <LinearRing>
              <coordinates>
                100.144728,6.358329,0
                100.139779,6.372546,0
                100.127273,6.396241,0
                100.121065,6.410726,0
                100.118906,6.422528,0
                100.123584,6.422885,0
                100.124934,6.425478,0
                100.128443,6.426372,0
                100.129612,6.428428,0
                100.133571,6.429233,0
                100.134831,6.433256,0
                100.134021,6.439962,0
                100.13627,6.440498,0
                100.135101,6.444343,0
                100.139509,6.448098,0
                100.141579,6.447561,0
                100.144368,6.451048,0
                100.147427,6.4523,0
                100.145836,6.456646,0
                100.151366,6.45706,0
                100.150903,6.444558,0
                100.15207,6.440357,0
                100.154145,6.432827,0
                100.154916,6.431052,0
                100.154916,6.428582,0
                100.153682,6.42673,0
                100.153527,6.42426,0
                100.152292,6.42179,0
                100.149668,6.42071,0
                100.148588,6.417623,0
                100.145964,6.420092,0
                100.145346,6.418549,0
                100.146118,6.410214,0
                100.148279,6.396167,0
                100.151212,6.38953,0
                100.152601,6.384899,0
                100.155071,6.381195,0
                100.158158,6.376718,0
                100.156769,6.375329,0
                100.160628,6.367766,0
                100.163869,6.362209,0
                100.163406,6.353411,0
                100.154762,6.351558,0
                100.147607,6.349597,0
                100.144728,6.358329,0
              </coordinates>
            </LinearRing>
          </outerBoundaryIs>
        </Polygon>
      </Placemark>
      <Placemark id="PLS_SE-04.8">
        <name>P.002 Arau</name>
        <ExtendedData>
          <SchemaData schemaUrl="#PLS_SE-04.schema">
            <SimpleData name="state">Perlis</SimpleData>
            <SimpleData name="parlimen">P.002 Arau</SimpleData>
            <SimpleData name="code_parlimen">P.002</SimpleData>
            <SimpleData name="dun">N.08 Kayang</SimpleData>
            <SimpleData name="code_dun">N.08</SimpleData>
          </SchemaData>
        </ExtendedData>
        <Polygon>
          <outerBoundaryIs>
            <LinearRing>
              <coordinates>
                100.184398,6.373014,0
                100.216041,6.371316,0
                100.216659,6.362363,0
                100.216919,6.358324,0
                100.214035,6.35588,0
                100.203538,6.348471,0
                100.196592,6.343995,0
                100.195821,6.341988,0
                100.191962,6.340136,0
                100.192425,6.337049,0
                100.189338,6.335814,0
                100.187331,6.33921,0
                100.182855,6.338284,0
                100.18162,6.339673,0
                100.168345,6.335814,0
                100.159393,6.333345,0
                100.153568,6.331609,0
                100.153455,6.33186,0
                100.147607,6.349597,0
                100.154762,6.351558,0
                100.163406,6.353411,0
                100.163869,6.362209,0
                100.160628,6.367766,0
                100.156769,6.375329,0
                100.158158,6.376718,0
                100.155071,6.381195,0
                100.152601,6.384899,0
                100.151212,6.38953,0
                100.148279,6.396167,0
                100.146118,6.410214,0
                100.145346,6.418549,0
                100.145964,6.420092,0
                100.148588,6.417623,0
                100.149668,6.42071,0
                100.152292,6.42179,0
                100.153527,6.42426,0
                100.153682,6.42673,0
                100.154916,6.428582,0
                100.154916,6.431052,0
                100.154145,6.432827,0
                100.158312,6.434216,0
                100.15754,6.430974,0
                100.159789,6.428538,0
                100.161245,6.426961,0
                100.161245,6.424646,0
                100.164641,6.423257,0
                100.165104,6.419552,0
                100.168654,6.416002,0
                100.168654,6.413069,0
                100.16958,6.411063,0
                100.172204,6.412915,0
                100.173902,6.411834,0
                100.174134,6.408284,0
                100.173748,6.404657,0
                100.174828,6.404811,0
                100.176063,6.407435,0
                100.177144,6.405814,0
                100.175832,6.403885,0
                100.174365,6.401647,0
                100.175754,6.398868,0
                100.17915,6.38899,0
                100.184553,6.388835,0
                100.183935,6.378879,0
                100.184398,6.373014,0
              </coordinates>
            </LinearRing>
          </outerBoundaryIs>
        </Polygon>
      </Placemark>
      <Placemark id="PLS_SE-04.9">
        <name>P.002 Arau</name>
        <ExtendedData>
          <SchemaData schemaUrl="#PLS_SE-04.schema">
            <SimpleData name="state">Perlis</SimpleData>
            <SimpleData name="parlimen">P.002 Arau</SimpleData>
            <SimpleData name="code_parlimen">P.002</SimpleData>
            <SimpleData name="dun">N.09 Utan Aji</SimpleData>
            <SimpleData name="code_dun">N.09</SimpleData>
          </SchemaData>
        </ExtendedData>
        <Polygon>
          <outerBoundaryIs>
            <LinearRing>
              <coordinates>
                100.185942,6.397325,0
                100.187177,6.406586,0
                100.190264,6.405197,0
                100.196747,6.406432,0
                100.206626,6.40458,0
                100.214343,6.399023,0
                100.215424,6.408284,0
                100.212182,6.409828,0
                100.207243,6.417854,0
                100.203693,6.424646,0
                100.205082,6.430357,0
                100.212028,6.425263,0
                100.217585,6.424955,0
                100.219128,6.422176,0
                100.224531,6.422639,0
                100.226383,6.432055,0
                100.227,6.436068,0
                100.225303,6.445021,0
                100.229161,6.450886,0
                100.233483,6.453665,0
                100.235644,6.457215,0
                100.233792,6.458913,0
                100.233329,6.46447,0
                100.236262,6.465859,0
                100.237651,6.468637,0
                100.243362,6.466785,0
                100.24398,6.464624,0
                100.254476,6.460611,0
                100.256791,6.464315,0
                100.260033,6.45706,0
                100.260496,6.452507,0
                100.258335,6.448031,0
                100.259569,6.443091,0
                100.25463,6.440159,0
                100.250617,6.435065,0
                100.250154,6.430897,0
                100.247993,6.428582,0
                100.242899,6.427193,0
                100.239966,6.423488,0
                100.238886,6.422099,0
                100.236725,6.422408,0
                100.231631,6.419012,0
                100.231014,6.416079,0
                100.22947,6.416388,0
                100.229301,6.415373,0
                100.229007,6.413609,0
                100.233483,6.411603,0
                100.232249,6.40157,0
                100.229933,6.390456,0
                100.227618,6.381503,0
                100.229161,6.378725,0
                100.234255,6.373014,0
                100.225148,6.365296,0
                100.216919,6.358324,0
                100.216659,6.362363,0
                100.216041,6.371316,0
                100.184398,6.373014,0
                100.183935,6.378879,0
                100.184553,6.388835,0
                100.18409,6.394392,0
                100.185942,6.397325,0
              </coordinates>
            </LinearRing>
          </outerBoundaryIs>
        </Polygon>
      </Placemark>
      <Placemark id="PLS_SE-04.10">
        <name>P.002 Arau</name>
        <ExtendedData>
          <SchemaData schemaUrl="#PLS_SE-04.schema">
            <SimpleData name="state">Perlis</SimpleData>
            <SimpleData name="parlimen">P.002 Arau</SimpleData>
            <SimpleData name="code_parlimen">P.002</SimpleData>
            <SimpleData name="dun">N.10 Bandar Arau</SimpleData>
            <SimpleData name="code_dun">N.10</SimpleData>
          </SchemaData>
        </ExtendedData>
        <Polygon>
          <outerBoundaryIs>
            <LinearRing>
              <coordinates>
                100.285038,6.432904,0
                100.283803,6.423025,0
                100.285192,6.417005,0
                100.283958,6.415925,0
                100.285038,6.412375,0
                100.280253,6.40867,0
                100.280407,6.407126,0
                100.278864,6.406663,0
                100.278555,6.404811,0
                100.274696,6.402959,0
                100.275005,6.40157,0
                100.272072,6.399254,0
                100.270066,6.397093,0
                100.260804,6.39308,0
                100.258798,6.395395,0
                100.250154,6.387986,0
                100.24259,6.380423,0
                100.237034,6.375021,0
                100.235642,6.374016,0
                100.235184,6.373684,0
                100.234255,6.373014,0
                100.229161,6.378725,0
                100.227618,6.381503,0
                100.229933,6.390456,0
                100.232249,6.40157,0
                100.233483,6.411603,0
                100.229007,6.413609,0
                100.229301,6.415373,0
                100.22947,6.416388,0
                100.231014,6.416079,0
                100.231631,6.419012,0
                100.236725,6.422408,0
                100.238886,6.422099,0
                100.239966,6.423488,0
                100.242899,6.427193,0
                100.247993,6.428582,0
                100.250154,6.430897,0
                100.250617,6.435065,0
                100.25463,6.440159,0
                100.259569,6.443091,0
                100.258335,6.448031,0
                100.260496,6.452507,0
                100.260033,6.45706,0
                100.26065,6.45953,0
                100.263737,6.460456,0
                100.265589,6.457832,0
                100.26775,6.462463,0
                100.272844,6.459684,0
                100.278555,6.461074,0
                100.282568,6.459376,0
                100.287508,6.457832,0
                100.287353,6.453356,0
                100.28936,6.449343,0
                100.287353,6.444403,0
                100.284112,6.440313,0
                100.285038,6.432904,0
              </coordinates>
            </LinearRing>
          </outerBoundaryIs>
        </Polygon>
      </Placemark>
      <Placemark id="PLS_SE-04.11">
        <name>P.002 Arau</name>
        <ExtendedData>
          <SchemaData schemaUrl="#PLS_SE-04.schema">
            <SimpleData name="state">Perlis</SimpleData>
            <SimpleData name="parlimen">P.002 Arau</SimpleData>
            <SimpleData name="code_parlimen">P.002</SimpleData>
            <SimpleData name="dun">N.11 Kurong Anai</SimpleData>
            <SimpleData name="code_dun">N.11</SimpleData>
          </SchemaData>
        </ExtendedData>
        <Polygon>
          <outerBoundaryIs>
            <LinearRing>
              <coordinates>
                100.245926,6.360689,0
                100.236719,6.372829,0
                100.235642,6.374016,0
                100.237034,6.375021,0
                100.24259,6.380423,0
                100.250154,6.387986,0
                100.258798,6.395395,0
                100.260804,6.39308,0
                100.270066,6.397093,0
                100.272072,6.399254,0
                100.275005,6.40157,0
                100.274696,6.402959,0
                100.278555,6.404811,0
                100.278864,6.406663,0
                100.280407,6.407126,0
                100.280253,6.40867,0
                100.285038,6.412375,0
                100.283958,6.415925,0
                100.285192,6.417005,0
                100.283803,6.423025,0
                100.285038,6.432904,0
                100.284112,6.440313,0
                100.287353,6.444403,0
                100.290595,6.445175,0
                100.300782,6.444095,0
                100.303406,6.446256,0
                100.30603,6.446101,0
                100.312668,6.454282,0
                100.316681,6.455054,0
                100.322546,6.453665,0
                100.334432,6.458604,0
                100.344465,6.457215,0
                100.349404,6.457832,0
                100.360055,6.455363,0
                100.363001,6.453328,0
                100.355804,6.447606,0
                100.310277,6.408446,0
                100.309738,6.410592,0
                100.306315,6.408929,0
                100.304699,6.406479,0
                100.305239,6.404333,0
                100.30092,6.403439,0
                100.290367,6.386694,0
                100.279507,6.369461,0
                100.273569,6.366779,0
                100.264031,6.354797,0
                100.255929,6.349327,0
                100.254494,6.348358,0
                100.25334,6.351075,0
                100.245926,6.360689,0
              </coordinates>
            </LinearRing>
          </outerBoundaryIs>
        </Polygon>
      </Placemark>
      <Placemark id="PLS_SE-04.12">
        <name>P.002 Arau</name>
        <ExtendedData>
          <SchemaData schemaUrl="#PLS_SE-04.schema">
            <SimpleData name="state">Perlis</SimpleData>
            <SimpleData name="parlimen">P.002 Arau</SimpleData>
            <SimpleData name="code_parlimen">P.002</SimpleData>
            <SimpleData name="dun">N.12 Sanglang</SimpleData>
            <SimpleData name="code_dun">N.12</SimpleData>
          </SchemaData>
        </ExtendedData>
        <Polygon>
          <outerBoundaryIs>
            <LinearRing>
              <coordinates>
                100.231101,6.320458,0
                100.227514,6.317094,0
                100.220125,6.307223,0
                100.217965,6.299532,0
                100.20411,6.288979,0
                100.20429,6.285223,0
                100.201231,6.281646,0
                100.20393,6.275922,0
                100.20177,6.265906,0
                100.193133,6.248018,0
                100.16893,6.289561,0
                100.162297,6.30902,0
                100.159663,6.318088,0
                100.154779,6.328924,0
                100.153568,6.331609,0
                100.159393,6.333345,0
                100.168345,6.335814,0
                100.18162,6.339673,0
                100.182855,6.338284,0
                100.187331,6.33921,0
                100.189338,6.335814,0
                100.192425,6.337049,0
                100.191962,6.340136,0
                100.195821,6.341988,0
                100.196592,6.343995,0
                100.203538,6.348471,0
                100.214035,6.35588,0
                100.225148,6.365296,0
                100.234255,6.373014,0
                100.235184,6.373684,0
                100.235642,6.374016,0
                100.236719,6.372829,0
                100.245926,6.360689,0
                100.25334,6.351075,0
                100.254494,6.348358,0
                100.249636,6.335124,0
                100.243158,6.332083,0
                100.23722,6.324572,0
                100.231101,6.320458,0
              </coordinates>
            </LinearRing>
          </outerBoundaryIs>
        </Polygon>
      </Placemark>
    </Document>
  </Document>
</kml>
