<?xml version="1.0" encoding="UTF-8"?>
<kml xmlns="http://www.opengis.net/kml/2.2">
  <Document id="root_doc">
    <Schema id="PLS_SE_03" name="PLS_SE_03">
      <SimpleField name="state" type="string"/>
      <SimpleField name="parlimen" type="string"/>
      <SimpleField name="code_parlimen" type="string"/>
      <SimpleField name="dun" type="string"/>
      <SimpleField name="code_dun" type="string"/>
    </Schema>
    <Schema id="PLS_SE-03.schema">
      <SimpleField name="state" type="string"/>
      <SimpleField name="parlimen" type="string"/>
      <SimpleField name="code_parlimen" type="string"/>
      <SimpleField name="dun" type="string"/>
      <SimpleField name="code_dun" type="string"/>
    </Schema>
    <Folder>
      <name>PLS_SE_03</name>
      <Placemark id="PLS_SE_03.1">
        <name>Perlis</name>
        <description>P.001 Perlis Utara</description>
        <Style>
          <LineStyle>
            <color>ff0000ff</color>
          </LineStyle>
          <PolyStyle>
            <fill>0</fill>
          </PolyStyle>
        </Style>
        <ExtendedData>
          <SchemaData schemaUrl="#PLS_SE_03">
            <SimpleData name="state">P.001</SimpleData>
            <SimpleData name="parlimen">N.01 Kaki Bukit</SimpleData>
            <SimpleData name="code_parlimen">N.01</SimpleData>
          </SchemaData>
        </ExtendedData>
        <Polygon>
          <outerBoundaryIs>
            <LinearRing>
              <coordinates>
                100.239665,6.514669,0
                100.226658,6.514669,0
                100.213001,6.515319,0
                100.201945,6.514669,0
                100.199994,6.502963,0
                100.187637,6.512068,0
                100.183735,6.528326,0
                100.180483,6.541984,0
                100.176581,6.556942,0
                100.175139,6.567348,0
                100.176488,6.571102,0
                100.178468,6.573873,0
                100.182966,6.574051,0
                100.183506,6.57995,0
                100.181707,6.582453,0
                100.180807,6.587816,0
                100.178108,6.591748,0
                100.178108,6.596039,0
                100.180267,6.597469,0
                100.180447,6.60015,0
                100.178108,6.604797,0
                100.176128,6.604261,0
                100.16947,6.609266,0
                100.165511,6.631609,0
                100.16875,6.632861,0
                100.166951,6.647875,0
                100.17091,6.651092,0
                100.174149,6.650913,0
                100.181347,6.65556,0
                100.178647,6.667714,0
                100.180494,6.67522,0
                100.179187,6.682727,0
                100.175228,6.682905,0
                100.17109,6.693271,0
                100.178288,6.696131,0
                100.185665,6.717576,0
                100.20438,6.726869,0
                100.20474,6.723474,0
                100.206539,6.720793,0
                100.211218,6.721508,0
                100.214457,6.719721,0
                100.215176,6.71293,0
                100.218235,6.710785,0
                100.217876,6.703637,0
                100.221627,6.700099,0
                100.226873,6.697203,0
                100.228492,6.693271,0
                100.231191,6.695058,0
                100.240729,6.692378,0
                100.243428,6.69345,0
                100.244148,6.696488,0
                100.246667,6.695416,0
                100.249186,6.69756,0
                100.250985,6.703458,0
                100.253145,6.703994,0
                100.252785,6.707926,0
                100.257284,6.711321,0
                100.261602,6.70739,0
                100.264121,6.699169,0
                100.266641,6.699169,0
                100.26952,6.703101,0
                100.274918,6.70453,0
                100.274918,6.706318,0
                100.284275,6.708998,0
                100.285535,6.707747,0
                100.290213,6.710785,0
                100.295432,6.704888,0
                100.291113,6.698275,0
                100.290753,6.69059,0
                100.294352,6.680046,0
                100.298311,6.67808,0
                100.30047,6.680403,0
                100.30281,6.680046,0
                100.305689,6.668429,0
                100.311987,6.666463,0
                100.315406,6.667714,0
                100.318285,6.664318,0
                100.321524,6.66539,0
                100.327282,6.664318,0
                100.325843,6.660207,0
                100.323323,6.656096,0
                100.319725,6.654666,0
                100.322424,6.649662,0
                100.321704,6.641976,0
                100.317925,6.640189,0
                100.316845,6.635005,0
                100.320984,6.635899,0
                100.326023,6.622851,0
                100.317025,6.613914,0
                100.310367,6.610875,0
                100.305689,6.610696,0
                100.305509,6.606585,0
                100.311447,6.603546,0
                100.296034,6.599078,0
                100.280689,6.595132,0
                100.264467,6.592063,0
                100.259644,6.575402,0
                100.260521,6.558303,0
                100.260082,6.544711,0
                100.259205,6.529804,0
                100.255698,6.515774,0
                100.239665,6.514669,0
              </coordinates>
            </LinearRing>
          </outerBoundaryIs>
        </Polygon>
      </Placemark>
      <Placemark id="PLS_SE_03.2">
        <name>Perlis</name>
        <description>P.001 Perlis Utara</description>
        <Style>
          <LineStyle>
            <color>ff0000ff</color>
          </LineStyle>
          <PolyStyle>
            <fill>0</fill>
          </PolyStyle>
        </Style>
        <ExtendedData>
          <SchemaData schemaUrl="#PLS_SE_03">
            <SimpleData name="state">P.001</SimpleData>
            <SimpleData name="parlimen">N.02 Paya</SimpleData>
            <SimpleData name="code_parlimen">N.02</SimpleData>
          </SchemaData>
        </ExtendedData>
        <Polygon>
          <outerBoundaryIs>
            <LinearRing>
              <coordinates>
                100.199994,6.502963,0
                100.201945,6.514669,0
                100.213001,6.515319,0
                100.226658,6.514669,0
                100.239665,6.514669,0
                100.255698,6.515774,0
                100.250875,6.502621,0
                100.242106,6.489467,0
                100.238598,6.478945,0
                100.240352,6.469738,0
                100.247367,6.464038,0
                100.233975,6.458149,0
                100.221401,6.445575,0
                100.221042,6.450604,0
                100.207389,6.452401,0
                100.212419,6.471442,0
                100.214215,6.488328,0
                100.21673,6.503058,0
                100.210982,6.50198,0
                100.199994,6.502963,0
              </coordinates>
            </LinearRing>
          </outerBoundaryIs>
        </Polygon>
      </Placemark>
      <Placemark id="PLS_SE_03.3">
        <name>Perlis</name>
        <description>P.001 Perlis Utara</description>
        <Style>
          <LineStyle>
            <color>ff0000ff</color>
          </LineStyle>
          <PolyStyle>
            <fill>0</fill>
          </PolyStyle>
        </Style>
        <ExtendedData>
          <SchemaData schemaUrl="#PLS_SE_03">
            <SimpleData name="state">P.001</SimpleData>
            <SimpleData name="parlimen">N.03 Mata Ayer</SimpleData>
            <SimpleData name="code_parlimen">N.03</SimpleData>
          </SchemaData>
        </ExtendedData>
        <Polygon>
          <outerBoundaryIs>
            <LinearRing>
              <coordinates>
                100.261397,6.463161,0
                100.253944,6.459215,0
                100.247367,6.464038,0
                100.240352,6.469738,0
                100.238598,6.478945,0
                100.242106,6.489467,0
                100.250875,6.502621,0
                100.255698,6.515774,0
                100.259205,6.529804,0
                100.260082,6.544711,0
                100.260521,6.558303,0
                100.259644,6.575402,0
                100.264467,6.592063,0
                100.280689,6.595132,0
                100.296034,6.599078,0
                100.311447,6.603546,0
                100.315226,6.604261,0
                100.317025,6.601937,0
                100.317205,6.598005,0
                100.319545,6.593,0
                100.324943,6.588531,0
                100.325483,6.585492,0
                100.33394,6.585313,0
                100.341498,6.580487,0
                100.341318,6.575839,0
                100.345097,6.571906,0
                100.350855,6.573515,0
                100.353914,6.568152,0
                100.353014,6.562432,0
                100.359672,6.557247,0
                100.358233,6.554923,0
                100.355123,6.552212,0
                100.34303,6.55191,0
                100.328519,6.550197,0
                100.321868,6.546166,0
                100.313101,6.533368,0
                100.301009,6.509385,0
                100.292242,6.489533,0
                100.292947,6.48137,0
                100.290428,6.476836,0
                100.291436,6.470084,0
                100.287808,6.464239,0
                100.282467,6.463836,0
                100.271281,6.464138,0
                100.264054,6.456832,0
                100.261397,6.463161,0
              </coordinates>
            </LinearRing>
          </outerBoundaryIs>
        </Polygon>
      </Placemark>
      <Placemark id="PLS_SE_03.4">
        <name>Perlis</name>
        <description>P.001 Perlis Utara</description>
        <Style>
          <LineStyle>
            <color>ff0000ff</color>
          </LineStyle>
          <PolyStyle>
            <fill>0</fill>
          </PolyStyle>
        </Style>
        <ExtendedData>
          <SchemaData schemaUrl="#PLS_SE_03">
            <SimpleData name="state">P.001</SimpleData>
            <SimpleData name="parlimen">N.04 Bandar Kangar</SimpleData>
            <SimpleData name="code_parlimen">N.04</SimpleData>
          </SchemaData>
        </ExtendedData>
        <Polygon>
          <outerBoundaryIs>
            <LinearRing>
              <coordinates>
                100.17254,6.434437,0
                100.180804,6.438389,0
                100.185474,6.445215,0
                100.186193,6.45276,0
                100.189426,6.468209,0
                100.199126,6.477909,0
                100.206671,6.488687,0
                100.210982,6.50198,0
                100.21673,6.503058,0
                100.214215,6.488328,0
                100.212419,6.471442,0
                100.207389,6.452401,0
                100.221042,6.450604,0
                100.221401,6.445575,0
                100.211701,6.439108,0
                100.200943,6.432396,0
                100.198626,6.428063,0
                100.195401,6.426047,0
                100.194393,6.421915,0
                100.197316,6.409218,0
                100.196509,6.405591,0
                100.190262,6.404986,0
                100.188851,6.401459,0
                100.188246,6.3937,0
                100.183611,6.38715,0
                100.179177,6.391483,0
                100.17565,6.400351,0
                100.173332,6.408311,0
                100.16648,6.416675,0
                100.162953,6.420807,0
                100.161139,6.425946,0
                100.17254,6.434437,0
              </coordinates>
            </LinearRing>
          </outerBoundaryIs>
        </Polygon>
      </Placemark>
      <Placemark id="PLS_SE_03.5">
        <name>Perlis</name>
        <description>P.001 Perlis Utara</description>
        <Style>
          <LineStyle>
            <color>ff0000ff</color>
          </LineStyle>
          <PolyStyle>
            <fill>0</fill>
          </PolyStyle>
        </Style>
        <ExtendedData>
          <SchemaData schemaUrl="#PLS_SE_03">
            <SimpleData name="state">P.001</SimpleData>
            <SimpleData name="parlimen">N.05 Sena</SimpleData>
            <SimpleData name="code_parlimen">N.05</SimpleData>
          </SchemaData>
        </ExtendedData>
        <Polygon>
          <outerBoundaryIs>
            <LinearRing>
              <coordinates>
                100.211701,6.439108,0
                100.221401,6.445575,0
                100.233975,6.458149,0
                100.247367,6.464038,0
                100.253944,6.459215,0
                100.261397,6.463161,0
                100.264054,6.456832,0
                100.262212,6.449426,0
                100.25929,6.442977,0
                100.248507,6.43169,0
                100.240244,6.425846,0
                100.230167,6.415869,0
                100.221198,6.41073,0
                100.211827,6.411234,0
                100.207393,6.418792,0
                100.206385,6.427256,0
                100.200943,6.432396,0
                100.211701,6.439108,0
              </coordinates>
            </LinearRing>
          </outerBoundaryIs>
        </Polygon>
      </Placemark>
      <Placemark id="PLS_SE_03.6">
        <name>Perlis</name>
        <description>P.001 Perlis Utara</description>
        <Style>
          <LineStyle>
            <color>ff0000ff</color>
          </LineStyle>
          <PolyStyle>
            <fill>0</fill>
          </PolyStyle>
        </Style>
        <ExtendedData>
          <SchemaData schemaUrl="#PLS_SE_03">
            <SimpleData name="state">P.001</SimpleData>
            <SimpleData name="parlimen">N.06 Bintong</SimpleData>
            <SimpleData name="code_parlimen">N.06</SimpleData>
          </SchemaData>
        </ExtendedData>
        <Polygon>
          <outerBoundaryIs>
            <LinearRing>
              <coordinates>
                100.210982,6.50198,0
                100.206671,6.488687,0
                100.199126,6.477909,0
                100.189426,6.468209,0
                100.186193,6.45276,0
                100.185474,6.445215,0
                100.180804,6.438389,0
                100.17254,6.434437,0
                100.161139,6.425946,0
                100.157813,6.429574,0
                100.156302,6.434109,0
                100.15207,6.440357,0
                100.151163,6.44731,0
                100.147427,6.4523,0
                100.144908,6.459184,0
                100.144278,6.464011,0
                100.145358,6.469018,0
                100.146977,6.468392,0
                100.151296,6.471878,0
                100.150576,6.47608,0
                100.152915,6.477153,0
                100.153815,6.478762,0
                100.155345,6.477421,0
                100.157684,6.478673,0
                100.158404,6.480461,0
                100.156244,6.483053,0
                100.154085,6.483053,0
                100.154355,6.486897,0
                100.159663,6.487702,0
                100.159843,6.49691,0
                100.159933,6.503435,0
                100.157594,6.507994,0
                100.158314,6.50871,0
                100.154175,6.522565,0
                100.156334,6.522386,0
                100.157144,6.533381,0
                100.155704,6.537493,0
                100.153095,6.555549,0
                100.153995,6.559303,0
                100.157594,6.560465,0
                100.159573,6.563057,0
                100.158224,6.568867,0
                100.159213,6.570655,0
                100.156244,6.575035,0
                100.156874,6.580397,0
                100.162992,6.57566,0
                100.163082,6.571996,0
                100.165871,6.570119,0
                100.167941,6.57137,0
                100.16875,6.574409,0
                100.17073,6.574766,0
                100.172889,6.573158,0
                100.173069,6.571281,0
                100.175139,6.567348,0
                100.176581,6.556942,0
                100.180483,6.541984,0
                100.183735,6.528326,0
                100.187637,6.512068,0
                100.199994,6.502963,0
                100.210982,6.50198,0
              </coordinates>
            </LinearRing>
          </outerBoundaryIs>
        </Polygon>
      </Placemark>
      <Placemark id="PLS_SE_03.7">
        <name>Perlis</name>
        <description>P.002 Perlis Selatan</description>
        <Style>
          <LineStyle>
            <color>ff0000ff</color>
          </LineStyle>
          <PolyStyle>
            <fill>0</fill>
          </PolyStyle>
        </Style>
        <ExtendedData>
          <SchemaData schemaUrl="#PLS_SE_03">
            <SimpleData name="state">P.002</SimpleData>
            <SimpleData name="parlimen">N.07 Kurong Anai</SimpleData>
            <SimpleData name="code_parlimen">N.07</SimpleData>
          </SchemaData>
        </ExtendedData>
        <Polygon>
          <outerBoundaryIs>
            <LinearRing>
              <coordinates>
                100.249291,6.358299,0
                100.25606,6.364585,0
                100.263312,6.371354,0
                100.272499,6.381024,0
                100.278301,6.390694,0
                100.28652,6.400364,0
                100.293773,6.415353,0
                100.294256,6.431308,0
                100.293773,6.444846,0
                100.287808,6.464239,0
                100.291436,6.470084,0
                100.290428,6.476836,0
                100.292947,6.48137,0
                100.292242,6.489533,0
                100.301009,6.509385,0
                100.313101,6.533368,0
                100.321868,6.546166,0
                100.328519,6.550197,0
                100.34303,6.55191,0
                100.355123,6.552212,0
                100.358233,6.554923,0
                100.360932,6.546342,0
                100.363271,6.545449,0
                100.36714,6.539147,0
                100.370739,6.532175,0
                100.365701,6.484841,0
                100.363001,6.453328,0
                100.355804,6.447606,0
                100.310277,6.408446,0
                100.309738,6.410592,0
                100.306315,6.408929,0
                100.304699,6.406479,0
                100.305239,6.404333,0
                100.30092,6.403439,0
                100.290367,6.386694,0
                100.279507,6.369461,0
                100.273569,6.366779,0
                100.264031,6.354797,0
                100.255929,6.349327,0
                100.249291,6.358299,0
              </coordinates>
            </LinearRing>
          </outerBoundaryIs>
        </Polygon>
      </Placemark>
      <Placemark id="PLS_SE_03.8">
        <name>Perlis</name>
        <description>P.002 Perlis Selatan</description>
        <Style>
          <LineStyle>
            <color>ff0000ff</color>
          </LineStyle>
          <PolyStyle>
            <fill>0</fill>
          </PolyStyle>
        </Style>
        <ExtendedData>
          <SchemaData schemaUrl="#PLS_SE_03">
            <SimpleData name="state">P.002</SimpleData>
            <SimpleData name="parlimen">N.08 Arau</SimpleData>
            <SimpleData name="code_parlimen">N.08</SimpleData>
          </SchemaData>
        </ExtendedData>
        <Polygon>
          <outerBoundaryIs>
            <LinearRing>
              <coordinates>
                100.243701,6.369698,0
                100.237837,6.37947,0
                100.238489,6.394455,0
                100.238489,6.406182,0
                100.230167,6.415869,0
                100.240244,6.425846,0
                100.248507,6.43169,0
                100.25929,6.442977,0
                100.262212,6.449426,0
                100.264054,6.456832,0
                100.271281,6.464138,0
                100.282467,6.463836,0
                100.287808,6.464239,0
                100.293773,6.444846,0
                100.294256,6.431308,0
                100.293773,6.415353,0
                100.28652,6.400364,0
                100.278301,6.390694,0
                100.272499,6.381024,0
                100.263312,6.371354,0
                100.25606,6.364585,0
                100.249291,6.358299,0
                100.243701,6.369698,0
              </coordinates>
            </LinearRing>
          </outerBoundaryIs>
        </Polygon>
      </Placemark>
      <Placemark id="PLS_SE_03.9">
        <name>Perlis</name>
        <description>P.002 Perlis Selatan</description>
        <Style>
          <LineStyle>
            <color>ff0000ff</color>
          </LineStyle>
          <PolyStyle>
            <fill>0</fill>
          </PolyStyle>
        </Style>
        <ExtendedData>
          <SchemaData schemaUrl="#PLS_SE_03">
            <SimpleData name="state">P.002</SimpleData>
            <SimpleData name="parlimen">N.09 Hutan Aji</SimpleData>
            <SimpleData name="code_parlimen">N.09</SimpleData>
          </SchemaData>
        </ExtendedData>
        <Polygon>
          <outerBoundaryIs>
            <LinearRing>
              <coordinates>
                100.238489,6.406182,0
                100.238489,6.394455,0
                100.237837,6.37947,0
                100.243701,6.369698,0
                100.249291,6.358299,0
                100.255929,6.349327,0
                100.254494,6.348358,0
                100.249636,6.335124,0
                100.243158,6.332083,0
                100.23722,6.324572,0
                100.231101,6.320458,0
                100.225707,6.326446,0
                100.221104,6.332891,0
                100.210976,6.344861,0
                100.218802,6.349925,0
                100.216919,6.358324,0
                100.216041,6.371316,0
                100.184398,6.373014,0
                100.183611,6.38715,0
                100.188246,6.3937,0
                100.188851,6.401459,0
                100.190262,6.404986,0
                100.196509,6.405591,0
                100.197316,6.409218,0
                100.194393,6.421915,0
                100.195401,6.426047,0
                100.198626,6.428063,0
                100.200943,6.432396,0
                100.206385,6.427256,0
                100.207393,6.418792,0
                100.211827,6.411234,0
                100.221198,6.41073,0
                100.230167,6.415869,0
                100.238489,6.406182,0
              </coordinates>
            </LinearRing>
          </outerBoundaryIs>
        </Polygon>
      </Placemark>
      <Placemark id="PLS_SE_03.10">
        <name>Perlis</name>
        <description>P.002 Perlis Selatan</description>
        <Style>
          <LineStyle>
            <color>ff0000ff</color>
          </LineStyle>
          <PolyStyle>
            <fill>0</fill>
          </PolyStyle>
        </Style>
        <ExtendedData>
          <SchemaData schemaUrl="#PLS_SE_03">
            <SimpleData name="state">P.002</SimpleData>
            <SimpleData name="parlimen">N.10 Kayang</SimpleData>
            <SimpleData name="code_parlimen">N.10</SimpleData>
          </SchemaData>
        </ExtendedData>
        <Polygon>
          <outerBoundaryIs>
            <LinearRing>
              <coordinates>
                100.184398,6.373014,0
                100.216041,6.371316,0
                100.216919,6.358324,0
                100.218802,6.349925,0
                100.210976,6.344861,0
                100.197625,6.335653,0
                100.186577,6.333812,0
                100.174607,6.332891,0
                100.166321,6.33105,0
                100.154779,6.328924,0
                100.153455,6.33186,0
                100.148352,6.347338,0
                100.147607,6.349597,0
                100.163406,6.353411,0
                100.163869,6.362209,0
                100.158158,6.376718,0
                100.148279,6.396167,0
                100.148588,6.417623,0
                100.157813,6.429574,0
                100.161139,6.425946,0
                100.162953,6.420807,0
                100.16648,6.416675,0
                100.173332,6.408311,0
                100.17565,6.400351,0
                100.179177,6.391483,0
                100.183611,6.38715,0
                100.184398,6.373014,0
              </coordinates>
            </LinearRing>
          </outerBoundaryIs>
        </Polygon>
      </Placemark>
      <Placemark id="PLS_SE_03.11">
        <name>Perlis</name>
        <description>P.002 Perlis Selatan</description>
        <Style>
          <LineStyle>
            <color>ff0000ff</color>
          </LineStyle>
          <PolyStyle>
            <fill>0</fill>
          </PolyStyle>
        </Style>
        <ExtendedData>
          <SchemaData schemaUrl="#PLS_SE_03">
            <SimpleData name="state">P.002</SimpleData>
            <SimpleData name="parlimen">N.11 Kuala Perlis</SimpleData>
            <SimpleData name="code_parlimen">N.11</SimpleData>
          </SchemaData>
        </ExtendedData>
        <Polygon>
          <outerBoundaryIs>
            <LinearRing>
              <coordinates>
                100.148588,6.417623,0
                100.148279,6.396167,0
                100.158158,6.376718,0
                100.163869,6.362209,0
                100.163406,6.353411,0
                100.147607,6.349597,0
                100.144728,6.358329,0
                100.139779,6.372546,0
                100.127273,6.396241,0
                100.121065,6.410726,0
                100.118906,6.422528,0
                100.123584,6.422885,0
                100.124934,6.425478,0
                100.128443,6.426372,0
                100.129612,6.428428,0
                100.133571,6.429233,0
                100.134831,6.433256,0
                100.134021,6.439962,0
                100.13627,6.440498,0
                100.135101,6.444343,0
                100.139509,6.448098,0
                100.141579,6.447561,0
                100.144368,6.451048,0
                100.147427,6.4523,0
                100.151163,6.44731,0
                100.15207,6.440357,0
                100.156302,6.434109,0
                100.157813,6.429574,0
                100.148588,6.417623,0
              </coordinates>
            </LinearRing>
          </outerBoundaryIs>
        </Polygon>
      </Placemark>
      <Placemark id="PLS_SE_03.12">
        <name>Perlis</name>
        <description>P.002 Perlis Selatan</description>
        <Style>
          <LineStyle>
            <color>ff0000ff</color>
          </LineStyle>
          <PolyStyle>
            <fill>0</fill>
          </PolyStyle>
        </Style>
        <ExtendedData>
          <SchemaData schemaUrl="#PLS_SE_03">
            <SimpleData name="state">P.002</SimpleData>
            <SimpleData name="parlimen">N.12 Sanglang</SimpleData>
            <SimpleData name="code_parlimen">N.12</SimpleData>
          </SchemaData>
        </ExtendedData>
        <Polygon>
          <outerBoundaryIs>
            <LinearRing>
              <coordinates>
                100.166321,6.33105,0
                100.174607,6.332891,0
                100.186577,6.333812,0
                100.197625,6.335653,0
                100.210976,6.344861,0
                100.221104,6.332891,0
                100.225707,6.326446,0
                100.231101,6.320458,0
                100.227514,6.317094,0
                100.220125,6.307223,0
                100.217965,6.299532,0
                100.20411,6.288979,0
                100.20429,6.285223,0
                100.201231,6.281646,0
                100.20393,6.275922,0
                100.20177,6.265906,0
                100.193133,6.248018,0
                100.16893,6.289561,0
                100.162297,6.30902,0
                100.159663,6.318088,0
                100.154779,6.328924,0
                100.166321,6.33105,0
              </coordinates>
            </LinearRing>
          </outerBoundaryIs>
        </Polygon>
      </Placemark>
    </Folder>
    <Document id="PLS_SE-03">
      <name>PLS_SE-03</name>
      <Placemark id="PLS_SE-03.1">
        <name>P.001 Perlis Utara</name>
        <ExtendedData>
          <SchemaData schemaUrl="#PLS_SE-03.schema">
            <SimpleData name="state">Perlis</SimpleData>
            <SimpleData name="parlimen">P.001 Perlis Utara</SimpleData>
            <SimpleData name="code_parlimen">P.001</SimpleData>
            <SimpleData name="dun">N.01 Kaki Bukit</SimpleData>
            <SimpleData name="code_dun">N.01</SimpleData>
          </SchemaData>
        </ExtendedData>
        <Polygon>
          <outerBoundaryIs>
            <LinearRing>
              <coordinates>
                100.239665,6.514669,0
                100.226658,6.514669,0
                100.213001,6.515319,0
                100.201945,6.514669,0
                100.199994,6.502963,0
                100.187637,6.512068,0
                100.183735,6.528326,0
                100.180483,6.541984,0
                100.176581,6.556942,0
                100.175139,6.567348,0
                100.176488,6.571102,0
                100.178468,6.573873,0
                100.182966,6.574051,0
                100.183506,6.57995,0
                100.181707,6.582453,0
                100.180807,6.587816,0
                100.178108,6.591748,0
                100.178108,6.596039,0
                100.180267,6.597469,0
                100.180447,6.60015,0
                100.178108,6.604797,0
                100.176128,6.604261,0
                100.16947,6.609266,0
                100.165511,6.631609,0
                100.16875,6.632861,0
                100.166951,6.647875,0
                100.17091,6.651092,0
                100.174149,6.650913,0
                100.181347,6.65556,0
                100.178647,6.667714,0
                100.180494,6.67522,0
                100.179187,6.682727,0
                100.175228,6.682905,0
                100.17109,6.693271,0
                100.178288,6.696131,0
                100.185665,6.717576,0
                100.20438,6.726869,0
                100.20474,6.723474,0
                100.206539,6.720793,0
                100.211218,6.721508,0
                100.214457,6.719721,0
                100.215176,6.71293,0
                100.218235,6.710785,0
                100.217876,6.703637,0
                100.221627,6.700099,0
                100.226873,6.697203,0
                100.228492,6.693271,0
                100.231191,6.695058,0
                100.240729,6.692378,0
                100.243428,6.69345,0
                100.244148,6.696488,0
                100.246667,6.695416,0
                100.249186,6.69756,0
                100.250985,6.703458,0
                100.253145,6.703994,0
                100.252785,6.707926,0
                100.257284,6.711321,0
                100.261602,6.70739,0
                100.264121,6.699169,0
                100.266641,6.699169,0
                100.26952,6.703101,0
                100.274918,6.70453,0
                100.274918,6.706318,0
                100.284275,6.708998,0
                100.285535,6.707747,0
                100.290213,6.710785,0
                100.295432,6.704888,0
                100.291113,6.698275,0
                100.290753,6.69059,0
                100.294352,6.680046,0
                100.298311,6.67808,0
                100.30047,6.680403,0
                100.30281,6.680046,0
                100.305689,6.668429,0
                100.311987,6.666463,0
                100.315406,6.667714,0
                100.318285,6.664318,0
                100.321524,6.66539,0
                100.327282,6.664318,0
                100.325843,6.660207,0
                100.323323,6.656096,0
                100.319725,6.654666,0
                100.322424,6.649662,0
                100.321704,6.641976,0
                100.317925,6.640189,0
                100.316845,6.635005,0
                100.320984,6.635899,0
                100.326023,6.622851,0
                100.317025,6.613914,0
                100.310367,6.610875,0
                100.305689,6.610696,0
                100.305509,6.606585,0
                100.311447,6.603546,0
                100.296034,6.599078,0
                100.280689,6.595132,0
                100.264467,6.592063,0
                100.259644,6.575402,0
                100.260521,6.558303,0
                100.260082,6.544711,0
                100.259205,6.529804,0
                100.255698,6.515774,0
                100.239665,6.514669,0
              </coordinates>
            </LinearRing>
          </outerBoundaryIs>
        </Polygon>
      </Placemark>
      <Placemark id="PLS_SE-03.2">
        <name>P.001 Perlis Utara</name>
        <ExtendedData>
          <SchemaData schemaUrl="#PLS_SE-03.schema">
            <SimpleData name="state">Perlis</SimpleData>
            <SimpleData name="parlimen">P.001 Perlis Utara</SimpleData>
            <SimpleData name="code_parlimen">P.001</SimpleData>
            <SimpleData name="dun">N.02 Paya</SimpleData>
            <SimpleData name="code_dun">N.02</SimpleData>
          </SchemaData>
        </ExtendedData>
        <Polygon>
          <outerBoundaryIs>
            <LinearRing>
              <coordinates>
                100.199994,6.502963,0
                100.201945,6.514669,0
                100.213001,6.515319,0
                100.226658,6.514669,0
                100.239665,6.514669,0
                100.255698,6.515774,0
                100.250875,6.502621,0
                100.242106,6.489467,0
                100.238598,6.478945,0
                100.240352,6.469738,0
                100.247367,6.464038,0
                100.233975,6.458149,0
                100.221401,6.445575,0
                100.221042,6.450604,0
                100.207389,6.452401,0
                100.212419,6.471442,0
                100.214215,6.488328,0
                100.21673,6.503058,0
                100.210982,6.50198,0
                100.199994,6.502963,0
              </coordinates>
            </LinearRing>
          </outerBoundaryIs>
        </Polygon>
      </Placemark>
      <Placemark id="PLS_SE-03.3">
        <name>P.001 Perlis Utara</name>
        <ExtendedData>
          <SchemaData schemaUrl="#PLS_SE-03.schema">
            <SimpleData name="state">Perlis</SimpleData>
            <SimpleData name="parlimen">P.001 Perlis Utara</SimpleData>
            <SimpleData name="code_parlimen">P.001</SimpleData>
            <SimpleData name="dun">N.03 Mata Ayer</SimpleData>
            <SimpleData name="code_dun">N.03</SimpleData>
          </SchemaData>
        </ExtendedData>
        <Polygon>
          <outerBoundaryIs>
            <LinearRing>
              <coordinates>
                100.261397,6.463161,0
                100.253944,6.459215,0
                100.247367,6.464038,0
                100.240352,6.469738,0
                100.238598,6.478945,0
                100.242106,6.489467,0
                100.250875,6.502621,0
                100.255698,6.515774,0
                100.259205,6.529804,0
                100.260082,6.544711,0
                100.260521,6.558303,0
                100.259644,6.575402,0
                100.264467,6.592063,0
                100.280689,6.595132,0
                100.296034,6.599078,0
                100.311447,6.603546,0
                100.315226,6.604261,0
                100.317025,6.601937,0
                100.317205,6.598005,0
                100.319545,6.593,0
                100.324943,6.588531,0
                100.325483,6.585492,0
                100.33394,6.585313,0
                100.341498,6.580487,0
                100.341318,6.575839,0
                100.345097,6.571906,0
                100.350855,6.573515,0
                100.353914,6.568152,0
                100.353014,6.562432,0
                100.359672,6.557247,0
                100.358233,6.554923,0
                100.355123,6.552212,0
                100.34303,6.55191,0
                100.328519,6.550197,0
                100.321868,6.546166,0
                100.313101,6.533368,0
                100.301009,6.509385,0
                100.292242,6.489533,0
                100.292947,6.48137,0
                100.290428,6.476836,0
                100.291436,6.470084,0
                100.287808,6.464239,0
                100.282467,6.463836,0
                100.271281,6.464138,0
                100.264054,6.456832,0
                100.261397,6.463161,0
              </coordinates>
            </LinearRing>
          </outerBoundaryIs>
        </Polygon>
      </Placemark>
      <Placemark id="PLS_SE-03.4">
        <name>P.001 Perlis Utara</name>
        <ExtendedData>
          <SchemaData schemaUrl="#PLS_SE-03.schema">
            <SimpleData name="state">Perlis</SimpleData>
            <SimpleData name="parlimen">P.001 Perlis Utara</SimpleData>
            <SimpleData name="code_parlimen">P.001</SimpleData>
            <SimpleData name="dun">N.04 Bandar Kangar</SimpleData>
            <SimpleData name="code_dun">N.04</SimpleData>
          </SchemaData>
        </ExtendedData>
        <Polygon>
          <outerBoundaryIs>
            <LinearRing>
              <coordinates>
                100.17254,6.434437,0
                100.180804,6.438389,0
                100.185474,6.445215,0
                100.186193,6.45276,0
                100.189426,6.468209,0
                100.199126,6.477909,0
                100.206671,6.488687,0
                100.210982,6.50198,0
                100.21673,6.503058,0
                100.214215,6.488328,0
                100.212419,6.471442,0
                100.207389,6.452401,0
                100.221042,6.450604,0
                100.221401,6.445575,0
                100.211701,6.439108,0
                100.200943,6.432396,0
                100.198626,6.428063,0
                100.195401,6.426047,0
                100.194393,6.421915,0
                100.197316,6.409218,0
                100.196509,6.405591,0
                100.190262,6.404986,0
                100.188851,6.401459,0
                100.188246,6.3937,0
                100.183611,6.38715,0
                100.179177,6.391483,0
                100.17565,6.400351,0
                100.173332,6.408311,0
                100.16648,6.416675,0
                100.162953,6.420807,0
                100.161139,6.425946,0
                100.17254,6.434437,0
              </coordinates>
            </LinearRing>
          </outerBoundaryIs>
        </Polygon>
      </Placemark>
      <Placemark id="PLS_SE-03.5">
        <name>P.001 Perlis Utara</name>
        <ExtendedData>
          <SchemaData schemaUrl="#PLS_SE-03.schema">
            <SimpleData name="state">Perlis</SimpleData>
            <SimpleData name="parlimen">P.001 Perlis Utara</SimpleData>
            <SimpleData name="code_parlimen">P.001</SimpleData>
            <SimpleData name="dun">N.05 Sena</SimpleData>
            <SimpleData name="code_dun">N.05</SimpleData>
          </SchemaData>
        </ExtendedData>
        <Polygon>
          <outerBoundaryIs>
            <LinearRing>
              <coordinates>
                100.211701,6.439108,0
                100.221401,6.445575,0
                100.233975,6.458149,0
                100.247367,6.464038,0
                100.253944,6.459215,0
                100.261397,6.463161,0
                100.264054,6.456832,0
                100.262212,6.449426,0
                100.25929,6.442977,0
                100.248507,6.43169,0
                100.240244,6.425846,0
                100.230167,6.415869,0
                100.221198,6.41073,0
                100.211827,6.411234,0
                100.207393,6.418792,0
                100.206385,6.427256,0
                100.200943,6.432396,0
                100.211701,6.439108,0
              </coordinates>
            </LinearRing>
          </outerBoundaryIs>
        </Polygon>
      </Placemark>
      <Placemark id="PLS_SE-03.6">
        <name>P.001 Perlis Utara</name>
        <ExtendedData>
          <SchemaData schemaUrl="#PLS_SE-03.schema">
            <SimpleData name="state">Perlis</SimpleData>
            <SimpleData name="parlimen">P.001 Perlis Utara</SimpleData>
            <SimpleData name="code_parlimen">P.001</SimpleData>
            <SimpleData name="dun">N.06 Bintong</SimpleData>
            <SimpleData name="code_dun">N.06</SimpleData>
          </SchemaData>
        </ExtendedData>
        <Polygon>
          <outerBoundaryIs>
            <LinearRing>
              <coordinates>
                100.210982,6.50198,0
                100.206671,6.488687,0
                100.199126,6.477909,0
                100.189426,6.468209,0
                100.186193,6.45276,0
                100.185474,6.445215,0
                100.180804,6.438389,0
                100.17254,6.434437,0
                100.161139,6.425946,0
                100.157813,6.429574,0
                100.156302,6.434109,0
                100.15207,6.440357,0
                100.151163,6.44731,0
                100.147427,6.4523,0
                100.144908,6.459184,0
                100.144278,6.464011,0
                100.145358,6.469018,0
                100.146977,6.468392,0
                100.151296,6.471878,0
                100.150576,6.47608,0
                100.152915,6.477153,0
                100.153815,6.478762,0
                100.155345,6.477421,0
                100.157684,6.478673,0
                100.158404,6.480461,0
                100.156244,6.483053,0
                100.154085,6.483053,0
                100.154355,6.486897,0
                100.159663,6.487702,0
                100.159843,6.49691,0
                100.159933,6.503435,0
                100.157594,6.507994,0
                100.158314,6.50871,0
                100.154175,6.522565,0
                100.156334,6.522386,0
                100.157144,6.533381,0
                100.155704,6.537493,0
                100.153095,6.555549,0
                100.153995,6.559303,0
                100.157594,6.560465,0
                100.159573,6.563057,0
                100.158224,6.568867,0
                100.159213,6.570655,0
                100.156244,6.575035,0
                100.156874,6.580397,0
                100.162992,6.57566,0
                100.163082,6.571996,0
                100.165871,6.570119,0
                100.167941,6.57137,0
                100.16875,6.574409,0
                100.17073,6.574766,0
                100.172889,6.573158,0
                100.173069,6.571281,0
                100.175139,6.567348,0
                100.176581,6.556942,0
                100.180483,6.541984,0
                100.183735,6.528326,0
                100.187637,6.512068,0
                100.199994,6.502963,0
                100.210982,6.50198,0
              </coordinates>
            </LinearRing>
          </outerBoundaryIs>
        </Polygon>
      </Placemark>
      <Placemark id="PLS_SE-03.7">
        <name>P.002 Perlis Selatan</name>
        <ExtendedData>
          <SchemaData schemaUrl="#PLS_SE-03.schema">
            <SimpleData name="state">Perlis</SimpleData>
            <SimpleData name="parlimen">P.002 Perlis Selatan</SimpleData>
            <SimpleData name="code_parlimen">P.002</SimpleData>
            <SimpleData name="dun">N.07 Kurong Anai</SimpleData>
            <SimpleData name="code_dun">N.07</SimpleData>
          </SchemaData>
        </ExtendedData>
        <Polygon>
          <outerBoundaryIs>
            <LinearRing>
              <coordinates>
                100.249291,6.358299,0
                100.25606,6.364585,0
                100.263312,6.371354,0
                100.272499,6.381024,0
                100.278301,6.390694,0
                100.28652,6.400364,0
                100.293773,6.415353,0
                100.294256,6.431308,0
                100.293773,6.444846,0
                100.287808,6.464239,0
                100.291436,6.470084,0
                100.290428,6.476836,0
                100.292947,6.48137,0
                100.292242,6.489533,0
                100.301009,6.509385,0
                100.313101,6.533368,0
                100.321868,6.546166,0
                100.328519,6.550197,0
                100.34303,6.55191,0
                100.355123,6.552212,0
                100.358233,6.554923,0
                100.360932,6.546342,0
                100.363271,6.545449,0
                100.36714,6.539147,0
                100.370739,6.532175,0
                100.365701,6.484841,0
                100.363001,6.453328,0
                100.355804,6.447606,0
                100.310277,6.408446,0
                100.309738,6.410592,0
                100.306315,6.408929,0
                100.304699,6.406479,0
                100.305239,6.404333,0
                100.30092,6.403439,0
                100.290367,6.386694,0
                100.279507,6.369461,0
                100.273569,6.366779,0
                100.264031,6.354797,0
                100.255929,6.349327,0
                100.249291,6.358299,0
              </coordinates>
            </LinearRing>
          </outerBoundaryIs>
        </Polygon>
      </Placemark>
      <Placemark id="PLS_SE-03.8">
        <name>P.002 Perlis Selatan</name>
        <ExtendedData>
          <SchemaData schemaUrl="#PLS_SE-03.schema">
            <SimpleData name="state">Perlis</SimpleData>
            <SimpleData name="parlimen">P.002 Perlis Selatan</SimpleData>
            <SimpleData name="code_parlimen">P.002</SimpleData>
            <SimpleData name="dun">N.08 Arau</SimpleData>
            <SimpleData name="code_dun">N.08</SimpleData>
          </SchemaData>
        </ExtendedData>
        <Polygon>
          <outerBoundaryIs>
            <LinearRing>
              <coordinates>
                100.243701,6.369698,0
                100.237837,6.37947,0
                100.238489,6.394455,0
                100.238489,6.406182,0
                100.230167,6.415869,0
                100.240244,6.425846,0
                100.248507,6.43169,0
                100.25929,6.442977,0
                100.262212,6.449426,0
                100.264054,6.456832,0
                100.271281,6.464138,0
                100.282467,6.463836,0
                100.287808,6.464239,0
                100.293773,6.444846,0
                100.294256,6.431308,0
                100.293773,6.415353,0
                100.28652,6.400364,0
                100.278301,6.390694,0
                100.272499,6.381024,0
                100.263312,6.371354,0
                100.25606,6.364585,0
                100.249291,6.358299,0
                100.243701,6.369698,0
              </coordinates>
            </LinearRing>
          </outerBoundaryIs>
        </Polygon>
      </Placemark>
      <Placemark id="PLS_SE-03.9">
        <name>P.002 Perlis Selatan</name>
        <ExtendedData>
          <SchemaData schemaUrl="#PLS_SE-03.schema">
            <SimpleData name="state">Perlis</SimpleData>
            <SimpleData name="parlimen">P.002 Perlis Selatan</SimpleData>
            <SimpleData name="code_parlimen">P.002</SimpleData>
            <SimpleData name="dun">N.09 Hutan Aji</SimpleData>
            <SimpleData name="code_dun">N.09</SimpleData>
          </SchemaData>
        </ExtendedData>
        <Polygon>
          <outerBoundaryIs>
            <LinearRing>
              <coordinates>
                100.238489,6.406182,0
                100.238489,6.394455,0
                100.237837,6.37947,0
                100.243701,6.369698,0
                100.249291,6.358299,0
                100.255929,6.349327,0
                100.254494,6.348358,0
                100.249636,6.335124,0
                100.243158,6.332083,0
                100.23722,6.324572,0
                100.231101,6.320458,0
                100.225707,6.326446,0
                100.221104,6.332891,0
                100.210976,6.344861,0
                100.218802,6.349925,0
                100.216919,6.358324,0
                100.216041,6.371316,0
                100.184398,6.373014,0
                100.183611,6.38715,0
                100.188246,6.3937,0
                100.188851,6.401459,0
                100.190262,6.404986,0
                100.196509,6.405591,0
                100.197316,6.409218,0
                100.194393,6.421915,0
                100.195401,6.426047,0
                100.198626,6.428063,0
                100.200943,6.432396,0
                100.206385,6.427256,0
                100.207393,6.418792,0
                100.211827,6.411234,0
                100.221198,6.41073,0
                100.230167,6.415869,0
                100.238489,6.406182,0
              </coordinates>
            </LinearRing>
          </outerBoundaryIs>
        </Polygon>
      </Placemark>
      <Placemark id="PLS_SE-03.10">
        <name>P.002 Perlis Selatan</name>
        <ExtendedData>
          <SchemaData schemaUrl="#PLS_SE-03.schema">
            <SimpleData name="state">Perlis</SimpleData>
            <SimpleData name="parlimen">P.002 Perlis Selatan</SimpleData>
            <SimpleData name="code_parlimen">P.002</SimpleData>
            <SimpleData name="dun">N.10 Kayang</SimpleData>
            <SimpleData name="code_dun">N.10</SimpleData>
          </SchemaData>
        </ExtendedData>
        <Polygon>
          <outerBoundaryIs>
            <LinearRing>
              <coordinates>
                100.184398,6.373014,0
                100.216041,6.371316,0
                100.216919,6.358324,0
                100.218802,6.349925,0
                100.210976,6.344861,0
                100.197625,6.335653,0
                100.186577,6.333812,0
                100.174607,6.332891,0
                100.166321,6.33105,0
                100.154779,6.328924,0
                100.153455,6.33186,0
                100.148352,6.347338,0
                100.147607,6.349597,0
                100.163406,6.353411,0
                100.163869,6.362209,0
                100.158158,6.376718,0
                100.148279,6.396167,0
                100.148588,6.417623,0
                100.157813,6.429574,0
                100.161139,6.425946,0
                100.162953,6.420807,0
                100.16648,6.416675,0
                100.173332,6.408311,0
                100.17565,6.400351,0
                100.179177,6.391483,0
                100.183611,6.38715,0
                100.184398,6.373014,0
              </coordinates>
            </LinearRing>
          </outerBoundaryIs>
        </Polygon>
      </Placemark>
      <Placemark id="PLS_SE-03.11">
        <name>P.002 Perlis Selatan</name>
        <ExtendedData>
          <SchemaData schemaUrl="#PLS_SE-03.schema">
            <SimpleData name="state">Perlis</SimpleData>
            <SimpleData name="parlimen">P.002 Perlis Selatan</SimpleData>
            <SimpleData name="code_parlimen">P.002</SimpleData>
            <SimpleData name="dun">N.11 Kuala Perlis</SimpleData>
            <SimpleData name="code_dun">N.11</SimpleData>
          </SchemaData>
        </ExtendedData>
        <Polygon>
          <outerBoundaryIs>
            <LinearRing>
              <coordinates>
                100.148588,6.417623,0
                100.148279,6.396167,0
                100.158158,6.376718,0
                100.163869,6.362209,0
                100.163406,6.353411,0
                100.147607,6.349597,0
                100.144728,6.358329,0
                100.139779,6.372546,0
                100.127273,6.396241,0
                100.121065,6.410726,0
                100.118906,6.422528,0
                100.123584,6.422885,0
                100.124934,6.425478,0
                100.128443,6.426372,0
                100.129612,6.428428,0
                100.133571,6.429233,0
                100.134831,6.433256,0
                100.134021,6.439962,0
                100.13627,6.440498,0
                100.135101,6.444343,0
                100.139509,6.448098,0
                100.141579,6.447561,0
                100.144368,6.451048,0
                100.147427,6.4523,0
                100.151163,6.44731,0
                100.15207,6.440357,0
                100.156302,6.434109,0
                100.157813,6.429574,0
                100.148588,6.417623,0
              </coordinates>
            </LinearRing>
          </outerBoundaryIs>
        </Polygon>
      </Placemark>
      <Placemark id="PLS_SE-03.12">
        <name>P.002 Perlis Selatan</name>
        <ExtendedData>
          <SchemaData schemaUrl="#PLS_SE-03.schema">
            <SimpleData name="state">Perlis</SimpleData>
            <SimpleData name="parlimen">P.002 Perlis Selatan</SimpleData>
            <SimpleData name="code_parlimen">P.002</SimpleData>
            <SimpleData name="dun">N.12 Sanglang</SimpleData>
            <SimpleData name="code_dun">N.12</SimpleData>
          </SchemaData>
        </ExtendedData>
        <Polygon>
          <outerBoundaryIs>
            <LinearRing>
              <coordinates>
                100.166321,6.33105,0
                100.174607,6.332891,0
                100.186577,6.333812,0
                100.197625,6.335653,0
                100.210976,6.344861,0
                100.221104,6.332891,0
                100.225707,6.326446,0
                100.231101,6.320458,0
                100.227514,6.317094,0
                100.220125,6.307223,0
                100.217965,6.299532,0
                100.20411,6.288979,0
                100.20429,6.285223,0
                100.201231,6.281646,0
                100.20393,6.275922,0
                100.20177,6.265906,0
                100.193133,6.248018,0
                100.16893,6.289561,0
                100.162297,6.30902,0
                100.159663,6.318088,0
                100.154779,6.328924,0
                100.166321,6.33105,0
              </coordinates>
            </LinearRing>
          </outerBoundaryIs>
        </Polygon>
      </Placemark>
    </Document>
  </Document>
</kml>
