{"type":"Topology","objects":{"MLK_SE-06":{"type":"GeometryCollection","geometries":[{"type":"Polygon","arcs":[[0]],"properties":{"state":"Melaka","parlimen":"P.095 Alor Gajah","code_parlimen":"P.095","dun":"N.01 Taboh Naning","code_dun":"N.01","voters_total":11453}},{"type":"Polygon","arcs":[[1]],"properties":{"state":"Melaka","parlimen":"P.095 Alor Gajah","code_parlimen":"P.095","dun":"N.02 Sungai Bahru","code_dun":"N.02","voters_total":9825}},{"type":"Polygon","arcs":[[2]],"properties":{"state":"Melaka","parlimen":"P.095 Alor Gajah","code_parlimen":"P.095","dun":"N.03 Machap","code_dun":"N.03","voters_total":8061}},{"type":"Polygon","arcs":[[3]],"properties":{"state":"Melaka","parlimen":"P.095 Alor Gajah","code_parlimen":"P.095","dun":"N.04 Kelemak","code_dun":"N.04","voters_total":9086}},{"type":"Polygon","arcs":[[4]],"properties":{"state":"Melaka","parlimen":"P.095 Alor Gajah","code_parlimen":"P.095","dun":"N.05 Masjid Tanah","code_dun":"N.05","voters_total":10012}},{"type":"Polygon","arcs":[[5]],"properties":{"state":"Melaka","parlimen":"P.096 Jasin","code_parlimen":"P.096","dun":"N.06 Batang Melaka","code_dun":"N.06","voters_total":9608}},{"type":"Polygon","arcs":[[6]],"properties":{"state":"Melaka","parlimen":"P.096 Jasin","code_parlimen":"P.096","dun":"N.07 Nyalas","code_dun":"N.07","voters_total":9249}},{"type":"Polygon","arcs":[[7]],"properties":{"state":"Melaka","parlimen":"P.096 Jasin","code_parlimen":"P.096","dun":"N.08 Ayer Panas","code_dun":"N.08","voters_total":10282}},{"type":"Polygon","arcs":[[8]],"properties":{"state":"Melaka","parlimen":"P.096 Jasin","code_parlimen":"P.096","dun":"N.09 Serkam","code_dun":"N.09","voters_total":9210}},{"type":"Polygon","arcs":[[9]],"properties":{"state":"Melaka","parlimen":"P.096 Jasin","code_parlimen":"P.096","dun":"N.10 Sungei Rambai","code_dun":"N.10","voters_total":8239}},{"type":"Polygon","arcs":[[10]],"properties":{"state":"Melaka","parlimen":"P.097 Batu Berendam","code_parlimen":"P.097","dun":"N.11 Tanjong Minyak","code_dun":"N.11","voters_total":12318}},{"type":"Polygon","arcs":[[11]],"properties":{"state":"Melaka","parlimen":"P.097 Batu Berendam","code_parlimen":"P.097","dun":"N.12 Ayer Keroh","code_dun":"N.12","voters_total":12769}},{"type":"Polygon","arcs":[[12]],"properties":{"state":"Melaka","parlimen":"P.097 Batu Berendam","code_parlimen":"P.097","dun":"N.13 Ayer Molek","code_dun":"N.13","voters_total":9243}},{"type":"Polygon","arcs":[[13]],"properties":{"state":"Melaka","parlimen":"P.097 Batu Berendam","code_parlimen":"P.097","dun":"N.14 Sungai Udang","code_dun":"N.14","voters_total":9934}},{"type":"Polygon","arcs":[[14]],"properties":{"state":"Melaka","parlimen":"P.097 Batu Berendam","code_parlimen":"P.097","dun":"N.15 Bukit Rambai","code_dun":"N.15","voters_total":10047}},{"type":"Polygon","arcs":[[15]],"properties":{"state":"Melaka","parlimen":"P.098 Kota Melaka","code_parlimen":"P.098","dun":"N.16 Pringgit","code_dun":"N.16","voters_total":16479}},{"type":"Polygon","arcs":[[16]],"properties":{"state":"Melaka","parlimen":"P.098 Kota Melaka","code_parlimen":"P.098","dun":"N.17 Tranquerah","code_dun":"N.17","voters_total":14352}},{"type":"Polygon","arcs":[[17]],"properties":{"state":"Melaka","parlimen":"P.098 Kota Melaka","code_parlimen":"P.098","dun":"N.18 Kubu","code_dun":"N.18","voters_total":13515}},{"type":"Polygon","arcs":[[18]],"properties":{"state":"Melaka","parlimen":"P.098 Kota Melaka","code_parlimen":"P.098","dun":"N.19 Durian Daun","code_dun":"N.19","voters_total":12653}},{"type":"Polygon","arcs":[[19]],"properties":{"state":"Melaka","parlimen":"P.098 Kota Melaka","code_parlimen":"P.098","dun":"N.20 Bandar Hilir","code_dun":"N.20","voters_total":12901}}]}},"arcs":[[[102.18086223265212,2.446128853362612],[102.18084326217253,2.445405059907171],[102.18078640273052,2.444683249930398],[102.18069181017387,2.44396540186819],[102.1805597437742,2.443253483300208],[102.18039056551632,2.442549445556861],[102.18018473910612,2.441855218370671],[102.17994282869944,2.441172704586871],[102.1796654973559,2.440503774947649],[102.17935350522144,2.439850262964387],[102.17900770744481,2.439213959891842],[102.17862905183368,2.438596609818228],[102.17821857625677,2.437999904884488],[102.17777740579909,2.437425480645968],[102.17730674967821,2.43687491158914],[102.17680789792983,2.436349706815753],[102.17628221787196,2.435851305906113],[102.17573115035701,2.435381074972995],[102.17515620582283,2.434940302916886],[102.17455896015237,2.434530197892853],[102.17394105035451,2.434151883998779],[102.17330417007706,2.433806398193946],[102.17265006496459,2.433494687456526],[102.17198052787376,2.433217606187692],[102.17129739395916,2.432975913869511],[102.17060253564341,2.432770272983039],[102.1698978574848,2.432601247192258],[102.16918529095724,2.432469299798937],[102.16846678915603,2.43237479247264],[102.16774432144466,2.432317984259289],[102.16701986805691,2.432299030871006],[102.16629541466914,2.432317984259289],[102.16557294695778,2.43237479247264],[102.16485444515656,2.432469299798937],[102.164141878629,2.432601247192258],[102.16343720047041,2.432770272983039],[102.16274234215466,2.432975913869511],[102.16205920824005,2.433217606187692],[102.16138967114921,2.433494687456526],[102.16073556603675,2.433806398193946],[102.1600986857593,2.434151883998779],[102.15948077596146,2.434530197892853],[102.15888353029098,2.434940302916886],[102.15830858575679,2.435381074972995],[102.15775751824187,2.435851305906113],[102.15723183818396,2.436349706815753],[102.1567329864356,2.43687491158914],[102.15626233031472,2.437425480645968],[102.15582115985704,2.437999904884488],[102.15541068428011,2.438596609818228],[102.155032028669,2.439213959891842],[102.15468623089237,2.439850262964387],[102.15437423875791,2.440503774947649],[102.15409690741437,2.441172704586871],[102.1538549970077,2.441855218370671],[102.15364917059748,2.442549445556861],[102.15347999233961,2.443253483300208],[102.15334792593994,2.44396540186819],[102.15325333338329,2.444683249930398],[102.15319647394128,2.445405059907171],[102.15317750346168,2.446128853362612],[102.15319647394128,2.446852646427468],[102.15325333338329,2.447574455236736],[102.15334792593994,2.448292301367316],[102.15347999233961,2.449004217260719],[102.15364917059748,2.449708251615834],[102.1538549970077,2.45040247473725],[102.15409690741437,2.451084983824274],[102.15437423875791,2.451753908186205],[102.15468623089237,2.452407414369446],[102.155032028669,2.453043711182812],[102.15541068428011,2.453661054606636],[102.15582115985704,2.45425775257285],[102.15626233031472,2.454832169602427],[102.1567329864356,2.455382731287899],[102.15723183818396,2.455907928608292],[102.15775751824187,2.456406322064926],[102.15830858575679,2.456876545626701],[102.15888353029098,2.457317310473892],[102.15948077596146,2.457727408530386],[102.1600986857593,2.458105715774684],[102.16073556603675,2.458451195320325],[102.16138967114921,2.458762900257723],[102.16205920824005,2.459039976249254],[102.16274234215466,2.459281663870659],[102.16343720047041,2.459487300692369],[102.164141878629,2.459656323094918],[102.16485444515656,2.459788267813646],[102.16557294695778,2.459882773208317],[102.16629541466914,2.459939580254162],[102.16701986805691,2.45995853325186],[102.16774432144466,2.459939580254162],[102.16846678915603,2.459882773208317],[102.16918529095724,2.459788267813646],[102.1698978574848,2.459656323094918],[102.17060253564341,2.459487300692369],[102.17129739395916,2.459281663870659],[102.17198052787376,2.459039976249254],[102.17265006496459,2.458762900257723],[102.17330417007706,2.458451195320325],[102.17394105035451,2.458105715774684],[102.17455896015237,2.457727408530386],[102.17515620582283,2.457317310473892],[102.17573115035701,2.456876545626701],[102.17628221787196,2.456406322064926],[102.17680789792983,2.455907928608292],[102.17730674967821,2.455382731287899],[102.17777740579909,2.454832169602427],[102.17821857625677,2.45425775257285],[102.17862905183368,2.453661054606636],[102.17900770744481,2.453043711182812],[102.17935350522144,2.452407414369446],[102.1796654973559,2.451753908186205],[102.17994282869944,2.451084983824274],[102.18018473910612,2.45040247473725],[102.18039056551632,2.449708251615834],[102.1805597437742,2.449004217260719],[102.18069181017387,2.448292301367316],[102.18078640273052,2.447574455236736],[102.18084326217253,2.446852646427468],[102.18086223265212,2.446128853362612]],[[102.06281147339664,2.392277148411513],[102.06279390286267,2.391606741419298],[102.06274123942042,2.390938171639764],[102.06265362741671,2.39027327158034],[102.06253130698992,2.389613863692588],[102.0623746134119,2.388961755377009],[102.06218397616881,2.388318734028899],[102.0619599177841,2.387686562139149],[102.0617030523862,2.387066972463213],[102.06141408402534,2.386461663271543],[102.06109380474372,2.385872293694574],[102.06074309240456,2.385300479174908],[102.06036290828604,2.38474778703932],[102.05995429444636,2.384215732202533],[102.05951837086766,2.383705773014666],[102.05905633238619,2.383219307263793],[102.05856944541732,2.382757668344321],[102.05805904448435,2.382322121602071],[102.0575265285608,2.381913860865697],[102.05697335723576,2.38153400517428],[102.05640104671342,2.381183595709788],[102.0558111656571,2.380863592943031],[102.05520533088983,2.380574874000813],[102.05458520296256,2.380318230261615],[102.0539524816028,2.380094365186156],[102.0533089010559,2.379903892389196],[102.05265622533133,2.379747333957335],[102.05199624336794,2.379625119017995],[102.05133076413037,2.379537582562984],[102.050661611651,2.379484964530267],[102.0499906200302,2.37946740914622],[102.04931962840942,2.379484964530267],[102.04865047593003,2.379537582562984],[102.04798499669246,2.379625119017995],[102.04732501472907,2.379747333957335],[102.0466723390045,2.379903892389196],[102.04602875845758,2.380094365186156],[102.04539603709785,2.380318230261615],[102.04477590917058,2.380574874000813],[102.04417007440328,2.380863592943031],[102.04358019334698,2.381183595709788],[102.04300788282464,2.38153400517428],[102.0424547114996,2.381913860865697],[102.04192219557605,2.382322121602071],[102.04141179464308,2.382757668344321],[102.04092490767421,2.383219307263793],[102.04046286919274,2.383705773014666],[102.04002694561404,2.384215732202533],[102.03961833177436,2.38474778703932],[102.03923814765584,2.385300479174908],[102.03888743531667,2.385872293694574],[102.03856715603506,2.386461663271543],[102.0382781876742,2.387066972463213],[102.03802132227631,2.387686562139149],[102.03779726389159,2.388318734028899],[102.0376066266485,2.388961755377009],[102.03744993307046,2.389613863692588],[102.03732761264371,2.39027327158034],[102.03724000063998,2.390938171639764],[102.03718733719774,2.391606741419298],[102.03716976666378,2.392277148411513],[102.03718733719774,2.392947555076004],[102.03724000063998,2.393616123875991],[102.03732761264371,2.394281022314757],[102.03744993307046,2.394940427958487],[102.0376066266485,2.395592533431312],[102.03779726389159,2.396235551369028],[102.03802132227631,2.396867719318121],[102.0382781876742,2.397487304566332],[102.03856715603506,2.398092608891714],[102.03888743531667,2.398681973217155],[102.03923814765584,2.399253782157556],[102.03961833177436,2.399806468447309],[102.04002694561404,2.400338517235712],[102.04046286919274,2.400848470238913],[102.04092490767421,2.401334929736639],[102.04141179464308,2.401796562402936],[102.04192219557605,2.402232102960534],[102.0424547114996,2.402640357648524],[102.04300788282464,2.403020207494093],[102.04358019334698,2.403370611379333],[102.04417007440328,2.403690608894562],[102.04477590917058,2.40397932297048],[102.04539603709785,2.404235962281965],[102.04602875845758,2.404459823416767],[102.0466723390045,2.404650292803346],[102.04732501472907,2.404806848392427],[102.04798499669246,2.404929061087771],[102.04865047593003,2.405016595922111],[102.04931962840942,2.405069212975281],[102.0499906200302,2.405086768031617],[102.050661611651,2.405069212975281],[102.05133076413037,2.405016595922111],[102.05199624336794,2.404929061087771],[102.05265622533133,2.404806848392427],[102.0533089010559,2.404650292803346],[102.0539524816028,2.404459823416767],[102.05458520296256,2.404235962281965],[102.05520533088983,2.40397932297048],[102.0558111656571,2.403690608894562],[102.05640104671342,2.403370611379333],[102.05697335723576,2.403020207494093],[102.0575265285608,2.402640357648524],[102.05805904448435,2.402232102960534],[102.05856944541732,2.401796562402936],[102.05905633238619,2.401334929736639],[102.05951837086766,2.400848470238913],[102.05995429444636,2.400338517235712],[102.06036290828604,2.399806468447309],[102.06074309240456,2.399253782157556],[102.06109380474372,2.398681973217155],[102.06141408402534,2.398092608891714],[102.0617030523862,2.397487304566332],[102.0619599177841,2.396867719318121],[102.06218397616881,2.396235551369028],[102.0623746134119,2.395592533431312],[102.06253130698992,2.394940427958487],[102.06265362741671,2.394281022314757],[102.06274123942042,2.393616123875991],[102.06279390286267,2.392947555076004],[102.06281147339664,2.392277148411513]],[[102.30724452166497,2.399221820710039],[102.30722860642686,2.39861457493165],[102.30718090433507,2.398008993303259],[102.30710154613776,2.397406735685377],[102.30699074935019,2.396809452829825],[102.30684881765866,2.396218781855044],[102.30667614008809,2.395636341758742],[102.30647318993569,2.395063728980345],[102.30624052347372,2.394502513025029],[102.30597877842476,2.393954232161691],[102.30568867221383,2.39342038920654],[102.30537100000187,2.392902447403757],[102.30502663250634,2.392401826414687],[102.3046565136146,2.391919898426404],[102.30426165779681,2.391457984390429],[102.30384314732531,2.391017350401905],[102.30340212930822,2.390599204229058],[102.3029398125453,2.390204692002566],[102.30245746421461,2.389834895073858],[102.30195640639943,2.389490827051005],[102.30143801246439,2.389173431020212],[102.30090370329123,2.388883576960751],[102.30035494338428,2.38862205936013],[102.29979323685626,2.388389595036282],[102.29922012330574,2.388186821172662],[102.29863717359714,2.388014293571623],[102.29804598555509,2.387872485130781],[102.29744817958489,2.387761784546767],[102.29684539423118,2.387682495249766],[102.29623928168671,2.38763483457167],[102.29563150326379,2.387618933150368],[102.2950237248409,2.38763483457167],[102.29441761229643,2.387682495249766],[102.29381482694272,2.387761784546767],[102.29321702097252,2.387872485130781],[102.29262583293047,2.388014293571623],[102.29204288322187,2.388186821172662],[102.29146976967134,2.388389595036282],[102.29090806314333,2.38862205936013],[102.29035930323637,2.388883576960751],[102.28982499406322,2.389173431020212],[102.28930660012819,2.389490827051005],[102.288805542313,2.389834895073858],[102.28832319398231,2.390204692002566],[102.28786087721939,2.390599204229058],[102.2874198592023,2.391017350401905],[102.2870013487308,2.391457984390429],[102.286606492913,2.391919898426404],[102.28623637402126,2.392401826414687],[102.28589200652573,2.392902447403757],[102.28557433431378,2.39342038920654],[102.28528422810284,2.393954232161691],[102.2850224830539,2.394502513025029],[102.28478981659191,2.395063728980345],[102.28458686643953,2.395636341758742],[102.28441418886894,2.396218781855044],[102.28427225717742,2.396809452829825],[102.28416146038985,2.397406735685377],[102.28408210219253,2.398008993303259],[102.28403440010075,2.39861457493165],[102.28401848486263,2.399221820710039],[102.28403440010075,2.399829066218768],[102.28408210219253,2.400434647041156],[102.28416146038985,2.401036903325496],[102.28427225717742,2.401634184334595],[102.28441418886894,2.402224852970269],[102.28458686643953,2.402807290260367],[102.28478981659191,2.403379899796265],[102.2850224830539,2.403941112108307],[102.28528422810284,2.404489388967505],[102.28557433431378,2.405023227601503],[102.28589200652573,2.405541164813473],[102.28623637402126,2.406041780992387],[102.286606492913,2.406523704003865],[102.2870013487308,2.40698561295089],[102.2874198592023,2.407426241794103],[102.28786087721939,2.407844382821627],[102.28832319398231,2.40823888995918],[102.288805542313,2.408608681911071],[102.28930660012819,2.408952745123767],[102.28982499406322,2.409270136563748],[102.29035930323637,2.409559986302057],[102.29090806314333,2.409821499898537],[102.29146976967134,2.410053960579111],[102.29204288322187,2.410256731200219],[102.29262583293047,2.41042925599508],[102.29321702097252,2.410571062096802],[102.29381482694272,2.410681760834351],[102.29441761229643,2.410761048797822],[102.2950237248409,2.410808708669914],[102.29563150326379,2.410824609821557],[102.29623928168671,2.410808708669914],[102.29684539423118,2.410761048797822],[102.29744817958489,2.410681760834351],[102.29804598555509,2.410571062096802],[102.29863717359714,2.41042925599508],[102.29922012330574,2.410256731200219],[102.29979323685626,2.410053960579111],[102.30035494338428,2.409821499898537],[102.30090370329123,2.409559986302057],[102.30143801246439,2.409270136563748],[102.30195640639943,2.408952745123767],[102.30245746421461,2.408608681911071],[102.3029398125453,2.40823888995918],[102.30340212930822,2.407844382821627],[102.30384314732531,2.407426241794103],[102.30426165779681,2.40698561295089],[102.3046565136146,2.406523704003865],[102.30502663250634,2.406041780992387],[102.30537100000187,2.405541164813473],[102.30568867221383,2.405023227601503],[102.30597877842476,2.404489388967505],[102.30624052347372,2.403941112108307],[102.30647318993569,2.403379899796265],[102.30667614008809,2.402807290260367],[102.30684881765866,2.402224852970269],[102.30699074935019,2.401634184334595],[102.30710154613776,2.401036903325496],[102.30718090433507,2.400434647041156],[102.30722860642686,2.399829066218768],[102.30724452166497,2.399221820710039]],[[102.20697202221997,2.377227606629071],[102.2069551253973,2.37658289817087],[102.2069044812423,2.375939956513886],[102.20682022856708,2.375300543920289],[102.20670259830236,2.374666412981763],[102.20655191286453,2.374039301815667],[102.2063685852719,2.373420929300896],[102.20615311801267,2.372812990366465],[102.20590610166758,2.37221715134567],[102.20562821329129,2.37163504540857],[102.20532021455654,2.371068268085473],[102.20498294966644,2.370518372893465],[102.20461734304057,2.369986867078098],[102.20422439678134,2.36947520748191],[102.2038051879271,2.368984796551087],[102.2033608655002,2.368516978491213],[102.20289264735749,2.368073035582615],[102.2024018168524,2.367654184665502],[102.20188971931721,2.367261573804393],[102.20135775837566,2.366896279141123],[102.2008073920957,2.366559301944966],[102.20024012899309,2.366251565867969],[102.19965752389655,2.365973914413069],[102.19906117368613,2.365727108621914],[102.19845271291632,2.365511824988637],[102.1978338093358,2.365328653605531],[102.19720615931625,2.365178096545429],[102.19657148320276,2.365060566485453],[102.19593152059845,2.364976385575756],[102.19528802559633,2.364925784556445],[102.19464276197145,2.364908902125073],[102.19399749834656,2.364925784556445],[102.19335400334444,2.364976385575756],[102.19271404074013,2.365060566485453],[102.19207936462665,2.365178096545429],[102.19145171460711,2.365328653605531],[102.19083281102658,2.365511824988637],[102.19022435025678,2.365727108621914],[102.18962800004634,2.365973914413069],[102.18904539494982,2.366251565867969],[102.18847813184719,2.366559301944966],[102.18792776556724,2.366896279141123],[102.1873958046257,2.367261573804393],[102.18688370709049,2.367654184665502],[102.1863928765854,2.368073035582615],[102.1859246584427,2.368516978491213],[102.18548033601579,2.368984796551087],[102.18506112716156,2.36947520748191],[102.18466818090232,2.369986867078098],[102.18430257427647,2.370518372893465],[102.18396530938637,2.371068268085473],[102.18365731065161,2.37163504540857],[102.18337942227532,2.37221715134567],[102.18313240593022,2.372812990366465],[102.182916938671,2.373420929300896],[102.18273361107836,2.374039301815667],[102.18258292564053,2.374666412981763],[102.18246529537582,2.375300543920289],[102.1823810427006,2.375939956513886],[102.18233039854559,2.37658289817087],[102.18231350172293,2.377227606629071],[102.18233039854559,2.377872314786125],[102.1823810427006,2.378515255542923],[102.18246529537582,2.379154666647155],[102.18258292564053,2.379788795523485],[102.18273361107836,2.380415904077138],[102.182916938671,2.381034273457828],[102.18313240593022,2.38164220877088],[102.18337942227532,2.382238043722702],[102.18365731065161,2.382820145187777],[102.18396530938637,2.383386917684803],[102.18430257427647,2.383936807749591],[102.18466818090232,2.384468308192759],[102.18506112716156,2.384979962230609],[102.18548033601579,2.385470367477858],[102.1859246584427,2.385938179791208],[102.1863928765854,2.386382116953269],[102.18688370709049,2.386800962186819],[102.1873958046257,2.38719356748959],[102.18792776556724,2.387558856780662],[102.18847813184719,2.387895828849587],[102.18904539494982,2.388203560100524],[102.18962800004634,2.388481207083399],[102.19022435025678,2.388728008805582],[102.19083281102658,2.388943288817492],[102.19145171460711,2.389126457066517],[102.19207936462665,2.389277011514163],[102.19271404074013,2.389394539511943],[102.19335400334444,2.389478718932289],[102.19399749834656,2.389529319051413],[102.19464276197145,2.389546201181613],[102.19528802559633,2.389529319051413],[102.19593152059845,2.389478718932289],[102.19657148320276,2.389394539511943],[102.19720615931625,2.389277011514163],[102.1978338093358,2.389126457066517],[102.19845271291632,2.388943288817492],[102.19906117368613,2.388728008805582],[102.19965752389655,2.388481207083399],[102.20024012899309,2.388203560100524],[102.2008073920957,2.387895828849587],[102.20135775837566,2.387558856780662],[102.20188971931721,2.38719356748959],[102.2024018168524,2.386800962186819],[102.20289264735749,2.386382116953269],[102.2033608655002,2.385938179791208],[102.2038051879271,2.385470367477858],[102.20422439678134,2.384979962230609],[102.20461734304057,2.384468308192759],[102.20498294966644,2.383936807749591],[102.20532021455654,2.383386917684803],[102.20562821329129,2.382820145187777],[102.20590610166758,2.382238043722702],[102.20615311801267,2.38164220877088],[102.2063685852719,2.381034273457828],[102.20655191286453,2.380415904077138],[102.20670259830236,2.379788795523485],[102.20682022856708,2.379154666647155],[102.2069044812423,2.378515255542923],[102.2069551253973,2.377872314786125],[102.20697202221997,2.377227606629071]],[[102.12422508311525,2.3348113784678],[102.12420734615876,2.334134593578847],[102.12415418390508,2.333459663385728],[102.12406574206823,2.332788437829268],[102.12394226306114,2.332122756698755],[102.1237840853312,2.331464444589188],[102.12359164243257,2.330815305899947],[102.12336546183785,2.33017711988907],[102.12310616349232,2.329551635796189],[102.12281445811475,2.32894056804787],[102.12249114524927,2.328345591558226],[102.122137111074,2.327768337137917],[102.121753325972,2.327210387023984],[102.12134084187154,2.32667327054276],[102.12090078936288,2.326158459917857],[102.12043437459936,2.325667366234649],[102.11994287599143,2.325201335572247],[102.1194276407026,2.324761645313812],[102.11889008095699,2.324349500644933],[102.11833167016849,2.323966031250136],[102.11775393890228,2.323612288216181],[102.11715847067958,2.323289241150812],[102.11654689763739,2.32299777552498],[102.11592089605493,2.322738690245448],[102.11528218175903,2.322512695465002],[102.11463250542114,2.322320410635622],[102.11397364775898,2.322162362810511],[102.11330741465561,2.322038985199357],[102.11263563220963,2.321950615980731],[102.11196014173005,2.321897497375068],[102.1112827946893,2.321879774980794],[102.11060544764854,2.321897497375068],[102.10992995716897,2.321950615980731],[102.10925817472298,2.322038985199357],[102.10859194161961,2.322162362810511],[102.10793308395745,2.322320410635622],[102.10728340761958,2.322512695465002],[102.10664469332367,2.322738690245448],[102.10601869174121,2.32299777552498],[102.10540711869902,2.323289241150812],[102.10481165047632,2.323612288216181],[102.1042339192101,2.323966031250136],[102.10367550842162,2.324349500644933],[102.10313794867601,2.324761645313812],[102.10262271338716,2.325201335572247],[102.10213121477925,2.325667366234649],[102.10166480001573,2.326158459917857],[102.10122474750706,2.32667327054276],[102.10081226340661,2.327210387023984],[102.1004284783046,2.327768337137917],[102.10007444412932,2.328345591558226],[102.09975113126384,2.32894056804787],[102.09945942588627,2.329551635796189],[102.09920012754075,2.33017711988907],[102.09897394694603,2.330815305899947],[102.0987815040474,2.331464444589188],[102.09862332631745,2.332122756698755],[102.09849984731036,2.332788437829268],[102.09841140547353,2.333459663385728],[102.09835824321983,2.334134593578847],[102.09834050626334,2.3348113784678],[102.09835824321983,2.335488163030796],[102.09841140547353,2.336163092249648],[102.09849984731036,2.336834316194177],[102.09862332631745,2.337499995092768],[102.0987815040474,2.338158304374899],[102.09897394694603,2.338807439672129],[102.09920012754075,2.339445621763608],[102.09945942588627,2.340071101452629],[102.09975113126384,2.340682164360895],[102.10007444412932,2.341277135627305],[102.1004284783046,2.341854384498436],[102.10081226340661,2.342412328798036],[102.10122474750706,2.342949439263482],[102.10166480001573,2.343464243737065],[102.10213121477925,2.343955331200825],[102.10262271338716,2.344421355643767],[102.10313794867601,2.344861039750895],[102.10367550842162,2.345273178403996],[102.1042339192101,2.345656641984459],[102.10481165047632,2.346010379469237],[102.10540711869902,2.346333421311372],[102.10601869174121,2.346624882097151],[102.10664469332367,2.346883962972823],[102.10728340761958,2.347109953833871],[102.10793308395745,2.347302235271253],[102.10859194161961,2.347460280268902],[102.10925817472298,2.347583655648146],[102.10992995716897,2.347672023254854],[102.11060544764854,2.347725140886237],[102.1112827946893,2.347742862954568],[102.11196014173005,2.347725140886237],[102.11263563220963,2.347672023254854],[102.11330741465561,2.347583655648146],[102.11397364775898,2.347460280268902],[102.11463250542114,2.347302235271253],[102.11528218175903,2.347109953833871],[102.11592089605493,2.346883962972823],[102.11654689763739,2.346624882097151],[102.11715847067958,2.346333421311372],[102.11775393890228,2.346010379469237],[102.11833167016849,2.345656641984459],[102.11889008095699,2.345273178403996],[102.1194276407026,2.344861039750895],[102.11994287599143,2.344421355643767],[102.12043437459936,2.343955331200825],[102.12090078936288,2.343464243737065],[102.12134084187154,2.342949439263482],[102.121753325972,2.342412328798036],[102.122137111074,2.341854384498436],[102.12249114524927,2.341277135627305],[102.12281445811475,2.340682164360895],[102.12310616349232,2.340071101452629],[102.12336546183785,2.339445621763608],[102.12359164243257,2.338807439672129],[102.1237840853312,2.338158304374899],[102.12394226306114,2.337499995092768],[102.12406574206823,2.336834316194177],[102.12415418390508,2.336163092249648],[102.12420734615876,2.335488163030796],[102.12422508311525,2.3348113784678]],[[102.39893542179595,2.407481281862681],[102.39891804638131,2.406818327058006],[102.39886596776219,2.406157189045273],[102.39877932868247,2.405499679961859],[102.39865836661384,2.404847602001112],[102.3985034131049,2.404202742472517],[102.39831489287249,2.403566868902801],[102.39809332263746,2.402941724191059],[102.39783930970839,2.402329021831456],[102.39755355031708,2.401730441216506],[102.39723682771015,2.401147623033752],[102.39689001000227,2.400582164768586],[102.39651404779666,2.400035616325344],[102.39610997157959,2.399509475778904],[102.39567888889586,2.399005185268379],[102.3952219813132,2.398524127043943],[102.39474050118349,2.398067619677983],[102.39423576821032,2.39763691445066],[102.39370916583167,2.397233191919991],[102.39316213742804,2.396857558685732],[102.39259618236632,2.396511044356027],[102.39201285188994,2.396194598725035],[102.3914137448672,2.395909089169354],[102.39080050340883,2.395655298270432],[102.39017480836702,2.395433921669301],[102.38953837472839,2.39524556615968],[102.38889294691332,2.395090748024659],[102.38824029399457,2.394969891621403],[102.38758220484841,2.39488332821795],[102.3869204832515,2.394831295085105],[102.38625694293668,2.394813934845974],[102.38559340262188,2.394831295085105],[102.38493168102497,2.39488332821795],[102.38427359187881,2.394969891621403],[102.38362093896006,2.395090748024659],[102.38297551114499,2.39524556615968],[102.38233907750634,2.395433921669301],[102.38171338246454,2.395655298270432],[102.38110014100617,2.395909089169354],[102.38050103398342,2.396194598725035],[102.37991770350705,2.396511044356027],[102.37935174844533,2.396857558685732],[102.3788047200417,2.397233191919991],[102.37827811766306,2.39763691445066],[102.37777338468987,2.398067619677983],[102.37729190456017,2.398524127043943],[102.37683499697751,2.399005185268379],[102.37640391429379,2.399509475778904],[102.37599983807671,2.400035616325344],[102.3756238758711,2.400582164768586],[102.37527705816322,2.401147623033752],[102.3749603355563,2.401730441216506],[102.37467457616498,2.402329021831456],[102.3744205632359,2.402941724191059],[102.37419899300087,2.403566868902801],[102.37401047276846,2.404202742472517],[102.37385551925954,2.404847602001112],[102.3737345571909,2.405499679961859],[102.37364791811119,2.406157189045273],[102.37359583949207,2.406818327058006],[102.37357846407741,2.407481281862681],[102.37359583949207,2.408144236344848],[102.37364791811119,2.408805373393593],[102.3737345571909,2.409462880882086],[102.37385551925954,2.410114956634472],[102.37401047276846,2.410759813365451],[102.37419899300087,2.411395683578956],[102.3744205632359,2.412020824412661],[102.37467457616498,2.412633522414879],[102.3749603355563,2.413232098240842],[102.37527705816322,2.413814911255475],[102.3756238758711,2.414380364030023],[102.37599983807671,2.414926906720292],[102.37640391429379,2.415453041314426],[102.37683499697751,2.415957325738551],[102.37729190456017,2.416438377809161],[102.37777338468987,2.416894879021295],[102.37827811766306,2.41732557816222],[102.3788047200417,2.417729294740595],[102.37935174844533,2.418104922221866],[102.37991770350705,2.418451431060942],[102.38050103398342,2.418767871523838],[102.38110014100617,2.419053376290519],[102.38171338246454,2.419307162832069],[102.38233907750634,2.419528535555149],[102.38297551114499,2.419716887708561],[102.38362093896006,2.419871703045965],[102.38427359187881,2.41999255724086],[102.38493168102497,2.420079119049392],[102.38559340262188,2.420131151218262],[102.38625694293668,2.420148511134884],[102.3869204832515,2.420131151218262],[102.38758220484841,2.420079119049392],[102.38824029399457,2.41999255724086],[102.38889294691332,2.419871703045965],[102.38953837472839,2.419716887708561],[102.39017480836702,2.419528535555149],[102.39080050340883,2.419307162832069],[102.3914137448672,2.419053376290519],[102.39201285188994,2.418767871523838],[102.39259618236632,2.418451431060942],[102.39316213742804,2.418104922221866],[102.39370916583167,2.417729294740595],[102.39423576821032,2.41732557816222],[102.39474050118349,2.416894879021295],[102.3952219813132,2.416438377809161],[102.39567888889586,2.415957325738551],[102.39610997157959,2.415453041314426],[102.39651404779666,2.414926906720292],[102.39689001000227,2.414380364030023],[102.39723682771015,2.413814911255475],[102.39755355031708,2.413232098240842],[102.39783930970839,2.412633522414879],[102.39809332263746,2.412020824412661],[102.39831489287249,2.411395683578956],[102.3985034131049,2.410759813365451],[102.39865836661384,2.410114956634472],[102.39877932868247,2.409462880882086],[102.39886596776219,2.408805373393593],[102.39891804638131,2.408144236344848],[102.39893542179595,2.407481281862681]],[[102.49986293735101,2.378133302238635],[102.4998458896402,2.377482836977783],[102.49979479323436,2.376834154291651],[102.49970978818513,2.376189032178243],[102.49959110748551,2.375549238878753],[102.49943907643102,2.374916528030819],[102.4992541117282,2.374292633861894],[102.49903672035246,2.373679266435699],[102.49878749815846,2.373078106964904],[102.4985071282469,2.372490803202882],[102.49819637909219,2.371918964927143],[102.49785610243623,2.371364159526856],[102.49748723095361,2.370827907706483],[102.49709077569547,2.370311679317475],[102.49666782331812,2.369816889329146],[102.49621953310458,2.369344893950204],[102.49574713378722,2.36889698691116],[102.49525192017968,2.368474395918057],[102.49473524962808,2.368078279287115],[102.49419853829046,2.36770972276967],[102.49364325725531,2.367369736575915],[102.49307092850937,2.367059252605726],[102.49248312076588,2.366779121894203],[102.49188144516506,2.366530112278757],[102.49126755085791,2.36631290629439],[102.49064312048606,2.366128099302693],[102.4900098655697,2.365976197859823],[102.48936952181661,2.365857618327944],[102.48872384436446,2.365772685733904],[102.48807460297029,2.36572163287824],[102.4874235771596,2.36570459969701],[102.48677255134895,2.36572163287824],[102.48612330995478,2.365772685733904],[102.48547763250262,2.365857618327944],[102.48483728874952,2.365976197859823],[102.48420403383318,2.366128099302693],[102.48357960346131,2.36631290629439],[102.48296570915416,2.366530112278757],[102.48236403355335,2.366779121894203],[102.48177622580987,2.367059252605726],[102.48120389706392,2.367369736575915],[102.48064861602876,2.36770972276967],[102.48011190469116,2.368078279287115],[102.47959523413955,2.368474395918057],[102.47910002053202,2.36889698691116],[102.47862762121464,2.369344893950204],[102.47817933100112,2.369816889329146],[102.47775637862375,2.370311679317475],[102.47735992336563,2.370827907706483],[102.476991051883,2.371364159526856],[102.47665077522703,2.371918964927143],[102.47634002607234,2.372490803202882],[102.47605965616077,2.373078106964904],[102.47581043396677,2.373679266435699],[102.47559304259103,2.374292633861894],[102.47540807788822,2.374916528030819],[102.4752560468337,2.375549238878753],[102.4751373661341,2.376189032178243],[102.47505236108488,2.376834154291651],[102.47500126467904,2.377482836977783],[102.47498421696822,2.378133302238635],[102.47500126467904,2.378783767192817],[102.47505236108488,2.37943244896225],[102.4751373661341,2.380077569559016],[102.4752560468337,2.380717360758514],[102.47540807788822,2.381350068946117],[102.47559304259103,2.381973959923521],[102.47581043396677,2.382587323661977],[102.47605965616077,2.383188478989222],[102.47634002607234,2.383775778197275],[102.47665077522703,2.384347611558497],[102.476991051883,2.384902411737611],[102.47735992336563,2.385438658087303],[102.47775637862375,2.38595488081612],[102.47817933100112,2.386449665016717],[102.47862762121464,2.38692165454382],[102.47910002053202,2.387369555731012],[102.47959523413955,2.387792140936396],[102.48011190469116,2.388188251907133],[102.48064861602876,2.38855680295391],[102.48120389706392,2.38889678392648],[102.48177622580987,2.389207262982165],[102.48236403355335,2.389487389139719],[102.48296570915416,2.389736394611601],[102.48357960346131,2.38995359690823],[102.48420403383318,2.390138400708405],[102.48483728874952,2.390290299490958],[102.48547763250262,2.390408876922844],[102.48612330995478,2.39049380800023],[102.48677255134895,2.39054485993922],[102.4874235771596,2.390561892813768],[102.48807460297029,2.39054485993922],[102.48872384436446,2.39049380800023],[102.48936952181661,2.390408876922844],[102.4900098655697,2.390290299490958],[102.49064312048606,2.390138400708405],[102.49126755085791,2.38995359690823],[102.49188144516506,2.389736394611601],[102.49248312076588,2.389487389139719],[102.49307092850937,2.389207262982165],[102.49364325725531,2.38889678392648],[102.49419853829046,2.38855680295391],[102.49473524962808,2.388188251907133],[102.49525192017968,2.387792140936396],[102.49574713378722,2.387369555731012],[102.49621953310458,2.38692165454382],[102.49666782331812,2.386449665016717],[102.49709077569547,2.38595488081612],[102.49748723095361,2.385438658087303],[102.49785610243623,2.384902411737611],[102.49819637909219,2.384347611558497],[102.4985071282469,2.383775778197275],[102.49878749815846,2.383188478989222],[102.49903672035246,2.382587323661977],[102.4992541117282,2.381973959923521],[102.49943907643102,2.381350068946117],[102.49959110748551,2.380717360758514],[102.49970978818513,2.380077569559016],[102.49979479323436,2.37943244896225],[102.4998458896402,2.378783767192817],[102.49986293735101,2.378133302238635]],[[102.41837654339965,2.270172807968053],[102.41835856887226,2.269486927033476],[102.41830469455705,2.268802925726795],[102.41821506811979,2.268122678852162],[102.4180899352203,2.267448050925677],[102.41792963883914,2.266780891064825],[102.41773461833758,2.266123027920079],[102.41750540825322,2.265476264662579],[102.41724263683501,2.264842374041574],[102.41694702432112,2.26422309352531],[102.41661938096492,2.263620120538506],[102.41626060481404,2.263035107809636],[102.41587167924901,2.262469658840673],[102.41545367028775,2.261925323511789],[102.41500772366376,2.261403593832904],[102.41453506168577,2.260905899853996],[102.41403697988738,2.260433605745093],[102.4135148434762,2.259988006056988],[102.41297008359179,2.259570322172573],[102.41240419338318,2.259181698958931],[102.41181872391608,2.258823201629039],[102.4112152799216,2.258495812821832],[102.4105955153978,2.258200429908586],[102.40996112907615,2.257937862533095],[102.40931385976545,2.257708830392277],[102.40865548158591,2.257513961263278],[102.40798779910634,2.257353789282687],[102.40731264239801,2.257228753482302],[102.40663186201854,2.257139196585667],[102.40594732393961,2.257085364068578],[102.40526090443252,2.257067403486215],[102.40457448492545,2.257085364068578],[102.40388994684652,2.257139196585667],[102.40320916646705,2.257228753482302],[102.40253400975872,2.257353789282687],[102.40186632727915,2.257513961263278],[102.40120794909961,2.257708830392277],[102.40056067978892,2.257937862533095],[102.39992629346726,2.258200429908586],[102.39930652894347,2.258495812821832],[102.39870308494898,2.258823201629039],[102.39811761548188,2.259181698958931],[102.39755172527327,2.259570322172573],[102.39700696538887,2.259988006056988],[102.39648482897768,2.260433605745093],[102.3959867471793,2.260905899853996],[102.39551408520131,2.261403593832904],[102.39506813857732,2.261925323511789],[102.39465012961605,2.262469658840673],[102.39426120405102,2.263035107809636],[102.39390242790016,2.263620120538506],[102.39357478454394,2.26422309352531],[102.39327917203005,2.264842374041574],[102.39301640061184,2.265476264662579],[102.39278719052749,2.266123027920079],[102.39259217002592,2.266780891064825],[102.39243187364477,2.267448050925677],[102.39230674074527,2.268122678852162],[102.39221711430801,2.268802925726795],[102.3921632399928,2.269486927033476],[102.39214526546542,2.270172807968053],[102.3921632399928,2.270858688577145],[102.39221711430801,2.271542688910919],[102.39230674074527,2.272222934175887],[102.39243187364477,2.272897559873591],[102.39259217002592,2.273564716910976],[102.39278719052749,2.274222576668469],[102.39301640061184,2.274869336012068],[102.39327917203005,2.275503222235396],[102.39357478454394,2.2761224979184],[102.39390242790016,2.27672546568931],[102.39426120405102,2.277310472876776],[102.39465012961605,2.277875916039561],[102.39506813857732,2.278420245361115],[102.39551408520131,2.278941968897318],[102.3959867471793,2.279439656665506],[102.39648482897768,2.279911944563664],[102.39700696538887,2.2803575381091],[102.39755172527327,2.280775215986185],[102.39811761548188,2.281163833393648],[102.39870308494898,2.281522325182148],[102.39930652894347,2.28184970877345],[102.39992629346726,2.282145086853436],[102.40056067978892,2.282407649831238],[102.40120794909961,2.282636678058167],[102.40186632727915,2.282831543799926],[102.40253400975872,2.282991712957023],[102.40320916646705,2.283116746528628],[102.40388994684652,2.28320630181561],[102.40457448492545,2.283260133359793],[102.40526090443252,2.283278093616671],[102.40594732393961,2.283260133359793],[102.40663186201854,2.28320630181561],[102.40731264239801,2.283116746528628],[102.40798779910634,2.282991712957023],[102.40865548158591,2.282831543799926],[102.40931385976545,2.282636678058167],[102.40996112907615,2.282407649831238],[102.4105955153978,2.282145086853436],[102.4112152799216,2.28184970877345],[102.41181872391608,2.281522325182148],[102.41240419338318,2.281163833393648],[102.41297008359179,2.280775215986185],[102.4135148434762,2.2803575381091],[102.41403697988738,2.279911944563664],[102.41453506168577,2.279439656665506],[102.41500772366376,2.278941968897318],[102.41545367028775,2.278420245361115],[102.41587167924901,2.277875916039561],[102.41626060481404,2.277310472876776],[102.41661938096492,2.27672546568931],[102.41694702432112,2.2761224979184],[102.41724263683501,2.275503222235396],[102.41750540825322,2.274869336012068],[102.41773461833758,2.274222576668469],[102.41792963883914,2.273564716910976],[102.4180899352203,2.272897559873591],[102.41821506811979,2.272222934175887],[102.41830469455705,2.271542688910919],[102.41835856887226,2.270858688577145],[102.41837654339965,2.270172807968053]],[[102.41082118827417,2.173485575152101],[102.41080417654362,2.172836390609477],[102.41075318797995,2.172188985158612],[102.41066836233928,2.17154513329638],[102.41054993212278,2.170906599781724],[102.41039822193945,2.170275134798547],[102.41021364761635,2.169652469158471],[102.40999671505885,2.169040309556734],[102.40974801886408,2.168440333894078],[102.40946824069093,2.167854186677625],[102.40915814739199,2.167283474513199],[102.40881858891143,2.166729761701534],[102.40845049595544,2.166194565950514],[102.4080548774412,2.165679354214895],[102.4076328177316,2.165185538675368],[102.40718547366293,2.1647144728676],[102.4067140713742,2.164267447972076],[102.40621990294632,2.163845689274753],[102.40570432286061,2.163450352808482],[102.40516874428626,2.163082522184121],[102.40461463520685,2.162743205620226],[102.40404351439692,2.162433333179344],[102.40345694725889,2.162153754218603],[102.40285654153249,2.161905235061432],[102.4022439428881,2.161688456896986],[102.40162083041606,2.161504013912864],[102.40098891202429,2.161352411666338],[102.40034991975719,2.161234065698529],[102.39970560504817,2.161149300395305],[102.39905773391904,2.161098348098119],[102.39840808213954,2.161081348467072],[102.39775843036004,2.161098348098119],[102.39711055923091,2.161149300395305],[102.39646624452189,2.161234065698529],[102.39582725225479,2.161352411666338],[102.39519533386303,2.161504013912864],[102.39457222139097,2.161688456896986],[102.39395962274659,2.161905235061432],[102.3933592170202,2.162153754218603],[102.39277264988216,2.162433333179344],[102.39220152907224,2.162743205620226],[102.39164741999284,2.163082522184121],[102.39111184141848,2.163450352808482],[102.39059626133276,2.163845689274753],[102.3901020929049,2.164267447972076],[102.38963069061616,2.1647144728676],[102.3891833465475,2.165185538675368],[102.38876128683788,2.165679354214895],[102.38836566832364,2.166194565950514],[102.38799757536766,2.166729761701534],[102.3876580168871,2.167283474513199],[102.38734792358815,2.167854186677625],[102.38706814541501,2.168440333894078],[102.38681944922023,2.169040309556734],[102.38660251666275,2.169652469158471],[102.38641794233963,2.170275134798547],[102.3862662321563,2.170906599781724],[102.3861478019398,2.17154513329638],[102.38606297629913,2.172188985158612],[102.38601198773546,2.172836390609477],[102.38599497600491,2.173485575152101],[102.38601198773546,2.174134759415561],[102.38606297629913,2.174782164031988],[102.3861478019398,2.17542601451367],[102.3862662321563,2.176064546116786],[102.38641794233963,2.176696008678366],[102.38660251666275,2.177318671413322],[102.38681944922023,2.177930827658239],[102.38706814541501,2.178530799549164],[102.38734792358815,2.179116942620286],[102.3876580168871,2.179687650311223],[102.38799757536766,2.18024135837021],[102.38836566832364,2.1807765491415],[102.38876128683788,2.181291755724824],[102.3891833465475,2.181785565995991],[102.38963069061616,2.18225662647703],[102.3901020929049,2.182703646045837],[102.39059626133276,2.183125399474787],[102.39111184141848,2.183520730788776],[102.39164741999284,2.183888556433394],[102.39220152907224,2.184227868244624],[102.39277264988216,2.184537736212005],[102.3933592170202,2.184817311027428],[102.39395962274659,2.185065826412868],[102.39457222139097,2.185282601220492],[102.39519533386303,2.185467041299483],[102.39582725225479,2.185618641124412],[102.39646624452189,2.185736985180668],[102.39711055923091,2.185821749103341],[102.39775843036004,2.185872700566102],[102.39840808213954,2.185889699917998],[102.39905773391904,2.185872700566102],[102.39970560504817,2.185821749103341],[102.40034991975719,2.185736985180668],[102.40098891202429,2.185618641124412],[102.40162083041606,2.185467041299483],[102.4022439428881,2.185282601220492],[102.40285654153249,2.185065826412868],[102.40345694725889,2.184817311027428],[102.40404351439692,2.184537736212005],[102.40461463520685,2.184227868244624],[102.40516874428626,2.183888556433394],[102.40570432286061,2.183520730788776],[102.40621990294632,2.183125399474787],[102.4067140713742,2.182703646045837],[102.40718547366293,2.18225662647703],[102.4076328177316,2.181785565995991],[102.4080548774412,2.181291755724824],[102.40845049595544,2.1807765491415],[102.40881858891143,2.18024135837021],[102.40915814739199,2.179687650311223],[102.40946824069093,2.179116942620286],[102.40974801886408,2.178530799549164],[102.40999671505885,2.177930827658239],[102.41021364761635,2.177318671413322],[102.41039822193945,2.176696008678366],[102.41054993212278,2.176064546116786],[102.41066836233928,2.17542601451367],[102.41075318797995,2.174782164031988],[102.41080417654362,2.174134759415561],[102.41082118827417,2.173485575152101]],[[102.4840027517324,2.163497346676952],[102.48398666173658,2.162883332401735],[102.48393843585066,2.162271000849478],[102.48385820625843,2.16166203038151],[102.48374619286366,2.161058090148691],[102.48360270268725,2.16046083551625],[102.48342812902582,2.159871903526546],[102.48322295037362,2.159292908411878],[102.4829877291111,2.158725437169953],[102.48272310996336,2.158171045213811],[102.48242981823311,2.157631252108438],[102.4821086578126,2.157107537405594],[102.4817605089802,2.156601336588243],[102.48138632598769,2.15611403713586],[102.48098713444462,2.155646974721175],[102.48056402850725,2.155201429549036],[102.48011816787958,2.154778622847228],[102.47965077463456,2.154379713518964],[102.47916312986463,2.154005794966198],[102.47865657017017,2.153657892092474],[102.47813248399613,2.153336958493528],[102.47759230782624,2.153043873843357],[102.47703752224587,2.152779441482925],[102.47646964788372,2.152544386218014],[102.47589024124393,2.15233935233254],[102.47530089043984,2.152164901822312],[102.47470321084106,2.152021512854629],[102.47409884064578,2.151909578457528],[102.47348943639074,2.151829405442339],[102.4728766684106,2.151781213562759],[102.47226221625985,2.1517651349124],[102.4716477641091,2.151781213562759],[102.47103499612895,2.151829405442339],[102.47042559187392,2.151909578457528],[102.46982122167863,2.152021512854629],[102.46922354207986,2.152164901822312],[102.46863419127577,2.15233935233254],[102.46805478463597,2.152544386218014],[102.46748691027382,2.152779441482925],[102.46693212469344,2.153043873843357],[102.46639194852357,2.153336958493528],[102.46586786234951,2.153657892092474],[102.46536130265505,2.154005794966198],[102.46487365788512,2.154379713518964],[102.46440626464012,2.154778622847228],[102.46396040401245,2.155201429549036],[102.46353729807508,2.155646974721175],[102.46313810653201,2.15611403713586],[102.46276392353948,2.156601336588243],[102.4624157747071,2.157107537405594],[102.46209461428658,2.157631252108438],[102.46180132255633,2.158171045213811],[102.4615367034086,2.158725437169953],[102.46130148214608,2.159292908411878],[102.46109630349387,2.159871903526546],[102.46092172983244,2.16046083551625],[102.46077823965602,2.161058090148691],[102.46066622626125,2.16166203038151],[102.46058599666904,2.162271000849478],[102.46053777078312,2.162883332401735],[102.46052168078728,2.163497346676952],[102.46053777078312,2.164111360703578],[102.46058599666904,2.164723691512806],[102.46066622626125,2.165332660751426],[102.46077823965602,2.165936599282089],[102.46092172983244,2.166533851758165],[102.46109630349387,2.167122781160959],[102.46130148214608,2.167701773286477],[102.4615367034086,2.168269241169801],[102.46180132255633,2.168823629434667],[102.46209461428658,2.169363418556536],[102.4624157747071,2.169887129027283],[102.46276392353948,2.170393325410317],[102.46313810653201,2.170880620274762],[102.46353729807508,2.171347677998142],[102.46396040401245,2.171793218427005],[102.46440626464012,2.172216020385525],[102.46487365788512,2.172614925022483],[102.46536130265505,2.172988838987299],[102.46586786234951,2.17333673742672],[102.46639194852357,2.173657666793582],[102.46693212469344,2.173950747460248],[102.46748691027382,2.174215176129403],[102.46805478463597,2.1744502280357],[102.46863419127577,2.17465525893205],[102.46922354207986,2.174829706855355],[102.46982122167863,2.174973093666661],[102.47042559187392,2.175085026361605],[102.47103499612895,2.175165198147458],[102.4716477641091,2.17521338928401],[102.47226221625985,2.175229467685777],[102.4728766684106,2.17521338928401],[102.47348943639074,2.175165198147458],[102.47409884064578,2.175085026361605],[102.47470321084106,2.174973093666661],[102.47530089043984,2.174829706855355],[102.47589024124393,2.17465525893205],[102.47646964788372,2.1744502280357],[102.47703752224587,2.174215176129403],[102.47759230782624,2.173950747460248],[102.47813248399613,2.173657666793582],[102.47865657017017,2.17333673742672],[102.47916312986463,2.172988838987299],[102.47965077463456,2.172614925022483],[102.48011816787958,2.172216020385525],[102.48056402850725,2.171793218427005],[102.48098713444462,2.171347677998142],[102.48138632598769,2.170880620274762],[102.4817605089802,2.170393325410317],[102.4821086578126,2.169887129027283],[102.48242981823311,2.169363418556536],[102.48272310996336,2.168823629434667],[102.4829877291111,2.168269241169801],[102.48322295037362,2.167701773286477],[102.48342812902582,2.167122781160959],[102.48360270268725,2.166533851758165],[102.48374619286366,2.165936599282089],[102.48385820625843,2.165332660751426],[102.48393843585066,2.164723691512806],[102.48398666173658,2.164111360703578],[102.4840027517324,2.163497346676952]],[[102.23442783307303,2.302843087510346],[102.23440815924911,2.30209238104751],[102.23434919170198,2.301343731825113],[102.23425109205755,2.300599191843628],[102.23411412920012,2.299860801843537],[102.2339386785354,2.299130585711744],[102.23372522096143,2.298410544934097],[102.23347434155062,2.297702653109303],[102.23318672794596,2.297008850539275],[102.23286316847636,2.296331038910619],[102.23250454999585,2.295671076082053],[102.23211185545276,2.295030770991862],[102.23168616119551,2.294411878699446],[102.23122863402249,2.293816095574495],[102.23074052798387,2.293245054647099],[102.23022318094438,2.292700321131344],[102.22967801091629,2.292183388134834],[102.22910651217275,2.291695672565902],[102.22851025115212,2.291238511249567],[102.22789086216436,2.290813157263079],[102.22725004291169,2.290420776501031],[102.2265895498351,2.290062444479324],[102.2259111933002,2.28973914338706],[102.22521683263511,2.289451759394022],[102.22450837103416,2.289201080221635],[102.22378775034134,2.288987792983475],[102.22305694572789,2.288812482301876],[102.22231796027847,2.288675628705231],[102.22157281950078,2.288577607310792],[102.22082356577394,2.288518686796373],[102.22007225275034,2.288499028663837],[102.21932093972674,2.288518686796373],[102.21857168599989,2.288577607310792],[102.21782654522221,2.288675628705231],[102.21708755977278,2.288812482301876],[102.21635675515932,2.288987792983475],[102.21563613446651,2.289201080221635],[102.21492767286556,2.289451759394022],[102.21423331220048,2.28973914338706],[102.21355495566559,2.290062444479324],[102.21289446258898,2.290420776501031],[102.21225364333631,2.290813157263079],[102.21163425434855,2.291238511249567],[102.21103799332792,2.291695672565902],[102.21046649458438,2.292183388134834],[102.20992132455629,2.292700321131344],[102.2094039775168,2.293245054647099],[102.2089158714782,2.293816095574495],[102.20845834430516,2.294411878699446],[102.20803265004791,2.295030770991862],[102.20763995550482,2.295671076082053],[102.20728133702431,2.296331038910619],[102.20695777755472,2.297008850539275],[102.20667016395005,2.297702653109303],[102.20641928453925,2.298410544934097],[102.20620582696527,2.299130585711744],[102.20603037630056,2.299860801843537],[102.20589341344312,2.300599191843628],[102.20579531379869,2.301343731825113],[102.20573634625156,2.30209238104751],[102.20571667242764,2.302843087510346],[102.20573634625156,2.303593793577634],[102.20579531379869,2.304342441617743],[102.20589341344312,2.305086979643137],[102.20603037630056,2.305825366934768],[102.20620582696527,2.306555579635417],[102.20641928453925,2.307275616296803],[102.20667016395005,2.307983503365332],[102.20695777755472,2.308677300591227],[102.20728133702431,2.309355106346403],[102.20763995550482,2.310015062836506],[102.20803265004791,2.310655361192686],[102.20845834430516,2.311274246429334],[102.2089158714782,2.311870022254047],[102.2094039775168,2.312441055716732],[102.20992132455629,2.312985781685095],[102.21046649458438,2.313502707134199],[102.21103799332792,2.313990415238421],[102.21163425434855,2.31444756925453],[102.21225364333631,2.314872916185237],[102.21289446258898,2.315265290213275],[102.21355495566559,2.315623615896505],[102.21423331220048,2.315946911115303],[102.21492767286556,2.316234289764183],[102.21563613446651,2.316484964180329],[102.21635675515932,2.316698247302228],[102.21708755977278,2.316873554552683],[102.21782654522221,2.31701040544087],[102.21857168599989,2.317108424879229],[102.21932093972674,2.317167344211347],[102.22007225275034,2.317187001948336],[102.22082356577394,2.317167344211347],[102.22157281950078,2.317108424879229],[102.22231796027847,2.31701040544087],[102.22305694572789,2.316873554552683],[102.22378775034134,2.316698247302228],[102.22450837103416,2.316484964180329],[102.22521683263511,2.316234289764183],[102.2259111933002,2.315946911115303],[102.2265895498351,2.315623615896505],[102.22725004291169,2.315265290213275],[102.22789086216436,2.314872916185237],[102.22851025115212,2.31444756925453],[102.22910651217275,2.313990415238421],[102.22967801091629,2.313502707134199],[102.23022318094438,2.312985781685095],[102.23074052798387,2.312441055716732],[102.23122863402249,2.311870022254047],[102.23168616119551,2.311274246429334],[102.23211185545276,2.310655361192686],[102.23250454999585,2.310015062836506],[102.23286316847636,2.309355106346403],[102.23318672794596,2.308677300591227],[102.23347434155062,2.307983503365332],[102.23372522096143,2.307275616296803],[102.2339386785354,2.306555579635417],[102.23411412920012,2.305825366934768],[102.23425109205755,2.305086979643137],[102.23434919170198,2.304342441617743],[102.23440815924911,2.303593793577634],[102.23442783307303,2.302843087510346]],[[102.30886427287355,2.272522459932834],[102.30884424212756,2.271758118010656],[102.30878420479249,2.270995870693715],[102.3086843254265,2.270237807254021],[102.308544877792,2.26948600549913],[102.30836624410524,2.268742526076885],[102.30814891398876,2.268009406827206],[102.30789348312929,2.267288657196411],[102.30760065164507,2.266582252729173],[102.30727122216682,2.265892129653558],[102.30690609763788,2.265220179573663],[102.3065062788392,2.264568244284572],[102.30607286164624,2.263938110723923],[102.30560703402551,2.263331506073579],[102.30511007277808,2.262750093025367],[102.3045833400402,2.262195465223348],[102.30402827954966,2.261669142895384],[102.30344641268873,2.261172568686004],[102.302839334314,2.260707103701867],[102.30220870838512,2.260274023780665],[102.30155626340391,2.259874515993902],[102.30088378767672,2.259509675392801],[102.30019312441276,2.259180502006602],[102.29948616667205,2.25888789810119],[102.2987648521766,2.258632665705906],[102.29803115799933,2.258415504414858],[102.29728709514497,2.258237009469237],[102.29653470303808,2.258097670125614],[102.29577604393309,2.257997868314766],[102.29501319726194,2.257937877594675],[102.29424825393428,2.257917862400679],[102.29348331060663,2.257937877594675],[102.29272046393548,2.257997868314766],[102.29196180483049,2.258097670125614],[102.2912094127236,2.258237009469237],[102.29046534986922,2.258415504414858],[102.28973165569195,2.258632665705906],[102.2890103411965,2.25888789810119],[102.2883033834558,2.259180502006602],[102.28761272019183,2.259509675392801],[102.28694024446465,2.259874515993902],[102.28628779948345,2.260274023780665],[102.28565717355455,2.260707103701867],[102.28505009517984,2.261172568686004],[102.2844682283189,2.261669142895384],[102.28391316782837,2.262195465223348],[102.28338643509048,2.262750093025367],[102.28288947384306,2.263331506073579],[102.28242364622231,2.263938110723923],[102.28199022902938,2.264568244284572],[102.28159041023068,2.265220179573663],[102.28122528570174,2.265892129653558],[102.2808958562235,2.266582252729173],[102.28060302473926,2.267288657196411],[102.2803475938798,2.268009406827206],[102.28013026376331,2.268742526076885],[102.27995163007655,2.26948600549913],[102.27981218244206,2.270237807254021],[102.27971230307607,2.270995870693715],[102.279652265741,2.271758118010656],[102.279632234995,2.272522459932834],[102.279652265741,2.273286801450382],[102.27971230307607,2.274049047557846],[102.27981218244206,2.274807108996463],[102.27995163007655,2.275558907980632],[102.28013026376331,2.276302383892842],[102.2803475938798,2.27703549893162],[102.28060302473926,2.277756243696802],[102.2808958562235,2.278462642697011],[102.28122528570174,2.2791527597641],[102.28159041023068,2.279824703359785],[102.28199022902938,2.280476631760024],[102.28242364622231,2.281106758102671],[102.28288947384306,2.28171335528492],[102.28338643509048,2.282294760696785],[102.28391316782837,2.282849380777868],[102.2844682283189,2.283375695384896],[102.28505009517984,2.283872261957916],[102.28565717355455,2.284337719473984],[102.28628779948345,2.284770792177159],[102.28694024446465,2.285170293075082],[102.28761272019183,2.285535127191973],[102.2883033834558,2.285864294569646],[102.2890103411965,2.286156893008029],[102.28973165569195,2.2864121205377],[102.29046534986922,2.286629277617859],[102.2912094127236,2.286807769053446],[102.29196180483049,2.286947105626322],[102.29272046393548,2.287046905436105],[102.29348331060663,2.28710689494672],[102.29424825393428,2.287126909736086],[102.29501319726194,2.28710689494672],[102.29577604393309,2.287046905436105],[102.29653470303808,2.286947105626322],[102.29728709514497,2.286807769053446],[102.29803115799933,2.286629277617859],[102.2987648521766,2.2864121205377],[102.29948616667205,2.286156893008029],[102.30019312441276,2.285864294569646],[102.30088378767672,2.285535127191973],[102.30155626340391,2.285170293075082],[102.30220870838512,2.284770792177159],[102.302839334314,2.284337719473984],[102.30344641268873,2.283872261957916],[102.30402827954966,2.283375695384896],[102.3045833400402,2.282849380777868],[102.30511007277808,2.282294760696785],[102.30560703402551,2.28171335528492],[102.30607286164624,2.281106758102671],[102.3065062788392,2.280476631760024],[102.30690609763788,2.279824703359785],[102.30727122216682,2.2791527597641],[102.30760065164507,2.278462642697011],[102.30789348312929,2.277756243696802],[102.30814891398876,2.27703549893162],[102.30836624410524,2.276302383892842],[102.308544877792,2.275558907980632],[102.3086843254265,2.274807108996463],[102.30878420479249,2.274049047557846],[102.30884424212756,2.273286801450382],[102.30886427287355,2.272522459932834]],[[102.35956579446174,2.196628694474576],[102.35954875228141,2.195978357958799],[102.35949767245184,2.195329803688326],[102.35941269497928,2.194684809308882],[102.3592940527811,2.194045142711049],[102.35914207104729,2.193412557184552],[102.35895716634927,2.192788786612491],[102.35873984549791,2.192175540718802],[102.35849070415458,2.191574500381891],[102.35821042519837,2.190987313027304],[102.35789977685444,2.190415588112018],[102.35755961058831,2.189860892712958],[102.35719085877203,2.189324747231454],[102.35679453212875,2.188808621225709],[102.35637171696222,2.188313929382657],[102.3559235721794,2.187842027640186],[102.35545132611405,2.187394209470305],[102.35495627315976,2.186971702333607],[102.3544397702223,2.186575664314668],[102.35390323300028,2.18620718094755],[102.35334813210498,2.185867262240229],[102.35277598902933,2.185556839905959],[102.35218837197775,2.185276764809347],[102.35158689156772,2.185027804633946],[102.35097319641527,2.184810641777925],[102.3503489686161,2.184625871483493],[102.34971591913526,2.184474000205233],[102.34907578311736,2.184355444221786],[102.34843031513074,2.184270528494788],[102.34778128435828,2.184219485778057],[102.34713046974821,2.184202455979602],[102.34647965513814,2.184219485778057],[102.34583062436566,2.184270528494788],[102.34518515637905,2.184355444221786],[102.34454502036114,2.184474000205233],[102.3439119708803,2.184625871483493],[102.34328774308115,2.184810641777925],[102.34267404792868,2.185027804633946],[102.34207256751866,2.185276764809347],[102.34148495046708,2.185556839905959],[102.34091280739143,2.185867262240229],[102.34035770649612,2.18620718094755],[102.33982116927412,2.186575664314668],[102.33930466633666,2.186971702333607],[102.33880961338235,2.187394209470305],[102.338337367317,2.187842027640186],[102.3378892225342,2.188313929382657],[102.33746640736767,2.188808621225709],[102.33707008072437,2.189324747231454],[102.3367013289081,2.189860892712958],[102.33636116264196,2.190415588112018],[102.33605051429804,2.190987313027304],[102.33577023534184,2.191574500381891],[102.33552109399851,2.192175540718802],[102.33530377314713,2.192788786612491],[102.33511886844911,2.193412557184552],[102.3349668867153,2.194045142711049],[102.33484824451713,2.194684809308882],[102.33476326704456,2.195329803688326],[102.33471218721499,2.195978357958799],[102.33469514503467,2.196628694474576],[102.33471218721499,2.197279030707194],[102.33476326704456,2.19792758413136],[102.33484824451713,2.198572577110584],[102.3349668867153,2.19921224176964],[102.33511886844911,2.199844824840036],[102.33530377314713,2.200468592465567],[102.33552109399851,2.201081834954612],[102.33577023534184,2.201682871466041],[102.33605051429804,2.202270054616253],[102.33636116264196,2.202841774994299],[102.3367013289081,2.203396465572975],[102.33707008072437,2.203932606003784],[102.33746640736767,2.204448726783839],[102.3378892225342,2.204943413283444],[102.338337367317,2.205415309623298],[102.33880961338235,2.205863122390561],[102.33930466633666,2.206285624183826],[102.33982116927412,2.206681656977076],[102.34035770649612,2.207050135293485],[102.34091280739143,2.207390049180434],[102.34148495046708,2.207700466977465],[102.34207256751866,2.207980537869688],[102.34267404792868,2.208229494219621],[102.34328774308115,2.208446653670998],[102.3439119708803,2.208631421018912],[102.34454502036114,2.20878328984106],[102.34518515637905,2.20890184388573],[102.34583062436566,2.208986758212507],[102.34647965513814,2.209037800082918],[102.34713046974821,2.20905482959824],[102.34778128435828,2.209037800082918],[102.34843031513074,2.208986758212507],[102.34907578311736,2.20890184388573],[102.34971591913526,2.20878328984106],[102.3503489686161,2.208631421018912],[102.35097319641527,2.208446653670998],[102.35158689156772,2.208229494219621],[102.35218837197775,2.207980537869688],[102.35277598902933,2.207700466977465],[102.35334813210498,2.207390049180434],[102.35390323300028,2.207050135293485],[102.3544397702223,2.206681656977076],[102.35495627315976,2.206285624183826],[102.35545132611405,2.205863122390561],[102.3559235721794,2.205415309623298],[102.35637171696222,2.204943413283444],[102.35679453212875,2.204448726783839],[102.35719085877203,2.203932606003784],[102.35755961058831,2.203396465572975],[102.35789977685444,2.202841774994299],[102.35821042519837,2.202270054616253],[102.35849070415458,2.201682871466041],[102.35873984549791,2.201081834954612],[102.35895716634927,2.200468592465567],[102.35914207104729,2.199844824840036],[102.3592940527811,2.19921224176964],[102.35941269497928,2.198572577110584],[102.35949767245184,2.19792758413136],[102.35954875228141,2.197279030707194],[102.35956579446174,2.196628694474576]],[[102.15628858949697,2.265725995672455],[102.15627092176679,2.265051819588698],[102.1562179670023,2.264379491062261],[102.15612987034883,2.263710852902823],[102.15600687327316,2.263047737807569],[102.15584931290172,2.262391963337802],[102.15565762109658,2.261745326937005],[102.15543232327163,2.261109601004083],[102.15517403695253,2.260486528035192],[102.15488347008416,2.259877815847475],[102.15456141909006,2.259285132897884],[102.15420876668968,2.258710103709861],[102.1538264794787,2.258154304420382],[102.15341560527979,2.257619258459659],[102.1529772702706,2.25710643237522],[102.15251267589689,2.256617231811999],[102.15202309557957,2.256152997659269],[102.1515098712242,2.255715002375126],[102.15097440954317,2.255304446498422],[102.15041817819964,2.254922455358013],[102.14984270178509,2.254570075987946],[102.14924955764039,2.254248274257452],[102.14864037153235,2.253957932223272],[102.14801681319783,2.253699845711788],[102.14738059176682,2.25347472213752],[102.14673345107808,2.253283178563965],[102.14607716489922,2.253125740012078],[102.14541353206505,2.253002838021135],[102.14474437154706,2.252914809465703],[102.1440715174677,2.252861895632293],[102.14339681407323,2.25284424155786],[102.14272211067876,2.252861895632293],[102.14204925659938,2.252914809465703],[102.14138009608139,2.253002838021135],[102.14071646324723,2.253125740012078],[102.14006017706838,2.253283178563965],[102.13941303637964,2.25347472213752],[102.13877681494861,2.253699845711788],[102.13815325661407,2.253957932223272],[102.13754407050607,2.254248274257452],[102.13695092636135,2.254570075987946],[102.13637544994681,2.254922455358013],[102.13581921860329,2.255304446498422],[102.13528375692223,2.255715002375126],[102.13477053256689,2.256152997659269],[102.13428095224957,2.256617231811999],[102.13381635787586,2.25710643237522],[102.13337802286665,2.257619258459659],[102.13296714866775,2.258154304420382],[102.13258486145676,2.258710103709861],[102.13223220905638,2.259285132897884],[102.1319101580623,2.259877815847475],[102.13161959119392,2.260486528035192],[102.13136130487483,2.261109601004083],[102.13113600704988,2.261745326937005],[102.13094431524472,2.262391963337802],[102.1307867548733,2.263047737807569],[102.13066375779762,2.263710852902823],[102.13057566114415,2.264379491062261],[102.13052270637965,2.265051819588698],[102.13050503864947,2.265725995672455],[102.13052270637965,2.266400171442343],[102.13057566114415,2.267072499030657],[102.13066375779762,2.267741135637945],[102.1307867548733,2.268404248584061],[102.13094431524472,2.269060020331235],[102.13113600704988,2.269706653465831],[102.13136130487483,2.270342375624706],[102.13161959119392,2.270965444353079],[102.1319101580623,2.27157415188024],[102.13223220905638,2.272166829800318],[102.13258486145676,2.272741853644958],[102.13296714866775,2.273297647335732],[102.13337802286665,2.273832687503787],[102.13381635787586,2.274345507665066],[102.13428095224957,2.274834702239481],[102.13477053256689,2.275298930403418],[102.13528375692223,2.275736919764388],[102.13581921860329,2.276147469848412],[102.13637544994681,2.276529455390141],[102.13695092636135,2.276881829416824],[102.13754407050607,2.277203626117806],[102.13815325661407,2.277493963491443],[102.13877681494861,2.277752045762396],[102.13941303637964,2.277977165562618],[102.14006017706838,2.278168705869972],[102.14071646324723,2.278326141699253],[102.14138009608139,2.278449041541069],[102.14204925659938,2.278537068544352],[102.14272211067876,2.278589981439627],[102.14339681407323,2.278607635200202],[102.1440715174677,2.278589981439627],[102.14474437154706,2.278537068544352],[102.14541353206505,2.278449041541069],[102.14607716489922,2.278326141699253],[102.14673345107808,2.278168705869972],[102.14738059176682,2.277977165562618],[102.14801681319783,2.277752045762396],[102.14864037153235,2.277493963491443],[102.14924955764039,2.277203626117806],[102.14984270178509,2.276881829416824],[102.15041817819964,2.276529455390141],[102.15097440954317,2.276147469848412],[102.1515098712242,2.275736919764388],[102.15202309557957,2.275298930403418],[102.15251267589689,2.274834702239481],[102.1529772702706,2.274345507665066],[102.15341560527979,2.273832687503787],[102.1538264794787,2.273297647335732],[102.15420876668968,2.272741853644958],[102.15456141909006,2.272166829800318],[102.15488347008416,2.27157415188024],[102.15517403695253,2.270965444353079],[102.15543232327163,2.270342375624706],[102.15565762109658,2.269706653465831],[102.15584931290172,2.269060020331235],[102.15600687327316,2.268404248584061],[102.15612987034883,2.267741135637945],[102.1562179670023,2.267072499030657],[102.15627092176679,2.266400171442343],[102.15628858949697,2.265725995672455]],[[102.20681588986018,2.238842022480366],[102.20679812192829,2.238164010326198],[102.20674486683322,2.23748785624392],[102.20665627054355,2.236815413528839],[102.20653257589548,2.236148525306122],[102.2063741219275,2.235489019478965],[102.20618134295088,2.234838703718241],[102.20595476735944,2.234199360507707],[102.2056950161811,2.233572742258212],[102.2054028013758,2.232960566504256],[102.20507892388397,2.232364511196201],[102.20472427143135,2.231786210100867],[102.20433981609563,2.231227248323275],[102.20392661164219,2.23068915796178],[102.20348579063567,2.230173413908377],[102.20301856133585,2.229681429805974],[102.20252620438576,2.229214554173293],[102.20201006930158,2.228774066708522],[102.20147157077368,2.228361174781399],[102.20091218478908,2.22797701012371],[102.20033344458591,2.227622625726947],[102.19973693645085,2.227298992955957],[102.19912429537119,2.227006998886245],[102.1984972005536,2.226747443872284],[102.19785737082135,2.226521039353637],[102.19720655990328,2.226328405904778],[102.19654655162685,2.226170071533928],[102.19587915502892,2.226046470235712],[102.19520619939712,2.225957940801479],[102.19452952925609,2.225904725890579],[102.19385099931164,2.225886971365209],[102.1931724693672,2.225904725890579],[102.19249579922617,2.225957940801479],[102.19182284359438,2.226046470235712],[102.19115544699643,2.226170071533928],[102.19049543872,2.226328405904778],[102.18984462780193,2.226521039353637],[102.18920479806968,2.226747443872284],[102.1885777032521,2.227006998886245],[102.18796506217244,2.227298992955957],[102.18736855403738,2.227622625726947],[102.18678981383421,2.22797701012371],[102.18623042784962,2.228361174781399],[102.18569192932172,2.228774066708522],[102.18517579423751,2.229214554173293],[102.18468343728743,2.229681429805974],[102.18421620798762,2.230173413908377],[102.18377538698111,2.23068915796178],[102.18336218252766,2.231227248323275],[102.18297772719194,2.231786210100867],[102.18262307473931,2.232364511196201],[102.18229919724749,2.232960566504256],[102.18200698244219,2.233572742258212],[102.18174723126384,2.234199360507707],[102.1815206556724,2.234838703718241],[102.18132787669579,2.235489019478965],[102.1811694227278,2.236148525306122],[102.18104572807975,2.236815413528839],[102.18095713179007,2.23748785624392],[102.18090387669501,2.238164010326198],[102.1808861087631,2.238842022480366],[102.18090387669501,2.239520034320868],[102.18095713179007,2.240196187465569],[102.18104572807975,2.240868628629455],[102.1811694227278,2.241535514704319],[102.18132787669579,2.242195017810524],[102.1815206556724,2.242845330307019],[102.18174723126384,2.243484669745771],[102.18200698244219,2.244111283757292],[102.18229919724749,2.24472345485349],[102.18262307473931,2.245319505135035],[102.18297772719194,2.245897800890218],[102.18336218252766,2.246456757072476],[102.18377538698111,2.246994841644788],[102.18421620798762,2.247510579778556],[102.18468343728743,2.248002557895779],[102.18517579423751,2.248469427543254],[102.18569192932172,2.248909909088415],[102.18623042784962,2.249322795226355],[102.18678981383421,2.249706954288711],[102.18736855403738,2.25006133334531],[102.18796506217244,2.250384961089789],[102.1885777032521,2.250676950501758],[102.18920479806968,2.250936501277744],[102.18984462780193,2.251162902024609],[102.19049543872,2.251355532209226],[102.19115544699643,2.251513863859124],[102.19182284359438,2.251637463009499],[102.19249579922617,2.251725990892525],[102.1931724693672,2.251779204865862],[102.19385099931164,2.251796959077552],[102.19452952925609,2.251779204865862],[102.19520619939712,2.251725990892525],[102.19587915502892,2.251637463009499],[102.19654655162685,2.251513863859124],[102.19720655990328,2.251355532209226],[102.19785737082135,2.251162902024609],[102.1984972005536,2.250936501277744],[102.19912429537119,2.250676950501758],[102.19973693645085,2.250384961089789],[102.20033344458591,2.25006133334531],[102.20091218478908,2.249706954288711],[102.20147157077368,2.249322795226355],[102.20201006930158,2.248909909088415],[102.20252620438576,2.248469427543254],[102.20301856133585,2.248002557895779],[102.20348579063567,2.247510579778556],[102.20392661164219,2.246994841644788],[102.20433981609563,2.246456757072476],[102.20472427143135,2.245897800890218],[102.20507892388397,2.245319505135035],[102.2054028013758,2.24472345485349],[102.2056950161811,2.244111283757292],[102.20595476735944,2.243484669745771],[102.20618134295088,2.242845330307019],[102.2063741219275,2.242195017810524],[102.20653257589548,2.241535514704319],[102.20665627054355,2.240868628629455],[102.20674486683322,2.240196187465569],[102.20679812192829,2.239520034320868],[102.20681588986018,2.238842022480366]],[[102.30030745876898,2.214581043107685],[102.3002847033882,2.213712698959064],[102.30021649961684,2.21284673437478],[102.30010303439666,2.211985522909984],[102.2999446187279,2.211131425095989],[102.29974168681699,2.210286781969992],[102.29949479488614,2.209453908658394],[102.29920461964896,2.208635088030921],[102.29887195645564,2.207832564443236],[102.29849771711282,2.207048537585046],[102.2980829273846,2.206285156450551],[102.29762872418073,2.2055445134479],[102.29713635244065,2.204828638663634],[102.29660716172104,2.204139494298051],[102.29604260249693,2.203478969286433],[102.29544422218586,2.202848874121301],[102.29481366090674,2.20225093588943],[102.29415264698413,2.201686793537709],[102.29346299221127,2.20115799338039],[102.29274658688398,2.200665984860346],[102.29200539461945,2.200212116575829],[102.29124144697414,2.199797632583652],[102.29045683787548,2.199423668988914],[102.28965371788244,2.199091250830688],[102.28883428829111,2.198801289272117],[102.28800079510104,2.198554579102621],[102.28715552285912,2.198351796559243],[102.28630078839784,2.198193497472843],[102.28543893448493,2.198080115744424],[102.28457232340203,2.198011962155679],[102.28370333046992,2.197989223517058],[102.2828343375378,2.198011962155679],[102.28196772645491,2.198080115744424],[102.281105872542,2.198193497472843],[102.2802511380807,2.198351796559243],[102.2794058658388,2.198554579102621],[102.27857237264872,2.198801289272117],[102.27775294305741,2.199091250830688],[102.27694982306436,2.199423668988914],[102.2761652139657,2.199797632583652],[102.2754012663204,2.200212116575829],[102.27466007405586,2.200665984860346],[102.27394366872856,2.20115799338039],[102.27325401395571,2.201686793537709],[102.2725930000331,2.20225093588943],[102.27196243875397,2.202848874121301],[102.27136405844293,2.203478969286433],[102.2707994992188,2.204139494298051],[102.27027030849919,2.204828638663634],[102.26977793675911,2.2055445134479],[102.26932373355524,2.206285156450551],[102.26890894382701,2.207048537585046],[102.2685347044842,2.207832564443236],[102.26820204129088,2.208635088030921],[102.2679118660537,2.209453908658394],[102.26766497412285,2.210286781969992],[102.26746204221193,2.211131425095989],[102.26730362654318,2.211985522909984],[102.26719016132301,2.21284673437478],[102.26712195755162,2.213712698959064],[102.26709920217085,2.214581043107685],[102.26712195755162,2.21544938674738],[102.26719016132301,2.216315349810506],[102.26730362654318,2.217176558758529],[102.26746204221193,2.218030653087756],[102.26766497412285,2.218875291799143],[102.2679118660537,2.219708159814659],[102.26820204129088,2.220526974322605],[102.2685347044842,2.221329491034364],[102.26890894382701,2.222113510335569],[102.26932373355524,2.222876883314803],[102.26977793675911,2.223617517653293],[102.27027030849919,2.224333383359391],[102.2707994992188,2.225022518332299],[102.27136405844293,2.225683033739609],[102.27196243875397,2.22631311919405],[102.2725930000331,2.226911047715217],[102.27325401395571,2.227475180462628],[102.27394366872856,2.228003971227261],[102.27466007405586,2.22849597066915],[102.2754012663204,2.228949830289505],[102.2761652139657,2.229364306126434],[102.27694982306436,2.229738262164187],[102.27775294305741,2.230070673446486],[102.27857237264872,2.23036062888553],[102.2794058658388,2.230607333758945],[102.2802511380807,2.2308101118877],[102.281105872542,2.230968407489332],[102.28196772645491,2.23108178670099],[102.2828343375378,2.231149938768553],[102.28370333046992,2.23117267689826],[102.28457232340203,2.231149938768553],[102.28543893448493,2.23108178670099],[102.28630078839784,2.230968407489332],[102.28715552285912,2.2308101118877],[102.28800079510104,2.230607333758945],[102.28883428829111,2.23036062888553],[102.28965371788244,2.230070673446486],[102.29045683787548,2.229738262164187],[102.29124144697414,2.229364306126434],[102.29200539461945,2.228949830289505],[102.29274658688398,2.22849597066915],[102.29346299221127,2.228003971227261],[102.29415264698413,2.227475180462628],[102.29481366090674,2.226911047715217],[102.29544422218586,2.22631311919405],[102.29604260249693,2.225683033739609],[102.29660716172104,2.225022518332299],[102.29713635244065,2.224333383359391],[102.29762872418073,2.223617517653293],[102.2980829273846,2.222876883314803],[102.29849771711282,2.222113510335569],[102.29887195645564,2.221329491034364],[102.29920461964896,2.220526974322605],[102.29949479488614,2.219708159814659],[102.29974168681699,2.218875291799143],[102.2999446187279,2.218030653087756],[102.30010303439666,2.217176558758529],[102.30021649961684,2.216315349810506],[102.3002847033882,2.21544938674738],[102.30030745876898,2.214581043107685]],[[102.23607695561677,2.212376339744111],[102.23605571951035,2.211565969836674],[102.2359920693978,2.210757820656012],[102.23588617973967,2.209954107288467],[102.2357383407721,2.209157032665648],[102.23554895771147,2.208368781526265],[102.23531854964357,2.207591514427818],[102.2350477481009,2.206827361824443],[102.23473729533166,2.206078418227232],[102.23438804226531,2.205346736463197],[102.23400094618026,2.204634322048215],[102.23357706807992,2.20394312768984],[102.23311756978475,2.203275047934726],[102.2326237107476,2.202631913975452],[102.23209684460178,2.202015488630988],[102.23153841545079,2.201427461514613],[102.23094995391007,2.200869444402371],[102.23033307291185,2.200342966814969],[102.22968946328405,2.19984947182505],[102.22902088911587,2.199390312101516],[102.22832918292274,2.198966746201522],[102.22761624062316,2.198579935120589],[102.22688401634247,2.198230939109965],[102.22613451705651,2.197920714770313],[102.22536979709072,2.197650112429413],[102.22459195248938,2.197419873811205],[102.22380311527048,2.197230630002545],[102.22300544758198,2.197082899723213],[102.22220113577559,2.196977087904027],[102.22139238441407,2.196913484576765],[102.22058141022869,2.196892264079092],[102.2197704360433,2.196913484576765],[102.21896168468179,2.196977087904027],[102.2181573728754,2.197082899723213],[102.21735970518691,2.197230630002545],[102.216570867968,2.197419873811205],[102.21579302336667,2.197650112429413],[102.21502830340087,2.197920714770313],[102.21427880411493,2.198230939109965],[102.21354657983422,2.198579935120589],[102.21283363753466,2.198966746201522],[102.2121419313415,2.199390312101516],[102.21147335717335,2.19984947182505],[102.21082974754553,2.200342966814969],[102.21021286654731,2.200869444402371],[102.2096244050066,2.201427461514613],[102.2090659758556,2.202015488630988],[102.20853910970978,2.202631913975452],[102.20804525067263,2.203275047934726],[102.20758575237745,2.20394312768984],[102.20716187427712,2.204634322048215],[102.20677477819207,2.205346736463197],[102.20642552512572,2.206078418227232],[102.20611507235648,2.206827361824443],[102.20584427081381,2.207591514427818],[102.2056138627459,2.208368781526265],[102.20542447968528,2.209157032665648],[102.20527664071773,2.209954107288467],[102.20517075105958,2.210757820656012],[102.20510710094703,2.211565969836674],[102.20508586484061,2.212376339744111],[102.20510710094703,2.213186709208752],[102.20517075105958,2.213994857065896],[102.20527664071773,2.214798568243705],[102.20542447968528,2.215595639834565],[102.2056138627459,2.216383887132958],[102.20584427081381,2.21716114962348],[102.20611507235648,2.217925296902505],[102.20642552512572,2.218674234517233],[102.20677477819207,2.219405909706235],[102.20716187427712,2.22011831702564],[102.20758575237745,2.220809503845656],[102.20804525067263,2.221477575702218],[102.20853910970978,2.222120701489287],[102.2090659758556,2.222737118477415],[102.2096244050066,2.223325137144889],[102.21021286654731,2.223883145808229],[102.21082974754553,2.224409615039296],[102.21147335717335,2.224903101856996],[102.2121419313415,2.225362253681991],[102.21283363753466,2.225785812043612],[102.21354657983422,2.226172616028983],[102.21427880411493,2.22652160546456],[102.21502830340087,2.226831823821742],[102.21579302336667,2.227102420838278],[102.216570867968,2.227332654848562],[102.21735970518691,2.227521894816245],[102.2181573728754,2.227669622063605],[102.21896168468179,2.227775431693043],[102.2197704360433,2.227839033696812],[102.22058141022869,2.227860253751675],[102.22139238441407,2.227839033696812],[102.22220113577559,2.227775431693043],[102.22300544758198,2.227669622063605],[102.22380311527048,2.227521894816245],[102.22459195248938,2.227332654848562],[102.22536979709072,2.227102420838278],[102.22613451705651,2.226831823821742],[102.22688401634247,2.22652160546456],[102.22761624062316,2.226172616028983],[102.22832918292274,2.225785812043612],[102.22902088911587,2.225362253681991],[102.22968946328405,2.224903101856996],[102.23033307291185,2.224409615039296],[102.23094995391007,2.223883145808229],[102.23153841545079,2.223325137144889],[102.23209684460178,2.222737118477415],[102.2326237107476,2.222120701489287],[102.23311756978475,2.221477575702218],[102.23357706807992,2.220809503845656],[102.23400094618026,2.22011831702564],[102.23438804226531,2.219405909706235],[102.23473729533166,2.218674234517233],[102.2350477481009,2.217925296902505],[102.23531854964357,2.21716114962348],[102.23554895771147,2.216383887132958],[102.2357383407721,2.215595639834565],[102.23588617973967,2.214798568243705],[102.2359920693978,2.213994857065896],[102.23605571951035,2.213186709208752],[102.23607695561677,2.212376339744111]],[[102.26609713944471,2.214184062272062],[102.26607653187844,2.213397678424234],[102.26601476566354,2.212613449584448],[102.26591201009691,2.211833525274673],[102.26576854682446,2.211060043221863],[102.26558476906895,2.21029512349843],[102.2653611805525,2.209540862711148],[102.26509839411571,2.20879932825431],[102.2647971300379,2.208072552643042],[102.26445821406298,2.207362527941993],[102.26408257513606,2.20667120030498],[102.26367124285736,2.206000464640503],[102.26322534466004,2.205352159417551],[102.26274610272007,2.204728061626233],[102.26223483060632,2.204129881906791],[102.26169292968008,2.203559259860533],[102.26112188525413,2.203017759555425],[102.26052326252156,2.202506865238771],[102.25989870226566,2.202027977268595],[102.25924991636269,2.201582408275043],[102.25857868308972,2.201171379562182],[102.25788684225047,2.200796017760187],[102.2571762901326,2.200457351736986],[102.2564489743101,2.200156309777919],[102.25570688830504,2.199893717041091],[102.25495206612362,2.199670293295431],[102.25418657668095,2.199486650947607],[102.25341251813038,2.199343293363334],[102.2526320121126,2.199240613487409],[102.25184719794035,2.199178892766671],[102.25106022673472,2.199158300378436],[102.25027325552912,2.199178892766671],[102.24948844135687,2.199240613487409],[102.24870793533907,2.199343293363334],[102.24793387678852,2.199486650947607],[102.24716838734585,2.199670293295431],[102.24641356516442,2.199893717041091],[102.24567147915936,2.200156309777919],[102.24494416333685,2.200457351736986],[102.24423361121899,2.200796017760187],[102.24354177037974,2.201171379562182],[102.24287053710675,2.201582408275043],[102.24222175120379,2.202027977268595],[102.2415971909479,2.202506865238771],[102.24099856821535,2.203017759555425],[102.24042752378939,2.203559259860533],[102.23988562286314,2.204129881906791],[102.23937435074939,2.204728061626233],[102.23889510880942,2.205352159417551],[102.23844921061209,2.206000464640503],[102.23803787833339,2.20667120030498],[102.23766223940649,2.207362527941993],[102.23732332343157,2.208072552643042],[102.23702205935373,2.20879932825431],[102.23675927291694,2.209540862711148],[102.2365356844005,2.21029512349843],[102.23635190664501,2.211060043221863],[102.23620844337253,2.211833525274673],[102.23610568780592,2.212613449584448],[102.23604392159102,2.213397678424234],[102.23602331402473,2.214184062272062],[102.23604392159102,2.214970445702575],[102.23610568780592,2.215754673295024],[102.23620844337253,2.216534595541078],[102.23635190664501,2.217308074736413],[102.2365356844005,2.218072990839917],[102.23675927291694,2.218827247284483],[102.23702205935373,2.219568776723359],[102.23732332343157,2.220295546696458],[102.23766223940649,2.221005565200883],[102.23803787833339,2.221696886150678],[102.23844921061209,2.222367614710648],[102.23889510880942,2.223015912489614],[102.23937435074939,2.223640002579041],[102.23988562286314,2.22423817442306],[102.24042752378939,2.224808788506672],[102.24099856821535,2.225350280849122],[102.2415971909479,2.225861167290366],[102.24222175120379,2.226340047558651],[102.24287053710675,2.226785609108229],[102.24354177037974,2.227196630716571],[102.24423361121899,2.22757198583136],[102.24494416333685,2.227910645657913],[102.24567147915936,2.228211681978811],[102.24641356516442,2.228474269697702],[102.24716838734585,2.228697689100645],[102.24793387678852,2.228881327828528],[102.24870793533907,2.229024682555339],[102.24948844135687,2.229127360367542],[102.25027325552912,2.22918907984093],[102.25106022673472,2.229209671811864],[102.25184719794035,2.22918907984093],[102.2526320121126,2.229127360367542],[102.25341251813038,2.229024682555339],[102.25418657668095,2.228881327828528],[102.25495206612362,2.228697689100645],[102.25570688830504,2.228474269697702],[102.2564489743101,2.228211681978811],[102.2571762901326,2.227910645657913],[102.25788684225047,2.22757198583136],[102.25857868308972,2.227196630716571],[102.25924991636269,2.226785609108229],[102.25989870226566,2.226340047558651],[102.26052326252156,2.225861167290366],[102.26112188525413,2.225350280849122],[102.26169292968008,2.224808788506672],[102.26223483060632,2.22423817442306],[102.26274610272007,2.223640002579041],[102.26322534466004,2.223015912489614],[102.26367124285736,2.222367614710648],[102.26408257513606,2.221696886150678],[102.26445821406298,2.221005565200883],[102.2647971300379,2.220295546696458],[102.26509839411571,2.219568776723359],[102.2653611805525,2.218827247284483],[102.26558476906895,2.218072990839917],[102.26576854682446,2.217308074736413],[102.26591201009691,2.216534595541078],[102.26601476566354,2.215754673295024],[102.26607653187844,2.214970445702575],[102.26609713944471,2.214184062272062]],[[102.25955175849562,2.183994470992944],[102.2595318189419,2.183233563088634],[102.25947205493364,2.18247474039634],[102.25937263027984,2.181720082801185],[102.25923381749658,2.180971658775125],[102.25905599706002,2.180231519707357],[102.25883965636365,2.179501694281452],[102.25858538838226,2.178784182914723],[102.25829389004672,2.178080952275064],[102.2579659603337,2.177393929890211],[102.25760249807577,2.176724998864306],[102.25720449949769,2.176075992716183],[102.25677305548591,2.175448690353497],[102.25630934859848,2.174844811196653],[102.25581464982373,2.174266010465593],[102.25529031509664,2.173713874642695],[102.25473778158221,2.173189917123992],[102.25415856373645,2.172695574070719],[102.25355424915519,2.172232200472589],[102.25292649422266,2.171801066433532],[102.25227701957155,2.171403353690065],[102.25160760536671,2.171040152371999],[102.25092008642595,2.170712458014144],[102.25021634719089,2.170421168827319],[102.24949831656184,2.170167083236201],[102.24876796261088,2.169950897690667],[102.24802728718741,2.16977320475664],[102.24727832043128,2.169634491491734],[102.2465231152083,2.16953513811014],[102.2457637414835,2.169475416940354],[102.2450022806475,2.169455491678641],[102.24424081981148,2.169475416940354],[102.24348144608668,2.16953513811014],[102.2427262408637,2.169634491491734],[102.24197727410757,2.16977320475664],[102.24123659868411,2.169950897690667],[102.24050624473314,2.170167083236201],[102.23978821410411,2.170421168827319],[102.23908447486905,2.170712458014144],[102.23839695592828,2.171040152371999],[102.23772754172343,2.171403353690065],[102.23707806707232,2.171801066433532],[102.2364503121398,2.172232200472589],[102.23584599755854,2.172695574070719],[102.23526677971277,2.173189917123992],[102.23471424619835,2.173713874642695],[102.23418991147125,2.174266010465593],[102.23369521269652,2.174844811196653],[102.23323150580907,2.175448690353497],[102.2328000617973,2.176075992716183],[102.23240206321923,2.176724998864306],[102.23203860096127,2.177393929890211],[102.23171067124828,2.178080952275064],[102.23141917291272,2.178784182914723],[102.23116490493135,2.179501694281452],[102.23094856423496,2.180231519707357],[102.2307707437984,2.180971658775125],[102.23063193101515,2.181720082801185],[102.23053250636134,2.18247474039634],[102.23047274235309,2.183233563088634],[102.23045280279936,2.183994470992944],[102.23047274235309,2.184755378511873],[102.23053250636134,2.185514200052272],[102.23063193101515,2.186268855741626],[102.2307707437984,2.187017277128869],[102.23094856423496,2.187757412853709],[102.23116490493135,2.188487234269201],[102.23141917291272,2.189204741001964],[102.23171067124828,2.18990796643489],[102.23203860096127,2.190594983097276],[102.23240206321923,2.191263907947688],[102.2328000617973,2.191912907534951],[102.23323150580907,2.192540203023262],[102.23369521269652,2.193144075067584],[102.23418991147125,2.193722868525874],[102.23471424619835,2.194274996995418],[102.23526677971277,2.194798947160781],[102.23584599755854,2.195293282941271],[102.2364503121398,2.195756649426866],[102.23707806707232,2.196187776591573],[102.23772754172343,2.196585482774167],[102.23839695592828,2.196948677916728],[102.23908447486905,2.197276366552129],[102.23978821410411,2.197567650532221],[102.24050624473314,2.197821731489372],[102.24123659868411,2.198037913024494],[102.24197727410757,2.198215602615592],[102.2427262408637,2.198354313241682],[102.24348144608668,2.198453664717474],[102.24424081981148,2.198513384735366],[102.2450022806475,2.198533309611697],[102.2457637414835,2.198513384735366],[102.2465231152083,2.198453664717474],[102.24727832043128,2.198354313241682],[102.24802728718741,2.198215602615592],[102.24876796261088,2.198037913024494],[102.24949831656184,2.197821731489372],[102.25021634719089,2.197567650532221],[102.25092008642595,2.197276366552129],[102.25160760536671,2.196948677916728],[102.25227701957155,2.196585482774167],[102.25292649422266,2.196187776591573],[102.25355424915519,2.195756649426866],[102.25415856373645,2.195293282941271],[102.25473778158221,2.194798947160781],[102.25529031509664,2.194274996995418],[102.25581464982373,2.193722868525874],[102.25630934859848,2.193144075067584],[102.25677305548591,2.192540203023262],[102.25720449949769,2.191912907534951],[102.25760249807577,2.191263907947688],[102.2579659603337,2.190594983097276],[102.25829389004672,2.18990796643489],[102.25858538838226,2.189204741001964],[102.25883965636365,2.188487234269201],[102.25905599706002,2.187757412853709],[102.25923381749658,2.187017277128869],[102.25937263027984,2.186268855741626],[102.25947205493364,2.185514200052272],[102.2595318189419,2.184755378511873],[102.25955175849562,2.183994470992944]],[[102.28892406911561,2.184774924957756],[102.28890393510153,2.184006596702533],[102.28884358824527,2.183240373990335],[102.28874319395335,2.182478356989306],[102.28860302739955,2.181722634343216],[102.28842347277063,2.180975277446469],[102.28820502221339,2.180238334766476],[102.28794827448557,2.179513826228796],[102.28765393331489,2.178803737680453],[102.28732280547001,2.178110015446681],[102.28695579854936,2.177434560995902],[102.28655391849338,2.176779225727684],[102.28611826682737,2.176145805897943],[102.28565003764231,2.17553603769517],[102.28515051432178,2.174951592481361],[102.2846210660245,2.17439407221064],[102.28406314393149,2.173865005038007],[102.28347827726837,2.173365841130524],[102.28286806911407,2.17289794869212],[102.2822341920067,2.172462610213124],[102.28157838335932,2.172061018954693],[102.28090244069789,2.171694275677934],[102.28020821673425,2.171363385626378],[102.279497614288,2.171069255770521],[102.2787725810711,2.170812692321525],[102.27803510434917,2.170594398521288],[102.27728720549464,2.170414972714624],[102.27653093444633,2.170274906709113],[102.27576836409055,2.170174584426929],[102.27500158457968,2.170114280852403],[102.27423269760304,2.170094161278251],[102.27346381062641,2.170114280852403],[102.27269703111554,2.170174584426929],[102.27193446075975,2.170274906709113],[102.27117818971143,2.170414972714624],[102.27043029085691,2.170594398521288],[102.26969281413498,2.170812692321525],[102.26896778091808,2.171069255770521],[102.26825717847184,2.171363385626378],[102.2675629545082,2.171694275677934],[102.26688701184678,2.172061018954693],[102.26623120319938,2.172462610213124],[102.26559732609199,2.17289794869212],[102.26498711793771,2.173365841130524],[102.2644022512746,2.173865005038007],[102.26384432918158,2.17439407221064],[102.2633148808843,2.174951592481361],[102.26281535756378,2.17553603769517],[102.2623471283787,2.176145805897943],[102.2619114767127,2.176779225727684],[102.26150959665672,2.177434560995902],[102.26114258973607,2.178110015446681],[102.2608114618912,2.178803737680453],[102.26051712072052,2.179513826228796],[102.26026037299269,2.180238334766476],[102.26004192243545,2.180975277446469],[102.25986236780653,2.181722634343216],[102.25972220125273,2.182478356989306],[102.25962180696081,2.183240373990335],[102.25956146010455,2.184006596702533],[102.25954132609047,2.184774924957756],[102.25956146010455,2.185543252819926],[102.25962180696081,2.18630947435724],[102.25972220125273,2.187071489414416],[102.25986236780653,2.187827209369006],[102.26004192243545,2.188574562856097],[102.26026037299269,2.189311501445604],[102.26051712072052,2.190036005256814],[102.2608114618912,2.19074608849447],[102.26114258973607,2.19143980489153],[102.26150959665672,2.192115253043539],[102.2619114767127,2.192770581619895],[102.2623471283787,2.19340399443804],[102.26281535756378,2.194013755386298],[102.2633148808843,2.194598193182125],[102.26384432918158,2.195155705952717],[102.2644022512746,2.195684765625208],[102.26498711793771,2.19618392211472],[102.26559732609199,2.196651807298597],[102.26623120319938,2.197087138765996],[102.26688701184678,2.197488723332566],[102.2675629545082,2.197855460310555],[102.26825717847184,2.198186344525399],[102.26896778091808,2.198480469070581],[102.26969281413498,2.198737027793095],[102.27043029085691,2.198955317502859],[102.27117818971143,2.199134739899854],[102.27193446075975,2.199274803213878],[102.27269703111554,2.199375123552209],[102.27346381062641,2.199435425951837],[102.27423269760304,2.199455545132924],[102.27500158457968,2.199435425951837],[102.27576836409055,2.199375123552209],[102.27653093444633,2.199274803213878],[102.27728720549464,2.199134739899854],[102.27803510434917,2.198955317502859],[102.2787725810711,2.198737027793095],[102.279497614288,2.198480469070581],[102.28020821673425,2.198186344525399],[102.28090244069789,2.197855460310555],[102.28157838335932,2.197488723332566],[102.2822341920067,2.197087138765996],[102.28286806911407,2.196651807298597],[102.28347827726837,2.19618392211472],[102.28406314393149,2.195684765625208],[102.2846210660245,2.195155705952717],[102.28515051432178,2.194598193182125],[102.28565003764231,2.194013755386298],[102.28611826682737,2.19340399443804],[102.28655391849338,2.192770581619895],[102.28695579854936,2.192115253043539],[102.28732280547001,2.19143980489153],[102.28765393331489,2.19074608849447],[102.28794827448557,2.190036005256814],[102.28820502221339,2.189311501445604],[102.28842347277063,2.188574562856097],[102.28860302739955,2.187827209369006],[102.28874319395335,2.187071489414416],[102.28884358824527,2.18630947435724],[102.28890393510153,2.185543252819926],[102.28892406911561,2.184774924957756]]],"bbox":[102.03716976666378,2.1517651349124,102.49986293735101,2.45995853325186]}
