{"type":"Topology","objects":{"MLK_SE-04":{"type":"GeometryCollection","geometries":[{"type":"Polygon","arcs":[[0]],"properties":{"state":"Melaka","parlimen":"P.095 Alor Gajah","code_parlimen":"P.095","dun":"N.01 Taboh Naning","code_dun":"N.01","voters_total":8346}},{"type":"Polygon","arcs":[[1]],"properties":{"state":"Melaka","parlimen":"P.095 Alor Gajah","code_parlimen":"P.095","dun":"N.02 Sungai Bahru","code_dun":"N.02","voters_total":7500}},{"type":"Polygon","arcs":[[2]],"properties":{"state":"Melaka","parlimen":"P.095 Alor Gajah","code_parlimen":"P.095","dun":"N.03 Machap","code_dun":"N.03","voters_total":5785}},{"type":"Polygon","arcs":[[3]],"properties":{"state":"Melaka","parlimen":"P.095 Alor Gajah","code_parlimen":"P.095","dun":"N.04 Kelemak","code_dun":"N.04","voters_total":6489}},{"type":"Polygon","arcs":[[4]],"properties":{"state":"Melaka","parlimen":"P.095 Alor Gajah","code_parlimen":"P.095","dun":"N.05 Masjid Tanah","code_dun":"N.05","voters_total":7568}},{"type":"Polygon","arcs":[[5]],"properties":{"state":"Melaka","parlimen":"P.096 Jasin","code_parlimen":"P.096","dun":"N.06 Batang Melaka","code_dun":"N.06","voters_total":7099}},{"type":"Polygon","arcs":[[6]],"properties":{"state":"Melaka","parlimen":"P.096 Jasin","code_parlimen":"P.096","dun":"N.07 Nyalas","code_dun":"N.07","voters_total":6278}},{"type":"Polygon","arcs":[[7]],"properties":{"state":"Melaka","parlimen":"P.096 Jasin","code_parlimen":"P.096","dun":"N.08 Ayer Panas","code_dun":"N.08","voters_total":7276}},{"type":"Polygon","arcs":[[8]],"properties":{"state":"Melaka","parlimen":"P.096 Jasin","code_parlimen":"P.096","dun":"N.09 Serkam","code_dun":"N.09","voters_total":6785}},{"type":"Polygon","arcs":[[9]],"properties":{"state":"Melaka","parlimen":"P.096 Jasin","code_parlimen":"P.096","dun":"N.10 Sungei Rambai","code_dun":"N.10","voters_total":6289}},{"type":"Polygon","arcs":[[10]],"properties":{"state":"Melaka","parlimen":"P.097 Batu Berendam","code_parlimen":"P.097","dun":"N.11 Tanjong Minyak","code_dun":"N.11","voters_total":9137}},{"type":"Polygon","arcs":[[11]],"properties":{"state":"Melaka","parlimen":"P.097 Batu Berendam","code_parlimen":"P.097","dun":"N.12 Ayer Keroh","code_dun":"N.12","voters_total":7509}},{"type":"Polygon","arcs":[[12]],"properties":{"state":"Melaka","parlimen":"P.097 Batu Berendam","code_parlimen":"P.097","dun":"N.13 Ayer Molek","code_dun":"N.13","voters_total":6896}},{"type":"Polygon","arcs":[[13]],"properties":{"state":"Melaka","parlimen":"P.097 Batu Berendam","code_parlimen":"P.097","dun":"N.14 Sungai Udang","code_dun":"N.14","voters_total":7144}},{"type":"Polygon","arcs":[[14]],"properties":{"state":"Melaka","parlimen":"P.097 Batu Berendam","code_parlimen":"P.097","dun":"N.15 Bukit Rambai","code_dun":"N.15","voters_total":7228}},{"type":"Polygon","arcs":[[15]],"properties":{"state":"Melaka","parlimen":"P.098 Kota Melaka","code_parlimen":"P.098","dun":"N.16 Pringgit","code_dun":"N.16","voters_total":9181}},{"type":"Polygon","arcs":[[16]],"properties":{"state":"Melaka","parlimen":"P.098 Kota Melaka","code_parlimen":"P.098","dun":"N.17 Tranquerah","code_dun":"N.17","voters_total":8761}},{"type":"Polygon","arcs":[[17]],"properties":{"state":"Melaka","parlimen":"P.098 Kota Melaka","code_parlimen":"P.098","dun":"N.18 Kubu","code_dun":"N.18","voters_total":9726}},{"type":"Polygon","arcs":[[18]],"properties":{"state":"Melaka","parlimen":"P.098 Kota Melaka","code_parlimen":"P.098","dun":"N.19 Durian Daun","code_dun":"N.19","voters_total":8751}},{"type":"Polygon","arcs":[[19]],"properties":{"state":"Melaka","parlimen":"P.098 Kota Melaka","code_parlimen":"P.098","dun":"N.20 Bandar Hilir","code_dun":"N.20","voters_total":7951}}]}},"arcs":[[[102.18240099434746,2.446128853362612],[102.18237991504844,2.445324600678498],[102.18231673492829,2.444522551914943],[102.1822116271593,2.443724905437972],[102.18206487983458,2.442933847551052],[102.18187689517836,2.442151546502568],[102.18164818844349,2.441380146542631],[102.18137938649924,2.440621762045623],[102.18107122611308,2.439878471714632],[102.18072455193116,2.439152312883626],[102.18034031416335,2.438445275932937],[102.17991956597864,2.43775929883345],[102.17946346061859,2.437096261834425],[102.17897324823626,2.436457982309503],[102.17845027246975,2.435846209774986],[102.17789596675925,2.435262621094183],[102.17731185041818,2.434708815880776],[102.17669952446887,2.434186312114053],[102.17606066725415,2.433696541977775],[102.17539702983724,2.433240847934251],[102.17471043120217,2.432820479044352],[102.17400275326813,2.432436587543577],[102.17327593573104,2.432090225683416],[102.17253197074734,2.431782342846912],[102.17177289747332,2.431513782946146],[102.17100079647602,2.43128528210882],[102.17021778403064,2.431097466660347],[102.1694260063199,2.430950851406898],[102.16862763355138,2.430845838224178],[102.16782485400941,2.430782714955731],[102.16701986805691,2.430761654623961],[102.1662148821044,2.430782714955731],[102.16541210256243,2.430845838224178],[102.16461372979391,2.430950851406898],[102.16382195208315,2.431097466660347],[102.16303893963779,2.43128528210882],[102.1622668386405,2.431513782946146],[102.16150776536647,2.431782342846912],[102.16076380038275,2.432090225683416],[102.1600369828457,2.432436587543577],[102.15932930491164,2.432820479044352],[102.15864270627657,2.433240847934251],[102.15797906885966,2.433696541977775],[102.15734021164495,2.434186312114053],[102.15672788569562,2.434708815880776],[102.15614376935456,2.435262621094183],[102.15558946364406,2.435846209774986],[102.15506648787755,2.436457982309503],[102.1545762754952,2.437096261834425],[102.15412017013517,2.43775929883345],[102.15369942195046,2.438445275932937],[102.15331518418265,2.439152312883626],[102.15296851000073,2.439878471714632],[102.15266034961456,2.440621762045623],[102.1523915476703,2.441380146542631],[102.15216284093543,2.442151546502568],[102.15197485627921,2.442933847551052],[102.1518281089545,2.443724905437972],[102.1517230011855,2.444522551914943],[102.15165982106537,2.445324600678498],[102.15163874176635,2.446128853362612],[102.15165982106537,2.446933105564491],[102.1517230011855,2.447735152886529],[102.1518281089545,2.448532796978555],[102.15197485627921,2.44932385156322],[102.15216284093543,2.450106148428294],[102.1523915476703,2.450877543369531],[102.15266034961456,2.451635922067524],[102.15296851000073,2.452379205882717],[102.15331518418265,2.453105357552525],[102.15369942195046,2.453812386775102],[102.15412017013517,2.454498355664191],[102.1545762754952,2.455161384060528],[102.15506648787755,2.455799654684693],[102.15558946364406,2.456411418117939],[102.15614376935456,2.456994997596646],[102.15672788569562,2.457548793607944],[102.15734021164495,2.458071288273383],[102.15797906885966,2.458561049508918],[102.15864270627657,2.459016734949754],[102.15932930491164,2.459437095629267],[102.1600369828457,2.459820979401918],[102.16076380038275,2.460167334100894],[102.16150776536647,2.460475210421587],[102.1622668386405,2.460743764523337],[102.16303893963779,2.460972260341963],[102.16382195208315,2.461160071607027],[102.16461372979391,2.46130668355822],[102.16541210256243,2.461411694355995],[102.1662148821044,2.461474816182939],[102.16701986805691,2.461495876032448],[102.16782485400941,2.461474816182939],[102.16862763355138,2.461411694355995],[102.1694260063199,2.46130668355822],[102.17021778403064,2.461160071607027],[102.17100079647602,2.460972260341963],[102.17177289747332,2.460743764523337],[102.17253197074734,2.460475210421587],[102.17327593573104,2.460167334100894],[102.17400275326813,2.459820979401918],[102.17471043120217,2.459437095629267],[102.17539702983724,2.459016734949754],[102.17606066725415,2.458561049508918],[102.17669952446887,2.458071288273383],[102.17731185041818,2.457548793607944],[102.17789596675925,2.456994997596646],[102.17845027246975,2.456411418117939],[102.17897324823626,2.455799654684693],[102.17946346061859,2.455161384060528],[102.17991956597864,2.454498355664191],[102.18034031416335,2.453812386775102],[102.18072455193116,2.453105357552525],[102.18107122611308,2.452379205882717],[102.18137938649924,2.451635922067524],[102.18164818844349,2.450877543369531],[102.18187689517836,2.450106148428294],[102.18206487983458,2.44932385156322],[102.1822116271593,2.448532796978555],[102.18231673492829,2.447735152886529],[102.18237991504844,2.446933105564491],[102.18240099434746,2.446128853362612]],[[102.06457136049222,2.392277148411513],[102.06455137809418,2.391514716270225],[102.06449148567037,2.390754373480458],[102.0643918473818,2.389998204094269],[102.06425273633006,2.389248280728142],[102.06407453380888,2.388506658881926],[102.06385772825902,2.387775371304757],[102.06360291392939,2.38705642242325],[102.06331078924836,2.38635178284733],[102.06298215490938,2.385663383968665],[102.06261791167631,2.384993112666635],[102.06221905791456,2.384342806136161],[102.06178668685455,2.383714246851903],[102.06132198359532,2.383109157682189],[102.06082622185619,2.382529197166457],[102.06030076048562,2.38197595496895],[102.0597470397367,2.381450947521195],[102.05916657731956,2.380955613865261],[102.05856096424128,2.380491311709001],[102.05793186044524,2.380059313704351],[102.05728099026122,2.379660803958764],[102.05661013767912,2.379296874789219],[102.05592114145928,2.37896852372808],[102.05521589009244,2.378676650788495],[102.05449631662354,2.378422055997278],[102.05376439335348,2.378205437201915],[102.05302212643304,2.37802738815744],[102.05227155036428,2.377888396898963],[102.05151472242402,2.377788844403693],[102.05075371702502,2.377729003546656],[102.0499906200302,2.377709038352672],[102.0492275230354,2.377729003546656],[102.0484665176364,2.377788844403693],[102.04770968969613,2.377888396898963],[102.04695911362737,2.37802738815744],[102.04621684670694,2.378205437201915],[102.04548492343686,2.378422055997278],[102.04476534996797,2.378676650788495],[102.04406009860112,2.37896852372808],[102.04337110238127,2.379296874789219],[102.0427002497992,2.379660803958764],[102.04204937961516,2.380059313704351],[102.04142027581912,2.380491311709001],[102.04081466274084,2.380955613865261],[102.04023420032368,2.381450947521195],[102.03968047957478,2.38197595496895],[102.0391550182042,2.382529197166457],[102.03865925646508,2.383109157682189],[102.03819455320586,2.383714246851903],[102.03776218214584,2.384342806136161],[102.0373633283841,2.384993112666635],[102.03699908515104,2.385663383968665],[102.03667045081204,2.38635178284733],[102.03637832613101,2.38705642242325],[102.03612351180138,2.387775371304757],[102.03590670625151,2.388506658881926],[102.03572850373035,2.389248280728142],[102.03558939267862,2.389998204094269],[102.03548975439003,2.390754373480458],[102.03542986196622,2.391514716270225],[102.03540987956818,2.392277148411513],[102.03542986196622,2.393039580128935],[102.03548975439003,2.393799921651785],[102.03558939267862,2.394556088941836],[102.03572850373035,2.395306009405605],[102.03590670625151,2.396047627575049],[102.03612351180138,2.396778910741298],[102.03637832613101,2.397497854526068],[102.03667045081204,2.398202488375258],[102.03699908515104,2.398890880959975],[102.0373633283841,2.399561145469791],[102.03776218214584,2.400211444784171],[102.03819455320586,2.400839996507539],[102.03865925646508,2.401445077854424],[102.0391550182042,2.402025030371074],[102.03968047957478,2.402578264480876],[102.04023420032368,2.403103263840924],[102.04081466274084,2.403598589497764],[102.04142027581912,2.404062883831195],[102.04204937961516,2.404494874274954],[102.0427002497992,2.404893376804473],[102.04337110238127,2.405257299181778],[102.04406009860112,2.405585643948969],[102.04476534996797,2.405877511161851],[102.04548492343686,2.406132100856318],[102.04621684670694,2.40634871524076],[102.04695911362737,2.406526760608451],[102.04770968969613,2.406665748964583],[102.0484665176364,2.406765299363727],[102.0492275230354,2.406825138953834],[102.0499906200302,2.406845103723965],[102.05075371702502,2.406825138953834],[102.05151472242402,2.406765299363727],[102.05227155036428,2.406665748964583],[102.05302212643304,2.406526760608451],[102.05376439335348,2.40634871524076],[102.05449631662354,2.406132100856318],[102.05521589009244,2.405877511161851],[102.05592114145928,2.405585643948969],[102.05661013767912,2.405257299181778],[102.05728099026122,2.404893376804473],[102.05793186044524,2.404494874274954],[102.05856096424128,2.404062883831195],[102.05916657731956,2.403598589497764],[102.0597470397367,2.403103263840924],[102.06030076048562,2.402578264480876],[102.06082622185619,2.402025030371074],[102.06132198359532,2.401445077854424],[102.06178668685455,2.400839996507539],[102.06221905791456,2.400211444784171],[102.06261791167631,2.399561145469791],[102.06298215490938,2.398890880959975],[102.06331078924836,2.398202488375258],[102.06360291392939,2.397497854526068],[102.06385772825902,2.396778910741298],[102.06407453380888,2.396047627575049],[102.06425273633006,2.395306009405605],[102.0643918473818,2.394556088941836],[102.06449148567037,2.393799921651785],[102.06455137809418,2.393039580128935],[102.06457136049222,2.392277148411513]],[[102.30843712383268,2.399221820710039],[102.30841957417474,2.398552213641601],[102.30836697330332,2.397884441593156],[102.30827946539377,2.397220334885567],[102.30815729029916,2.396561713795914],[102.30800078289293,2.395910383568141],[102.30781037215102,2.395268129464842],[102.30758657997605,2.39463671187399],[102.3073300197668,2.394017861483511],[102.30704139473696,2.393413274537593],[102.30672149598766,2.392824608187002],[102.30637120033921,2.392253475946911],[102.30599146792754,2.391701443273982],[102.30558333957285,2.391170023275438],[102.30514793392659,2.390660672561358],[102.30468644440535,2.390174787252019],[102.30420013591984,2.389713699150931],[102.30369034140783,2.389278672094128],[102.30315845818065,2.388870898485911],[102.30260594409322,2.388491496030152],[102.30203431354823,2.388141504666531],[102.30144513334534,2.387821883719918],[102.3008400183865,2.387533509270588],[102.30022062724973,2.387277171752765],[102.29958865764311,2.387053573787896],[102.29894584175138,2.386863328258552],[102.29829394148825,2.386706956628479],[102.297634743667,2.386584887513068],[102.29697005510306,2.386497455504444],[102.29630169766155,2.386444900254287],[102.29563150326379,2.386427365816902],[102.29496130886605,2.386444900254287],[102.29429295142455,2.386497455504444],[102.2936282628606,2.386584887513068],[102.29296906503936,2.386706956628479],[102.29231716477624,2.386863328258552],[102.2916743488845,2.387053573787896],[102.29104237927787,2.387277171752765],[102.29042298814112,2.387533509270588],[102.28981787318227,2.387821883719918],[102.28922869297936,2.388141504666531],[102.2886570624344,2.388491496030152],[102.28810454834696,2.388870898485911],[102.28757266511977,2.389278672094128],[102.28706287060774,2.389713699150931],[102.28657656212225,2.390174787252019],[102.286115072601,2.390660672561358],[102.28567966695476,2.391170023275438],[102.28527153860006,2.391701443273982],[102.2848918061884,2.392253475946911],[102.28454151053992,2.392824608187002],[102.28422161179064,2.393413274537593],[102.28393298676082,2.394017861483511],[102.28367642655157,2.39463671187399],[102.28345263437657,2.395268129464842],[102.28326222363465,2.395910383568141],[102.28310571622845,2.396561713795914],[102.28298354113383,2.397220334885567],[102.28289603322428,2.397884441593156],[102.28284343235286,2.398552213641601],[102.28282588269492,2.399221820710039],[102.28284343235286,2.3998914274506],[102.28289603322428,2.40055919851899],[102.28298354113383,2.401223303605081],[102.28310571622845,2.401881922449568],[102.28326222363465,2.402533249833111],[102.28345263437657,2.40317550052426],[102.28367642655157,2.403806914172445],[102.28393298676082,2.404425760132907],[102.28422161179064,2.405030342210045],[102.28454151053992,2.405619003306386],[102.2848918061884,2.406190129964361],[102.28527153860006,2.406742156788428],[102.28567966695476,2.407273570735483],[102.286115072601,2.407782915261731],[102.28657656212225,2.408268794314689],[102.28706287060774,2.408729876159398],[102.28757266511977,2.409164897028368],[102.28810454834696,2.409572664585096],[102.2886570624344,2.409952061192006],[102.28922869297936,2.410302046973499],[102.28981787318227,2.410621662665861],[102.29042298814112,2.410910032246397],[102.29104237927787,2.41116636533423],[102.2916743488845,2.411389959356432],[102.29231716477624,2.411580201473614],[102.29296906503936,2.411736570259457],[102.2936282628606,2.411858637129702],[102.29429295142455,2.41194606751684],[102.29496130886605,2.411998621786942],[102.29563150326379,2.41201615589645],[102.29630169766155,2.411998621786942],[102.29697005510306,2.41194606751684],[102.297634743667,2.411858637129702],[102.29829394148825,2.411736570259457],[102.29894584175138,2.411580201473614],[102.29958865764311,2.411389959356432],[102.30022062724973,2.41116636533423],[102.3008400183865,2.410910032246397],[102.30144513334534,2.410621662665861],[102.30203431354823,2.410302046973499],[102.30260594409322,2.409952061192006],[102.30315845818065,2.409572664585096],[102.30369034140783,2.409164897028368],[102.30420013591984,2.408729876159398],[102.30468644440535,2.408268794314689],[102.30514793392659,2.407782915261731],[102.30558333957285,2.407273570735483],[102.30599146792754,2.406742156788428],[102.30637120033921,2.406190129964361],[102.30672149598766,2.405619003306386],[102.30704139473696,2.405030342210045],[102.3073300197668,2.404425760132907],[102.30758657997605,2.403806914172445],[102.30781037215102,2.40317550052426],[102.30800078289293,2.402533249833111],[102.30815729029916,2.401881922449568],[102.30827946539377,2.401223303605081],[102.30836697330332,2.40055919851899],[102.30841957417474,2.3998914274506],[102.30843712383268,2.399221820710039]],[[102.20820520212956,2.377227606629071],[102.20818661527669,2.376518414032613],[102.20813090566332,2.375811164920939],[102.20803822598565,2.375107797819301],[102.20790883027222,2.374410240615539],[102.20774307318767,2.373720405275776],[102.20754140906068,2.37304018260384],[102.20730439063861,2.372371437058394],[102.20703266757245,2.371716001642588],[102.20672698463625,2.37107567287958],[102.2063881796857,2.370452205888283],[102.20601718136159,2.369847309572342],[102.20561500654458,2.369262641936008],[102.20518275756784,2.368699805539314],[102.2047216191958,2.368160343105282],[102.20423285537669,2.367645733291137],[102.20371780577817,2.367157386635095],[102.20317788211536,2.366696641689891],[102.20261456428149,2.36626476135355],[102.20202939629162,2.365862929407572],[102.20142398205051,2.365492247271999],[102.20079998095652,2.365153730986157],[102.20015910335327,2.364848308423543],[102.19950310584173,2.364576816748309],[102.19883378646551,2.364340000120369],[102.19815297978242,2.364138507655566],[102.19746255183634,2.363972891646227],[102.19676439504221,2.363843606047225],[102.19606042299934,2.363751005231596],[102.19535256524611,2.363695343019131],[102.19464276197145,2.363676771980491],[102.19393295869678,2.363695343019131],[102.19322510094355,2.363751005231596],[102.19252112890068,2.363843606047225],[102.19182297210656,2.363972891646227],[102.19113254416047,2.364138507655566],[102.1904517374774,2.364340000120369],[102.18978241810116,2.364576816748309],[102.18912642058962,2.364848308423543],[102.18848554298637,2.365153730986157],[102.18786154189237,2.365492247271999],[102.18725612765128,2.365862929407572],[102.1866709596614,2.36626476135355],[102.18610764182755,2.366696641689891],[102.18556771816473,2.367157386635095],[102.18505266856621,2.367645733291137],[102.1845639047471,2.368160343105282],[102.18410276637506,2.368699805539314],[102.18367051739833,2.369262641936008],[102.18326834258131,2.369847309572342],[102.1828973442572,2.370452205888283],[102.18255853930665,2.37107567287958],[102.18225285637044,2.371716001642588],[102.18198113330429,2.372371437058394],[102.1817441148822,2.37304018260384],[102.18154245075522,2.373720405275776],[102.18137669367069,2.374410240615539],[102.18124729795726,2.375107797819301],[102.18115461827958,2.375811164920939],[102.1810989086662,2.376518414032613],[102.18108032181333,2.377227606629071],[102.1810989086662,2.377936798861114],[102.18115461827958,2.378644046883513],[102.18124729795726,2.379347412182971],[102.18137669367069,2.380044966891397],[102.18154245075522,2.380734799069957],[102.1817441148822,2.381415017949526],[102.18198113330429,2.382083759112944],[102.18225285637044,2.382739189605099],[102.18255853930665,2.383379512956749],[102.1828973442572,2.384002974108306],[102.18326834258131,2.384607864220079],[102.18367051739833,2.385192525355791],[102.18410276637506,2.385755355026655],[102.1845639047471,2.386294810583311],[102.18505266856621,2.386809413443898],[102.18556771816473,2.387297753146369],[102.18610764182755,2.387758491214197],[102.1866709596614,2.388190364824695],[102.18725612765128,2.388592190270065],[102.18786154189237,2.388962866201469],[102.18848554298637,2.389301376647558],[102.18912642058962,2.389606793798815],[102.18978241810116,2.389878280550398],[102.1904517374774,2.390115092796322],[102.19113254416047,2.390316581468746],[102.19182297210656,2.390482194316906],[102.19252112890068,2.39061147742056],[102.19322510094355,2.390704076433985],[102.19393295869678,2.390759737557199],[102.19464276197145,2.39077830823141],[102.19535256524611,2.390759737557199],[102.19606042299934,2.390704076433985],[102.19676439504221,2.39061147742056],[102.19746255183634,2.390482194316906],[102.19815297978242,2.390316581468746],[102.19883378646551,2.390115092796322],[102.19950310584173,2.389878280550398],[102.20015910335327,2.389606793798815],[102.20079998095652,2.389301376647558],[102.20142398205051,2.388962866201469],[102.20202939629162,2.388592190270065],[102.20261456428149,2.388190364824695],[102.20317788211536,2.387758491214197],[102.20371780577817,2.387297753146369],[102.20423285537669,2.386809413443898],[102.2047216191958,2.386294810583311],[102.20518275756784,2.385755355026655],[102.20561500654458,2.385192525355791],[102.20601718136159,2.384607864220079],[102.2063881796857,2.384002974108306],[102.20672698463625,2.383379512956749],[102.20703266757245,2.382739189605099],[102.20730439063861,2.382083759112944],[102.20754140906068,2.381415017949526],[102.20774307318767,2.380734799069957],[102.20790883027222,2.380044966891397],[102.20803822598565,2.379347412182971],[102.20813090566332,2.378644046883513],[102.20818661527669,2.377936798861114],[102.20820520212956,2.377227606629071]],[[102.12592948535826,2.3348113784678],[102.12590941257774,2.334045466064524],[102.12584924925426,2.333281652558314],[102.12574916029133,2.33252203151415],[102.12560942002584,2.331768685009129],[102.12543041147612,2.331023677925492],[102.12521262529218,2.330289052290869],[102.1249566584108,2.329566821680981],[102.12466321241942,2.328858965700427],[102.1243330916331,2.328167424556468],[102.12396720089,2.327494093740803],[102.12356654307116,2.326840818833885],[102.12313221635182,2.326209390446004],[102.12266541119139,2.325601539309043],[102.12216740707031,2.325018931532295],[102.12163956898327,2.324463164035488],[102.12108334369778,2.32393576017133],[102.12050025578867,2.323438165549756],[102.1198919034594,2.322971744075298],[102.1192599541614,2.322537774208294],[102.11860614002377,2.322137445460471],[102.11793225310562,2.321771855134123],[102.11724014048416,2.321442005314298],[102.11653169919195,2.32114880012174],[102.11580887101736,2.320893043234529],[102.11507363718215,2.320675435685032],[102.11432801291117,2.320496573938176],[102.1135740419087,2.320356948256327],[102.11281379075689,2.320256941355464],[102.11204934325124,2.320196827355967],[102.1112827946893,2.320176771031241],[102.11051624612735,2.320196827355967],[102.1097517986217,2.320256941355464],[102.1089915474699,2.320356948256327],[102.10823757646743,2.320496573938176],[102.10749195219644,2.320675435685032],[102.10675671836123,2.320893043234529],[102.10603389018664,2.32114880012174],[102.10532544889443,2.321442005314298],[102.10463333627297,2.321771855134123],[102.10395944935482,2.322137445460471],[102.1033056352172,2.322537774208294],[102.10267368591919,2.322971744075298],[102.10206533358993,2.323438165549756],[102.10148224568081,2.32393576017133],[102.10092602039532,2.324463164035488],[102.10039818230828,2.325018931532295],[102.0999001781872,2.325601539309043],[102.09943337302676,2.326209390446004],[102.09899904630744,2.326840818833885],[102.0985983884886,2.327494093740803],[102.09823249774549,2.328167424556468],[102.09790237695917,2.328858965700427],[102.0976089309678,2.329566821680981],[102.09735296408641,2.330289052290869],[102.09713517790247,2.331023677925492],[102.09695616935277,2.331768685009129],[102.09681642908726,2.33252203151415],[102.09671634012432,2.333281652558314],[102.09665617680085,2.334045466064524],[102.09663610402033,2.3348113784678],[102.09665617680085,2.335577290453609],[102.09671634012432,2.336341102712049],[102.09681642908726,2.337100721691765],[102.09695616935277,2.337854065338321],[102.09713517790247,2.338599068800768],[102.09735296408641,2.339333690091148],[102.0976089309678,2.340055915681345],[102.09790237695917,2.340763766021757],[102.09823249774549,2.341455300966917],[102.0985983884886,2.342128625093049],[102.09899904630744,2.342781892892979],[102.09943337302676,2.343413313834291],[102.0999001781872,2.34402115726669],[102.10039818230828,2.344603757165267],[102.10092602039532,2.345159516696641],[102.10148224568081,2.345686912595381],[102.10206533358993,2.346184499338784],[102.10267368591919,2.346650913108679],[102.1033056352172,2.347084875529101],[102.10395944935482,2.347485197169936],[102.10463333627297,2.347850780806739],[102.10532544889443,2.348180624427765],[102.10603389018664,2.348473823980194],[102.10675671836123,2.348729575847714],[102.10749195219644,2.348947179052967],[102.10823757646743,2.349126037178647],[102.1089915474699,2.349265660002017],[102.1097517986217,2.349365664838446],[102.11051624612735,2.349425777590161],[102.1112827946893,2.349445833497432],[102.11204934325124,2.349425777590161],[102.11281379075689,2.349365664838446],[102.1135740419087,2.349265660002017],[102.11432801291117,2.349126037178647],[102.11507363718215,2.348947179052967],[102.11580887101736,2.348729575847714],[102.11653169919195,2.348473823980194],[102.11724014048416,2.348180624427765],[102.11793225310562,2.347850780806739],[102.11860614002377,2.347485197169936],[102.1192599541614,2.347084875529101],[102.1198919034594,2.346650913108679],[102.12050025578867,2.346184499338784],[102.12108334369778,2.345686912595381],[102.12163956898327,2.345159516696641],[102.12216740707031,2.344603757165267],[102.12266541119139,2.34402115726669],[102.12313221635182,2.343413313834291],[102.12356654307116,2.342781892892979],[102.12396720089,2.342128625093049],[102.1243330916331,2.341455300966917],[102.12466321241942,2.340763766021757],[102.1249566584108,2.340055915681345],[102.12521262529218,2.339333690091148],[102.12543041147612,2.338599068800768],[102.12560942002584,2.337854065338321],[102.12574916029133,2.337100721691765],[102.12584924925426,2.336341102712049],[102.12590941257774,2.335577290453609],[102.12592948535826,2.3348113784678]],[[102.40044253726424,2.407481281862681],[102.40042309640023,2.406739520308082],[102.40036482709425,2.405999791468396],[102.40026788905843,2.405264122894029],[102.40013254799318,2.404534531009703],[102.39995917485892,2.403813015587546],[102.39974824485944,2.403101554265647],[102.39950033613914,2.402402097127369],[102.39921612819859,2.401716561356128],[102.39889640003204,2.401046825980272],[102.39854202799214,2.400394726722569],[102.39815398338803,2.399762050968341],[102.397733329823,2.399150532866074],[102.39728122027921,2.398561848573949],[102.39679889395754,2.397997611665241],[102.39628767288087,2.397459368705325],[102.39574895827064,2.396948595012314],[102.39518422670618,2.396466690612959],[102.39459502607744,2.396014976404886],[102.39398297134237,2.395594690535849],[102.39334974010048,2.395206985009685],[102.39269706799456,2.394852922528362],[102.39202674395352,2.394533473579009],[102.39134060528893,2.394249513773494],[102.39064053265922,2.394001821448191],[102.38992844491476,2.393791075530395],[102.38920629383858,2.393617853677179],[102.3884760587966,2.393482630691901],[102.38773974131229,2.393385777222648],[102.38699935958068,2.393327558746225],[102.38625694293668,2.393308134840346],[102.38551452629268,2.393327558746225],[102.38477414456109,2.393385777222648],[102.38403782707677,2.393482630691901],[102.38330759203478,2.393617853677179],[102.38258544095861,2.393791075530395],[102.38187335321416,2.394001821448191],[102.38117328058443,2.394249513773494],[102.38048714191984,2.394533473579009],[102.37981681787882,2.394852922528362],[102.3791641457729,2.395206985009685],[102.378530914531,2.395594690535849],[102.37791885979593,2.396014976404886],[102.37732965916719,2.396466690612959],[102.37676492760272,2.396948595012314],[102.37622621299249,2.397459368705325],[102.37571499191583,2.397997611665241],[102.37523266559415,2.398561848573949],[102.37478055605038,2.399150532866074],[102.37435990248535,2.399762050968341],[102.37397185788123,2.400394726722569],[102.37361748584132,2.401046825980272],[102.37329775767478,2.401716561356128],[102.37301354973424,2.402402097127369],[102.37276564101393,2.403101554265647],[102.37255471101444,2.403813015587546],[102.37238133788019,2.404534531009703],[102.37224599681495,2.405264122894029],[102.37214905877912,2.405999791468396],[102.37209078947313,2.406739520308082],[102.37207134860913,2.407481281862681],[102.37209078947313,2.408223043013528],[102.37214905877912,2.408962770646423],[102.37224599681495,2.409698437224165],[102.37238133788019,2.410428026343888],[102.37255471101444,2.411149538263796],[102.37276564101393,2.411860995384132],[102.37301354973424,2.412560447667586],[102.37329775767478,2.413245977983934],[102.37361748584132,2.413915707364584],[102.37397185788123,2.414567800152454],[102.37435990248535,2.415200469033108],[102.37478055605038,2.415811979933366],[102.37523266559415,2.416400656773973],[102.37571499191583,2.416964886063268],[102.37622621299249,2.417503121319372],[102.37676492760272,2.418013887308557],[102.37732965916719,2.4184957840885],[102.37791885979593,2.418947490845041],[102.378530914531,2.419367769512069],[102.3791641457729,2.419755468164673],[102.37981681787882,2.420109524176162],[102.38048714191984,2.420428967130309],[102.38117328058443,2.420712921480931],[102.38187335321416,2.420960608951398],[102.38258544095861,2.421171350667643],[102.38330759203478,2.42134456901861],[102.38403782707677,2.421479789239287],[102.38477414456109,2.421576640711914],[102.38551452629268,2.421634857981533],[102.38625694293668,2.421654281483685],[102.38699935958068,2.421634857981533],[102.38773974131229,2.421576640711914],[102.3884760587966,2.421479789239287],[102.38920629383858,2.42134456901861],[102.38992844491476,2.421171350667643],[102.39064053265922,2.420960608951398],[102.39134060528893,2.420712921480931],[102.39202674395352,2.420428967130309],[102.39269706799456,2.420109524176162],[102.39334974010048,2.419755468164673],[102.39398297134237,2.419367769512069],[102.39459502607744,2.418947490845041],[102.39518422670618,2.4184957840885],[102.39574895827064,2.418013887308557],[102.39628767288087,2.417503121319372],[102.39679889395754,2.416964886063268],[102.39728122027921,2.416400656773973],[102.397733329823,2.415811979933366],[102.39815398338803,2.415200469033108],[102.39854202799214,2.414567800152454],[102.39889640003204,2.413915707364584],[102.39921612819859,2.413245977983934],[102.39950033613914,2.412560447667586],[102.39974824485944,2.411860995384132],[102.39995917485892,2.411149538263796],[102.40013254799318,2.410428026343888],[102.40026788905843,2.409698437224165],[102.40036482709425,2.408962770646423],[102.40042309640023,2.408223043013528],[102.40044253726424,2.407481281862681]],[[102.50076369308323,2.378133302238635],[102.50074541091799,2.377435735643675],[102.50069061453242,2.37674008067911],[102.50059945411957,2.376048244091263],[102.50047217954383,2.375362122163425],[102.50030913965593,2.374683595518088],[102.50011078133691,2.374014523962275],[102.49987764827311,2.373356741389757],[102.49961037946608,2.372712050754328],[102.49930970748099,2.372082219127807],[102.49897645643891,2.371468972856459],[102.49861153975773,2.370873992828893],[102.49821595764877,2.37029890986867],[102.49779079437504,2.369745300264032],[102.49733721527953,2.369214681447137],[102.49685646359103,2.368708507834559],[102.4963498570165,2.368228166840546],[102.49581878412933,2.367774975073966],[102.4952647005634,2.367350174729189],[102.49468912502324,2.366954930181075],[102.49409363512143,2.366590324793214],[102.49347986305436,2.366257357948187],[102.49284949112864,2.365956942308082],[102.49220424714987,2.365689901312705],[102.49154589968695,2.365456966922339],[102.49087625322451,2.36525877761129],[102.490197143217,2.365095876617675],[102.4895104310577,2.364968710454322],[102.48881799897693,2.36487762768467],[102.48812174488286,2.364822877967415],[102.4874235771596,2.364804611372029],[102.48672540943636,2.364822877967415],[102.48602915534231,2.36487762768467],[102.48533672326154,2.364968710454322],[102.48465001110222,2.365095876617675],[102.48397090109471,2.36525877761129],[102.48330125463228,2.365456966922339],[102.48264290716936,2.365689901312705],[102.4819976631906,2.365956942308082],[102.48136729126486,2.366257357948187],[102.4807535191978,2.366590324793214],[102.48015802929599,2.366954930181075],[102.47958245375582,2.367350174729189],[102.47902837018991,2.367774975073966],[102.47849729730274,2.368228166840546],[102.4779906907282,2.368708507834559],[102.4775099390397,2.369214681447137],[102.47705635994419,2.369745300264032],[102.47663119667047,2.37029890986867],[102.47623561456147,2.370873992828893],[102.47587069788031,2.371468972856459],[102.47553744683823,2.372082219127807],[102.47523677485316,2.372712050754328],[102.47496950604611,2.373356741389757],[102.4747363729823,2.374014523962275],[102.47453801466331,2.374683595518088],[102.4743749747754,2.375362122163425],[102.47424770019965,2.376048244091263],[102.47415653978682,2.37674008067911],[102.47410174340123,2.377435735643675],[102.47408346123599,2.378133302238635],[102.47410174340123,2.378830868480897],[102.47415653978682,2.379526522391209],[102.47424770019965,2.380218357234802],[102.4743749747754,2.380904476747518],[102.47453801466331,2.381583000333301],[102.4747363729823,2.382252068218652],[102.47496950604611,2.382909846550027],[102.47523677485316,2.383554532420095],[102.47553744683823,2.384184358809235],[102.47587069788031,2.384797599428572],[102.47623561456147,2.385392573451429],[102.47663119667047,2.385967650120019],[102.47705635994419,2.38652125321504],[102.4775099390397,2.387051865375658],[102.4779906907282,2.387558032258233],[102.47849729730274,2.38803836652223],[102.47902837018991,2.388491551632533],[102.47958245375582,2.388916345467694],[102.48015802929599,2.389311583724175],[102.4807535191978,2.389676183107327],[102.48136729126486,2.390009144300342],[102.4819976631906,2.390309554703079],[102.48264290716936,2.390576590933082],[102.48330125463228,2.390809521082305],[102.48397090109471,2.391007706722905],[102.48465001110222,2.391170604656955],[102.48533672326154,2.391297768405185],[102.48602915534231,2.391388849430582],[102.48672540943636,2.391443598093586],[102.4874235771596,2.391461864336273],[102.48812174488286,2.391443598093586],[102.48881799897693,2.391388849430582],[102.4895104310577,2.391297768405185],[102.490197143217,2.391170604656955],[102.49087625322451,2.391007706722905],[102.49154589968695,2.390809521082305],[102.49220424714987,2.390576590933082],[102.49284949112864,2.390309554703079],[102.49347986305436,2.390009144300342],[102.49409363512143,2.389676183107327],[102.49468912502324,2.389311583724175],[102.4952647005634,2.388916345467694],[102.49581878412933,2.388491551632533],[102.4963498570165,2.38803836652223],[102.49685646359103,2.387558032258233],[102.49733721527953,2.387051865375658],[102.49779079437504,2.38652125321504],[102.49821595764877,2.385967650120019],[102.49861153975773,2.385392573451429],[102.49897645643891,2.384797599428572],[102.49930970748099,2.384184358809235],[102.49961037946608,2.383554532420095],[102.49987764827311,2.382909846550027],[102.50011078133691,2.382252068218652],[102.50030913965593,2.381583000333301],[102.50047217954383,2.380904476747518],[102.50059945411957,2.380218357234802],[102.50069061453242,2.379526522391209],[102.50074541091799,2.378830868480897],[102.50076369308323,2.378133302238635]],[[102.41962225531076,2.270172807968053],[102.4196025735785,2.269421782645629],[102.41954358232799,2.268672815442875],[102.41944544325015,2.267927959231764],[102.41930842533736,2.26718925561944],[102.41913290414621,2.266458729352244],[102.41891936076807,2.265738382765893],[102.41866838051048,2.265030190297081],[102.41838065129294,2.264336093071497],[102.4180569617612,2.263657993583064],[102.41769819912572,2.262997750479209],[102.41730534673002,2.262357173466085],[102.4168794813552,2.261738018348011],[102.41642177026861,2.261141982214718],[102.41593346802453,2.260570698789353],[102.41541591302551,2.260025733950253],[102.4148705238538,2.259508581438677],[102.41429879538322,2.259020658764187],[102.41370229468174,2.258563303319072],[102.41308265671636,2.258137768712281],[102.41244157987164,2.257745221333059],[102.41178082129468,2.257386737153654],[102.41110219207877,2.257063298779858],[102.41040755229946,2.256775792757435],[102.4096988059161,2.256525007141935],[102.40897789555322,2.256311629338485],[102.40824679717606,2.25613624421739],[102.40750751467442,2.255999332510904],[102.40676207437029,2.255901269495395],[102.40601251946367,2.255842323962657],[102.40526090443252,2.255822657483061],[102.40450928940139,2.255842323962657],[102.40375973449477,2.255901269495395],[102.40301429419064,2.255999332510904],[102.402275011689,2.25613624421739],[102.40154391331184,2.256311629338485],[102.40082300294897,2.256525007141935],[102.4001142565656,2.256775792757435],[102.39941961678629,2.257063298779858],[102.39874098757038,2.257386737153654],[102.39808022899342,2.257745221333059],[102.3974391521487,2.258137768712281],[102.3968195141833,2.258563303319072],[102.39622301348184,2.259020658764187],[102.39565128501125,2.259508581438677],[102.39510589583955,2.260025733950253],[102.39458834084051,2.260570698789353],[102.39410003859646,2.261141982214718],[102.39364232750987,2.261738018348011],[102.39321646213504,2.262357173466085],[102.39282360973934,2.262997750479209],[102.39246484710387,2.263657993583064],[102.39214115757213,2.264336093071497],[102.39185342835458,2.265030190297081],[102.39160244809699,2.265738382765893],[102.39138890471885,2.266458729352244],[102.3912133835277,2.26718925561944],[102.39107636561492,2.267927959231764],[102.39097822653707,2.268672815442875],[102.39091923528656,2.269421782645629],[102.3908995535543,2.270172807968053],[102.39091923528656,2.270923832900235],[102.39097822653707,2.271672798936489],[102.39107636561492,2.272417653217653],[102.3912133835277,2.273156354157712],[102.39138890471885,2.273886877039616],[102.39160244809699,2.274607219564729],[102.39185342835458,2.275315407340849],[102.39214115757213,2.276009499293721],[102.39246484710387,2.276687592987159],[102.39282360973934,2.277347829837254],[102.39321646213504,2.277988400206378],[102.39364232750987,2.278607548362956],[102.39410003859646,2.279203577293589],[102.39458834084051,2.279774853353999],[102.39510589583955,2.280319810746568],[102.39565128501125,2.280836955811612],[102.39622301348184,2.281324871121146],[102.3968195141833,2.28178221936359],[102.3974391521487,2.282207747008911],[102.39808022899342,2.282600287744107],[102.39874098757038,2.282958765669752],[102.39941961678629,2.283282198248564],[102.4001142565656,2.283569698998277],[102.40082300294897,2.283820479921085],[102.40154391331184,2.284033853663297],[102.402275011689,2.284209235399099],[102.40301429419064,2.284346144433321],[102.40375973449477,2.284444205518882],[102.40450928940139,2.28450314988512],[102.40526090443252,2.284522815974462],[102.40601251946367,2.28450314988512],[102.40676207437029,2.284444205518882],[102.40750751467442,2.284346144433321],[102.40824679717606,2.284209235399099],[102.40897789555322,2.284033853663297],[102.4096988059161,2.283820479921085],[102.41040755229946,2.283569698998277],[102.41110219207877,2.283282198248564],[102.41178082129468,2.282958765669752],[102.41244157987164,2.282600287744107],[102.41308265671636,2.282207747008911],[102.41370229468174,2.28178221936359],[102.41429879538322,2.281324871121146],[102.4148705238538,2.280836955811612],[102.41541591302551,2.280319810746568],[102.41593346802453,2.279774853353999],[102.41642177026861,2.279203577293589],[102.4168794813552,2.278607548362956],[102.41730534673002,2.277988400206378],[102.41769819912572,2.277347829837254],[102.4180569617612,2.276687592987159],[102.41838065129294,2.276009499293721],[102.41866838051048,2.275315407340849],[102.41891936076807,2.274607219564729],[102.41913290414621,2.273886877039616],[102.41930842533736,2.273156354157712],[102.41944544325015,2.272417653217653],[102.41954358232799,2.271672798936489],[102.4196025735785,2.270923832900235],[102.41962225531076,2.270172807968053]],[[102.41227640277123,2.173485575152101],[102.41225739671981,2.172760285324102],[102.41220043065977,2.17203698311822],[102.4121056607311,2.171317651059883],[102.41197334669164,2.170604260795473],[102.41180385120495,2.169898767688011],[102.41159763884639,2.169203105457559],[102.41135527482969,2.168519180880919],[102.41107742345777,2.167848868565077],[102.41076484630192,2.167194005808893],[102.41041840011442,2.166556387566923],[102.41003903448018,2.165937761529426],[102.40962778921403,2.165339823331702],[102.40918579151065,2.164764211906301],[102.40871425285506,2.164212504990515],[102.40821446570189,2.163686214801585],[102.407687799933,2.163186783891588],[102.40713569910268,2.162715581193142],[102.40655967648092,2.162273898266997],[102.40596131090565,2.161862945761689],[102.40534224245539,2.161483850094881],[102.40470416795365,2.161137650365684],[102.40404883631837,2.160825295506313],[102.40337804376797,2.160547641680882],[102.40269362889816,2.160305449938456],[102.4019974676426,2.160099384126876],[102.40129146813088,2.159930009072999],[102.40057756545858,2.15979778903444],[102.39985771638328,2.159703086426855],[102.39913389396129,2.159646160830567],[102.39840808213954,2.159627168278905],[102.3976822703178,2.159646160830567],[102.3969584478958,2.159703086426855],[102.39623859882052,2.15979778903444],[102.39552469614821,2.159930009072999],[102.39481869663648,2.160099384126876],[102.3941225353809,2.160305449938456],[102.39343812051112,2.160547641680882],[102.39276732796071,2.160825295506313],[102.39211199632541,2.161137650365684],[102.39147392182369,2.161483850094881],[102.39085485337341,2.161862945761689],[102.39025648779815,2.162273898266997],[102.38968046517638,2.162715581193142],[102.38912836434608,2.163186783891588],[102.3886016985772,2.163686214801585],[102.38810191142403,2.164212504990515],[102.38763037276844,2.164764211906301],[102.38718837506507,2.165339823331702],[102.3867771297989,2.165937761529426],[102.38639776416467,2.166556387566923],[102.38605131797718,2.167194005808893],[102.38573874082132,2.167848868565077],[102.3854608894494,2.168519180880919],[102.38521852543269,2.169203105457559],[102.38501231307414,2.169898767688011],[102.38484281758745,2.170604260795473],[102.38471050354799,2.171317651059883],[102.38461573361933,2.17203698311822],[102.38455876755928,2.172760285324102],[102.38453976150785,2.173485575152101],[102.38455876755928,2.174210864631638],[102.38461573361933,2.174934165795991],[102.38471050354799,2.175653496131103],[102.38484281758745,2.176366884009512],[102.38501231307414,2.177072374094314],[102.38521852543269,2.177768032698566],[102.3854608894494,2.178451953085206],[102.38573874082132,2.17912226069314],[102.38605131797718,2.179777118275109],[102.38639776416467,2.180414730933208],[102.3867771297989,2.181033351038411],[102.38718837506507,2.181631283020364],[102.38763037276844,2.182206888014645],[102.38810191142403,2.182758588354431],[102.3886016985772,2.1832848718945],[102.38912836434608,2.18378429615565],[102.38968046517638,2.184255492278083],[102.39025648779815,2.184697168773095],[102.39085485337341,2.185108115062645],[102.39147392182369,2.185487204797146],[102.39211199632541,2.185833398942498],[102.39276732796071,2.186145748627628],[102.39343812051112,2.186423397745151],[102.3941225353809,2.186665585297578],[102.39481869663648,2.186871647482969],[102.39552469614821,2.187041019514175],[102.39623859882052,2.187173237166732],[102.3969584478958,2.187267938051092],[102.3976822703178,2.187324862605851],[102.39840808213954,2.187343854809063],[102.39913389396129,2.187324862605851],[102.39985771638328,2.187267938051092],[102.40057756545858,2.187173237166732],[102.40129146813088,2.187041019514175],[102.4019974676426,2.186871647482969],[102.40269362889816,2.186665585297578],[102.40337804376797,2.186423397745151],[102.40404883631837,2.186145748627628],[102.40470416795365,2.185833398942498],[102.40534224245539,2.185487204797146],[102.40596131090565,2.185108115062645],[102.40655967648092,2.184697168773095],[102.40713569910268,2.184255492278083],[102.407687799933,2.18378429615565],[102.40821446570189,2.1832848718945],[102.40871425285506,2.182758588354431],[102.40918579151065,2.182206888014645],[102.40962778921403,2.181631283020364],[102.41003903448018,2.181033351038411],[102.41041840011442,2.180414730933208],[102.41076484630192,2.179777118275109],[102.41107742345777,2.17912226069314],[102.41135527482969,2.178451953085206],[102.41159763884639,2.177768032698566],[102.41180385120495,2.177072374094314],[102.41197334669164,2.176366884009512],[102.4121056607311,2.175653496131103],[102.41220043065977,2.174934165795991],[102.41225739671981,2.174210864631638],[102.41227640277123,2.173485575152101]],[[102.48561401401312,2.163497346676952],[102.48559571583836,2.162799065523833],[102.48554087146802,2.162102697990749],[102.48544963122676,2.161410152776731],[102.48532224519771,2.160723328106735],[102.48515906253714,2.160044106528533],[102.48496053051737,2.159374349752824],[102.48472719330086,2.158715893550173],[102.48445969044874,2.158070542719198],[102.48415875516767,2.157440066139543],[102.48382521230037,2.15682619192332],[102.48345997606471,2.156230602678278],[102.48306404754771,2.155654930895605],[102.48263851196201,2.155100754475158],[102.48218453567101,2.154569592400338],[102.48170336299223,2.15406290057435],[102.48119631278648,2.153582067829371],[102.48066477484316,2.153128412119669],[102.48011020607082,2.152703176908832],[102.4795341265039,2.152307527761314],[102.47893811513649,2.151942549147384],[102.47832380559429,2.151609241470403],[102.47769288165705,2.151308518324641],[102.47704707264344,2.151041203990816],[102.47638814867106,2.150808031176708],[102.47571791580475,2.150609639008571],[102.47503821110618,2.150446571279224],[102.47435089759871,2.150319274957345],[102.47365785916085,2.150228098962315],[102.47296099536281,2.15017329320768],[102.47226221625985,2.150155007916116],[102.47156343715687,2.15017329320768],[102.47086657335883,2.150228098962315],[102.47017353492097,2.150319274957345],[102.4694862214135,2.150446571279224],[102.46880651671495,2.150609639008571],[102.46813628384862,2.150808031176708],[102.46747735987626,2.151041203990816],[102.46683155086265,2.151308518324641],[102.4662006269254,2.151609241470403],[102.4655863173832,2.151942549147384],[102.46499030601578,2.152307527761314],[102.46441422644887,2.152703176908832],[102.46385965767652,2.153128412119669],[102.4633281197332,2.153582067829371],[102.46282106952745,2.15406290057435],[102.46233989684868,2.154569592400338],[102.46188592055769,2.155100754475158],[102.46146038497199,2.155654930895605],[102.461064456455,2.156230602678278],[102.46069922021931,2.15682619192332],[102.46036567735203,2.157440066139543],[102.46006474207097,2.158070542719198],[102.45979723921883,2.158715893550173],[102.45956390200232,2.159374349752824],[102.45936536998255,2.160044106528533],[102.45920218732199,2.160723328106735],[102.45907480129294,2.161410152776731],[102.45898356105168,2.162102697990749],[102.45892871668134,2.162799065523833],[102.45891041850656,2.163497346676952],[102.45892871668134,2.164195627508569],[102.45898356105168,2.16489199408068],[102.45907480129294,2.165584537704777],[102.45920218732199,2.166271360173346],[102.45936536998255,2.166950578962685],[102.45956390200232,2.167620332392705],[102.45979723921883,2.168278784729468],[102.46006474207097,2.168924131216722],[102.46036567735203,2.169554603022389],[102.46069922021931,2.170168472086686],[102.461064456455,2.170764055858311],[102.46146038497199,2.171339721906037],[102.46188592055769,2.171893892392828],[102.46233989684868,2.172425048400321],[102.46282106952745,2.17293173409177],[102.4633281197332,2.173412560702209],[102.46385965767652,2.173866210344583],[102.46441422644887,2.174291439621764],[102.46499030601578,2.174687083034335],[102.4655863173832,2.175052056174849],[102.4662006269254,2.175385358699904],[102.46683155086265,2.175686077071692],[102.46747735987626,2.175953387061782],[102.46813628384862,2.17618655600999],[102.46880651671495,2.176384944832437],[102.4694862214135,2.176548009772947],[102.47017353492097,2.176675303893373],[102.47086657335883,2.176766478298495],[102.47156343715687,2.176821283092156],[102.47226221625985,2.176839568062217],[102.47296099536281,2.176821283092156],[102.47365785916085,2.176766478298495],[102.47435089759871,2.176675303893373],[102.47503821110618,2.176548009772947],[102.47571791580475,2.176384944832437],[102.47638814867106,2.17618655600999],[102.47704707264344,2.175953387061782],[102.47769288165705,2.175686077071692],[102.47832380559429,2.175385358699904],[102.47893811513649,2.175052056174849],[102.4795341265039,2.174687083034335],[102.48011020607082,2.174291439621764],[102.48066477484316,2.173866210344583],[102.48119631278648,2.173412560702209],[102.48170336299223,2.17293173409177],[102.48218453567101,2.172425048400321],[102.48263851196201,2.171893892392828],[102.48306404754771,2.171339721906037],[102.48345997606471,2.170764055858311],[102.48382521230037,2.170168472086686],[102.48415875516767,2.169554603022389],[102.48445969044874,2.168924131216722],[102.48472719330086,2.168278784729468],[102.48496053051737,2.167620332392705],[102.48515906253714,2.166950578962685],[102.48532224519771,2.166271360173346],[102.48544963122676,2.165584537704777],[102.48554087146802,2.16489199408068],[102.48559571583836,2.164195627508569],[102.48561401401312,2.163497346676952]],[[102.23616576223606,2.302843087510346],[102.23614370664062,2.302001498268084],[102.23607760030718,2.301162215268565],[102.23596762442862,2.300327538934411],[102.23581408044117,2.299499757065688],[102.23561738919823,2.298681138569144],[102.23537808981678,2.297873927238972],[102.23509683819984,2.297080335606726],[102.23477440523854,2.296302538876538],[102.23441167469919,2.29554266896285],[102.234009640801,2.294802808646629],[102.23356940549095,2.29408498586632],[102.23309217542342,2.293391168159014],[102.23257925865283,2.292723257267194],[102.23203206104843,2.292083083925833],[102.23145208244077,2.291472402843984],[102.23084091251096,2.290892887894879],[102.23020022643324,2.29034612752755],[102.22953178028366,2.289833620412544],[102.22883740622665,2.289356771333753],[102.22811900749319,2.288916887337619],[102.22737855316431,2.288515174150168],[102.22661807277386,2.288152732871851],[102.22583965074573,2.287830556959199],[102.22504542068056,2.28754952950139],[102.22423755950777,2.287310420799569],[102.22341828151872,2.287113886255169],[102.22258983229736,2.286960464573304],[102.22175448256546,2.286850576286036],[102.22091452195858,2.286784522599552],[102.22007225275034,2.286762484568478],[102.21922998354209,2.286784522599552],[102.21839002293521,2.286850576286036],[102.21755467320331,2.286960464573304],[102.21672622398196,2.287113886255169],[102.2159069459929,2.287310420799569],[102.21509908482011,2.28754952950139],[102.21430485475494,2.287830556959199],[102.21352643272681,2.288152732871851],[102.21276595233635,2.288515174150168],[102.21202549800748,2.288916887337619],[102.21130709927404,2.289356771333753],[102.210612725217,2.289833620412544],[102.20994427906743,2.29034612752755],[102.20930359298973,2.290892887894879],[102.2086924230599,2.291472402843984],[102.20811244445225,2.292083083925833],[102.20756524684784,2.292723257267194],[102.20705233007725,2.293391168159014],[102.20657510000972,2.29408498586632],[102.20613486469966,2.294802808646629],[102.2057328308015,2.29554266896285],[102.20537010026213,2.296302538876538],[102.20504766730083,2.297080335606726],[102.20476641568389,2.297873927238972],[102.20452711630246,2.298681138569144],[102.2043304250595,2.299499757065688],[102.20417688107204,2.300327538934411],[102.20406690519349,2.301162215268565],[102.20400079886005,2.302001498268084],[102.20397874326463,2.302843087510346],[102.20400079886005,2.303684676255487],[102.20406690519349,2.304523957769127],[102.20417688107204,2.305358631644903],[102.2043304250595,2.306186410109669],[102.20452711630246,2.307005024294016],[102.20476641568389,2.307812230450953],[102.20504766730083,2.308605816105627],[102.20537010026213,2.309383606119386],[102.2057328308015,2.310143468651401],[102.20613486469966,2.310883321001541],[102.20657510000972,2.311601135318662],[102.20705233007725,2.312294944158403],[102.20756524684784,2.312962845875417],[102.20811244445225,2.313603009835274],[102.2086924230599,2.314213681431692],[102.20930359298973,2.314793186895352],[102.20994427906743,2.315339937881164],[102.210612725217,2.315852435821363],[102.21130709927404,2.316329276032577],[102.21202549800748,2.316769151565548],[102.21276595233635,2.317170856786931],[102.21352643272681,2.31753329068355],[102.21430485475494,2.317855459879773],[102.21509908482011,2.318136481360009],[102.2159069459929,2.318375584888607],[102.21672622398196,2.318572115120811],[102.21755467320331,2.318725533398719],[102.21839002293521,2.318835419227609],[102.21922998354209,2.318901471428203],[102.22007225275034,2.318923508962168],[102.22091452195858,2.318901471428203],[102.22175448256546,2.318835419227609],[102.22258983229736,2.318725533398719],[102.22341828151872,2.318572115120811],[102.22423755950777,2.318375584888607],[102.22504542068056,2.318136481360009],[102.22583965074573,2.317855459879773],[102.22661807277386,2.31753329068355],[102.22737855316431,2.317170856786931],[102.22811900749319,2.316769151565548],[102.22883740622665,2.316329276032577],[102.22953178028366,2.315852435821363],[102.23020022643324,2.315339937881164],[102.23084091251096,2.314793186895352],[102.23145208244077,2.314213681431692],[102.23203206104843,2.313603009835274],[102.23257925865283,2.312962845875417],[102.23309217542342,2.312294944158403],[102.23356940549095,2.311601135318662],[102.234009640801,2.310883321001541],[102.23441167469919,2.310143468651401],[102.23477440523854,2.309383606119386],[102.23509683819984,2.308605816105627],[102.23537808981678,2.307812230450953],[102.23561738919823,2.307005024294016],[102.23581408044117,2.306186410109669],[102.23596762442862,2.305358631644903],[102.23607760030718,2.304523957769127],[102.23614370664062,2.303684676255487],[102.23616576223606,2.302843087510346]],[[102.30883774021763,2.272522459932834],[102.30881774583372,2.271759505531198],[102.30875781748524,2.270998641933172],[102.30865811943161,2.270241954618053],[102.30851892493828,2.269491517621518],[102.30834061552764,2.268749387850643],[102.30812367993344,2.268017599446019],[102.30786871276106,2.267298158206122],[102.30757641285777,2.266593036089373],[102.3072475813973,2.265904165808891],[102.30688311968382,2.265233435534883],[102.30648402668156,2.264582683718916],[102.30605139627671,2.263953694054721],[102.30558641427912,2.263348190588702],[102.30509035517211,2.262767832994318],[102.30456457861926,2.262214212022569],[102.30401052573752,2.261688845141577],[102.30342971514733,2.261193172376939],[102.30282373881015,2.260728552364364],[102.30219425766501,2.260296258625493],[102.30154299707594,2.259897476076798],[102.300871742103,2.259533297781593],[102.30018233260937,2.259204721953682],[102.29947665821855,2.258912649221015],[102.29875665313503,2.258657880156901],[102.29802429084266,2.258441113085454],[102.29728157869562,2.258262942167276],[102.29653055241623,2.258123855770737],[102.29577327051535,2.258024235133253],[102.29501180865002,2.257964353316219],[102.29424825393428,2.257944374456434],[102.29348469921855,2.257964353316219],[102.29272323735321,2.258024235133253],[102.29196595545234,2.258123855770737],[102.29121492917295,2.258262942167276],[102.2904722170259,2.258441113085454],[102.28973985473353,2.258657880156901],[102.28901984965,2.258912649221015],[102.28831417525919,2.259204721953682],[102.28762476576557,2.259533297781593],[102.28695351079261,2.259897476076798],[102.28630225020356,2.260296258625493],[102.28567276905841,2.260728552364364],[102.28506679272124,2.261193172376939],[102.28448598213105,2.261688845141577],[102.28393192924929,2.262214212022569],[102.28340615269644,2.262767832994318],[102.28291009358944,2.263348190588702],[102.28244511159185,2.263953694054721],[102.28201248118701,2.264582683718916],[102.28161338818474,2.265233435534883],[102.28124892647126,2.265904165808891],[102.28092009501079,2.266593036089373],[102.2806277951075,2.267298158206122],[102.28037282793511,2.268017599446019],[102.28015589234091,2.268749387850643],[102.27997758293027,2.269491517621518],[102.27983838843694,2.270241954618053],[102.27973869038331,2.270998641933172],[102.27967876203485,2.271759505531198],[102.27965876765093,2.272522459932834],[102.27967876203485,2.273285413931303],[102.27973869038331,2.274046276324242],[102.27983838843694,2.274802961645547],[102.27997758293027,2.275553395881412],[102.28015589234091,2.276295522154975],[102.28037282793511,2.277027306363976],[102.2806277951075,2.277746742755906],[102.28092009501079,2.278451859425459],[102.28124892647126,2.279140723719208],[102.28161338818474,2.27981144753253],[102.28201248118701,2.28046219248463],[102.28244511159185,2.281091174957007],[102.28291009358944,2.281696670982028],[102.28340615269644,2.282277020967763],[102.28393192924929,2.282830634246577],[102.28448598213105,2.283355993434634],[102.28506679272124,2.283851658590635],[102.28567276905841,2.2843162711622],[102.28630225020356,2.284748557709252],[102.28695351079261,2.285147333394081],[102.28762476576557,2.2855115052286],[102.28831417525919,2.285840075069791],[102.28901984965,2.286132142355262],[102.28973985473353,2.286386906571396],[102.2904722170259,2.286603669447221],[102.29121492917295,2.286781836868099],[102.29196595545234,2.286920920503955],[102.29272323735321,2.287020539147626],[102.29348469921855,2.287080419759572],[102.29424825393428,2.28710039821619],[102.29501180865002,2.287080419759572],[102.29577327051535,2.287020539147626],[102.29653055241623,2.286920920503955],[102.29728157869562,2.286781836868099],[102.29802429084266,2.286603669447221],[102.29875665313503,2.286386906571396],[102.29947665821855,2.286132142355262],[102.30018233260937,2.285840075069791],[102.300871742103,2.2855115052286],[102.30154299707594,2.285147333394081],[102.30219425766501,2.284748557709252],[102.30282373881015,2.2843162711622],[102.30342971514733,2.283851658590635],[102.30401052573752,2.283355993434634],[102.30456457861926,2.282830634246577],[102.30509035517211,2.282277020967763],[102.30558641427912,2.281696670982028],[102.30605139627671,2.281091174957007],[102.30648402668156,2.28046219248463],[102.30688311968382,2.27981144753253],[102.3072475813973,2.279140723719208],[102.30757641285777,2.278451859425459],[102.30786871276106,2.277746742755906],[102.30812367993344,2.277027306363976],[102.30834061552764,2.276295522154975],[102.30851892493828,2.275553395881412],[102.30865811943161,2.274802961645547],[102.30875781748524,2.274046276324242],[102.30881774583372,2.273285413931303],[102.30883774021763,2.272522459932834]],[[102.36111177038266,2.196628694474576],[102.36109260949607,2.195897507248181],[102.3610351793549,2.195168323798831],[102.36093963737123,2.194443142772176],[102.36080624541894,2.193723951846386],[102.36063536911615,2.193012722283961],[102.3604274768229,2.192311403528544],[102.36018313835751,2.191621917861468],[102.35990302343477,2.190946155132767],[102.35958789983016,2.190285967581003],[102.3592386312756,2.189643164756248],[102.35885617509194,2.18901950855991],[102.35844157956497,2.188416708415313],[102.3579959810722,2.187836416581937],[102.35752060096814,2.187280223626465],[102.35701674223665,2.186749654062787],[102.35648578591943,2.186246162173208],[102.35592918733087,2.185771128021931],[102.35534847206901,2.185325853672203],[102.35474523183402,2.18491155961709],[102.35412112006543,2.18452938143391],[102.35347784741026,2.18418036667141],[102.35281717703408,2.183865471978228],[102.35214091978855,2.183585560480559],[102.35145092924772,2.183341399416114],[102.35074909662771,2.183133658030951],[102.35003734560294,2.182962905745016],[102.34931762703353,2.182829610591102],[102.34859191361801,2.182734137931981],[102.34786219448644,2.182676749458794],[102.34713046974821,2.182657602473735],[102.34639874500998,2.182676749458794],[102.3456690258784,2.182734137931981],[102.34494331246289,2.182829610591102],[102.34422359389346,2.182962905745016],[102.3435118428687,2.183133658030951],[102.34281001024868,2.183341399416114],[102.34212001970785,2.183585560480559],[102.34144376246232,2.183865471978228],[102.34078309208616,2.18418036667141],[102.34013981943099,2.18452938143391],[102.3395157076624,2.18491155961709],[102.33891246742739,2.185325853672203],[102.33833175216554,2.185771128021931],[102.33777515357697,2.186246162173208],[102.33724419725976,2.186749654062787],[102.33674033852826,2.187280223626465],[102.33626495842422,2.187836416581937],[102.33581935993145,2.188416708415313],[102.33540476440447,2.18901950855991],[102.3350223082208,2.189643164756248],[102.33467303966626,2.190285967581003],[102.33435791606165,2.190946155132767],[102.33407780113889,2.191621917861468],[102.33383346267351,2.192311403528544],[102.33362557038026,2.193012722283961],[102.33345469407746,2.193723951846386],[102.33332130212517,2.194443142772176],[102.3332257601415,2.195168323798831],[102.33316833000033,2.195897507248181],[102.33314916911374,2.196628694474576],[102.33316833000033,2.197359881343043],[102.3332257601415,2.19808906372257],[102.33332130212517,2.198814242979208],[102.33345469407746,2.19953343145419],[102.33362557038026,2.200244657911846],[102.33383346267351,2.200945972942579],[102.33407780113889,2.201635454305843],[102.33435791606165,2.202311212198778],[102.33467303966626,2.202971394435784],[102.3350223082208,2.203614191525019],[102.33540476440447,2.204237841627923],[102.33581935993145,2.204840635387939],[102.33626495842422,2.205420920615519],[102.33674033852826,2.20597710681637],[102.33724419725976,2.206507669550596],[102.33777515357697,2.207011154610735],[102.33833175216554,2.207486182007393],[102.33891246742739,2.207931449751324],[102.3395157076624,2.208345737421855],[102.34013981943099,2.208727909511615],[102.34078309208616,2.209076918538595],[102.34144376246232,2.209391807917006],[102.34212001970785,2.209671714578909],[102.34281001024868,2.209915871339554],[102.3435118428687,2.210123609],[102.34422359389346,2.2102943581812],[102.34494331246289,2.210427650884294],[102.3456690258784,2.210523121773398],[102.34639874500998,2.210580509176761],[102.34713046974821,2.210599655803905],[102.34786219448644,2.210580509176761],[102.34859191361801,2.210523121773398],[102.34931762703353,2.210427650884294],[102.35003734560294,2.2102943581812],[102.35074909662771,2.210123609],[102.35145092924772,2.209915871339554],[102.35214091978855,2.209671714578909],[102.35281717703408,2.209391807917006],[102.35347784741026,2.209076918538595],[102.35412112006543,2.208727909511615],[102.35474523183402,2.208345737421855],[102.35534847206901,2.207931449751324],[102.35592918733087,2.207486182007393],[102.35648578591943,2.207011154610735],[102.35701674223665,2.206507669550596],[102.35752060096814,2.20597710681637],[102.3579959810722,2.205420920615519],[102.35844157956497,2.204840635387939],[102.35885617509194,2.204237841627923],[102.3592386312756,2.203614191525019],[102.35958789983016,2.202971394435784],[102.35990302343477,2.202311212198778],[102.36018313835751,2.201635454305843],[102.3604274768229,2.200945972942579],[102.36063536911615,2.200244657911846],[102.36080624541894,2.19953343145419],[102.36093963737123,2.198814242979208],[102.3610351793549,2.19808906372257],[102.36109260949607,2.197359881343043],[102.36111177038266,2.196628694474576]],[[102.15762729805589,2.265725995672455],[102.15760779567216,2.264981811735187],[102.15754934197567,2.264239667173638],[102.15745209718392,2.263501596159264],[102.15731632783813,2.262769621701326],[102.15714240607267,2.262045750101768],[102.15693080859496,2.261331965456071],[102.15668211537901,2.260630224214739],[102.15639700807564,2.259942449820721],[102.15607626814413,2.259270527437083],[102.15572077471036,2.258616298779727],[102.15533150215711,2.257981557069108],[102.15490951745338,2.257368042114881],[102.15445597722993,2.256777435546866],[102.15397212460898,2.256211356205577],[102.15345928579694,2.255671355704706],[102.15291886644933,2.255158914177978],[102.15235234781801,2.254675436221903],[102.15176128269123,2.254222247045465],[102.15114729113733,2.253800588837589],[102.15051205606456,2.253411617362],[102.14985731860806,2.253056398789126],[102.14918487335767,2.252735906773392],[102.14849656343912,2.252451019784357],[102.14779427546203,2.252202518698564],[102.14707993434897,2.251991084659009],[102.14635549805921,2.251817297207934],[102.14562295222233,2.25168163269822],[102.1448843046955,2.251584462987535],[102.14414158006025,2.25152605441904],[102.14339681407323,2.251506567091221],[102.14265204808619,2.25152605441904],[102.14190932345096,2.251584462987535],[102.14117067592413,2.25168163269822],[102.14043813008723,2.251817297207934],[102.13971369379749,2.251991084659009],[102.1389993526844,2.252202518698564],[102.13829706470732,2.252451019784357],[102.13760875478879,2.252735906773392],[102.1369363095384,2.253056398789126],[102.13628157208188,2.253411617362],[102.13564633700912,2.253800588837589],[102.13503234545523,2.254222247045465],[102.13444128032845,2.254675436221903],[102.13387476169713,2.255158914177978],[102.13333434234951,2.255671355704706],[102.13282150353747,2.256211356205577],[102.13233765091653,2.256777435546866],[102.13188411069308,2.257368042114881],[102.13146212598934,2.257981557069108],[102.1310728534361,2.258616298779727],[102.13071736000232,2.259270527437083],[102.13039662007081,2.259942449820721],[102.13011151276744,2.260630224214739],[102.12986281955149,2.261331965456071],[102.12965122207378,2.262045750101768],[102.12947730030831,2.262769621701326],[102.12934153096253,2.263501596159264],[102.12924428617079,2.264239667173638],[102.12918583247429,2.264981811735187],[102.12916633009057,2.265725995672455],[102.12918583247429,2.266470179227294],[102.12924428617079,2.267212322645752],[102.12934153096253,2.267950391768879],[102.12947730030831,2.268682363608177],[102.12965122207378,2.269406231890352],[102.12986281955149,2.270120012556285],[102.13011151276744,2.270821749199057],[102.13039662007081,2.271509518426137],[102.13071736000232,2.272181435131047],[102.1310728534361,2.272835657660098],[102.13146212598934,2.273470392859982],[102.13188411069308,2.274083900992388],[102.13233765091653,2.274674500502231],[102.13282150353747,2.27524057262632],[102.13333434234951,2.275780565830045],[102.13387476169713,2.276293000059613],[102.13444128032845,2.276776470798501],[102.13503234545523,2.277229652916754],[102.13564633700912,2.277651304302811],[102.13628157208188,2.278040269267664],[102.1369363095384,2.278395481712245],[102.13760875478879,2.278715968049239],[102.13829706470732,2.279000849871335],[102.1389993526844,2.279249346358569],[102.13971369379749,2.279460776418358],[102.14043813008723,2.279634560552052],[102.14117067592413,2.279770222443127],[102.14190932345096,2.279867390262564],[102.14265204808619,2.279925797687968],[102.14339681407323,2.279945284633369],[102.14414158006025,2.279925797687968],[102.1448843046955,2.279867390262564],[102.14562295222233,2.279770222443127],[102.14635549805921,2.279634560552052],[102.14707993434897,2.279460776418358],[102.14779427546203,2.279249346358569],[102.14849656343912,2.279000849871335],[102.14918487335767,2.278715968049239],[102.14985731860806,2.278395481712245],[102.15051205606456,2.278040269267664],[102.15114729113733,2.277651304302811],[102.15176128269123,2.277229652916754],[102.15235234781801,2.276776470798501],[102.15291886644933,2.276293000059613],[102.15345928579694,2.275780565830045],[102.15397212460898,2.27524057262632],[102.15445597722993,2.274674500502231],[102.15490951745338,2.274083900992388],[102.15533150215711,2.273470392859982],[102.15572077471036,2.272835657660098],[102.15607626814413,2.272181435131047],[102.15639700807564,2.271509518426137],[102.15668211537901,2.270821749199057],[102.15693080859496,2.270120012556285],[102.15714240607267,2.269406231890352],[102.15731632783813,2.268682363608177],[102.15745209718392,2.267950391768879],[102.15754934197567,2.267212322645752],[102.15760779567216,2.266470179227294],[102.15762729805589,2.265725995672455]],[[102.20816490066298,2.238842022480366],[102.20814528395864,2.238093462414476],[102.2080864876137,2.237346953719043],[102.2079886727848,2.236604542527346],[102.20785210757559,2.235868263744722],[102.20767716630186,2.235140135471001],[102.20746432846543,2.234422153468906],[102.20721417744006,2.23371628569363],[102.20692739887231,2.233024466898607],[102.20660477880229,2.232348593332347],[102.20624720150917,2.231690517540664],[102.20585564708749,2.23105204328875],[102.20543118876068,2.230434920616858],[102.20497498993953,2.229840841043341],[102.2044883010333,2.229271432927937],[102.20397245602241,2.228728257008293],[102.20342886880222,2.228212802121736],[102.20285902930752,2.22772648112414],[102.20226449942874,2.227270627017102],[102.20164690873094,2.226846489293897],[102.20100794998733,2.226455230514445],[102.20034937453936,2.226097923118454],[102.1996729874966,2.22577554648573],[102.19898064278891,2.225488984251408],[102.19827423808502,2.225239021883735],[102.1975557095911,2.22502634453098],[102.1968270267438,2.224851535143233],[102.19609018681217,2.22471507287439],[102.19534720942326,2.224617331768762],[102.19460013102643,2.224558579735627],[102.19385099931164,2.224538977814891],[102.19310186759687,2.224558579735627],[102.19235478920002,2.224617331768762],[102.19161181181111,2.22471507287439],[102.1908749718795,2.224851535143233],[102.1901462890322,2.22502634453098],[102.18942776053827,2.225239021883735],[102.18872135583437,2.225488984251408],[102.18802901112669,2.22577554648573],[102.18735262408393,2.226097923118454],[102.18669404863597,2.226455230514445],[102.18605508989235,2.226846489293897],[102.18543749919455,2.227270627017102],[102.18484296931575,2.22772648112414],[102.18427312982107,2.228212802121736],[102.18372954260086,2.228728257008293],[102.18321369758999,2.229271432927937],[102.18272700868376,2.229840841043341],[102.1822708098626,2.230434920616858],[102.1818463515358,2.23105204328875],[102.18145479711413,2.231690517540664],[102.18109721982101,2.232348593332347],[102.18077459975098,2.233024466898607],[102.18048782118322,2.23371628569363],[102.18023767015785,2.234422153468906],[102.18002483232142,2.235140135471001],[102.17984989104771,2.235868263744722],[102.1797133258385,2.236604542527346],[102.17961551100959,2.237346953719043],[102.17955671466464,2.238093462414476],[102.1795370979603,2.238842022480366],[102.17955671466464,2.239590582163928],[102.17961551100959,2.240337089716524],[102.1797133258385,2.241079499017419],[102.17984989104771,2.241815775181976],[102.18002483232142,2.24254390013904],[102.18023767015785,2.243261878162248],[102.18048782118322,2.243967741340007],[102.18077459975098,2.244659554969236],[102.18109721982101,2.245335422858016],[102.18145479711413,2.245993492522755],[102.1818463515358,2.246631960265397],[102.1822708098626,2.247249076116971],[102.18272700868376,2.24784314863388],[102.18321369758999,2.248412549533699],[102.18372954260086,2.248955718157812],[102.18427312982107,2.249471165748839],[102.18484296931575,2.249957479530838],[102.18543749919455,2.25041332658128],[102.18605508989235,2.250837457484181],[102.18669404863597,2.251228709754348],[102.18735262408393,2.251586011023382],[102.18802901112669,2.251908381978638],[102.18872135583437,2.252194939047178],[102.18942776053827,2.252444896817321],[102.1901462890322,2.252657570191202],[102.1908749718795,2.252832376262305],[102.19161181181111,2.252968835913082],[102.19235478920002,2.253066575127896],[102.19310186759687,2.253125326018193],[102.19385099931164,2.253144927556575],[102.19460013102643,2.253125326018193],[102.19534720942326,2.253066575127896],[102.19609018681217,2.252968835913082],[102.1968270267438,2.252832376262305],[102.1975557095911,2.252657570191202],[102.19827423808502,2.252444896817321],[102.19898064278891,2.252194939047178],[102.1996729874966,2.251908381978638],[102.20034937453936,2.251586011023382],[102.20100794998733,2.251228709754348],[102.20164690873094,2.250837457484181],[102.20226449942874,2.25041332658128],[102.20285902930752,2.249957479530838],[102.20342886880222,2.249471165748839],[102.20397245602241,2.248955718157812],[102.2044883010333,2.248412549533699],[102.20497498993953,2.24784314863388],[102.20543118876068,2.247249076116971],[102.20585564708749,2.246631960265397],[102.20624720150917,2.245993492522755],[102.20660477880229,2.245335422858016],[102.20692739887231,2.244659554969236],[102.20721417744006,2.243967741340007],[102.20746432846543,2.243261878162248],[102.20767716630186,2.24254390013904],[102.20785210757559,2.241815775181976],[102.2079886727848,2.241079499017419],[102.2080864876137,2.240337089716524],[102.20814528395864,2.239590582163928],[102.20816490066298,2.238842022480366]],[[102.30146369774876,2.215978907769238],[102.30144158911183,2.215135244134316],[102.30137532379922,2.214293892444222],[102.30126508343959,2.213457158791554],[102.30111117019409,2.212627336615018],[102.30091400592822,2.211806700413184],[102.30067413105553,2.210997499510121],[102.30039220305638,2.210201951889924],[102.30006899467581,2.209422238117157],[102.29970539180553,2.208660495359811],[102.29930239105573,2.207918811531213],[102.29886109702346,2.20719921956684],[102.29838271926499,2.206503691851841],[102.2978685689805,2.205834134814533],[102.29732005542017,2.205192383700563],[102.29673868202157,2.204580197542301],[102.29612604228875,2.203999254337039],[102.29548381542463,2.203451146447238],[102.29481376172842,2.202937376235625],[102.29411771777073,2.202459351946931],[102.29339759135965,2.202018383847537],[102.29265535631163,2.201615680633806],[102.29189304704133,2.20125234611869],[102.2911127529855,2.200929376205994],[102.29031661287588,2.200647656160318],[102.28950680887719,2.200407958180299],[102.28868556060588,2.200210939281861],[102.28785511904641,2.200057139497092],[102.28701776038135,2.199946980393977],[102.2861757797526,2.199880763920635],[102.28533148497053,2.199858671577672],[102.28448719018846,2.199880763920635],[102.28364520955971,2.199946980393977],[102.28280785089466,2.200057139497092],[102.28197740933518,2.200210939281861],[102.28115616106386,2.200407958180299],[102.28034635706518,2.200647656160318],[102.27955021695556,2.200929376205994],[102.27876992289974,2.20125234611869],[102.27800761362943,2.201615680633806],[102.2772653785814,2.202018383847537],[102.27654525217034,2.202459351946931],[102.27584920821265,2.202937376235625],[102.27517915451644,2.203451146447238],[102.27453692765232,2.203999254337039],[102.27392428791948,2.204580197542301],[102.27334291452088,2.205192383700563],[102.27279440096056,2.205834134814533],[102.27228025067606,2.206503691851841],[102.27180187291759,2.20719921956684],[102.27136057888532,2.207918811531213],[102.27095757813552,2.208660495359811],[102.27059397526524,2.209422238117157],[102.27027076688468,2.210201951889924],[102.26998883888552,2.210997499510121],[102.26974896401283,2.211806700413184],[102.26955179974696,2.212627336615018],[102.26939788650147,2.213457158791554],[102.26928764614183,2.214293892444222],[102.26922138082924,2.215135244134316],[102.2691992721923,2.215978907769238],[102.26922138082924,2.216822570923464],[102.26928764614183,2.21766392117671],[102.26939788650147,2.218500652452155],[102.26955179974696,2.219330471337109],[102.26974896401283,2.220151103369072],[102.26998883888552,2.220960299269681],[102.27027076688468,2.221755841109614],[102.27059397526524,2.222535548387663],[102.27095757813552,2.223297284006992],[102.27136057888532,2.224038960132465],[102.27180187291759,2.224758543913016],[102.27228025067606,2.225454063053164],[102.27279440096056,2.22612361121853],[102.27334291452088,2.226765353260655],[102.27392428791948,2.227377530246592],[102.27453692765232,2.227958464279529],[102.27517915451644,2.228506563097497],[102.27584920821265,2.229020324437156],[102.27654525217034,2.229498340150999],[102.2772653785814,2.229939300066558],[102.27800761362943,2.230341995577176],[102.27876992289974,2.230705322954276],[102.27955021695556,2.231028286372253],[102.28034635706518,2.231310000637679],[102.28115616106386,2.231549693615232],[102.28197740933518,2.231746708343811],[102.28280785089466,2.231900504836985],[102.28364520955971,2.232010661562877],[102.28448719018846,2.232076876599384],[102.28533148497053,2.232098968461638],[102.2861757797526,2.232076876599384],[102.28701776038135,2.232010661562877],[102.28785511904641,2.231900504836985],[102.28868556060588,2.231746708343811],[102.28950680887719,2.231549693615232],[102.29031661287588,2.231310000637679],[102.2911127529855,2.231028286372253],[102.29189304704133,2.230705322954276],[102.29265535631163,2.230341995577176],[102.29339759135965,2.229939300066558],[102.29411771777073,2.229498340150999],[102.29481376172842,2.229020324437156],[102.29548381542463,2.228506563097497],[102.29612604228875,2.227958464279529],[102.29673868202157,2.227377530246592],[102.29732005542017,2.226765353260655],[102.2978685689805,2.22612361121853],[102.29838271926499,2.225454063053164],[102.29886109702346,2.224758543913016],[102.29930239105573,2.224038960132465],[102.29970539180553,2.223297284006992],[102.30006899467581,2.222535548387663],[102.30039220305638,2.221755841109614],[102.30067413105553,2.220960299269681],[102.30091400592822,2.220151103369072],[102.30111117019409,2.219330471337109],[102.30126508343959,2.218500652452155],[102.30137532379922,2.21766392117671],[102.30144158911183,2.216822570923464],[102.30146369774876,2.215978907769238]],[[102.23475011271219,2.212836222196153],[102.23472851569299,2.212012080106818],[102.23466378383131,2.211190196477659],[102.23455609455267,2.210372824040343],[102.23440574302592,2.209562203165386],[102.23421314135413,2.208760555721307],[102.23397881744509,2.207970078984448],[102.23370341356436,2.207192939616302],[102.23338768457482,2.206431267724564],[102.23303249586772,2.20568715102445],[102.23263882099056,2.204962629116075],[102.23220773897887,2.204259687893801],[102.23174043139844,2.203580254102692],[102.23123817910688,2.20292619005703],[102.2307023587428,2.202299288535592],[102.23013443895262,2.201701267867294],[102.22953597636494,2.201133767220988],[102.22890861132416,2.200598342112294],[102.22825406339422,2.200096460139574],[102.22757412664554,2.199629496960994],[102.22687066473746,2.199198732523586],[102.22614560581016,2.198805347554564],[102.22540093719978,2.198450420324785],[102.22463869999125,2.198134923692891],[102.2238609834237,2.197859722438478],[102.22306991916423,2.197625570891539],[102.22226767546499,2.197433110864638],[102.2214564512202,2.197282869893543],[102.2206384699391,2.197175259791107],[102.21981597365156,2.19711057551838],[102.21899121676272,2.197088994376048],[102.21816645987387,2.19711057551838],[102.21734396358632,2.197175259791107],[102.21652598230523,2.197282869893543],[102.21571475806044,2.197433110864638],[102.2149125143612,2.197625570891539],[102.21412145010173,2.197859722438478],[102.21334373353419,2.198134923692891],[102.21258149632565,2.198450420324785],[102.21183682771527,2.198805347554564],[102.21111176878797,2.199198732523586],[102.21040830687988,2.199629496960994],[102.2097283701312,2.200096460139574],[102.20907382220128,2.200598342112294],[102.20844645716049,2.201133767220988],[102.20784799457282,2.201701267867294],[102.20728007478263,2.202299288535592],[102.20674425441855,2.20292619005703],[102.206242002127,2.203580254102692],[102.20577469454656,2.204259687893801],[102.20534361253488,2.204962629116075],[102.20494993765772,2.20568715102445],[102.20459474895061,2.206431267724564],[102.20427901996108,2.207192939616302],[102.20400361608034,2.207970078984448],[102.2037692921713,2.208760555721307],[102.20357669049952,2.209562203165386],[102.20342633897276,2.210372824040343],[102.20331864969413,2.211190196477659],[102.20325391783244,2.212012080106818],[102.20323232081324,2.212836222196153],[102.20325391783244,2.213660363827437],[102.20331864969413,2.214482246087431],[102.20342633897276,2.215299616259467],[102.20357669049952,2.216110233997862],[102.2037692921713,2.216911877468487],[102.20400361608034,2.217702349438484],[102.20427901996108,2.218479483298609],[102.20459474895061,2.21924114900151],[102.20494993765772,2.219985258899778],[102.20534361253488,2.22070977346784],[102.20577469454656,2.221412706891713],[102.206242002127,2.222092132511836],[102.20674425441855,2.22274618810338],[102.20728007478263,2.223373080980236],[102.20784799457282,2.223971092908204],[102.20844645716049,2.224538584814169],[102.20907382220128,2.225074001278292],[102.2097283701312,2.225575874796907],[102.21040830687988,2.226042829804477],[102.21111176878797,2.226473586443508],[102.21183682771527,2.226866964072205],[102.21258149632565,2.227221884500138],[102.21334373353419,2.227537374943208],[102.21412145010173,2.227812570689599],[102.2149125143612,2.228046717469675],[102.21571475806044,2.228239173523097],[102.21652598230523,2.228389411357643],[102.21734396358632,2.2284970191948],[102.21816645987387,2.22856170209836],[102.21899121676272,2.228583282782629],[102.21981597365156,2.22856170209836],[102.2206384699391,2.2284970191948],[102.2214564512202,2.228389411357643],[102.22226767546499,2.228239173523097],[102.22306991916423,2.228046717469675],[102.2238609834237,2.227812570689599],[102.22463869999125,2.227537374943208],[102.22540093719978,2.227221884500138],[102.22614560581016,2.226866964072205],[102.22687066473746,2.226473586443508],[102.22757412664554,2.226042829804477],[102.22825406339422,2.225575874796907],[102.22890861132416,2.225074001278292],[102.22953597636494,2.224538584814169],[102.23013443895262,2.223971092908204],[102.2307023587428,2.223373080980236],[102.23123817910688,2.22274618810338],[102.23174043139844,2.222092132511836],[102.23220773897887,2.221412706891713],[102.23263882099056,2.22070977346784],[102.23303249586772,2.219985258899778],[102.23338768457482,2.21924114900151],[102.23370341356436,2.218479483298609],[102.23397881744509,2.217702349438484],[102.23421314135413,2.216911877468487],[102.23440574302592,2.216110233997862],[102.23455609455267,2.215299616259467],[102.23466378383131,2.214482246087431],[102.23472851569299,2.213660363827437],[102.23475011271219,2.212836222196153]],[[102.26786268786044,2.215321116055831],[102.26783993247967,2.214452772340936],[102.26777172870828,2.213586808189017],[102.2676582634881,2.212725597154066],[102.26749984781938,2.211871499766163],[102.26729691590845,2.211026857061399],[102.26705002397759,2.210193984165004],[102.26675984874042,2.209375163945583],[102.2664271855471,2.208572640757693],[102.2660529462043,2.207788614289923],[102.26563815647606,2.207025233535441],[102.26518395327219,2.206284590901352],[102.26469158153209,2.205568716473219],[102.2641623908125,2.204879572450361],[102.26359783158837,2.204219047767129],[102.26299945127731,2.203588952915154],[102.26236888999819,2.202991014980385],[102.26170787607559,2.202426872908897],[102.26101822130273,2.201898073014189],[102.26030181597544,2.201406064738425],[102.2595606237109,2.200952196679205],[102.2587966760656,2.200537712892734],[102.25801206696694,2.200163749483562],[102.25720894697389,2.199831331490267],[102.25638951738257,2.199541370075534],[102.25555602419249,2.1992946600284],[102.2547107519506,2.199091877585591],[102.2538560174893,2.1989335785777],[102.25299416357637,2.1988201969055],[102.25212755249348,2.198752043350545],[102.25125855956138,2.198729304723209],[102.25038956662927,2.198752043350545],[102.24952295554637,2.1988201969055],[102.24866110163346,2.1989335785777],[102.24780636717216,2.199091877585591],[102.24696109493026,2.1992946600284],[102.24612760174017,2.199541370075534],[102.24530817214885,2.199831331490267],[102.2445050521558,2.200163749483562],[102.24372044305714,2.200537712892734],[102.24295649541185,2.200952196679205],[102.24221530314732,2.201406064738425],[102.24149889782001,2.201898073014189],[102.24080924304717,2.202426872908897],[102.24014822912456,2.202991014980385],[102.23951766784543,2.203588952915154],[102.23891928753437,2.204219047767129],[102.23835472831026,2.204879572450361],[102.23782553759065,2.205568716473219],[102.23733316585056,2.206284590901352],[102.23687896264668,2.207025233535441],[102.23646417291846,2.207788614289923],[102.23608993357566,2.208572640757693],[102.23575727038234,2.209375163945583],[102.23546709514515,2.210193984165004],[102.23522020321431,2.211026857061399],[102.23501727130338,2.211871499766163],[102.23485885563464,2.212725597154066],[102.23474539041446,2.213586808189017],[102.23467718664308,2.214452772340936],[102.23465443126231,2.215321116055831],[102.23467718664308,2.216189459261634],[102.23474539041446,2.217055421891875],[102.23485885563464,2.217916630409238],[102.23501727130338,2.218770724311189],[102.23522020321431,2.219615362599868],[102.23546709514515,2.220448230198413],[102.23575727038234,2.221267044296258],[102.23608993357566,2.222069560605945],[102.23646417291846,2.222853579514211],[102.23687896264668,2.22361695211071],[102.23733316585056,2.224357586077748],[102.23782553759065,2.225073451424698],[102.23835472831026,2.225762586051753],[102.23891928753437,2.226423101127471],[102.23951766784543,2.227053186265511],[102.24014822912456,2.227651114486331],[102.24080924304717,2.228215246950318],[102.24149889782001,2.228744037449209],[102.24221530314732,2.229236036643777],[102.24295649541185,2.229689896035946],[102.24372044305714,2.230104371664448],[102.2445050521558,2.230478327514116],[102.24530817214885,2.230810738629193],[102.24612760174017,2.231100693922365],[102.24696109493026,2.231347398671636],[102.24780636717216,2.231550176698359],[102.24866110163346,2.231708472220312],[102.24952295554637,2.231821851374911],[102.25038956662927,2.231890003408174],[102.25125855956138,2.231912741526431],[102.25212755249348,2.231890003408174],[102.25299416357637,2.231821851374911],[102.2538560174893,2.231708472220312],[102.2547107519506,2.231550176698359],[102.25555602419249,2.231347398671636],[102.25638951738257,2.231100693922365],[102.25720894697389,2.230810738629193],[102.25801206696694,2.230478327514116],[102.2587966760656,2.230104371664448],[102.2595606237109,2.229689896035946],[102.26030181597544,2.229236036643777],[102.26101822130273,2.228744037449209],[102.26170787607559,2.228215246950318],[102.26236888999819,2.227651114486331],[102.26299945127731,2.227053186265511],[102.26359783158837,2.226423101127471],[102.2641623908125,2.225762586051753],[102.26469158153209,2.225073451424698],[102.26518395327219,2.224357586077748],[102.26563815647606,2.22361695211071],[102.2660529462043,2.222853579514211],[102.2664271855471,2.222069560605945],[102.26675984874042,2.221267044296258],[102.26705002397759,2.220448230198413],[102.26729691590845,2.219615362599868],[102.26749984781938,2.218770724311189],[102.2676582634881,2.217916630409238],[102.26777172870828,2.217055421891875],[102.26783993247967,2.216189459261634],[102.26786268786044,2.215321116055831]],[[102.26073449390361,2.179625794713555],[102.26071290921357,2.178802104799506],[102.26064821430562,2.177980672113601],[102.260540586504,2.177163748151428],[102.26039032080902,2.17635357205408],[102.26019782908854,2.175552364470777],[102.25996363894895,2.174762321471961],[102.25968839228915,2.173985608529992],[102.2593728435411,2.17322435458338],[102.259017857602,2.172480646201362],[102.25862440746363,2.171756521864447],[102.25819357154546,2.171053966376779],[102.25772653073881,2.170374905425646],[102.25722456517005,2.169721200302869],[102.25668905069193,2.169094642802872],[102.25612145511239,2.16849695031105],[102.2555233341715,2.167929761096198],[102.25489632727714,2.167394629819716],[102.25424215301165,2.166893023274049],[102.25356260442122,2.166426316361843],[102.25285954410127,2.165995788327203],[102.25213489909132,2.165602619248876],[102.25139065559291,2.165247886805465],[102.2506288535258,2.164932563321287],[102.24985158093648,2.164657513100933],[102.24906096827507,2.164423490060057],[102.24825918255596,2.16423113565869],[102.24744842141804,2.164080977142827],[102.24663090710123,2.163973426099091],[102.2458088803555,2.163908777326521],[102.24498459429894,2.163887208028396],[102.2441603082424,2.163908777326521],[102.24333828149663,2.163973426099091],[102.24252076717984,2.164080977142827],[102.24171000604193,2.16423113565869],[102.24090822032281,2.164423490060057],[102.24011760766142,2.164657513100933],[102.23934033507209,2.164932563321287],[102.23857853300497,2.165247886805465],[102.23783428950657,2.165602619248876],[102.23710964449661,2.165995788327203],[102.23640658417668,2.166426316361843],[102.23572703558624,2.166893023274049],[102.23507286132076,2.167394629819716],[102.23444585442638,2.167929761096198],[102.23384773348549,2.16849695031105],[102.23328013790595,2.169094642802872],[102.23274462342782,2.169721200302869],[102.23224265785909,2.170374905425646],[102.23177561705242,2.171053966376779],[102.23134478113425,2.171756521864447],[102.23095133099588,2.172480646201362],[102.23059634505678,2.17322435458338],[102.23028079630873,2.173985608529992],[102.23000554964892,2.174762321471961],[102.22977135950936,2.175552364470777],[102.22957886778885,2.17635357205408],[102.22942860209388,2.177163748151428],[102.22932097429226,2.177980672113601],[102.22925627938433,2.178802104799506],[102.22923469469427,2.179625794713555],[102.22925627938433,2.180449484176906],[102.22932097429226,2.181270915515694],[102.22942860209388,2.182087837249087],[102.22957886778885,2.182898010260381],[102.22977135950936,2.183699213934209],[102.23000554964892,2.184489252242903],[102.23028079630873,2.18526595976555],[102.23059634505678,2.186027207623003],[102.23095133099588,2.186770909312714],[102.23134478113425,2.187495026427506],[102.23177561705242,2.188197574242353],[102.23224265785909,2.188876627154061],[102.23274462342782,2.189530323958873],[102.23328013790595,2.190156872953508],[102.23384773348549,2.190754556845733],[102.23444585442638,2.191321737460989],[102.23507286132076,2.191856860232108],[102.23572703558624,2.19235845845981],[102.23640658417668,2.192825157332591],[102.23710964449661,2.193255677694423],[102.23783428950657,2.193648839550626],[102.23857853300497,2.194003565301731],[102.23934033507209,2.194318882696737],[102.24011760766142,2.194593927497769],[102.24090822032281,2.194827945848548],[102.24171000604193,2.195020296340428],[102.24252076717984,2.19517045177025],[102.24333828149663,2.195278000585192],[102.2441603082424,2.195342648010645],[102.24498459429894,2.195364216858073],[102.2458088803555,2.195342648010645],[102.24663090710123,2.195278000585192],[102.24744842141804,2.19517045177025],[102.24825918255596,2.195020296340428],[102.24906096827507,2.194827945848548],[102.24985158093648,2.194593927497769],[102.2506288535258,2.194318882696737],[102.25139065559291,2.194003565301731],[102.25213489909132,2.193648839550626],[102.25285954410127,2.193255677694423],[102.25356260442122,2.192825157332591],[102.25424215301165,2.19235845845981],[102.25489632727714,2.191856860232108],[102.2555233341715,2.191321737460989],[102.25612145511239,2.190754556845733],[102.25668905069193,2.190156872953508],[102.25722456517005,2.189530323958873],[102.25772653073881,2.188876627154061],[102.25819357154546,2.188197574242353],[102.25862440746363,2.187495026427506],[102.259017857602,2.186770909312714],[102.2593728435411,2.186027207623003],[102.25968839228915,2.18526595976555],[102.25996363894895,2.184489252242903],[102.26019782908854,2.183699213934209],[102.26039032080902,2.182898010260381],[102.260540586504,2.182087837249087],[102.26064821430562,2.181270915515694],[102.26071290921357,2.180449484176906],[102.26073449390361,2.179625794713555]],[[102.2899479725081,2.186642000414269],[102.28992739807627,2.185856866476405],[102.28986573117385,2.185073884127117],[102.28976314082553,2.184295199471797],[102.28961990822431,2.183522946839449],[102.28943642596083,2.182759242932507],[102.2892131969472,2.182006181025084],[102.28895083303861,2.181265825225146],[102.28865005335635,2.180540204816872],[102.28831168231659,2.17983130869821],[102.2879366473708,2.179141079929227],[102.28752597646374,2.178471410406068],[102.28708079521583,2.177824135675047],[102.28660232383788,2.17720102990129],[102.28609187378673,2.176603801005503],[102.28555084417043,2.176034085982348],[102.28498071791361,2.175493446413185],[102.2843830576927,2.174983364185585],[102.28375950165277,2.1745052374312],[102.28311175891764,2.174060376693258],[102.28244160490512,2.173650001334049],[102.28175087646076,2.173275236192497],[102.2810414668232,2.17293710850072],[102.28031532043495,2.172636545068088],[102.27957442761283,2.172374369740782],[102.27882081909252,2.172151301143313],[102.2780565604626,2.171967950708616],[102.27728374650286,2.17182482100208],[102.27650449544264,2.17172230434371],[102.27572094315494,2.171660681732855],[102.27493523730212,2.171640122077819],[102.27414953144931,2.171660681732855],[102.27336597916161,2.17172230434371],[102.27258672810139,2.17182482100208],[102.27181391414165,2.171967950708616],[102.27104965551173,2.172151301143313],[102.27029604699142,2.172374369740782],[102.2695551541693,2.172636545068088],[102.26882900778105,2.17293710850072],[102.26811959814349,2.173275236192497],[102.26742886969912,2.173650001334049],[102.2667587156866,2.174060376693258],[102.26611097295147,2.1745052374312],[102.26548741691155,2.174983364185585],[102.26488975669064,2.175493446413185],[102.26431963043382,2.176034085982348],[102.26377860081752,2.176603801005503],[102.26326815076636,2.17720102990129],[102.26278967938842,2.177824135675047],[102.26234449814051,2.178471410406068],[102.26193382723343,2.179141079929227],[102.26155879228766,2.17983130869821],[102.2612204212479,2.180540204816872],[102.26091964156564,2.181265825225146],[102.26065727765705,2.182006181025084],[102.26043404864342,2.182759242932507],[102.26025056637992,2.183522946839449],[102.26010733377872,2.184295199471797],[102.2600047434304,2.185073884127117],[102.25994307652796,2.185856866476405],[102.25992250209613,2.186642000414269],[102.25994307652796,2.187427133941333],[102.2600047434304,2.18821011506271],[102.26010733377872,2.188988797686482],[102.26025056637992,2.18976104750591],[102.26043404864342,2.190524747849333],[102.26065727765705,2.191277805481735],[102.26091964156564,2.192018156341953],[102.2612204212479,2.19274377119993],[102.26155879228766,2.193452661218555],[102.26193382723343,2.194142883404579],[102.26234449814051,2.194812545933965],[102.26278967938842,2.195459813337027],[102.26326815076636,2.196082911528952],[102.26377860081752,2.196680132672086],[102.26431963043382,2.197249839856725],[102.26488975669064,2.197790471587349],[102.26548741691155,2.198300546062295],[102.26611097295147,2.198778665234836],[102.2667587156866,2.199223518644843],[102.26742886969912,2.199633887010279],[102.26811959814349,2.200008645568859],[102.26882900778105,2.2003467671606],[102.2695551541693,2.200647325042935],[102.27029604699142,2.200909495430521],[102.27104965551173,2.201132559752969],[102.27181391414165,2.201315906624147],[102.27258672810139,2.201459033517763],[102.27336597916161,2.201561548144585],[102.27414953144931,2.201623169527529],[102.27493523730212,2.201643728771765],[102.27572094315494,2.201623169527529],[102.27650449544264,2.201561548144585],[102.27728374650286,2.201459033517763],[102.2780565604626,2.201315906624147],[102.27882081909252,2.201132559752969],[102.27957442761283,2.200909495430521],[102.28031532043495,2.200647325042935],[102.2810414668232,2.2003467671606],[102.28175087646076,2.200008645568859],[102.28244160490512,2.199633887010279],[102.28311175891764,2.199223518644843],[102.28375950165277,2.198778665234836],[102.2843830576927,2.198300546062295],[102.28498071791361,2.197790471587349],[102.28555084417043,2.197249839856725],[102.28609187378673,2.196680132672086],[102.28660232383788,2.196082911528952],[102.28708079521583,2.195459813337027],[102.28752597646374,2.194812545933965],[102.2879366473708,2.194142883404579],[102.28831168231659,2.193452661218555],[102.28865005335635,2.19274377119993],[102.28895083303861,2.192018156341953],[102.2892131969472,2.191277805481735],[102.28943642596083,2.190524747849333],[102.28961990822431,2.18976104750591],[102.28976314082553,2.188988797686482],[102.28986573117385,2.18821011506271],[102.28992739807627,2.187427133941333],[102.2899479725081,2.186642000414269]]],"bbox":[102.03540987956818,2.150155007916116,102.50076369308323,2.461495876032448]}
