{"type":"Topology","objects":{"MLK_SE-02":{"type":"GeometryCollection","geometries":[{"type":"Polygon","arcs":[[0]],"properties":{"state":"Melaka","parlimen":"P.085 Malacca Tengah","code_parlimen":"P.085","dun":"N.01 Tanjong Kling","code_dun":"N.01","voters_total":5920}},{"type":"Polygon","arcs":[[1]],"properties":{"state":"Melaka","parlimen":"P.085 Malacca Tengah","code_parlimen":"P.085","dun":"N.02 Bukit Rambai","code_dun":"N.02","voters_total":5630}},{"type":"Polygon","arcs":[[2]],"properties":{"state":"Melaka","parlimen":"P.085 Malacca Tengah","code_parlimen":"P.085","dun":"N.03 Batu Berendam","code_dun":"N.03","voters_total":6415}},{"type":"Polygon","arcs":[[3]],"properties":{"state":"Melaka","parlimen":"P.085 Malacca Tengah","code_parlimen":"P.085","dun":"N.04 Semabok","code_dun":"N.04","voters_total":6460}},{"type":"Polygon","arcs":[[4]],"properties":{"state":"Melaka","parlimen":"P.085 Malacca Tengah","code_parlimen":"P.085","dun":"N.05 Kandang","code_dun":"N.05","voters_total":6144}},{"type":"Polygon","arcs":[[5]],"properties":{"state":"Melaka","parlimen":"P.086 Bandar Malacca","code_parlimen":"P.086","dun":"N.06 Kota Selatan","code_dun":"N.06","voters_total":8801}},{"type":"Polygon","arcs":[[6]],"properties":{"state":"Melaka","parlimen":"P.086 Bandar Malacca","code_parlimen":"P.086","dun":"N.07 Kota Tengah","code_dun":"N.07","voters_total":5616}},{"type":"Polygon","arcs":[[7]],"properties":{"state":"Melaka","parlimen":"P.086 Bandar Malacca","code_parlimen":"P.086","dun":"N.08 Kota Barat","code_dun":"N.08","voters_total":6125}},{"type":"Polygon","arcs":[[8]],"properties":{"state":"Melaka","parlimen":"P.086 Bandar Malacca","code_parlimen":"P.086","dun":"N.09 Kota Utara","code_dun":"N.09","voters_total":5584}},{"type":"Polygon","arcs":[[9]],"properties":{"state":"Melaka","parlimen":"P.086 Bandar Malacca","code_parlimen":"P.086","dun":"N.10 Kota Timor","code_dun":"N.10","voters_total":7022}},{"type":"Polygon","arcs":[[10]],"properties":{"state":"Melaka","parlimen":"P.087 Malacca Utara","code_parlimen":"P.087","dun":"N.11 Sungei Bharu","code_dun":"N.11","voters_total":7149}},{"type":"Polygon","arcs":[[11]],"properties":{"state":"Melaka","parlimen":"P.087 Malacca Utara","code_parlimen":"P.087","dun":"N.12 Ramuan China","code_dun":"N.12","voters_total":5237}},{"type":"Polygon","arcs":[[12]],"properties":{"state":"Melaka","parlimen":"P.087 Malacca Utara","code_parlimen":"P.087","dun":"N.13 Masjid Tanah","code_dun":"N.13","voters_total":6209}},{"type":"Polygon","arcs":[[13]],"properties":{"state":"Melaka","parlimen":"P.087 Malacca Utara","code_parlimen":"P.087","dun":"N.14 Alor Gajah","code_dun":"N.14","voters_total":5497}},{"type":"Polygon","arcs":[[14]],"properties":{"state":"Melaka","parlimen":"P.087 Malacca Utara","code_parlimen":"P.087","dun":"N.15 Pulau Sebang","code_dun":"N.15","voters_total":5351}},{"type":"Polygon","arcs":[[15]],"properties":{"state":"Melaka","parlimen":"P.088 Malacca Selatan","code_parlimen":"P.088","dun":"N.16 Batang Malaka","code_dun":"N.16","voters_total":8158}},{"type":"Polygon","arcs":[[16]],"properties":{"state":"Melaka","parlimen":"P.088 Malacca Selatan","code_parlimen":"P.088","dun":"N.17 Rim","code_dun":"N.17","voters_total":6616}},{"type":"Polygon","arcs":[[17]],"properties":{"state":"Melaka","parlimen":"P.088 Malacca Selatan","code_parlimen":"P.088","dun":"N.18 Jasin","code_dun":"N.18","voters_total":6662}},{"type":"Polygon","arcs":[[18]],"properties":{"state":"Melaka","parlimen":"P.088 Malacca Selatan","code_parlimen":"P.088","dun":"N.19 Serkam","code_dun":"N.19","voters_total":5430}},{"type":"Polygon","arcs":[[19]],"properties":{"state":"Melaka","parlimen":"P.088 Malacca Selatan","code_parlimen":"P.088","dun":"N.20 Sungei Rambai","code_dun":"N.20","voters_total":5559}}]}},"arcs":[[[102.15498192675221,2.265666903381736],[102.15496368956794,2.264970997684822],[102.15490902800192,2.264276999084117],[102.15481809187773,2.263586809785741],[102.15469113044497,2.262902321557499],[102.1545284916961,2.262225410543511],[102.1543306214126,2.261557932121838],[102.1540980619432,2.260901715818779],[102.15383145071723,2.260258560294186],[102.15353151849752,2.259630228411241],[102.15319908737743,2.259018442404377],[102.15283506852758,2.258424879158558],[102.15244045969831,2.25785116561273],[102.152016342485,2.257298874300338],[102.15156387936344,2.256769519038799],[102.15108431050362,2.256264550779947],[102.15057895037043,2.255785353632821],[102.15004918412089,2.255333241069639],[102.14949646380744,2.254909452325341],[102.14892230439806,2.25451514900067],[102.14832827962375,2.254151411878041],[102.14771601766518,2.253819237958922],[102.1470871966898,2.253519537730817],[102.14644354025215,2.253253132671534],[102.14578681256984,2.253020752997283],[102.14511881368779,2.252823035661033],[102.14444137454447,2.252660522606465],[102.14375635195351,2.252533659282438],[102.14306562351422,2.252442793421832],[102.14237108246525,2.252388174088426],[102.14167463249531,2.252369950994085],[102.14097818252536,2.252388174088426],[102.14028364147639,2.252442793421832],[102.13959291303709,2.252533659282438],[102.13890789044613,2.252660522606465],[102.13823045130283,2.252823035661033],[102.13756245242077,2.253020752997283],[102.13690572473845,2.253253132671534],[102.13626206830081,2.253519537730817],[102.13563324732542,2.253819237958922],[102.13502098536684,2.254151411878041],[102.13442696059255,2.25451514900067],[102.13385280118317,2.254909452325341],[102.13330008086973,2.255333241069639],[102.13277031462019,2.255785353632821],[102.132264954487,2.256264550779947],[102.13178538562715,2.256769519038799],[102.13133292250562,2.257298874300338],[102.1309088052923,2.25785116561273],[102.13051419646304,2.258424879158558],[102.13015017761317,2.259018442404377],[102.12981774649309,2.259630228411241],[102.12951781427338,2.260258560294186],[102.12925120304742,2.260901715818779],[102.12901864357801,2.261557932121838],[102.12882077329452,2.262225410543511],[102.12865813454563,2.262902321557499],[102.12853117311288,2.263586809785741],[102.12844023698868,2.264276999084117],[102.12838557542267,2.264970997684822],[102.12836733823839,2.265666903381736],[102.12838557542267,2.266362808744259],[102.12844023698868,2.267056806345405],[102.12853117311288,2.267746993990007],[102.12865813454563,2.268431479928402],[102.12882077329452,2.269108388041534],[102.12901864357801,2.269775862983158],[102.12925120304742,2.270432075265081],[102.12951781427338,2.271075226271505],[102.12981774649309,2.271703553188738],[102.13015017761317,2.272315333836787],[102.13051419646304,2.272908891389388],[102.1309088052923,2.273482598969959],[102.13133292250562,2.274034884110408],[102.13178538562715,2.274564233060963],[102.132264954487,2.27506919493891],[102.13277031462019,2.275548385705131],[102.13330008086973,2.276000491957316],[102.13385280118317,2.276424274529685],[102.13442696059255,2.276818571889099],[102.13502098536684,2.277182303318495],[102.13563324732542,2.2775144718788],[102.13626206830081,2.277814167141208],[102.13690572473845,2.278080567682322],[102.13756245242077,2.278312943335423],[102.13823045130283,2.278510657191624],[102.13890789044613,2.278673167345335],[102.13959291303709,2.278800028379528],[102.14028364147639,2.27889089258636],[102.14097818252536,2.278945510920207],[102.14167463249531,2.278963733680132],[102.14237108246525,2.278945510920207],[102.14306562351422,2.27889089258636],[102.14375635195351,2.278800028379528],[102.14444137454447,2.278673167345335],[102.14511881368779,2.278510657191624],[102.14578681256984,2.278312943335423],[102.14644354025215,2.278080567682322],[102.1470871966898,2.277814167141208],[102.14771601766518,2.2775144718788],[102.14832827962375,2.277182303318495],[102.14892230439806,2.276818571889099],[102.14949646380744,2.276424274529685],[102.15004918412089,2.276000491957316],[102.15057895037043,2.275548385705131],[102.15108431050362,2.27506919493891],[102.15156387936344,2.274564233060963],[102.152016342485,2.274034884110408],[102.15244045969831,2.273482598969959],[102.15283506852758,2.272908891389388],[102.15319908737743,2.272315333836787],[102.15353151849752,2.271703553188738],[102.15383145071723,2.271075226271505],[102.1540980619432,2.270432075265081],[102.1543306214126,2.269775862983158],[102.1545284916961,2.269108388041534],[102.15469113044497,2.268431479928402],[102.15481809187773,2.267746993990007],[102.15490902800192,2.267056806345405],[102.15496368956794,2.266362808744259],[102.15498192675221,2.265666903381736]],[[102.20359282807092,2.238836111148303],[102.20357504318308,2.238157451964202],[102.20352173726668,2.23748065262487],[102.20343305642955,2.236807568194207],[102.20330924373968,2.236140043556314],[102.20315063855907,2.235479908358745],[102.20295767561346,2.234828971997467],[102.20273088380091,2.234189018657299],[102.20247088474201,2.233561802421426],[102.2021783910761,2.232949042463441],[102.20185420450798,2.232352418334974],[102.20149921361049,2.231773565361993],[102.20111439138903,2.23121407016224],[102.20070079261454,2.230675466296159],[102.20025955093253,2.230159230063292],[102.19979187575576,2.2296667764556],[102.1992990489494,2.229199455278759],[102.19878242131746,2.228758547452174],[102.19824340890038,2.228345261497862],[102.19768348909372,2.227960730227596],[102.19710419659876,2.227606007637835],[102.19650711921592,2.227282066020381],[102.19589389349285,2.226989793297324],[102.19526620023865,2.226729990586942],[102.19462575991685,2.226503370007758],[102.19397432792987,2.226310552726452],[102.19331368980752,2.226152067255184],[102.19264565631296,2.226028348002727],[102.19197205847956,2.22593973408375],[102.19129474259218,2.225886468389187],[102.19061556512658,2.225868696920456],[102.18993638766096,2.225886468389187],[102.18925907177358,2.22593973408375],[102.18858547394018,2.226028348002727],[102.18791744044562,2.226152067255184],[102.18725680232328,2.226310552726452],[102.1866053703363,2.226503370007758],[102.18596493001449,2.226729990586942],[102.18533723676028,2.226989793297324],[102.18472401103722,2.227282066020381],[102.1841269336544,2.227606007637835],[102.18354764115942,2.227960730227596],[102.18298772135275,2.228345261497862],[102.18244870893568,2.228758547452174],[102.18193208130374,2.229199455278759],[102.18143925449738,2.2296667764556],[102.18097157932061,2.230159230063292],[102.18053033763859,2.230675466296159],[102.18011673886411,2.23121407016224],[102.17973191664265,2.231773565361993],[102.17937692574516,2.232352418334974],[102.17905273917704,2.232949042463441],[102.17876024551113,2.233561802421426],[102.17850024645222,2.234189018657299],[102.17827345463968,2.234828971997467],[102.17808049169408,2.235479908358745],[102.17792188651346,2.236140043556314],[102.1777980738236,2.236807568194207],[102.17770939298647,2.23748065262487],[102.17765608707006,2.238157451964202],[102.17763830218222,2.238836111148303],[102.17765608707006,2.239514770018128],[102.17770939298647,2.240191568418102],[102.1777980738236,2.240864651294594],[102.17792188651346,2.241532173780548],[102.17808049169408,2.242192306251976],[102.17827345463968,2.242843239342778],[102.17850024645222,2.243483188903989],[102.17876024551113,2.244110400893796],[102.17905273917704,2.244723156185157],[102.17937692574516,2.245319775277534],[102.17973191664265,2.245898622900173],[102.18011673886411,2.246458112493931],[102.18053033763859,2.246996710559787],[102.18097157932061,2.247512940861734],[102.18143925449738,2.248005388472821],[102.18193208130374,2.248472703653057],[102.18244870893568,2.248913605548734],[102.18298772135275,2.249326885702822],[102.18354764115942,2.24971141136708],[102.1841269336544,2.250066128606498],[102.18472401103722,2.250390065187863],[102.18533723676028,2.250682333244283],[102.18596493001449,2.250942131708611],[102.1866053703363,2.251168748508838],[102.18725680232328,2.251361562519669],[102.18791744044562,2.251520045264807],[102.18858547394018,2.251643762365314],[102.18925907177358,2.251732374730132],[102.18993638766096,2.251785639485324],[102.19061556512658,2.251803410639778],[102.19129474259218,2.251785639485324],[102.19197205847956,2.251732374730132],[102.19264565631296,2.251643762365314],[102.19331368980752,2.251520045264807],[102.19397432792987,2.251361562519669],[102.19462575991685,2.251168748508838],[102.19526620023865,2.250942131708611],[102.19589389349285,2.250682333244283],[102.19650711921592,2.250390065187863],[102.19710419659876,2.250066128606498],[102.19768348909372,2.24971141136708],[102.19824340890038,2.249326885702822],[102.19878242131746,2.248913605548734],[102.1992990489494,2.248472703653057],[102.19979187575576,2.248005388472821],[102.20025955093253,2.247512940861734],[102.20070079261454,2.246996710559787],[102.20111439138903,2.246458112493931],[102.20149921361049,2.245898622900173],[102.20185420450798,2.245319775277534],[102.2021783910761,2.244723156185157],[102.20247088474201,2.244110400893796],[102.20273088380091,2.243483188903989],[102.20295767561346,2.242843239342778],[102.20315063855907,2.242192306251976],[102.20330924373968,2.241532173780548],[102.20343305642955,2.240864651294594],[102.20352173726668,2.240191568418102],[102.20357504318308,2.239514770018128],[102.20359282807092,2.238836111148303]],[[102.23476640713224,2.275791632002432],[102.23474742280271,2.275067221345865],[102.23469052184886,2.274344795886177],[102.23459586023222,2.273626335745928],[102.23446369741374,2.272913810181908],[102.23429439564251,2.272209172187514],[102.23408841896287,2.271514353139549],[102.23384633194263,2.270831257504363],[102.23356879812548,2.270161757617666],[102.2332565782123,2.26950768855235],[102.23291052797619,2.26887084308848],[102.2325315959168,2.268252966799181],[102.23212082066054,2.267655753265855],[102.23167932811384,2.267080839435927],[102.23120832837711,2.266529801135799],[102.23070911242789,2.266004148751285],[102.23018304858233,2.265505323087524],[102.22963157874494,2.265034691419402],[102.2290562144562,2.264593543743728],[102.22845853274958,2.264183089243108],[102.22784017182914,2.263804452971369],[102.22720282657917,2.263458672769522],[102.22654824391871,2.263146696420941],[102.22587821801332,2.262869379053184],[102.22519458535743,2.262627480793986],[102.22449921974065,2.262421664687525],[102.22379402711177,2.262252494876916],[102.22308094035482,2.262120435057755],[102.22236191399098,2.262025847207013],[102.22163891882154,2.261968990590735],[102.22091393652603,2.261950021053427],[102.22018895423052,2.261968990590735],[102.2194659590611,2.262025847207013],[102.21874693269726,2.262120435057755],[102.2180338459403,2.262252494876916],[102.21732865331141,2.262421664687525],[102.21663328769463,2.262627480793986],[102.21594965503874,2.262869379053184],[102.21527962913336,2.263146696420941],[102.2146250464729,2.263458672769522],[102.21398770122292,2.263804452971369],[102.21336934030249,2.264183089243108],[102.21277165859588,2.264593543743728],[102.21219629430712,2.265034691419402],[102.21164482446973,2.265505323087524],[102.21111876062419,2.266004148751285],[102.21061954467496,2.266529801135799],[102.21014854493822,2.267080839435927],[102.20970705239152,2.267655753265855],[102.20929627713527,2.268252966799181],[102.20891734507588,2.26887084308848],[102.20857129483977,2.26950768855235],[102.20825907492659,2.270161757617666],[102.20798154110945,2.270831257504363],[102.2077394540892,2.271514353139549],[102.20753347740957,2.272209172187514],[102.20736417563833,2.272913810181908],[102.20723201281984,2.273626335745928],[102.20713735120322,2.274344795886177],[102.20708045024935,2.275067221345865],[102.20706146591982,2.275791632002432],[102.20708045024935,2.276516042295017],[102.20713735120322,2.277238466666726],[102.20723201281984,2.277956925006947],[102.20736417563833,2.278669448078582],[102.20753347740957,2.279374082915563],[102.2077394540892,2.280068898175665],[102.20798154110945,2.280751989434039],[102.20825907492659,2.28142148440295],[102.20857129483977,2.282075548063371],[102.20891734507588,2.282712387694447],[102.20929627713527,2.283330257786982],[102.20970705239152,2.283927464827435],[102.21014854493822,2.284502371939536],[102.21061954467496,2.285053403370493],[102.21111876062419,2.285579048809718],[102.21164482446973,2.286077867528217],[102.21219629430712,2.286548492327155],[102.21277165859588,2.286989633285001],[102.21336934030249,2.287400081292748],[102.21398770122292,2.28777871136771],[102.2146250464729,2.288124485736763],[102.21527962913336,2.288436456680449],[102.21594965503874,2.28871376913042],[102.21663328769463,2.288955663012818],[102.21732865331141,2.289161475331417],[102.2180338459403,2.289330641984614],[102.21874693269726,2.28946269931139],[102.2194659590611,2.289557285362103],[102.22018895423052,2.289614140890403],[102.22091393652603,2.289633110063728],[102.22163891882154,2.289614140890403],[102.22236191399098,2.289557285362103],[102.22308094035482,2.28946269931139],[102.22379402711177,2.289330641984614],[102.22449921974065,2.289161475331417],[102.22519458535743,2.288955663012818],[102.22587821801332,2.28871376913042],[102.22654824391871,2.288436456680449],[102.22720282657917,2.288124485736763],[102.22784017182914,2.28777871136771],[102.22845853274958,2.287400081292748],[102.2290562144562,2.286989633285001],[102.22963157874494,2.286548492327155],[102.23018304858233,2.286077867528217],[102.23070911242789,2.285579048809718],[102.23120832837711,2.285053403370493],[102.23167932811384,2.284502371939536],[102.23212082066054,2.283927464827435],[102.2325315959168,2.283330257786982],[102.23291052797619,2.282712387694447],[102.2332565782123,2.282075548063371],[102.23356879812548,2.28142148440295],[102.23384633194263,2.280751989434039],[102.23408841896287,2.280068898175665],[102.23429439564251,2.279374082915563],[102.23446369741374,2.278669448078582],[102.23459586023222,2.277956925006947],[102.23469052184886,2.277238466666726],[102.23474742280271,2.276516042295017],[102.23476640713224,2.275791632002432]],[[102.30651048479564,2.237635796550366],[102.30649143399675,2.236908830457599],[102.306434333817,2.236183856569554],[102.306339340764,2.235462861993798],[102.30620671520713,2.234747822933772],[102.30603682066382,2.234040699272092],[102.30583012280319,2.23334342919849],[102.30558718816971,2.232657923897242],[102.30530868263033,2.231986062308597],[102.30499536954935,2.231329685978511],[102.30464810769618,2.230690594010908],[102.30426784889141,2.230070538136161],[102.30385563539801,2.22947121790953],[102.30341259706448,2.228894276052457],[102.30293994822811,2.228341293949783],[102.30243898438651,2.227813787314867],[102.30191107864674,2.227313202034902],[102.30135767796178,2.226840910207526],[102.30078029916437,2.226398206379624],[102.30018052480972,2.225986303998836],[102.29955999883762,2.225606332087267],[102.29892042206662,2.22525933214658],[102.29826354753222,2.224946255303116],[102.29759117568183,2.224667959700616],[102.29690514944,2.224425208147857],[102.29620734915692,2.22421866602768],[102.29549968745468,2.224048899473017],[102.29478410398484,2.22391637381492],[102.29406256011191,2.223821452307122],[102.29333703353754,2.223764395130142],[102.29260951287961,2.223745358678124],[102.29188199222168,2.223764395130142],[102.29115646564729,2.223821452307122],[102.29043492177438,2.22391637381492],[102.28971933830452,2.224048899473017],[102.28901167660229,2.22421866602768],[102.28831387631922,2.224425208147857],[102.28762785007737,2.224667959700616],[102.286955478227,2.224946255303116],[102.28629860369259,2.22525933214658],[102.28565902692158,2.225606332087267],[102.2850385009495,2.225986303998836],[102.28443872659483,2.226398206379624],[102.28386134779743,2.226840910207526],[102.28330794711246,2.227313202034902],[102.28278004137269,2.227813787314867],[102.2822790775311,2.228341293949783],[102.28180642869474,2.228894276052457],[102.28136339036121,2.22947121790953],[102.28095117686779,2.230070538136161],[102.28057091806302,2.230690594010908],[102.28022365620986,2.231329685978511],[102.27991034312889,2.231986062308597],[102.2796318375895,2.232657923897242],[102.27938890295603,2.23334342919849],[102.2791822050954,2.234040699272092],[102.27901231055208,2.234747822933772],[102.2788796849952,2.235462861993798],[102.27878469194222,2.236183856569554],[102.27872759176246,2.236908830457599],[102.27870854096358,2.237635796550366],[102.27872759176246,2.238362762282713],[102.27878469194222,2.239087735093491],[102.2788796849952,2.239808727886902],[102.27901231055208,2.24052376447906],[102.2791822050954,2.241230885014369],[102.27938890295603,2.241928151337373],[102.2796318375895,2.24261365230486],[102.27991034312889,2.243285509024076],[102.28022365620986,2.24394188000242],[102.28057091806302,2.244580966194594],[102.28095117686779,2.245201015933504],[102.28136339036121,2.245800329731127],[102.28180642869474,2.246377264936426],[102.2822790775311,2.246930240237471],[102.28278004137269,2.247457739995417],[102.28330794711246,2.2479583183984],[102.28386134779743,2.24843060342416],[102.28443872659483,2.248873300600301],[102.2850385009495,2.249285196552068],[102.28565902692158,2.2496651623278],[102.28629860369259,2.250012156493045],[102.286955478227,2.250325227984768],[102.28762785007737,2.250603518717851],[102.28831387631922,2.25084626593685],[102.28901167660229,2.251052804306415],[102.28971933830452,2.25122256773472],[102.29043492177438,2.251355090924935],[102.29115646564729,2.251450010650401],[102.29188199222168,2.251507066750115],[102.29260951287961,2.251526102841713],[102.29333703353754,2.251507066750115],[102.29406256011191,2.251450010650401],[102.29478410398484,2.251355090924935],[102.29549968745468,2.25122256773472],[102.29620734915692,2.251052804306415],[102.29690514944,2.25084626593685],[102.29759117568183,2.250603518717851],[102.29826354753222,2.250325227984768],[102.29892042206662,2.250012156493045],[102.29955999883762,2.2496651623278],[102.30018052480972,2.249285196552068],[102.30078029916437,2.248873300600301],[102.30135767796178,2.24843060342416],[102.30191107864674,2.2479583183984],[102.30243898438651,2.247457739995417],[102.30293994822811,2.246930240237471],[102.30341259706448,2.246377264936426],[102.30385563539801,2.245800329731127],[102.30426784889141,2.245201015933504],[102.30464810769618,2.244580966194594],[102.30499536954935,2.24394188000242],[102.30530868263033,2.243285509024076],[102.30558718816971,2.24261365230486],[102.30583012280319,2.241928151337373],[102.30603682066382,2.241230885014369],[102.30620671520713,2.24052376447906],[102.306339340764,2.239808727886902],[102.306434333817,2.239087735093491],[102.30649143399675,2.238362762282713],[102.30651048479564,2.237635796550366]],[[102.35855425082991,2.201731105830835],[102.35853567182124,2.201022125733432],[102.35847998571907,2.200315088565397],[102.35838734515511,2.199611932270707],[102.35825800405071,2.198914584158849],[102.35809231692083,2.19822495562211],[102.35789073790237,2.197544936896462],[102.35765381950947,2.196876391880459],[102.3573822111189,2.196221153026228],[102.35707665719045,2.195581016316689],[102.35673799522613,2.194957736342668],[102.35636715347488,2.194353021493466],[102.35596514838818,2.19376852927401],[102.35553308183397,2.193205861761563],[102.35507213807672,2.192666561214164],[102.35458358053117,2.192152105843238],[102.35406874829962,2.191663905761557],[102.35352905250143,2.191203299117977],[102.35296597240526,2.190771548429315],[102.35238105137452,2.190369837119702],[102.35177589263711,2.189999266276496],[102.35115215489103,2.189660851632123],[102.3505115477581,2.189355520779683],[102.34985582709795,2.189084110630284],[102.34918679019538,2.188847365118898],[102.34850627083392,2.188645933165102],[102.34781613426995,2.188480366894181],[102.34711827211977,2.188351120123759],[102.34641459717503,2.188258547119651],[102.34570703815984,2.188202901624869],[102.34499753444429,2.188184336163929],[102.34428803072875,2.188202901624869],[102.34358047171355,2.188258547119651],[102.3428767967688,2.188351120123759],[102.34217893461863,2.188480366894181],[102.34148879805466,2.188645933165102],[102.34080827869322,2.188847365118898],[102.34013924179061,2.189084110630284],[102.33948352113049,2.189355520779683],[102.33884291399757,2.189660851632123],[102.33821917625149,2.189999266276496],[102.33761401751406,2.190369837119702],[102.33702909648332,2.190771548429315],[102.33646601638715,2.191203299117977],[102.33592632058895,2.191663905761557],[102.33541148835741,2.192152105843238],[102.33492293081187,2.192666561214164],[102.33446198705461,2.193205861761563],[102.33402992050041,2.19376852927401],[102.33362791541371,2.194353021493466],[102.33325707366247,2.194957736342668],[102.33291841169815,2.195581016316689],[102.33261285776967,2.196221153026228],[102.33234124937911,2.196876391880459],[102.3321043309862,2.197544936896462],[102.33190275196775,2.19822495562211],[102.33173706483788,2.198914584158849],[102.33160772373347,2.199611932270707],[102.33151508316952,2.200315088565397],[102.33145939706735,2.201022125733432],[102.33144081805868,2.201731105830835],[102.33145939706735,2.20244008559096],[102.33151508316952,2.203147121750836],[102.33160772373347,2.203850276377515],[102.33173706483788,2.204547622179807],[102.33190275196775,2.205237247790742],[102.3321043309862,2.205917263006367],[102.33234124937911,2.206585803966616],[102.33261285776967,2.207241038263774],[102.33291841169815,2.207881169964856],[102.33325707366247,2.20850444453393],[102.33362791541371,2.209109153640896],[102.33402992050041,2.209693639843722],[102.33446198705461,2.21025630113111],[102.33492293081187,2.210795595313176],[102.33541148835741,2.211310044248262],[102.33592632058895,2.211798237894117],[102.33646601638715,2.212258838172376],[102.33702909648332,2.212690582635955],[102.33761401751406,2.213092287928964],[102.33821917625149,2.21346285302992],[102.33884291399757,2.213801262269347],[102.33948352113049,2.214106588113342],[102.34013924179061,2.214377993705668],[102.34080827869322,2.214614735161287],[102.34148879805466,2.214816163605074],[102.34217893461863,2.214981726950164],[102.3428767967688,2.215110971411033],[102.34358047171355,2.215203542747131],[102.34428803072875,2.215259187233754],[102.34499753444429,2.215277752357402],[102.34570703815984,2.215259187233754],[102.34641459717503,2.215203542747131],[102.34711827211977,2.215110971411033],[102.34781613426995,2.214981726950164],[102.34850627083392,2.214816163605074],[102.34918679019538,2.214614735161287],[102.34985582709795,2.214377993705668],[102.3505115477581,2.214106588113342],[102.35115215489103,2.213801262269347],[102.35177589263711,2.21346285302992],[102.35238105137452,2.213092287928964],[102.35296597240526,2.212690582635955],[102.35352905250143,2.212258838172376],[102.35406874829962,2.211798237894117],[102.35458358053117,2.211310044248262],[102.35507213807672,2.210795595313176],[102.35553308183397,2.21025630113111],[102.35596514838818,2.209693639843722],[102.35636715347488,2.209109153640896],[102.35673799522613,2.20850444453393],[102.35707665719045,2.207881169964856],[102.3573822111189,2.207241038263774],[102.35765381950947,2.206585803966616],[102.35789073790237,2.205917263006367],[102.35809231692083,2.205237247790742],[102.35825800405071,2.204547622179807],[102.35838734515511,2.203850276377515],[102.35847998571907,2.203147121750836],[102.35853567182124,2.20244008559096],[102.35855425082991,2.201731105830835]],[[102.26080738111148,2.182936285979394],[102.26078514479002,2.182087731122081],[102.26071849677383,2.181241501617773],[102.26060761974053,2.180399916928793],[102.2604528175963,2.179565283790146],[102.26025451464311,2.178739889886903],[102.26001325441555,2.17792599758359],[102.25972969819114,2.177125837723038],[102.25940462317779,2.17634160351155],[102.25903892038349,2.175575444507249],[102.25863359217418,2.174829460727991],[102.25818974952634,2.174105696894977],[102.2577086089818,2.173406136828072],[102.25719148931334,2.172732698007857],[102.25663980791003,2.172087226319557],[102.25605507689227,2.171471490993238],[102.25543889896709,2.170887179754061],[102.2547929630354,2.170335894195933],[102.25411903956267,2.169819145391222],[102.25341897572628,2.16933834974861],[102.25269469035258,2.168894825130482],[102.2519481686574,2.168489787240269],[102.25118145680486,2.168124346290058],[102.2503966562988,2.167799503957087],[102.24959591822291,2.167516150638072],[102.24878143734455,2.167275063008232],[102.24795544609921,2.167076901892368],[102.24712020847149,2.166922210453242],[102.24627801378968,2.166811412702723],[102.24543117045084,2.166744812339421],[102.24458199959369,2.166722591916119],[102.24373282873655,2.166744812339421],[102.2428859853977,2.166811412702723],[102.24204379071588,2.166922210453242],[102.24120855308816,2.167076901892368],[102.24038256184284,2.167275063008232],[102.23956808096446,2.167516150638072],[102.23876734288856,2.167799503957087],[102.23798254238253,2.168124346290058],[102.23721583052996,2.168489787240269],[102.2364693088348,2.168894825130482],[102.23574502346109,2.16933834974861],[102.2350449596247,2.169819145391222],[102.23437103615197,2.170335894195933],[102.2337251002203,2.170887179754061],[102.23310892229513,2.171471490993238],[102.23252419127735,2.172087226319557],[102.23197250987404,2.172732698007857],[102.23145539020558,2.173406136828072],[102.23097424966103,2.174105696894977],[102.23053040701319,2.174829460727991],[102.2301250788039,2.175575444507249],[102.2297593760096,2.17634160351155],[102.22943430099623,2.177125837723038],[102.22915074477181,2.17792599758359],[102.22890948454426,2.178739889886903],[102.22871118159108,2.179565283790146],[102.22855637944686,2.180399916928793],[102.22844550241355,2.181241501617773],[102.22837885439735,2.182087731122081],[102.22835661807589,2.182936285979394],[102.22837885439735,2.183784840357665],[102.22844550241355,2.184631068430113],[102.22855637944686,2.185472650750127],[102.22871118159108,2.186307280608604],[102.22890948454426,2.187132670356451],[102.22915074477181,2.187946557674666],[102.22943430099623,2.188746711775029],[102.2297593760096,2.18953093951433],[102.2301250788039,2.190297091405371],[102.23053040701319,2.191043067508259],[102.23097424966103,2.191766823185834],[102.23145539020558,2.192466374707644],[102.23197250987404,2.193139804686707],[102.23252419127735,2.193785267334662],[102.23310892229513,2.194400993520473],[102.2337251002203,2.194985295619156],[102.23437103615197,2.195536572136927],[102.2350449596247,2.196053312100497],[102.23574502346109,2.19653409919799],[102.2364693088348,2.196977615660717],[102.23721583052996,2.197382645874522],[102.23798254238253,2.197748079711498],[102.23876734288856,2.198072915572282],[102.23956808096446,2.198356263131109],[102.24038256184284,2.198597345775837],[102.24120855308816,2.198795502736319],[102.24204379071588,2.198950190895288],[102.2428859853977,2.199060986276815],[102.24373282873655,2.19912758520827],[102.24458199959369,2.199149805152542],[102.24543117045084,2.19912758520827],[102.24627801378968,2.199060986276815],[102.24712020847149,2.198950190895288],[102.24795544609921,2.198795502736319],[102.24878143734455,2.198597345775837],[102.24959591822291,2.198356263131109],[102.2503966562988,2.198072915572282],[102.25118145680486,2.197748079711498],[102.2519481686574,2.197382645874522],[102.25269469035258,2.196977615660717],[102.25341897572628,2.19653409919799],[102.25411903956267,2.196053312100497],[102.2547929630354,2.195536572136927],[102.25543889896709,2.194985295619156],[102.25605507689227,2.194400993520473],[102.25663980791003,2.193785267334662],[102.25719148931334,2.193139804686707],[102.2577086089818,2.192466374707644],[102.25818974952634,2.191766823185834],[102.25863359217418,2.191043067508259],[102.25903892038349,2.190297091405371],[102.25940462317779,2.18953093951433],[102.25972969819114,2.188746711775029],[102.26001325441555,2.187946557674666],[102.26025451464311,2.187132670356451],[102.2604528175963,2.186307280608604],[102.26060761974053,2.185472650750127],[102.26071849677383,2.184631068430113],[102.26078514479002,2.183784840357665],[102.26080738111148,2.182936285979394]],[[102.25508737119449,2.219754812979327],[102.25506960843308,2.219076989338135],[102.25501636883526,2.218401023254958],[102.25492779832713,2.217728767509777],[102.25480413967425,2.217062064715268],[102.25464573181642,2.21640274226626],[102.25445300893858,2.215752607330897],[102.25422649928072,2.215113441897213],[102.25396682369006,2.21448699788863],[102.25367469391936,2.213874992361905],[102.253350910676,2.213279102800645],[102.25299636142738,2.212700962517171],[102.2526120179683,2.212142156175552],[102.25219893375748,2.21160421544787],[102.25175824103006,2.211088614815804],[102.25129114769415,2.210596767528904],[102.2507989340201,2.210130021730664],[102.25028294913139,2.209689656763201],[102.24974460730677,2.209276879660259],[102.2491853841037,2.2088928218387],[102.24860681231416,2.20853853599697],[102.24801047776315,2.208214993229584],[102.2473980149623,2.207923080365157],[102.24677110262951,2.207663597535399],[102.24613145908793,2.207437255981914],[102.24548083755607,2.207244676106394],[102.2448210213423,2.207086385770133],[102.24415381895702,2.206962818846958],[102.24348105915554,2.206874314033881],[102.24280458592577,2.206821113922751],[102.2421262534338,2.206803364335167],[102.24144792094181,2.206821113922751],[102.24077144771204,2.206874314033881],[102.24009868791056,2.206962818846958],[102.23943148552527,2.207086385770133],[102.2387716693115,2.207244676106394],[102.23812104777964,2.207437255981914],[102.23748140423808,2.207663597535399],[102.23685449190529,2.207923080365157],[102.23624202910443,2.208214993229584],[102.23564569455343,2.20853853599697],[102.2350671227639,2.2088928218387],[102.23450789956082,2.209276879660259],[102.23396955773619,2.209689656763201],[102.23345357284748,2.210130021730664],[102.23296135917344,2.210596767528904],[102.23249426583752,2.211088614815804],[102.2320535731101,2.21160421544787],[102.23164048889927,2.212142156175552],[102.23125614544021,2.212700962517171],[102.23090159619159,2.213279102800645],[102.23057781294823,2.213874992361905],[102.23028568317753,2.21448699788863],[102.23002600758687,2.215113441897213],[102.22979949792901,2.215752607330897],[102.22960677505115,2.21640274226626],[102.22944836719334,2.217062064715268],[102.22932470854046,2.217728767509777],[102.22923613803233,2.218401023254958],[102.22918289843452,2.219076989338135],[102.22916513567309,2.219754812979327],[102.22918289843452,2.220432636309714],[102.22923613803233,2.221108601463825],[102.22932470854046,2.221780855671895],[102.22944836719334,2.222447556338066],[102.22960677505115,2.223106876090841],[102.22979949792901,2.223757007791618],[102.23002600758687,2.224396169487795],[102.23028568317753,2.225022609296913],[102.23057781294823,2.225634610208196],[102.23090159619159,2.22623049478863],[102.23125614544021,2.22680862978045],[102.23164048889927,2.227367430577574],[102.2320535731101,2.227905365568668],[102.23249426583752,2.228420960334887],[102.23296135917344,2.228912801690981],[102.23345357284748,2.229379541558403],[102.23396955773619,2.229819900660033],[102.23450789956082,2.230232672026373],[102.2350671227639,2.230616724303437],[102.23564569455343,2.230971004853525],[102.23624202910443,2.231294542640073],[102.23685449190529,2.231586450889083],[102.23748140423808,2.231845929519351],[102.23812104777964,2.232072267335341],[102.2387716693115,2.232264843976262],[102.23943148552527,2.232423131616291],[102.24009868791056,2.232546696411141],[102.24077144771204,2.232635199687093],[102.24144792094181,2.232688398869171],[102.2421262534338,2.232706148145938],[102.24280458592577,2.232688398869171],[102.24348105915554,2.232635199687093],[102.24415381895702,2.232546696411141],[102.2448210213423,2.232423131616291],[102.24548083755607,2.232264843976262],[102.24613145908793,2.232072267335341],[102.24677110262951,2.231845929519351],[102.2473980149623,2.231586450889083],[102.24801047776315,2.231294542640073],[102.24860681231416,2.230971004853525],[102.2491853841037,2.230616724303437],[102.24974460730677,2.230232672026373],[102.25028294913139,2.229819900660033],[102.2507989340201,2.229379541558403],[102.25129114769415,2.228912801690981],[102.25175824103006,2.228420960334887],[102.25219893375748,2.227905365568668],[102.2526120179683,2.227367430577574],[102.25299636142738,2.22680862978045],[102.253350910676,2.22623049478863],[102.25367469391936,2.225634610208196],[102.25396682369006,2.225022609296913],[102.25422649928072,2.224396169487795],[102.25445300893858,2.223757007791618],[102.25464573181642,2.223106876090841],[102.25480413967425,2.222447556338066],[102.25492779832713,2.221780855671895],[102.25501636883526,2.221108601463825],[102.25506960843308,2.220432636309714],[102.25508737119449,2.219754812979327]],[[102.23253478896514,2.206833262321907],[102.23251623870604,2.206125381741545],[102.23246063877372,2.205419441077128],[102.23236814156373,2.204717375267175],[102.2322390006045,2.204021108632226],[102.23207356986241,2.203332549600292],[102.23187230277162,2.202653585475918],[102.23163575099126,2.201986077267053],[102.23136456289328,2.201331854584],[102.23105948178542,2.200692710624403],[102.23072134387382,2.200070397257997],[102.23035107597097,2.19946662022468],[102.22994969295546,2.198883034458881],[102.22951829499021,2.198321239553277],[102.22905806450711,2.197782775374193],[102.22857026296587,2.197269117840549],[102.22805622739665,2.19678167487832],[102.22751736673517,2.196321782561101],[102.22695515796109,2.195890701447785],[102.22637114204957,2.195489613127234],[102.2257669197476,2.19511961697919],[102.22514414718654,2.194781727160881],[102.2245045313427,2.194476869826878],[102.22384982535863,2.194205880590381],[102.22318182373792,2.193969502232673],[102.22250235742659,2.19376838266694],[102.22181328879458,2.193603073162275],[102.22111650653108,2.193474026832482],[102.22041392046789,2.193381597393969],[102.21970745634452,2.193326038196248],[102.21899905053007,2.193307501527305],[102.21829064471562,2.193326038196248],[102.21758418059225,2.193381597393969],[102.21688159452906,2.193474026832482],[102.21618481226557,2.193603073162275],[102.21549574363355,2.19376838266694],[102.21481627732223,2.193969502232673],[102.21414827570152,2.194205880590381],[102.21349356971744,2.194476869826878],[102.2128539538736,2.194781727160881],[102.21223118131255,2.19511961697919],[102.21162695901057,2.195489613127234],[102.21104294309906,2.195890701447785],[102.21048073432497,2.196321782561101],[102.2099418736635,2.19678167487832],[102.20942783809427,2.197269117840549],[102.20894003655305,2.197782775374193],[102.20847980606993,2.198321239553277],[102.20804840810469,2.198883034458881],[102.20764702508917,2.19946662022468],[102.20727675718632,2.200070397257997],[102.20693861927472,2.200692710624403],[102.20663353816687,2.201331854584],[102.2063623500689,2.201986077267053],[102.20612579828854,2.202653585475918],[102.20592453119774,2.203332549600292],[102.20575910045567,2.204021108632226],[102.20562995949642,2.204717375267175],[102.20553746228643,2.205419441077128],[102.2054818623541,2.206125381741545],[102.20546331209499,2.206833262321907],[102.2054818623541,2.207541142565246],[102.20553746228643,2.208247082222292],[102.20562995949642,2.208949146365546],[102.20575910045567,2.20964541069276],[102.20592453119774,2.210333966801179],[102.20612579828854,2.211012927418292],[102.2063623500689,2.211680431574596],[102.20663353816687,2.212334649704164],[102.20693861927472,2.21297378865926],[102.20727675718632,2.213596096624956],[102.20764702508917,2.214199867920553],[102.20804840810469,2.214783447674467],[102.20847980606993,2.215345236359898],[102.20894003655305,2.215883694178661],[102.20942783809427,2.21639734528153],[102.2099418736635,2.216884781812995],[102.21048073432497,2.217344667769906],[102.21104294309906,2.217775742663037],[102.21162695901057,2.218176824971717],[102.21223118131255,2.218546815382026],[102.2128539538736,2.218884699799639],[102.21349356971744,2.219189552129142],[102.21414827570152,2.219460536812153],[102.21481627732223,2.219696911117287],[102.21549574363355,2.219898027175759],[102.21618481226557,2.220063333756909],[102.21688159452906,2.220192377778968],[102.21758418059225,2.220284805550781],[102.21829064471562,2.220340363741131],[102.21899905053007,2.220358900073049],[102.21970745634452,2.220340363741131],[102.22041392046789,2.220284805550781],[102.22111650653108,2.220192377778968],[102.22181328879458,2.220063333756909],[102.22250235742659,2.219898027175759],[102.22318182373792,2.219696911117287],[102.22384982535863,2.219460536812153],[102.2245045313427,2.219189552129142],[102.22514414718654,2.218884699799639],[102.2257669197476,2.218546815382026],[102.22637114204957,2.218176824971717],[102.22695515796109,2.217775742663037],[102.22751736673517,2.217344667769906],[102.22805622739665,2.216884781812995],[102.22857026296587,2.21639734528153],[102.22905806450711,2.215883694178661],[102.22951829499021,2.215345236359898],[102.22994969295546,2.214783447674467],[102.23035107597097,2.214199867920553],[102.23072134387382,2.213596096624956],[102.23105948178542,2.21297378865926],[102.23136456289328,2.212334649704164],[102.23163575099126,2.211680431574596],[102.23187230277162,2.211012927418292],[102.23207356986241,2.210333966801179],[102.2322390006045,2.20964541069276],[102.23236814156373,2.208949146365546],[102.23246063877372,2.208247082222292],[102.23251623870604,2.207541142565246],[102.23253478896514,2.206833262321907]],[[102.28092774846641,2.219115812041004],[102.28091003638342,2.218439921988376],[102.28085694868209,2.217765884195811],[102.28076863087205,2.21709554615792],[102.28064532502633,2.216430745231043],[102.28048736911767,2.215773303597066],[102.28029519609224,2.2151250232689],[102.28006933268293,2.214487681151124],[102.27981039796565,2.213863024169503],[102.27951910166247,2.213252764482575],[102.2791962421963,2.212658574788599],[102.27884270450251,2.21208208374056],[102.27845945760332,2.211524871481955],[102.27804755195187,2.210988465315471],[102.2776081165529,2.210474335516516],[102.27714235586829,2.209983891303007],[102.27665154651572,2.209518476972638],[102.27613703376952,2.209079368217853],[102.27560022787333,2.208667768629102],[102.27504260017481,2.208284806395593],[102.27446567909273,2.207931531212746],[102.27387104592766,2.20760891140476],[102.27326033052779,2.207317831270374],[102.27263520682159,2.207059088658752],[102.27199738822965,2.206833392782472],[102.27134862296842,2.206641362273412],[102.27069068925837,2.206483523487],[102.27002539045009,2.206360309059306],[102.26935455008136,2.206272056721167],[102.268680006879,2.206219008372341],[102.26800360971905,2.206201309418449],[102.26732721255908,2.206219008372341],[102.26665266935672,2.206272056721167],[102.26598182898798,2.206360309059306],[102.26531653017972,2.206483523487],[102.26465859646967,2.206641362273412],[102.26400983120844,2.206833392782472],[102.2633720126165,2.207059088658752],[102.2627468889103,2.207317831270374],[102.26213617351041,2.20760891140476],[102.26154154034535,2.207931531212746],[102.26096461926326,2.208284806395593],[102.26040699156475,2.208667768629102],[102.25987018566856,2.209079368217853],[102.25935567292235,2.209518476972638],[102.2588648635698,2.209983891303007],[102.25839910288518,2.210474335516516],[102.25795966748622,2.210988465315471],[102.25754776183474,2.211524871481955],[102.25716451493558,2.21208208374056],[102.25681097724178,2.212658574788599],[102.25648811777562,2.213252764482575],[102.25619682147244,2.213863024169503],[102.25593788675515,2.214487681151124],[102.25571202334585,2.2151250232689],[102.25551985032041,2.215773303597066],[102.25536189441175,2.216430745231043],[102.25523858856602,2.21709554615792],[102.255150270756,2.217765884195811],[102.25509718305466,2.218439921988376],[102.25507947097167,2.219115812041004],[102.25509718305466,2.21979170178466],[102.255150270756,2.220465738653732],[102.25523858856602,2.22113607516371],[102.25536189441175,2.221800873974998],[102.25551985032041,2.222458312928873],[102.25571202334585,2.223106590041804],[102.25593788675515,2.223743928444425],[102.25619682147244,2.224368581251707],[102.25648811777562,2.224978836350813],[102.25681097724178,2.225573021093772],[102.25716451493558,2.226149506881809],[102.25754776183474,2.226706713629099],[102.25795966748622,2.227243114093318],[102.25839910288518,2.227757238061541],[102.2588648635698,2.228247676379714],[102.25935567292235,2.228713084814759],[102.25987018566856,2.229152187738812],[102.26040699156475,2.229563781625286],[102.26096461926326,2.229946738347479],[102.26154154034535,2.23030000827035],[102.26213617351041,2.230622623127307],[102.2627468889103,2.23091369867387],[102.2633720126165,2.231172437111141],[102.26400983120844,2.231398129272291],[102.26465859646967,2.231590156566115],[102.26531653017972,2.231747992672439],[102.26598182898798,2.23187120498453],[102.26665266935672,2.231959455794744],[102.26732721255908,2.232012503220064],[102.26800360971905,2.23203020186501],[102.268680006879,2.232012503220064],[102.26935455008136,2.231959455794744],[102.27002539045009,2.23187120498453],[102.27069068925837,2.231747992672439],[102.27134862296842,2.231590156566115],[102.27199738822965,2.231398129272291],[102.27263520682159,2.231172437111141],[102.27326033052779,2.23091369867387],[102.27387104592766,2.230622623127307],[102.27446567909273,2.23030000827035],[102.27504260017481,2.229946738347479],[102.27560022787333,2.229563781625286],[102.27613703376952,2.229152187738812],[102.27665154651572,2.228713084814759],[102.27714235586829,2.228247676379714],[102.2776081165529,2.227757238061541],[102.27804755195187,2.227243114093318],[102.27845945760332,2.226706713629099],[102.27884270450251,2.226149506881809],[102.2791962421963,2.225573021093772],[102.27951910166247,2.224978836350813],[102.27981039796565,2.224368581251707],[102.28006933268293,2.223743928444425],[102.28029519609224,2.223106590041804],[102.28048736911767,2.222458312928873],[102.28064532502633,2.221800873974998],[102.28076863087205,2.22113607516371],[102.28085694868209,2.220465738653732],[102.28091003638342,2.21979170178466],[102.28092774846641,2.219115812041004]],[[102.28831548757661,2.192343081898119],[102.28829562537682,2.19158513009667],[102.28823609321837,2.190829255406288],[102.28813705427478,2.190077529631795],[102.2879987800049,2.189332013209209],[102.28782164940887,2.188594749558133],[102.28760614798938,2.187867759480764],[102.2873528664208,2.18715303562288],[102.28706249893035,2.186452537011895],[102.28673584139511,2.185768183687198],[102.28637378916069,2.185101851437092],[102.28597733458707,2.184455366657269],[102.28554756432872,2.18383050134438],[102.28508565635602,2.183228968238929],[102.28459287672665,2.182652416130372],[102.28407057611525,2.182102425337672],[102.28352018611157,2.181580503377349],[102.28294321529631,2.181088080831221],[102.28234124510638,2.180626507424866],[102.28171592550021,2.180197048327925],[102.2810689704354,2.1798008806859],[102.28040215317081,2.179439090393489],[102.27971730140621,2.179112669117859],[102.27901629227267,2.178822511580328],[102.27830104718753,2.178569413103706],[102.27757352658779,2.178354067432196],[102.27683572455692,2.178177064829599],[102.27608966335897,2.178038890461352],[102.27533738789582,2.177939923064521],[102.27458096010221,2.177880433909595],[102.27382245329419,2.177860586056896],[102.27306394648616,2.177880433909595],[102.27230751869257,2.177939923064521],[102.2715552432294,2.178038890461352],[102.27080918203146,2.178177064829599],[102.27007138000057,2.178354067432196],[102.26934385940086,2.178569413103706],[102.26862861431572,2.178822511580328],[102.26792760518217,2.179112669117859],[102.26724275341756,2.179439090393489],[102.26657593615299,2.1798008806859],[102.26592898108818,2.180197048327925],[102.26530366148201,2.180626507424866],[102.26470169129207,2.181088080831221],[102.26412472047681,2.181580503377349],[102.26357433047313,2.182102425337672],[102.26305202986174,2.182652416130372],[102.26255925023236,2.183228968238929],[102.26209734225964,2.18383050134438],[102.2616675720013,2.184455366657269],[102.26127111742768,2.185101851437092],[102.26090906519326,2.185768183687198],[102.26058240765803,2.186452537011895],[102.26029204016757,2.18715303562288],[102.26003875859901,2.187867759480764],[102.2598232571795,2.188594749558133],[102.25964612658348,2.189332013209209],[102.25950785231359,2.190077529631795],[102.25940881337,2.190829255406288],[102.25934928121156,2.19158513009667],[102.25932941901176,2.192343081898119],[102.25934928121156,2.193101033315726],[102.25940881337,2.193856906858779],[102.25950785231359,2.194608630735015],[102.25964612658348,2.19535414452923],[102.2598232571795,2.196091404850609],[102.26003875859901,2.19681839093343],[102.26029204016757,2.197533110175705],[102.26058240765803,2.198233603600554],[102.26090906519326,2.198917951225443],[102.26127111742768,2.199584277324496],[102.2616675720013,2.200230755569424],[102.26209734225964,2.200855614035151],[102.26255925023236,2.201457140056235],[102.26305202986174,2.202033684920786],[102.26357433047313,2.202583668389241],[102.26412472047681,2.203105583025332],[102.26470169129207,2.203597998327467],[102.26530366148201,2.204059564649442],[102.26592898108818,2.204489016899246],[102.26657593615299,2.204885178006364],[102.26724275341756,2.205246962147722],[102.26792760518217,2.205573377723543],[102.26862861431572,2.205863530074951],[102.26934385940086,2.206116623935939],[102.27007138000057,2.206331965612914],[102.27080918203146,2.206508964885814],[102.2715552432294,2.206647136625689],[102.27230751869257,2.206746102124263],[102.27306394648616,2.206805590131861],[102.27382245329419,2.206825437600705],[102.27458096010221,2.206805590131861],[102.27533738789582,2.206746102124263],[102.27608966335897,2.206647136625689],[102.27683572455692,2.206508964885814],[102.27757352658779,2.206331965612914],[102.27830104718753,2.206116623935939],[102.27901629227267,2.205863530074951],[102.27971730140621,2.205573377723543],[102.28040215317081,2.205246962147722],[102.2810689704354,2.204885178006364],[102.28171592550021,2.204489016899246],[102.28234124510638,2.204059564649442],[102.28294321529631,2.203597998327467],[102.28352018611157,2.203105583025332],[102.28407057611525,2.202583668389241],[102.28459287672665,2.202033684920786],[102.28508565635602,2.201457140056235],[102.28554756432872,2.200855614035151],[102.28597733458707,2.200230755569424],[102.28637378916069,2.199584277324496],[102.28673584139511,2.198917951225443],[102.28706249893035,2.198233603600554],[102.2873528664208,2.197533110175705],[102.28760614798938,2.19681839093343],[102.28782164940887,2.196091404850609],[102.2879987800049,2.19535414452923],[102.28813705427478,2.194608630735015],[102.28823609321837,2.193856906858779],[102.28829562537682,2.193101033315726],[102.28831548757661,2.192343081898119]],[[102.05822364854544,2.371787424505654],[102.05820360753651,2.371022744680672],[102.05814353944066,2.370260160369117],[102.05804360890043,2.369501761766883],[102.05790408981846,2.368749627600543],[102.05772536460685,2.368005819429563],[102.05750792313899,2.367272375995614],[102.05725236140681,2.366551307634336],[102.05695937988729,2.365844590764913],[102.05662978162239,2.365154162472673],[102.05626447001804,2.364481915199395],[102.05586444636796,2.363829691555975],[102.05543080710916,2.363199279271615],[102.05496474081673,2.362592406293521],[102.05446752494593,2.362010736050328],[102.05394052233098,2.361455862892445],[102.05338517744937,2.360929307721658],[102.0528030124628,2.360432513822129],[102.05219562304507,2.359966842904061],[102.05156467400833,2.359533571370992],[102.05091189474005,2.35913388682092],[102.05023907446282,2.35876888479083],[102.04954805733026,2.358439565753597],[102.0488407373723,2.358146832375475],[102.04811905330376,2.357891487041646],[102.04738498321053,2.35767422965669],[102.04664053912771,2.357495655725938],[102.04588776152477,2.357356254723102],[102.0451287137128,2.357256408748484],[102.0443654761891,2.357196391481461],[102.04360014093467,2.357176367430371],[102.04283480568023,2.357196391481461],[102.04207156815653,2.357256408748484],[102.04131252034456,2.357356254723102],[102.0405597427416,2.357495655725938],[102.0398152986588,2.35767422965669],[102.03908122856556,2.357891487041646],[102.03835954449701,2.358146832375475],[102.03765222453906,2.358439565753597],[102.03696120740649,2.35876888479083],[102.03628838712928,2.35913388682092],[102.035635607861,2.359533571370992],[102.03500465882426,2.359966842904061],[102.03439726940653,2.360432513822129],[102.03381510441996,2.360929307721658],[102.03325975953835,2.361455862892445],[102.0327327569234,2.362010736050328],[102.0322355410526,2.362592406293521],[102.03176947476018,2.363199279271615],[102.03133583550137,2.363829691555975],[102.0309358118513,2.364481915199395],[102.03057050024694,2.365154162472673],[102.03024090198204,2.365844590764913],[102.0299479204625,2.366551307634336],[102.02969235873034,2.367272375995614],[102.02947491726248,2.368005819429563],[102.02929619205086,2.368749627600543],[102.0291566729689,2.369501761766883],[102.02905674242865,2.370260160369117],[102.02899667433282,2.371022744680672],[102.0289766333239,2.371787424505654],[102.02899667433282,2.372552103907927],[102.02905674242865,2.373314686956001],[102.0291566729689,2.374073083467809],[102.02929619205086,2.374825214739704],[102.02947491726248,2.375569019243898],[102.02969235873034,2.376302458278924],[102.0299479204625,2.377023521557332],[102.03024090198204,2.377730232715625],[102.03057050024694,2.378420654731027],[102.0309358118513,2.379092895230563],[102.03133583550137,2.379745111677533],[102.03176947476018,2.380375516421586],[102.0322355410526,2.380982381598123],[102.0327327569234,2.381564043863989],[102.03325975953835,2.382118908956176],[102.03381510441996,2.382645456061268],[102.03439726940653,2.383142241983456],[102.03500465882426,2.383607905099967],[102.035635607861,2.38404116909273],[102.03628838712928,2.384440846446365],[102.03696120740649,2.3848058417027],[102.03765222453906,2.385135154463108],[102.03835954449701,2.385427882130086],[102.03908122856556,2.385683222381032],[102.0398152986588,2.38590047536709],[102.0405597427416,2.386079045631058],[102.04131252034456,2.386218443739436],[102.04207156815653,2.386318287623641],[102.04283480568023,2.386378303627182],[102.04360014093467,2.386398327255564],[102.0443654761891,2.386378303627182],[102.0451287137128,2.386318287623641],[102.04588776152477,2.386218443739436],[102.04664053912771,2.386079045631058],[102.04738498321053,2.38590047536709],[102.04811905330376,2.385683222381032],[102.0488407373723,2.385427882130086],[102.04954805733026,2.385135154463108],[102.05023907446282,2.3848058417027],[102.05091189474005,2.384440846446365],[102.05156467400833,2.38404116909273],[102.05219562304507,2.383607905099967],[102.0528030124628,2.383142241983456],[102.05338517744937,2.382645456061268],[102.05394052233098,2.382118908956176],[102.05446752494593,2.381564043863989],[102.05496474081673,2.380982381598123],[102.05543080710916,2.380375516421586],[102.05586444636796,2.379745111677533],[102.05626447001804,2.379092895230563],[102.05662978162239,2.378420654731027],[102.05695937988729,2.377730232715625],[102.05725236140681,2.377023521557332],[102.05750792313899,2.376302458278924],[102.05772536460685,2.375569019243898],[102.05790408981846,2.374825214739704],[102.05804360890043,2.374073083467809],[102.05814353944066,2.373314686956001],[102.05820360753651,2.372552103907927],[102.05822364854544,2.371787424505654]],[[102.14122312925063,2.437258894309064],[102.1412059763244,2.436604442884907],[102.14115456456062,2.435951784949823],[102.1410690348754,2.435302709397849],[102.14094962169968,2.434658995306469],[102.1407966523366,2.434022407060316],[102.14061054606461,2.433394689514904],[102.14039181298807,2.432777563214063],[102.14014105263911,2.432172719673842],[102.13985895233444,2.431581816746042],[102.13954628529137,2.431006474073937],[102.13920390850853,2.430448268652731],[102.1388327604169,2.429908730506956],[102.1384338583076,2.42938933849645],[102.13800829554354,2.428891516262705],[102.13755723856275,2.428416628326463],[102.13708192368101,2.427965976347449],[102.13658365370338,2.427540795556284],[102.13606379435325,2.42714225136856],[102.13552377052893,2.42677143619022],[102.13496506239824,2.426429366423146],[102.13438920134129,2.426116979678944],[102.13379776575322,2.425835132208809],[102.13319237671787,2.425584596556434],[102.1325746935645,2.425366059440164],[102.1319464093197,2.425180119870718],[102.13130924606692,2.425027287509059],[102.13066495022633,2.424907981269339],[102.13001528776807,2.42482252817058],[102.12936203937174,2.424771162440214],[102.12870699554584,2.424754024872036],[102.12805195171994,2.424771162440214],[102.12739870332362,2.42482252817058],[102.12674904086536,2.424907981269339],[102.12610474502478,2.425027287509059],[102.12546758177199,2.425180119870718],[102.12483929752719,2.425366059440164],[102.12422161437381,2.425584596556434],[102.12361622533847,2.425835132208809],[102.12302478975039,2.426116979678944],[102.12244892869344,2.426429366423146],[102.12189022056275,2.42677143619022],[102.12135019673845,2.42714225136856],[102.12083033738831,2.427540795556284],[102.12033206741067,2.427965976347449],[102.11985675252895,2.428416628326463],[102.11940569554814,2.428891516262705],[102.1189801327841,2.42938933849645],[102.11858123067479,2.429908730506956],[102.11821008258315,2.430448268652731],[102.11786770580032,2.431006474073937],[102.11755503875726,2.431581816746042],[102.11727293845259,2.432172719673842],[102.11702217810362,2.432777563214063],[102.11680344502707,2.433394689514904],[102.11661733875509,2.434022407060316],[102.11646436939202,2.434658995306469],[102.11634495621628,2.435302709397849],[102.11625942653106,2.435951784949823],[102.11620801476728,2.436604442884907],[102.11619086184105,2.437258894309064],[102.11620801476728,2.437913345415038],[102.11625942653106,2.438566002399072],[102.11634495621628,2.439215076377549],[102.11646436939202,2.439858788290185],[102.11661733875509,2.440495373776279],[102.11680344502707,2.441123088010516],[102.11702217810362,2.441740210485354],[102.11727293845259,2.442345049726673],[102.11755503875726,2.44293594792976],[102.11786770580032,2.443511285503118],[102.11821008258315,2.444069485507368],[102.11858123067479,2.444609017977379],[102.1189801327841,2.445128404115474],[102.11940569554814,2.44562622034451],[102.11985675252895,2.446101102209507],[102.12033206741067,2.446551748117275],[102.12083033738831,2.446976922903717],[102.12135019673845,2.44737546121903],[102.12189022056275,2.447746270721607],[102.12244892869344,2.448088335071751],[102.12302478975039,2.448400716717194],[102.12361622533847,2.448682559462601],[102.12422161437381,2.448933090816088],[102.12483929752719,2.449151624106342],[102.12546758177199,2.449337560364614],[102.12610474502478,2.449490389966226],[102.12674904086536,2.449609694027215],[102.12739870332362,2.449695145552464],[102.12805195171994,2.449746510331768],[102.12870699554584,2.449763647581777],[102.12936203937174,2.449746510331768],[102.13001528776807,2.449695145552464],[102.13066495022633,2.449609694027215],[102.13130924606692,2.449490389966226],[102.1319464093197,2.449337560364614],[102.1325746935645,2.449151624106342],[102.13319237671787,2.448933090816088],[102.13379776575322,2.448682559462601],[102.13438920134129,2.448400716717194],[102.13496506239824,2.448088335071751],[102.13552377052893,2.447746270721607],[102.13606379435325,2.44737546121903],[102.13658365370338,2.446976922903717],[102.13708192368101,2.446551748117275],[102.13755723856275,2.446101102209507],[102.13800829554354,2.44562622034451],[102.1384338583076,2.445128404115474],[102.1388327604169,2.444609017977379],[102.13920390850853,2.444069485507368],[102.13954628529137,2.443511285503118],[102.13985895233444,2.44293594792976],[102.14014105263911,2.442345049726673],[102.14039181298807,2.441740210485354],[102.14061054606461,2.441123088010516],[102.1407966523366,2.440495373776279],[102.14094962169968,2.439858788290185],[102.1410690348754,2.439215076377549],[102.14115456456062,2.438566002399072],[102.1412059763244,2.437913345415038],[102.14122312925063,2.437258894309064]],[[102.1611139901473,2.364227266145956],[102.16109531311959,2.363514626179878],[102.16103933322886,2.362803939146065],[102.16094620391213,2.362097152992876],[102.16081618043037,2.361396204979578],[102.16064961916891,2.360703016366319],[102.16044697666058,2.360019487148047],[102.16020880833443,2.35934749084655],[102.15993576699326,2.35868886937509],[102.15962860102444,2.358045427989723],[102.15928815234852,2.357418930340895],[102.15891535411166,2.356811093639211],[102.15851122812789,2.35622358394841],[102.15807688207849,2.35565801161849],[102.15761350647574,2.355115926871612],[102.15712237139999,2.354598815552698],[102.15660482301834,2.354108095056541],[102.15606227989494,2.353645110442501],[102.15549622910275,2.353211130747507],[102.15490822214765,2.352807345507382],[102.15429987071589,2.352434861496096],[102.15367284225637,2.352094699691933],[102.15302885541057,2.35178779247872],[102.15236967530166,2.35151498109003],[102.15169710869647,2.351277013303095],[102.15101299905336,2.351074541389086],[102.1503192214693,2.350908120324998],[102.14961767754042,2.350778206272359],[102.14891029014984,2.350685155326808],[102.14819899819726,2.350629222541897],[102.14748575128446,2.350610561229981],[102.14677250437167,2.350629222541897],[102.14606121241908,2.350685155326808],[102.14535382502852,2.350778206272359],[102.14465228109961,2.350908120324998],[102.14395850351555,2.351074541389086],[102.14327439387245,2.351277013303095],[102.14260182726727,2.35151498109003],[102.14194264715837,2.35178779247872],[102.14129866031257,2.352094699691933],[102.14067163185305,2.352434861496096],[102.14006328042126,2.352807345507382],[102.13947527346618,2.353211130747507],[102.13890922267399,2.353645110442501],[102.13836667955059,2.354108095056541],[102.13784913116892,2.354598815552698],[102.13735799609317,2.355115926871612],[102.13689462049044,2.35565801161849],[102.13646027444103,2.35622358394841],[102.13605614845727,2.356811093639211],[102.1356833502204,2.357418930340895],[102.13534290154449,2.358045427989723],[102.13503573557567,2.35868886937509],[102.13476269423448,2.35934749084655],[102.13452452590833,2.360019487148047],[102.1343218834,2.360703016366319],[102.13415532213855,2.361396204979578],[102.13402529865681,2.362097152992876],[102.13393216934007,2.362803939146065],[102.13387618944935,2.363514626179878],[102.13385751242164,2.364227266145956],[102.13387618944935,2.364939905746079],[102.13393216934007,2.365650591686023],[102.13402529865681,2.366357376029425],[102.13415532213855,2.367058321536853],[102.1343218834,2.367751506975587],[102.13452452590833,2.368435032385489],[102.13476269423448,2.369107024286498],[102.13503573557567,2.369765640813518],[102.13534290154449,2.37040907676473],[102.1356833502204,2.371035568549175],[102.13605614845727,2.371643399020521],[102.13646027444103,2.372230902183297],[102.13689462049044,2.372796467759004],[102.13735799609317,2.373338545599511],[102.13784913116892,2.373855649935542],[102.13836667955059,2.374346363448817],[102.13890922267399,2.374809341156473],[102.13947527346618,2.375243314097267],[102.14006328042126,2.375647092809355],[102.14067163185305,2.376019570590302],[102.14129866031257,2.376359726530096],[102.14194264715837,2.37666662830914],[102.14260182726727,2.376939434753404],[102.14327439387245,2.377177398139838],[102.14395850351555,2.377379866245476],[102.14465228109961,2.377546284135052],[102.14535382502852,2.377676195681809],[102.14606121241908,2.377769244817586],[102.14677250437167,2.377825176508627],[102.14748575128446,2.377843837454602],[102.14819899819726,2.377825176508627],[102.14891029014984,2.377769244817586],[102.14961767754042,2.377676195681809],[102.1503192214693,2.377546284135052],[102.15101299905336,2.377379866245476],[102.15169710869647,2.377177398139838],[102.15236967530166,2.376939434753404],[102.15302885541057,2.37666662830914],[102.15367284225637,2.376359726530096],[102.15429987071589,2.376019570590302],[102.15490822214765,2.375647092809355],[102.15549622910275,2.375243314097267],[102.15606227989494,2.374809341156473],[102.15660482301834,2.374346363448817],[102.15712237139999,2.373855649935542],[102.15761350647574,2.373338545599511],[102.15807688207849,2.372796467759004],[102.15851122812789,2.372230902183297],[102.15891535411166,2.371643399020521],[102.15928815234852,2.371035568549175],[102.15962860102444,2.37040907676473],[102.15993576699326,2.369765640813518],[102.16020880833443,2.369107024286498],[102.16044697666058,2.368435032385489],[102.16064961916891,2.367751506975587],[102.16081618043037,2.367058321536853],[102.16094620391213,2.366357376029425],[102.16103933322886,2.365650591686023],[102.16109531311959,2.364939905746079],[102.1611139901473,2.364227266145956]],[[102.24250078246459,2.354820218614797],[102.24248320890244,2.354149677913526],[102.24243053638388,2.353480974796412],[102.24234290928061,2.352815942136292],[102.24222056777246,2.352156402748074],[102.24206384718897,2.35150416439254],[102.24187317709038,2.350861014821259],[102.24164908009021,2.350228716876356],[102.24139217042271,2.349609003658528],[102.24110315225944,2.349003573776589],[102.24078281777909,2.348414086691445],[102.2404320449962,2.347842158167493],[102.24005179535463,2.347289355843612],[102.23964311109216,2.346757194936166],[102.23920711238397,2.346247134085647],[102.23874499427221,2.345760571358364],[102.23825802339051,2.345298840414161],[102.2377475344922,2.344863206850681],[102.23721492679186,2.344454864734192],[102.23666166013021,2.344074933326427],[102.23608925097268,2.343724454016522],[102.23549926825298,2.343404387466373],[102.23489332907276,2.343115610977311],[102.23427309426917,2.342858916085201],[102.2336402638627,2.342635006390733],[102.23299657239752,2.342444495630672],[102.23234378418718,2.342287905995496],[102.23168368847881,2.342165666697942],[102.23101809454886,2.342078112796481],[102.23034882674398,2.342025484276764],[102.22967771948076,2.342007925393864],[102.22900661221755,2.342025484276764],[102.22833734441268,2.342078112796481],[102.22767175048271,2.342165666697942],[102.22701165477433,2.342287905995496],[102.22635886656401,2.342444495630672],[102.22571517509881,2.342635006390733],[102.22508234469235,2.342858916085201],[102.22446210988876,2.343115610977311],[102.22385617070853,2.343404387466373],[102.22326618798886,2.343724454016522],[102.22269377883131,2.344074933326427],[102.22214051216964,2.344454864734192],[102.22160790446932,2.344863206850681],[102.22109741557101,2.345298840414161],[102.22061044468931,2.345760571358364],[102.22014832657756,2.346247134085647],[102.21971232786937,2.346757194936166],[102.2193036436069,2.347289355843612],[102.21892339396531,2.347842158167493],[102.21857262118243,2.348414086691445],[102.21825228670208,2.349003573776589],[102.21796326853881,2.349609003658528],[102.21770635887131,2.350228716876356],[102.21748226187113,2.350861014821259],[102.21729159177255,2.35150416439254],[102.21713487118907,2.352156402748074],[102.2170125296809,2.352815942136292],[102.21692490257766,2.353480974796412],[102.21687223005908,2.354149677913526],[102.21685465649692,2.354820218614797],[102.21687223005908,2.355490758993368],[102.21692490257766,2.356159461145897],[102.2170125296809,2.356824492210142],[102.21713487118907,2.35748402938865],[102.21729159177255,2.358136264944851],[102.21748226187113,2.358779411157848],[102.21770635887131,2.359411705222334],[102.21796326853881,2.360031414080105],[102.21825228670208,2.360636839170131],[102.21857262118243,2.361226321083986],[102.21892339396531,2.361798244113949],[102.2193036436069,2.362351040681332],[102.21971232786937,2.362883195632833],[102.22014832657756,2.363393250393213],[102.22061044468931,2.363879806962892],[102.22109741557101,2.364341531749503],[102.22160790446932,2.364777159222843],[102.22214051216964,2.365185495383388],[102.22269377883131,2.365565421034641],[102.22326618798886,2.365915894850558],[102.22385617070853,2.366235956229418],[102.22446210988876,2.366524727926567],[102.22508234469235,2.36678141845862],[102.22571517509881,2.367005324272671],[102.22635886656401,2.367195831674461],[102.22701165477433,2.367352418510304],[102.22767175048271,2.367474655598135],[102.22833734441268,2.367562207903708],[102.22900661221755,2.36761483545884],[102.22967771948076,2.36763239401904],[102.23034882674398,2.36761483545884],[102.23101809454886,2.367562207903708],[102.23168368847881,2.367474655598135],[102.23234378418718,2.367352418510304],[102.23299657239752,2.367195831674461],[102.2336402638627,2.367005324272671],[102.23427309426917,2.36678141845862],[102.23489332907276,2.366524727926567],[102.23549926825298,2.366235956229418],[102.23608925097268,2.365915894850558],[102.23666166013021,2.365565421034641],[102.23721492679186,2.365185495383388],[102.2377475344922,2.364777159222843],[102.23825802339051,2.364341531749503],[102.23874499427221,2.363879806962892],[102.23920711238397,2.363393250393213],[102.23964311109216,2.362883195632833],[102.24005179535463,2.362351040681332],[102.2404320449962,2.361798244113949],[102.24078281777909,2.361226321083986],[102.24110315225944,2.360636839170131],[102.24139217042271,2.360031414080105],[102.24164908009021,2.359411705222334],[102.24187317709038,2.358779411157848],[102.24206384718897,2.358136264944851],[102.24222056777246,2.35748402938865],[102.24234290928061,2.356824492210142],[102.24243053638388,2.356159461145897],[102.24248320890244,2.355490758993368],[102.24250078246459,2.354820218614797]],[[102.2715215096541,2.435714682676623],[102.27150417103886,2.435053145729435],[102.27145220271713,2.434393421685566],[102.27136574713045,2.433737318806824],[102.27124504124758,2.433086635432272],[102.27109041591497,2.432443155049043],[102.27090229494985,2.431808641403774],[102.27068119397877,2.431184833668204],[102.27042771902411,2.430573441672079],[102.27014256484308,2.42997614121642],[102.26982651302347,2.429394569480094],[102.26948042984138,2.428830320532211],[102.26910526388673,2.428284940962622],[102.26870204346334,2.4277599256426],[102.26827187377036,2.427256713627254],[102.267815933873,2.426776684210861],[102.26733547347084,2.426321153146121],[102.26683180947245,2.425891369037382],[102.26630632238583,2.425488509918152],[102.26576045253458,2.425113680021818],[102.26519569610997,2.424767906754788],[102.26461360107018,2.424452137880186],[102.26401576289719,2.424167238919849],[102.26340382022389,2.423913990781756],[102.26277945034263,2.423693087619395],[102.26214436460785,2.42350513492897],[102.2615003037454,2.423350647889552],[102.26084903308131,2.423230049950879],[102.26019233770324,2.423143671672642],[102.25953201756757,2.423091749818245],[102.25886988256588,2.423074426705857],[102.25820774756419,2.423091749818245],[102.25754742742852,2.423143671672642],[102.25689073205044,2.423230049950879],[102.25623946138637,2.423350647889552],[102.25559540052392,2.42350513492897],[102.25496031478912,2.423693087619395],[102.25433594490787,2.423913990781756],[102.25372400223458,2.424167238919849],[102.25312616406158,2.424452137880186],[102.25254406902178,2.424767906754788],[102.25197931259719,2.425113680021818],[102.25143344274592,2.425488509918152],[102.2509079556593,2.425891369037382],[102.25040429166093,2.426321153146121],[102.24992383125877,2.426776684210861],[102.2494678913614,2.427256713627254],[102.24903772166843,2.4277599256426],[102.24863450124504,2.428284940962622],[102.24825933529038,2.428830320532211],[102.24791325210828,2.429394569480094],[102.24759720028868,2.42997614121642],[102.24731204610765,2.430573441672079],[102.24705857115299,2.431184833668204],[102.2468374701819,2.431808641403774],[102.2466493492168,2.432443155049043],[102.24649472388417,2.433086635432272],[102.2463740180013,2.433737318806824],[102.24628756241462,2.434393421685566],[102.2462355940929,2.435053145729435],[102.24621825547767,2.435714682676623],[102.2462355940929,2.436376219298899],[102.24628756241462,2.43703594237163],[102.2463740180013,2.437692043643632],[102.24649472388417,2.438342724793436],[102.2466493492168,2.4389862023583],[102.2468374701819,2.439620712622448],[102.24705857115299,2.440244516451203],[102.24731204610765,2.440855904057615],[102.24759720028868,2.441453199688768],[102.24791325210828,2.442034766218627],[102.24825933529038,2.44259900963517],[102.24863450124504,2.443144383409114],[102.24903772166843,2.443669392732671],[102.2494678913614,2.444172598616468],[102.24992383125877,2.444652621833374],[102.25040429166093,2.445108146698653],[102.2509079556593,2.44553792467583],[102.25143344274592,2.445940777798607],[102.25197931259719,2.446315601899284],[102.25254406902178,2.446661369634959],[102.25312616406158,2.446977133303109],[102.25372400223458,2.447262027438926],[102.25433594490787,2.447515271187319],[102.25496031478912,2.447736170442864],[102.25559540052392,2.447924119752181],[102.25623946138637,2.448078603973234],[102.25689073205044,2.44819919968716],[102.25754742742852,2.448285576358657],[102.25820774756419,2.448337497241904],[102.25886988256588,2.448354820029405],[102.25953201756757,2.448337497241904],[102.26019233770324,2.448285576358657],[102.26084903308131,2.44819919968716],[102.2615003037454,2.448078603973234],[102.26214436460785,2.447924119752181],[102.26277945034263,2.447736170442864],[102.26340382022389,2.447515271187319],[102.26401576289719,2.447262027438926],[102.26461360107018,2.446977133303109],[102.26519569610997,2.446661369634959],[102.26576045253458,2.446315601899284],[102.26630632238583,2.445940777798607],[102.26683180947245,2.44553792467583],[102.26733547347084,2.445108146698653],[102.267815933873,2.444652621833374],[102.26827187377036,2.444172598616468],[102.26870204346334,2.443669392732671],[102.26910526388673,2.443144383409114],[102.26948042984138,2.44259900963517],[102.26982651302347,2.442034766218627],[102.27014256484308,2.441453199688768],[102.27042771902411,2.440855904057615],[102.27068119397877,2.440244516451203],[102.27090229494985,2.439620712622448],[102.27109041591497,2.4389862023583],[102.27124504124758,2.438342724793436],[102.27136574713045,2.437692043643632],[102.27145220271713,2.43703594237163],[102.27150417103886,2.436376219298899],[102.2715215096541,2.435714682676623]],[[102.3786059779262,2.400684380329047],[102.37858456930077,2.399867535213983],[102.37852040210402,2.399052928528534],[102.37841365221374,2.398242793059171],[102.37826461222404,2.397439349340973],[102.37807369064309,2.396644799571183],[102.37784141077373,2.395861321573033],[102.37756840927891,2.395091062826229],[102.37725543443676,2.394336134580654],[102.37690334408958,2.39359860606932],[102.3765131032925,2.39288049883642],[102.37608578166845,2.392183781196121],[102.37562255047628,2.391510362837177],[102.37512467940051,2.390862089588226],[102.37459353307115,2.390240738358147],[102.37403056732333,2.389648012265236],[102.37343732520709,2.38908553596864],[102.3728154327578,2.388554851214978],[102.37216659453946,2.38805741261194],[102.3714925889725,2.387594583641053],[102.37079526345934,2.387167632919947],[102.37007652932076,2.386777730724851],[102.36933835655702,2.386425945782554],[102.36858276844842,2.386113242340751],[102.36781183600942,2.385840477524796],[102.36702767231225,2.385608398988044],[102.36623242669508,2.385417642862375],[102.36542827887091,2.385268732014375],[102.36461743295297,2.385162074611967],[102.36380211141362,2.385097963005528],[102.36298454899249,2.385076572926482],[102.36216698657134,2.385097963005528],[102.36135166503199,2.385162074611967],[102.36054081911406,2.385268732014375],[102.35973667128988,2.385417642862375],[102.35894142567273,2.385608398988044],[102.35815726197555,2.385840477524796],[102.35738632953655,2.386113242340751],[102.35663074142795,2.386425945782554],[102.35589256866422,2.386777730724851],[102.35517383452562,2.387167632919947],[102.35447650901247,2.387594583641053],[102.3538025034455,2.38805741261194],[102.35315366522717,2.388554851214978],[102.35253177277787,2.38908553596864],[102.35193853066163,2.389648012265236],[102.35137556491382,2.390240738358147],[102.35084441858446,2.390862089588226],[102.35034654750869,2.391510362837177],[102.34988331631652,2.392183781196121],[102.34945599469248,2.39288049883642],[102.34906575389539,2.39359860606932],[102.3487136635482,2.394336134580654],[102.34840068870605,2.395091062826229],[102.34812768721123,2.395861321573033],[102.34789540734188,2.396644799571183],[102.34770448576094,2.397439349340973],[102.34755544577122,2.398242793059171],[102.34744869588096,2.399052928528534],[102.3473845286842,2.399867535213983],[102.34736312005876,2.400684380329047],[102.3473845286842,2.401501224955897],[102.34744869588096,2.402315830182006],[102.34755544577122,2.403125963236907],[102.34770448576094,2.403929403611987],[102.34789540734188,2.404723949146613],[102.34812768721123,2.405507422063967],[102.34840068870605,2.406277674940002],[102.3487136635482,2.407032596589157],[102.34906575389539,2.40777011785071],[102.34945599469248,2.408488217259865],[102.34988331631652,2.409184926588191],[102.35034654750869,2.409858336238013],[102.35084441858446,2.410506600476084],[102.35137556491382,2.411127942492274],[102.35193853066163,2.411720659269239],[102.35253177277787,2.412283126249863],[102.35315366522717,2.412813801789649],[102.3538025034455,2.413311231381807],[102.35447650901247,2.413774051643572],[102.35517383452562,2.414200994052705],[102.35589256866422,2.414590888424056],[102.35663074142795,2.414942666116558],[102.35738632953655,2.415255362961942],[102.35815726197555,2.415528121907141],[102.35894142567273,2.415760195363096],[102.35973667128988,2.415950947253602],[102.36054081911406,2.416099854758483],[102.36135166503199,2.41620650974643],[102.36216698657134,2.416270619893528],[102.36298454899249,2.416292009484347],[102.36380211141362,2.416270619893528],[102.36461743295297,2.41620650974643],[102.36542827887091,2.416099854758483],[102.36623242669508,2.415950947253602],[102.36702767231225,2.415760195363096],[102.36781183600942,2.415528121907141],[102.36858276844842,2.415255362961942],[102.36933835655702,2.414942666116558],[102.37007652932076,2.414590888424056],[102.37079526345934,2.414200994052705],[102.3714925889725,2.413774051643572],[102.37216659453946,2.413311231381807],[102.3728154327578,2.412813801789649],[102.37343732520709,2.412283126249863],[102.37403056732333,2.411720659269239],[102.37459353307115,2.411127942492274],[102.37512467940051,2.410506600476084],[102.37562255047628,2.409858336238013],[102.37608578166845,2.409184926588191],[102.3765131032925,2.408488217259865],[102.37690334408958,2.40777011785071],[102.37725543443676,2.407032596589157],[102.37756840927891,2.406277674940002],[102.37784141077373,2.405507422063967],[102.37807369064309,2.404723949146613],[102.37826461222404,2.403929403611987],[102.37841365221374,2.403125963236907],[102.37852040210402,2.402315830182006],[102.37858456930077,2.401501224955897],[102.3786059779262,2.400684380329047]],[[102.49317946841718,2.361081357192008],[102.49316018896535,2.360345729481611],[102.49310240345348,2.359612117687939],[102.49300627026764,2.35888253259481],[102.49287205290221,2.358158973952279],[102.49270011923767,2.357443424995331],[102.49249094053225,2.356737847007924],[102.49224509013023,2.356044173946965],[102.49196324189046,2.355364307141403],[102.4916461683394,2.354700110080578],[102.49129473855359,2.354053403306218],[102.49090991577768,2.353425959422309],[102.4904927547841,2.352819498236125],[102.49004439898216,2.35223568204414],[102.489566077284,2.351676111075432],[102.48905910073604,2.35114231910526],[102.48852485892584,2.350635769250748],[102.48796481617306,2.350157849960267],[102.48738050751594,2.349709871207463],[102.48677353450388,2.349293060900381],[102.48614556080774,2.348908561515481],[102.48549830765977,2.348557426966007],[102.48483354913583,2.348240619712842],[102.48415310729287,2.347959008126281],[102.48345884717465,2.347713364105622],[102.48275267169993,2.347504360963171],[102.48203651644656,2.347332571578567],[102.48131234434635,2.347198466828377],[102.48058214030466,2.347102414295298],[102.47984790576002,2.347044677260492],[102.4791116531983,2.347025413981925],[102.47837540063657,2.347044677260492],[102.47764116609193,2.347102414295298],[102.47691096205024,2.347198466828377],[102.47618678995003,2.347332571578567],[102.47547063469668,2.347504360963171],[102.47476445922194,2.347713364105622],[102.47407019910372,2.347959008126281],[102.47338975726076,2.348240619712842],[102.47272499873682,2.348557426966007],[102.47207774558885,2.348908561515481],[102.47144977189271,2.349293060900381],[102.47084279888065,2.349709871207463],[102.47025849022353,2.350157849960267],[102.46969844747075,2.350635769250748],[102.46916420566055,2.35114231910526],[102.4686572291126,2.351676111075432],[102.46817890741443,2.35223568204414],[102.4677305516125,2.352819498236125],[102.46731339061891,2.353425959422309],[102.466928567843,2.354053403306218],[102.46657713805719,2.354700110080578],[102.46626006450613,2.355364307141403],[102.46597821626638,2.356044173946965],[102.46573236586434,2.356737847007924],[102.46552318715892,2.357443424995331],[102.46535125349438,2.358158973952279],[102.46521703612896,2.35888253259481],[102.46512090294313,2.359612117687939],[102.46506311743126,2.360345729481611],[102.46504383797941,2.361081357192008],[102.46506311743126,2.361816984512966],[102.46512090294313,2.362550595142631],[102.46521703612896,2.363280178309909],[102.46535125349438,2.36400373428585],[102.46552318715892,2.364719279864679],[102.46573236586434,2.365424853799462],[102.46597821626638,2.366118522177691],[102.46626006450613,2.366798383721712],[102.46657713805719,2.367462574999855],[102.466928567843,2.368109275533713],[102.46731339061891,2.368736712787705],[102.4677305516125,2.369343167027175],[102.46817890741443,2.369926976031769],[102.4686572291126,2.370486539651156],[102.46916420566055,2.371020324190598],[102.46969844747075,2.371526866614381],[102.47025849022353,2.372004778555541],[102.47084279888065,2.372452750120953],[102.47144977189271,2.372869553481336],[102.47207774558885,2.373254046236305],[102.47272499873682,2.373605174545289],[102.47338975726076,2.373921976015772],[102.47407019910372,2.374203582340793],[102.47476445922194,2.374449221678722],[102.47547063469668,2.374658220768561],[102.47618678995003,2.374830006775034],[102.47691096205024,2.374964108858634],[102.47764116609193,2.375060159465862],[102.47837540063657,2.375117895336648],[102.4791116531983,2.375137158225789],[102.47984790576002,2.375117895336648],[102.48058214030466,2.375060159465862],[102.48131234434635,2.374964108858634],[102.48203651644656,2.374830006775034],[102.48275267169993,2.374658220768561],[102.48345884717465,2.374449221678722],[102.48415310729287,2.374203582340793],[102.48483354913583,2.373921976015772],[102.48549830765977,2.373605174545289],[102.48614556080774,2.373254046236305],[102.48677353450388,2.372869553481336],[102.48738050751594,2.372452750120953],[102.48796481617306,2.372004778555541],[102.48852485892584,2.371526866614381],[102.48905910073604,2.371020324190598],[102.489566077284,2.370486539651156],[102.49004439898216,2.369926976031769],[102.4904927547841,2.369343167027175],[102.49090991577768,2.368736712787705],[102.49129473855359,2.368109275533713],[102.4916461683394,2.367462574999855],[102.49196324189046,2.366798383721712],[102.49224509013023,2.366118522177691],[102.49249094053225,2.365424853799462],[102.49270011923767,2.364719279864679],[102.49287205290221,2.36400373428585],[102.49300627026764,2.363280178309909],[102.49310240345348,2.362550595142631],[102.49316018896535,2.361816984512966],[102.49317946841718,2.361081357192008]],[[102.37194729246878,2.282319764962402],[102.37192794610955,2.281581543193985],[102.3718699600589,2.280845344462703],[102.37177349325255,2.2801131866429],[102.37163881009933,2.279387076536084],[102.37146627975638,2.278669004370339],[102.3712563751174,2.277960938345153],[102.37100967151639,2.277264819236595],[102.3707268451508,2.276582555077522],[102.370408671228,2.275916015927665],[102.37005602184063,2.275267028747645],[102.36966986357615,2.274637372391175],[102.36925125486749,2.274028772729077],[102.36880134309206,2.273442897918443],[102.36832136142674,2.272881353830122],[102.36781262546792,2.272345679646734],[102.3672765296255,2.271837343643627],[102.36671454330092,2.271357739164058],[102.36612820685963,2.270908180799866],[102.36551912740907,2.270489900787891],[102.36488897439368,2.270104045632235],[102.36423947501903,2.269751672961447],[102.36357240951781,2.269433748629352],[102.36288960627019,2.269151144067449],[102.36219293679238,2.268904633896141],[102.361484310607,2.26869489380127],[102.36076567000919,2.268522498681974],[102.36003898474287,2.268387921074725],[102.35930624660182,2.26829152985799],[102.35856946397041,2.268233589241058],[102.35783065631854,2.268214258039735],[102.35709184866668,2.268233589241058],[102.35635506603526,2.26829152985799],[102.35562232789421,2.268387921074725],[102.3548956426279,2.268522498681974],[102.35417700203008,2.26869489380127],[102.35346837584471,2.268904633896141],[102.35277170636691,2.269151144067449],[102.35208890311928,2.269433748629352],[102.35142183761806,2.269751672961447],[102.35077233824342,2.270104045632235],[102.35014218522802,2.270489900787891],[102.34953310577745,2.270908180799866],[102.34894676933618,2.271357739164058],[102.34838478301158,2.271837343643627],[102.34784868716916,2.272345679646734],[102.34733995121034,2.272881353830122],[102.34685996954502,2.273442897918443],[102.34641005776959,2.274028772729077],[102.34599144906095,2.274637372391175],[102.34560529079647,2.275267028747645],[102.34525264140908,2.275916015927665],[102.3449344674863,2.276582555077522],[102.34465164112069,2.277264819236595],[102.3444049375197,2.277960938345153],[102.3441950328807,2.278669004370339],[102.34402250253777,2.279387076536084],[102.34388781938453,2.2801131866429],[102.34379135257818,2.280845344462703],[102.34373336652753,2.281581543193985],[102.3437140201683,2.282319764962402],[102.34373336652753,2.283057986351747],[102.34379135257818,2.283794183949925],[102.34388781938453,2.284526339895033],[102.34402250253777,2.285252447406097],[102.3441950328807,2.285970516283479],[102.3444049375197,2.286678578363683],[102.34465164112069,2.287374692913921],[102.3449344674863,2.28805695195122],[102.34525264140908,2.288723485472016],[102.34560529079647,2.289372466577317],[102.34599144906095,2.290002116479984],[102.34641005776959,2.290610709379929],[102.34685996954502,2.291196577194094],[102.34733995121034,2.291758114128329],[102.34784868716916,2.292293781078373],[102.34838478301158,2.292802109848148],[102.34894676933618,2.293281707173631],[102.34953310577745,2.293731258541366],[102.35014218522802,2.294149531791176],[102.35077233824342,2.294535380493042],[102.35142183761806,2.29488774708911],[102.35208890311928,2.295205665792133],[102.35277170636691,2.295488265232275],[102.35346837584471,2.295734770845249],[102.35417700203008,2.295944506995164],[102.3548956426279,2.296116898826071],[102.35562232789421,2.296251473837568],[102.35635506603526,2.296347863179608],[102.35709184866668,2.296405802663462],[102.35783065631854,2.2964251334857],[102.35856946397041,2.296405802663462],[102.35930624660182,2.296347863179608],[102.36003898474287,2.296251473837568],[102.36076567000919,2.296116898826071],[102.361484310607,2.295944506995164],[102.36219293679238,2.295734770845249],[102.36288960627019,2.295488265232275],[102.36357240951781,2.295205665792133],[102.36423947501903,2.29488774708911],[102.36488897439368,2.294535380493042],[102.36551912740907,2.294149531791176],[102.36612820685963,2.293731258541366],[102.36671454330092,2.293281707173631],[102.3672765296255,2.292802109848148],[102.36781262546792,2.292293781078373],[102.36832136142674,2.291758114128329],[102.36880134309206,2.291196577194094],[102.36925125486749,2.290610709379929],[102.36966986357615,2.290002116479984],[102.37005602184063,2.289372466577317],[102.370408671228,2.288723485472016],[102.3707268451508,2.28805695195122],[102.37100967151639,2.287374692913921],[102.3712563751174,2.286678578363683],[102.37146627975638,2.285970516283479],[102.37163881009933,2.285252447406097],[102.37177349325255,2.284526339895033],[102.3718699600589,2.283794183949925],[102.37192794610955,2.283057986351747],[102.37194729246878,2.282319764962402]],[[102.41034379740435,2.173478170959322],[102.41032633126792,2.172811645829452],[102.41027398073209,2.17214694730566],[102.41018688928604,2.171485897284091],[102.41006529564139,2.170830307662985],[102.40990953307785,2.170181975376247],[102.40972002852978,2.169542677468198],[102.40949730141597,2.16891416622258],[102.40924196221596,2.168298164359609],[102.40895471079676,2.16769636031395],[102.40863633449455,2.167110403606641],[102.4082877059566,2.166541900323651],[102.40790978074953,2.165992408713537],[102.40750359474009,2.16546343491615],[102.40707026125587,2.164956428834172],[102.4066109680338,2.164472780158796],[102.40612697396473,2.164013814560443],[102.40561960564276,2.163580790054898],[102.40509025372914,2.16317489355498],[102.40454036914072,2.162797237616985],[102.40397145907289,2.162448857391085],[102.40338508286867,2.162130707783736],[102.4027828477444,2.16184366084021],[102.40216640438474,2.161588503354049],[102.4015374424181,2.161365934710464],[102.4008976857855,2.161176564969077],[102.40024888801537,2.161020913191706],[102.39959282741732,2.160899406019469],[102.39893130220787,2.160812376503323],[102.39826612558161,2.160760063191065],[102.39759912074145,2.160742609473435],[102.3969321159013,2.160760063191065],[102.39626693927505,2.160812376503323],[102.39560541406559,2.160899406019469],[102.39494935346754,2.161020913191706],[102.39430055569741,2.161176564969077],[102.3936607990648,2.161365934710464],[102.39303183709816,2.161588503354049],[102.3924153937385,2.16184366084021],[102.39181315861424,2.162130707783736],[102.39122678241002,2.162448857391085],[102.39065787234219,2.162797237616985],[102.39010798775377,2.16317489355498],[102.38957863584017,2.163580790054898],[102.38907126751816,2.164013814560443],[102.38858727344909,2.164472780158796],[102.38812798022704,2.164956428834172],[102.38769464674282,2.16546343491615],[102.38728846073336,2.165992408713537],[102.38691053552631,2.166541900323651],[102.38656190698836,2.167110403606641],[102.38624353068616,2.16769636031395],[102.38595627926696,2.168298164359609],[102.38570094006694,2.16891416622258],[102.38547821295313,2.169542677468198],[102.38528870840507,2.170181975376247],[102.38513294584152,2.170830307662985],[102.38501135219687,2.171485897284091],[102.38492426075081,2.17214694730566],[102.384871910215,2.172811645829452],[102.38485444407856,2.173478170959322],[102.384871910215,2.174144695794901],[102.38492426075081,2.174809393439105],[102.38501135219687,2.175470442005379],[102.38513294584152,2.176126029611477],[102.38528870840507,2.176774359345515],[102.38547821295313,2.177413654191185],[102.38570094006694,2.178042161898271],[102.38595627926696,2.178658159785333],[102.38624353068616,2.179259959461265],[102.38656190698836,2.179845911452918],[102.38691053552631,2.180414409725975],[102.38728846073336,2.180963896086774],[102.38769464674282,2.181492864452983],[102.38812798022704,2.181999864981394],[102.38858727344909,2.182483508041692],[102.38907126751816,2.182942468024978],[102.38957863584017,2.18337548697697],[102.39010798775377,2.18378137804571],[102.39065787234219,2.184159028734377],[102.39122678241002,2.184507403950343],[102.39181315861424,2.184825548842024],[102.3924153937385,2.185112591415837],[102.39303183709816,2.185367744926088],[102.3936607990648,2.185590310031154],[102.39430055569741,2.18577967671015],[102.39494935346754,2.185935325934833],[102.39560541406559,2.186056831092036],[102.39626693927505,2.1861438591529],[102.3969321159013,2.186196171585557],[102.39759912074145,2.186213625008921],[102.39826612558161,2.186196171585557],[102.39893130220787,2.1861438591529],[102.39959282741732,2.186056831092036],[102.40024888801537,2.185935325934833],[102.4008976857855,2.18577967671015],[102.4015374424181,2.185590310031154],[102.40216640438474,2.185367744926088],[102.4027828477444,2.185112591415837],[102.40338508286867,2.184825548842024],[102.40397145907289,2.184507403950343],[102.40454036914072,2.184159028734377],[102.40509025372914,2.18378137804571],[102.40561960564276,2.18337548697697],[102.40612697396473,2.182942468024978],[102.4066109680338,2.182483508041692],[102.40707026125587,2.181999864981394],[102.40750359474009,2.181492864452983],[102.40790978074953,2.180963896086774],[102.4082877059566,2.180414409725975],[102.40863633449455,2.179845911452918],[102.40895471079676,2.179259959461265],[102.40924196221596,2.178658159785333],[102.40949730141597,2.178042161898271],[102.40972002852978,2.177413654191185],[102.40990953307785,2.176774359345515],[102.41006529564139,2.176126029611477],[102.41018688928604,2.175470442005379],[102.41027398073209,2.174809393439105],[102.41032633126792,2.174144695794901],[102.41034379740435,2.173478170959322]],[[102.4843039988014,2.166182882961021],[102.48428632641209,2.165508483761149],[102.48423335768291,2.164835932743678],[102.48414523779749,2.164167073327962],[102.48402220828633,2.163503738817385],[102.48386460636472,2.162847747374223],[102.48367286400861,2.162200897036215],[102.48344750677045,2.161564960788059],[102.4831891523388,2.160941681701706],[102.48289850884514,2.160332768158491],[102.48257637292312,2.159739889166443],[102.48222362752493,2.159164669785449],[102.48184123950114,2.158608686672848],[102.48143025695079,2.158073463761659],[102.48099180634844,2.157560468083429],[102.48052708945674,2.157071105746867],[102.4800373800324,2.156606718083609],[102.47952402033489,2.156168577971408],[102.47898841744745,2.155757886345067],[102.4784320394204,2.155375768904451],[102.4778564112472,2.155023273028834],[102.4772631106847,2.154701364905796],[102.47665376392847,2.154410926882794],[102.47603004115565,2.154152755048503],[102.47539365194696,2.15392755705054],[102.47474634060102,2.153735950155716],[102.4740898813532,2.153578459557971],[102.4734260735127,2.153455516938749],[102.47275673653066,2.153367459283583],[102.47208370501323,2.153314527958483],[102.47140882369303,2.153296868048177],[102.47073394237282,2.153314527958483],[102.47006091085538,2.153367459283583],[102.46939157387334,2.153455516938749],[102.46872776603284,2.153578459557971],[102.46807130678503,2.153735950155716],[102.4674239954391,2.15392755705054],[102.46678760623041,2.154152755048503],[102.46616388345758,2.154410926882794],[102.46555453670135,2.154701364905796],[102.46496123613885,2.155023273028834],[102.46438560796565,2.155375768904451],[102.4638292299386,2.155757886345067],[102.46329362705117,2.156168577971408],[102.46278026735365,2.156606718083609],[102.4622905579293,2.157071105746867],[102.46182584103761,2.157560468083429],[102.46138739043526,2.158073463761659],[102.46097640788491,2.158608686672848],[102.46059401986113,2.159164669785449],[102.46024127446293,2.159739889166443],[102.45991913854091,2.160332768158491],[102.45962849504726,2.160941681701706],[102.45937014061559,2.161564960788059],[102.45914478337745,2.162200897036215],[102.45895304102133,2.162847747374223],[102.45879543909972,2.163503738817385],[102.45867240958856,2.164167073327962],[102.45858428970314,2.164835932743678],[102.45853132097396,2.165508483761149],[102.45851364858466,2.166182882961021],[102.45853132097396,2.166857281860636],[102.45858428970314,2.167529831980644],[102.45867240958856,2.168198689911486],[102.45879543909972,2.168862022366076],[102.45895304102133,2.169518011204656],[102.45914478337745,2.170164858418037],[102.45937014061559,2.170800791055729],[102.45962849504726,2.171424066085361],[102.45991913854091,2.172032975170036],[102.46024127446293,2.172625849350566],[102.46059401986113,2.173201063619786],[102.46097640788491,2.173757041376371],[102.46138739043526,2.174292258745965],[102.46182584103761,2.174805248757756],[102.4622905579293,2.175294605365096],[102.46278026735365,2.175758987299145],[102.46329362705117,2.176197121744895],[102.4638292299386,2.176607807829654],[102.46438560796565,2.176989919914242],[102.46496123613885,2.177342410678096],[102.46555453670135,2.177664313989617],[102.46616388345758,2.177954747554067],[102.46678760623041,2.178212915331637],[102.4674239954391,2.178438109719148],[102.46807130678503,2.178629713489331],[102.46872776603284,2.178787201482495],[102.46939157387334,2.17891014204573],[102.47006091085538,2.178998198216034],[102.47073394237282,2.179051128643659],[102.47140882369303,2.179068788253707],[102.47208370501323,2.179051128643659],[102.47275673653066,2.178998198216034],[102.4734260735127,2.17891014204573],[102.4740898813532,2.178787201482495],[102.47474634060102,2.178629713489331],[102.47539365194696,2.178438109719148],[102.47603004115565,2.178212915331637],[102.47665376392847,2.177954747554067],[102.4772631106847,2.177664313989617],[102.4778564112472,2.177342410678096],[102.4784320394204,2.176989919914242],[102.47898841744745,2.176607807829654],[102.47952402033489,2.176197121744895],[102.4800373800324,2.175758987299145],[102.48052708945674,2.175294605365096],[102.48099180634844,2.174805248757756],[102.48143025695079,2.174292258745965],[102.48184123950114,2.173757041376371],[102.48222362752493,2.173201063619786],[102.48257637292312,2.172625849350566],[102.48289850884514,2.172032975170036],[102.4831891523388,2.171424066085361],[102.48344750677045,2.170800791055729],[102.48367286400861,2.170164858418037],[102.48386460636472,2.169518011204656],[102.48402220828633,2.168862022366076],[102.48414523779749,2.168198689911486],[102.48423335768291,2.167529831980644],[102.48428632641209,2.166857281860636],[102.4843039988014,2.166182882961021]]],"bbox":[102.0289766333239,2.153296868048177,102.49317946841718,2.449763647581777]}
