{"type":"Topology","objects":{"MLK_SE-08":{"type":"GeometryCollection","geometries":[{"type":"Polygon","arcs":[[0]],"properties":{"state":"Melaka","parlimen":"P.110 Alor Gajah","code_parlimen":"P.110","dun":"N.01 Kuala Linggi","code_dun":"N.01","voters_total":8813}},{"type":"Polygon","arcs":[[1]],"properties":{"state":"Melaka","parlimen":"P.110 Alor Gajah","code_parlimen":"P.110","dun":"N.02 Sungai Bahru","code_dun":"N.02","voters_total":7783}},{"type":"Polygon","arcs":[[2]],"properties":{"state":"Melaka","parlimen":"P.110 Alor Gajah","code_parlimen":"P.110","dun":"N.03 Masjid Tanah","code_dun":"N.03","voters_total":9609}},{"type":"Polygon","arcs":[[3]],"properties":{"state":"Melaka","parlimen":"P.110 Alor Gajah","code_parlimen":"P.110","dun":"N.04 Kelemak","code_dun":"N.04","voters_total":10029}},{"type":"Polygon","arcs":[[4]],"properties":{"state":"Melaka","parlimen":"P.111 Selandar","code_parlimen":"P.111","dun":"N.05 Pulau Sebang","code_dun":"N.05","voters_total":8906}},{"type":"Polygon","arcs":[[5]],"properties":{"state":"Melaka","parlimen":"P.111 Selandar","code_parlimen":"P.111","dun":"N.06 Kemuning","code_dun":"N.06","voters_total":8387}},{"type":"Polygon","arcs":[[6]],"properties":{"state":"Melaka","parlimen":"P.111 Selandar","code_parlimen":"P.111","dun":"N.07 Tebong","code_dun":"N.07","voters_total":11644}},{"type":"Polygon","arcs":[[7]],"properties":{"state":"Melaka","parlimen":"P.111 Selandar","code_parlimen":"P.111","dun":"N.08 Bukit Asahan","code_dun":"N.08","voters_total":9046}},{"type":"Polygon","arcs":[[8]],"properties":{"state":"Melaka","parlimen":"P.112 Batu Berendam","code_parlimen":"P.112","dun":"N.09 Ayer Molek","code_dun":"N.09","voters_total":19927}},{"type":"Polygon","arcs":[[9]],"properties":{"state":"Melaka","parlimen":"P.112 Batu Berendam","code_parlimen":"P.112","dun":"N.10 Krubong","code_dun":"N.10","voters_total":20035}},{"type":"Polygon","arcs":[[10]],"properties":{"state":"Melaka","parlimen":"P.112 Batu Berendam","code_parlimen":"P.112","dun":"N.11 Tanjong Minyak","code_dun":"N.11","voters_total":13522}},{"type":"Polygon","arcs":[[11]],"properties":{"state":"Melaka","parlimen":"P.112 Batu Berendam","code_parlimen":"P.112","dun":"N.12 Sungai Udang","code_dun":"N.12","voters_total":24021}},{"type":"Polygon","arcs":[[12]],"properties":{"state":"Melaka","parlimen":"P.113 Kota Melaka","code_parlimen":"P.113","dun":"N.13 Tranquerah","code_dun":"N.13","voters_total":20249}},{"type":"Polygon","arcs":[[13]],"properties":{"state":"Melaka","parlimen":"P.113 Kota Melaka","code_parlimen":"P.113","dun":"N.14 Kubu","code_dun":"N.14","voters_total":14393}},{"type":"Polygon","arcs":[[14]],"properties":{"state":"Melaka","parlimen":"P.113 Kota Melaka","code_parlimen":"P.113","dun":"N.15 Durian Daun","code_dun":"N.15","voters_total":15474}},{"type":"Polygon","arcs":[[15]],"properties":{"state":"Melaka","parlimen":"P.113 Kota Melaka","code_parlimen":"P.113","dun":"N.16 Bandar Hilir","code_dun":"N.16","voters_total":21492}},{"type":"Polygon","arcs":[[16]],"properties":{"state":"Melaka","parlimen":"P.114 Jasin","code_parlimen":"P.114","dun":"N.17 Serkam","code_dun":"N.17","voters_total":13631}},{"type":"Polygon","arcs":[[17]],"properties":{"state":"Melaka","parlimen":"P.114 Jasin","code_parlimen":"P.114","dun":"N.18 Ayer Panas","code_dun":"N.18","voters_total":11974}},{"type":"Polygon","arcs":[[18]],"properties":{"state":"Melaka","parlimen":"P.114 Jasin","code_parlimen":"P.114","dun":"N.19 Rim","code_dun":"N.19","voters_total":6778}},{"type":"Polygon","arcs":[[19]],"properties":{"state":"Melaka","parlimen":"P.114 Jasin","code_parlimen":"P.114","dun":"N.20 Sungai Rambai","code_dun":"N.20","voters_total":9346}}]}},"arcs":[[[102.0431271774564,2.367086975249573],[102.04311361566383,2.366569513107018],[102.04307296745812,2.366053469099879],[102.04300534425312,2.365540257671318],[102.04291093139936,2.365031285502161],[102.04278998767592,2.364527947655204],[102.0426428445811,2.364031623751419],[102.04246990542394,2.363543674188405],[102.04227164421862,2.36306543641158],[102.04204860438533,2.362598221248173],[102.04180139726074,2.362143309314254],[102.04153070042243,2.361701947504556],[102.04123725583159,2.361275345574616],[102.04092186779944,2.360864672824817],[102.04058540078267,2.360471054895239],[102.040228777014,2.360095570680247],[102.03985297397435,2.359739249371064],[102.03945902171377,2.359403067634749],[102.03904800002798,2.359087946937013],[102.03862103549889,2.358794751016395],[102.03817929840658,2.358524283516651],[102.03772399952172,2.358277285783843],[102.0372563867869,2.3580544348343],[102.03677774189612,2.357856341498689],[102.03628937678177,2.357683548747783],[102.03579263001868,2.357536530203995],[102.03528886315517,2.357415688843159],[102.03477945698125,2.35732135588992],[102.03426580774378,2.357253789909733],[102.03374932331964,2.357213176100179],[102.03323141935677,2.357199625783229],[102.03271351539387,2.357213176100179],[102.03219703096974,2.357253789909733],[102.03168338173228,2.35732135588992],[102.03117397555835,2.357415688843159],[102.03067020869484,2.357536530203995],[102.03017346193175,2.357683548747783],[102.02968509681742,2.357856341498689],[102.02920645192663,2.3580544348343],[102.0287388391918,2.358277285783843],[102.02828354030693,2.358524283516651],[102.02784180321464,2.358794751016395],[102.02741483868553,2.359087946937013],[102.02700381699977,2.359403067634749],[102.02660986473917,2.359739249371064],[102.02623406169954,2.360095570680247],[102.02587743793084,2.360471054895239],[102.02554097091408,2.360864672824817],[102.02522558288194,2.361275345574616],[102.02493213829108,2.361701947504556],[102.02466144145276,2.362143309314254],[102.02441423432819,2.362598221248173],[102.0241911944949,2.36306543641158],[102.02399293328959,2.363543674188405],[102.02381999413242,2.364031623751419],[102.02367285103762,2.364527947655204],[102.02355190731416,2.365031285502161],[102.02345749446042,2.365540257671318],[102.0233898712554,2.366053469099879],[102.02334922304968,2.366569513107018],[102.02333566125712,2.367086975249573],[102.02334922304968,2.367604437198942],[102.0233898712554,2.368120480628644],[102.02345749446042,2.368633691101843],[102.02355190731416,2.369142661948182],[102.02367285103762,2.369645998119343],[102.02381999413242,2.370142320012738],[102.02399293328959,2.370630267252764],[102.0241911944949,2.371108502419485],[102.02441423432819,2.37157571471426],[102.02466144145276,2.372030623552431],[102.02493213829108,2.372471982073207],[102.02522558288194,2.372898580557079],[102.02554097091408,2.373309249741401],[102.02587743793084,2.373702864025172],[102.02623406169954,2.37407834455399],[102.02660986473917,2.374434662176975],[102.02700381699977,2.374770840267496],[102.02741483868553,2.375085957399754],[102.02784180321464,2.375379149874303],[102.02828354030693,2.375649614085126],[102.0287388391918,2.375896608722186],[102.02920645192663,2.37611945680311],[102.02968509681742,2.376317547528604],[102.03017346193175,2.376490337956536],[102.03067020869484,2.37663735448992],[102.03117397555835,2.376758194174959],[102.03168338173228,2.376852525805394],[102.03219703096974,2.376920090830206],[102.03271351539387,2.376960704062324],[102.03323141935677,2.376974254186087],[102.03374932331964,2.376960704062324],[102.03426580774378,2.376920090830206],[102.03477945698125,2.376852525805394],[102.03528886315517,2.376758194174959],[102.03579263001868,2.37663735448992],[102.03628937678177,2.376490337956536],[102.03677774189612,2.376317547528604],[102.0372563867869,2.37611945680311],[102.03772399952172,2.375896608722186],[102.03817929840658,2.375649614085126],[102.03862103549889,2.375379149874303],[102.03904800002798,2.375085957399754],[102.03945902171377,2.374770840267496],[102.03985297397435,2.374434662176975],[102.040228777014,2.37407834455399],[102.04058540078267,2.373702864025172],[102.04092186779944,2.373309249741401],[102.04123725583159,2.372898580557079],[102.04153070042243,2.372471982073207],[102.04180139726074,2.372030623552431],[102.04204860438533,2.37157571471426],[102.04227164421862,2.371108502419485],[102.04246990542394,2.370630267252764],[102.0426428445811,2.370142320012738],[102.04278998767592,2.369645998119343],[102.04291093139936,2.369142661948182],[102.04300534425312,2.368633691101843],[102.04307296745812,2.368120480628644],[102.04311361566383,2.367604437198942],[102.0431271774564,2.367086975249573]],[[102.10069118740667,2.413124267400061],[102.10067844273277,2.412637999452526],[102.10064024364338,2.412153064158472],[102.10057669483955,2.411670790693988],[102.10048797050408,2.411192500940691],[102.10037431382428,2.410719505862473],[102.10023603632514,2.410253101912196],[102.10007351701572,2.409794567478118],[102.09988720135016,2.409345159379855],[102.09967760000669,2.408906109423424],[102.09944528748808,2.408478621024881],[102.09919090054676,2.408063865911638],[102.09891513643967,2.407662980910806],[102.09861875101707,2.407277064833036],[102.09830255665078,2.406907175460629],[102.0979674200076,2.406554326648147],[102.09761425967375,2.406219485543224],[102.09724404363718,2.405903569935678],[102.0968577866343,2.405607445741697],[102.0964565473687,2.405331924630236],[102.09604142560934,2.405077761798241],[102.09561355917609,2.404845653900492],[102.0951741208211,2.404636237140021],[102.09472431501439,2.404450085524165],[102.09426537464235,2.404287709291208],[102.09379855762869,2.404149553511661],[102.09332514348638,2.404035996868332],[102.09284642981069,2.403947350618254],[102.09236372872249,2.403883857739519],[102.09187836327196,2.403845692265198],[102.09139166381202,2.403832958806353],[102.09090496435209,2.403845692265198],[102.09041959890155,2.403883857739519],[102.08993689781336,2.403947350618254],[102.08945818413767,2.404035996868332],[102.08898476999535,2.404149553511661],[102.08851795298169,2.404287709291208],[102.08805901260966,2.404450085524165],[102.08760920680294,2.404636237140021],[102.08716976844795,2.404845653900492],[102.0867419020147,2.405077761798241],[102.08632678025535,2.405331924630236],[102.08592554098973,2.405607445741697],[102.08553928398686,2.405903569935678],[102.08516906795029,2.406219485543224],[102.08481590761644,2.406554326648147],[102.08448077097326,2.406907175460629],[102.08416457660698,2.407277064833036],[102.08386819118438,2.407662980910806],[102.08359242707729,2.408063865911638],[102.08333804013596,2.408478621024881],[102.08310572761735,2.408906109423424],[102.08289612627388,2.409345159379855],[102.0827098106083,2.409794567478118],[102.08254729129891,2.410253101912196],[102.08240901379978,2.410719505862473],[102.08229535711996,2.411192500940691],[102.0822066327845,2.411670790693988],[102.08214308398065,2.412153064158472],[102.08210488489127,2.412637999452526],[102.08209214021738,2.413124267400061],[102.08210488489127,2.41361053517367],[102.08214308398065,2.414095469947881],[102.0822066327845,2.414577742552279],[102.08229535711996,2.415056031114687],[102.08240901379978,2.415529024684242],[102.08254729129891,2.415995426824642],[102.0827098106083,2.41645395916743],[102.08289612627388,2.416903364915924],[102.08310572761735,2.417342412289808],[102.08333804013596,2.417769897901384],[102.08359242707729,2.418184650053722],[102.08386819118438,2.41858553195219],[102.08416457660698,2.418971444820105],[102.08448077097326,2.419341330910321],[102.08481590761644,2.419694176404288],[102.08516906795029,2.420029014190658],[102.08553928398686,2.420344926516024],[102.08592554098973,2.420641047500152],[102.08632678025535,2.420916565509236],[102.0867419020147,2.421170725380338],[102.08716976844795,2.421402830491107],[102.08760920680294,2.421612244669056],[102.08805901260966,2.421798393935119],[102.08851795298169,2.421960768076798],[102.08898476999535,2.422098922046456],[102.08945818413767,2.422212477181133],[102.08993689781336,2.42230112224031],[102.09041959890155,2.422364614258972],[102.09090496435209,2.422402779213451],[102.09139166381202,2.422415512498383],[102.09187836327196,2.422402779213451],[102.09236372872249,2.422364614258972],[102.09284642981069,2.42230112224031],[102.09332514348638,2.422212477181133],[102.09379855762869,2.422098922046456],[102.09426537464235,2.421960768076798],[102.09472431501439,2.421798393935119],[102.0951741208211,2.421612244669056],[102.09561355917609,2.421402830491107],[102.09604142560934,2.421170725380338],[102.0964565473687,2.420916565509236],[102.0968577866343,2.420641047500152],[102.09724404363718,2.420344926516024],[102.09761425967375,2.420029014190658],[102.0979674200076,2.419694176404288],[102.09830255665078,2.419341330910321],[102.09861875101707,2.418971444820105],[102.09891513643967,2.41858553195219],[102.09919090054676,2.418184650053722],[102.09944528748808,2.417769897901384],[102.09967760000669,2.417342412289808],[102.09988720135016,2.416903364915924],[102.10007351701572,2.41645395916743],[102.10023603632514,2.415995426824642],[102.10037431382428,2.415529024684254],[102.10048797050408,2.415056031114687],[102.10057669483955,2.414577742552279],[102.10064024364338,2.414095469947881],[102.10067844273277,2.41361053517367],[102.10069118740667,2.413124267400061]],[[102.1397340120641,2.337595393760431],[102.13971985105151,2.337055056421682],[102.13967740682813,2.336516199902922],[102.1396067957306,2.335980301175007],[102.13950821129905,2.335448829103341],[102.13938192374654,2.334923240421852],[102.13922827921846,2.334404975740022],[102.13904769884384,2.333895455594245],[102.13884067758084,2.33339607655412],[102.13860778286045,2.33290820739446],[102.13834965303084,2.332433185343399],[102.13806699560799,2.331972312417063],[102.13776058533617,2.331526851850656],[102.13743126206471,2.331098024635862],[102.13707992844577,2.330687006174005],[102.13670754746039,2.330294923054231],[102.13631513977899,2.329922849965395],[102.13590378096367,2.32957180675023],[102.13547459852045,2.329242755609885],[102.1350287688085,2.328936598466373],[102.1345675138161,2.328654174490348],[102.13409209781112,2.32839625780079],[102.13360382387579,2.328163555343061],[102.13310403033505,2.327956704951082],[102.13259408708818,2.327776273598876],[102.13207539185426,2.327622755846499],[102.13154936634079,2.327496572484263],[102.13101745234721,2.327398069379385],[102.13048110781278,2.327327516527867],[102.12994180282058,2.32728510731438],[102.1294010155681,2.327270957982143],[102.12886022831565,2.32728510731438],[102.12832092332343,2.327327516527867],[102.12778457878899,2.327398069379385],[102.1272526647954,2.327496572484263],[102.12672663928197,2.327622755846499],[102.12620794404803,2.327776273598876],[102.12569800080118,2.327956704951082],[102.12519820726041,2.328163555343061],[102.12470993332508,2.32839625780079],[102.12423451732012,2.328654174490348],[102.12377326232773,2.328936598466373],[102.12332743261578,2.329242755609885],[102.12289825017253,2.32957180675023],[102.12248689135724,2.329922849965395],[102.12209448367582,2.330294923054231],[102.12172210269044,2.330687006174005],[102.12137076907152,2.331098024635862],[102.12104144580005,2.331526851850656],[102.12073503552824,2.331972312417063],[102.12045237810537,2.332433185343399],[102.12019424827577,2.33290820739446],[102.11996135355537,2.33339607655412],[102.11975433229239,2.333895455594245],[102.11957375191774,2.334404975740022],[102.11942010738967,2.334923240421852],[102.11929381983717,2.335448829103341],[102.11919523540561,2.335980301175007],[102.11912462430809,2.336516199902922],[102.11908218008469,2.337055056421682],[102.11906801907212,2.337595393760431],[102.11908218008469,2.338135730891159],[102.11912462430809,2.338674586788147],[102.11919523540561,2.339210484487368],[102.11929381983717,2.339741955134655],[102.11942010738967,2.340267542011701],[102.11957375191774,2.340785804528807],[102.11975433229239,2.341295322173282],[102.11996135355537,2.341794698402928],[102.12019424827577,2.342282564473736],[102.12045237810537,2.34275758319141],[102.12073503552824,2.343218452576338],[102.12104144580005,2.343663909432119],[102.12137076907152,2.344092732807741],[102.12172210269044,2.344503747343916],[102.12209448367582,2.344895826494524],[102.12248689135724,2.345267895614193],[102.12289825017253,2.345618934903675],[102.12332743261578,2.34594798220485],[102.12377326232772,2.346254135637748],[102.12423451732012,2.346536556072366],[102.12470993332508,2.346794469428525],[102.12519820726041,2.347027168797399],[102.12569800080118,2.347234016378913],[102.12620794404803,2.347414445229805],[102.12672663928197,2.347567960817458],[102.1272526647954,2.347694142375251],[102.12778457878899,2.347792644055762],[102.12832092332343,2.347863195878574],[102.12886022831565,2.3479056044703],[102.1294010155681,2.347919753594516],[102.12994180282058,2.3479056044703],[102.13048110781278,2.347863195878574],[102.13101745234721,2.347792644055762],[102.13154936634079,2.347694142375251],[102.13207539185426,2.347567960817458],[102.13259408708818,2.347414445229805],[102.13310403033505,2.347234016378913],[102.13360382387579,2.347027168797399],[102.13409209781112,2.346794469428525],[102.1345675138161,2.346536556072366],[102.1350287688085,2.346254135637748],[102.13547459852045,2.34594798220485],[102.13590378096367,2.345618934903675],[102.13631513977899,2.345267895614193],[102.13670754746039,2.344895826494524],[102.13707992844577,2.344503747343916],[102.13743126206471,2.344092732807741],[102.13776058533617,2.343663909432119],[102.13806699560799,2.343218452576338],[102.13834965303084,2.34275758319141],[102.13860778286045,2.342282564473736],[102.13884067758084,2.341794698402928],[102.13904769884384,2.341295322173282],[102.13922827921846,2.340785804528807],[102.13938192374654,2.340267542011701],[102.13950821129905,2.339741955134655],[102.1396067957306,2.339210484487368],[102.13967740682813,2.338674586788147],[102.13971985105151,2.338135730891159],[102.1397340120641,2.337595393760431]],[[102.18723266690668,2.418201968273514],[102.18721819972194,2.417649980661322],[102.18717483782123,2.417099505785196],[102.18710270005654,2.416552052461336],[102.18700198415246,2.416009121225834],[102.18687296616427,2.415472200221844],[102.18671599972132,2.414942761120554],[102.1865315150577,2.414422255087375],[102.18632001783307,2.413912108804283],[102.18608208774663,2.413413720559255],[102.18581837694819,2.412928456413556],[102.18552960825072,2.41245764645724],[102.18521657314913,2.412002581163399],[102.18488012965092,2.411564507850785],[102.18452119992429,2.411144627264933],[102.1841407677707,2.410744090286717],[102.18373987592823,2.410363994777712],[102.18331962321355,2.410005382570867],[102.18288116151015,2.409669236614673],[102.18242569261108,2.409356478278799],[102.1819544649249,2.409067964828517],[102.181468770054,2.408804487074807],[102.18096993925421,2.408566767206588],[102.18045933978611,2.408355456811148],[102.17993837116735,2.408171135088027],[102.17940846133669,2.408014307261289],[102.17887106274016,2.407885403194666],[102.17832764834992,2.407784776213219],[102.17777970762707,2.4077127021348],[102.17722874243906,2.407669378513993],[102.17667626294313,2.407654924100571],[102.1761237834472,2.407669378513993],[102.1755728182592,2.4077127021348],[102.17502487753633,2.407784776213219],[102.17448146314611,2.407885403194666],[102.17394406454957,2.408014307261289],[102.17341415471891,2.408171135088027],[102.17289318610015,2.408355456811148],[102.17238258663204,2.408566767206588],[102.17188375583227,2.408804487074807],[102.17139806096137,2.409067964828517],[102.17092683327519,2.409356478278799],[102.17047136437611,2.409669236614673],[102.17003290267272,2.410005382570867],[102.16961264995804,2.410363994777712],[102.16921175811557,2.410744090286717],[102.16883132596196,2.411144627264933],[102.16847239623534,2.411564507850785],[102.16813595273713,2.412002581163399],[102.16782291763555,2.41245764645724],[102.16753414893807,2.412928456413556],[102.16727043813964,2.413413720559255],[102.16703250805318,2.413912108804283],[102.16682101082856,2.414422255087375],[102.16663652616495,2.414942761120554],[102.16647955972199,2.415472200221844],[102.1663505417338,2.416009121225834],[102.16624982582972,2.416552052461336],[102.16617768806503,2.417099505785196],[102.16613432616433,2.417649980661322],[102.16611985897958,2.418201968273514],[102.16613432616433,2.418753955661133],[102.16617768806503,2.419304429865983],[102.16624982582972,2.419851882079245],[102.1663505417338,2.420394811776974],[102.16647955972199,2.420931730832861],[102.16663652616495,2.421461167597068],[102.16682101082856,2.421981670929815],[102.16703250805318,2.422491814178671],[102.16727043813964,2.422990199088925],[102.16753414893807,2.423475459635852],[102.16782291763555,2.42394626576881],[102.16813595273713,2.424401327056616],[102.16847239623534,2.424839396224395],[102.16883132596196,2.425259272572017],[102.16921175811557,2.42565980526506],[102.16961264995804,2.426039896488903],[102.17003290267272,2.426398504457519],[102.17047136437611,2.426734646268891],[102.17092683327519,2.427047400598729],[102.17139806096137,2.42733591022564],[102.17188375583227,2.427599384380579],[102.17238258663204,2.427837100914037],[102.17289318610015,2.428048408275228],[102.17341415471891,2.428232727297918],[102.17394406454957,2.428389552787584],[102.17448146314611,2.428518454906104],[102.17502487753633,2.428619080349779],[102.1755728182592,2.428691153317586],[102.1761237834472,2.428734476267131],[102.17667626294313,2.42874893045598],[102.17722874243906,2.428734476267131],[102.17777970762707,2.428691153317586],[102.17832764834992,2.428619080349779],[102.17887106274016,2.428518454906104],[102.17940846133669,2.428389552787584],[102.17993837116735,2.428232727297918],[102.18045933978611,2.428048408275228],[102.18096993925421,2.427837100914037],[102.181468770054,2.427599384380579],[102.1819544649249,2.42733591022564],[102.18242569261108,2.427047400598729],[102.18288116151015,2.426734646268891],[102.18331962321355,2.426398504457519],[102.18373987592823,2.426039896488903],[102.1841407677707,2.42565980526506],[102.18452119992429,2.425259272572017],[102.18488012965092,2.424839396224395],[102.18521657314913,2.424401327056616],[102.18552960825072,2.42394626576881],[102.18581837694819,2.423475459635852],[102.18608208774663,2.422990199088925],[102.18632001783307,2.422491814178671],[102.1865315150577,2.421981670929815],[102.18671599972132,2.421461167597068],[102.18687296616427,2.420931730832861],[102.18700198415246,2.420394811776974],[102.18710270005654,2.419851882079245],[102.18717483782123,2.419304429865983],[102.18721819972194,2.418753955661133],[102.18723266690668,2.418201968273514]],[[102.23725335876341,2.436136203780303],[102.23723972560259,2.435616044807559],[102.23719886348773,2.43509731135436],[102.23713088441902,2.434581425235566],[102.23703597472237,2.434069800463272],[102.23691439453864,2.433563839371121],[102.2367664771107,2.433064928770482],[102.23659262786994,2.432574436149249],[102.236393323325,2.432093705923547],[102.23616910975579,2.431624055752679],[102.23592060171617,2.431166772927375],[102.23564848034935,2.430723110841323],[102.23535349152112,2.430294285555485],[102.23503644377533,2.429881472464873],[102.23469820611781,2.429485803076699],[102.23433970563447,2.429108361908815],[102.23396192495025,2.428750183516932],[102.2335658995357,2.42841224965883],[102.23315271486898,2.428095486603278],[102.23272350346053,2.427800762590977],[102.232279441749,2.427528885454653],[102.23182174687666,2.427280600404627],[102.23135167335333,2.427056587986143],[102.2308705096179,2.426857462213897],[102.23037957450673,2.426683768888894],[102.22988021363878,2.426535984102347],[102.2293737957275,2.426414512930644],[102.2288617088292,2.426319688324959],[102.22834535653847,2.426251770198566],[102.22782615414104,2.426210944714384],[102.2273055247346,2.426197323774705],[102.22678489532817,2.426210944714384],[102.22626569293072,2.426251770198566],[102.22574934064001,2.426319688324959],[102.2252372537417,2.426414512930644],[102.22473083583043,2.426535984102347],[102.22423147496248,2.426683768888894],[102.22374053985129,2.426857462213897],[102.22325937611586,2.427056587986143],[102.22278930259256,2.427280600404627],[102.22233160772019,2.427528885454653],[102.22188754600867,2.427800762590977],[102.22145833460023,2.428095486603278],[102.2210451499335,2.42841224965883],[102.22064912451896,2.428750183516932],[102.22027134383472,2.429108361908815],[102.21991284335138,2.429485803076699],[102.21957460569386,2.429881472464873],[102.21925755794807,2.430294285555485],[102.21896256911985,2.430723110841323],[102.21869044775302,2.431166772927375],[102.2184419397134,2.431624055752679],[102.21821772614419,2.432093705923547],[102.21801842159927,2.432574436149249],[102.21784457235849,2.433064928770482],[102.21769665493055,2.433563839371121],[102.21757507474683,2.434069800463272],[102.21748016505019,2.434581425235566],[102.21741218598147,2.43509731135436],[102.2173713238666,2.435616044807559],[102.2173576907058,2.436136203780303],[102.2173713238666,2.436656362552163],[102.21741218598147,2.437175095404848],[102.21748016505019,2.4376909805301],[102.21757507474683,2.438202603926703],[102.21769665493055,2.438708563276101],[102.21784457235849,2.439207471786009],[102.21801842159927,2.439697961991433],[102.21821772614419,2.440178689502722],[102.2184419397134,2.440648336690319],[102.21869044775302,2.441105616296176],[102.21896256911985,2.441549274961885],[102.21925755794807,2.441978096663937],[102.21957460569386,2.442390906046595],[102.21991284335138,2.442786571643268],[102.22027134383472,2.443164008977668],[102.22064912451896,2.443522183536067],[102.2210451499335,2.44386011360268],[102.22145833460023,2.444176872950278],[102.22188754600867,2.444471593378793],[102.22233160772019,2.444743467094774],[102.22278930259256,2.444991748925354],[102.22325937611586,2.445215758360566],[102.22374053985129,2.4454148814184],[102.22423147496248,2.445588572327607],[102.22473083583043,2.445736355023409],[102.2252372537417,2.445857824452359],[102.22574934064001,2.445952647682366],[102.22626569293072,2.446020564815216],[102.22678489532817,2.446061389698885],[102.2273055247346,2.446075010437654],[102.22782615414104,2.446061389698885],[102.22834535653847,2.446020564815216],[102.2288617088292,2.445952647682366],[102.2293737957275,2.445857824452359],[102.22988021363878,2.445736355023409],[102.23037957450673,2.445588572327607],[102.2308705096179,2.4454148814184],[102.23135167335333,2.445215758360566],[102.23182174687666,2.444991748925354],[102.232279441749,2.444743467094774],[102.23272350346053,2.444471593378793],[102.23315271486898,2.444176872950278],[102.2335658995357,2.44386011360268],[102.23396192495025,2.443522183536067],[102.23433970563447,2.443164008977668],[102.23469820611781,2.442786571643268],[102.23503644377533,2.442390906046595],[102.23535349152112,2.441978096663937],[102.23564848034935,2.441549274961885],[102.23592060171617,2.441105616296176],[102.23616910975579,2.440648336690319],[102.236393323325,2.440178689502722],[102.23659262786994,2.439697961991433],[102.2367664771107,2.439207471786009],[102.23691439453864,2.438708563276101],[102.23703597472237,2.438202603926703],[102.23713088441902,2.4376909805301],[102.23719886348773,2.437175095404848],[102.23723972560259,2.436656362552163],[102.23725335876341,2.436136203780303]],[[102.28054097115069,2.389277155252665],[102.28052774119064,2.388772362591779],[102.28048808757282,2.388268953347717],[102.28042211898509,2.387768307332554],[102.28033001624276,2.387271796786022],[102.28021203179301,2.386780782614264],[102.28006848902304,2.386296610659631],[102.27989978137362,2.385820608011769],[102.27970637126066,2.385354079370022],[102.27948878880787,2.38489830346729],[102.27924763039357,2.384454529564971],[102.27898355701628,2.384023974028697],[102.27869729248273,2.383607816994239],[102.27838962142411,2.383207199132698],[102.27806138714544,2.382823218523836],[102.27771348931401,2.382456927646159],[102.27734688149364,2.382109330492058],[102.27696256853088,2.381781379815643],[102.2765616038008,2.381473974521295],[102.27614508631991,2.381187957199601],[102.27571415773363,2.380924111817699],[102.27526999918729,2.380683161570405],[102.27481382808858,2.380465766897735],[102.27434689477079,2.380272523674689],[102.27387047906565,2.380103961577763],[102.27338588679555,2.379960542633072],[102.27289444619417,2.379842659949884],[102.27239750426605,2.379750636643026],[102.27189642309449,2.379684724947189],[102.27139257610813,2.379645105525499],[102.27088734431655,2.379631886974308],[102.27038211252498,2.379645105525499],[102.26987826553862,2.379684724947189],[102.26937718436706,2.379750636643026],[102.26888024243895,2.379842659949884],[102.26838880183756,2.379960542633072],[102.26790420956746,2.380103961577763],[102.26742779386231,2.380272523674689],[102.26696086054453,2.380465766897735],[102.26650468944581,2.380683161570405],[102.26606053089948,2.380924111817699],[102.2656296023132,2.381187957199601],[102.26521308483231,2.381473974521295],[102.26481212010223,2.381781379815643],[102.26442780713946,2.382109330492058],[102.26406119931909,2.382456927646159],[102.26371330148767,2.382823218523836],[102.26338506720899,2.383207199132698],[102.26307739615038,2.383607816994239],[102.26279113161682,2.384023974028697],[102.26252705823954,2.384454529564971],[102.26228589982524,2.38489830346729],[102.26206831737245,2.385354079370022],[102.26187490725948,2.385820608011769],[102.26170619961006,2.386296610659631],[102.2615626568401,2.386780782614264],[102.26144467239035,2.387271796786022],[102.26135256964803,2.387768307332554],[102.26128660106029,2.388268953347717],[102.26124694744247,2.388772362591779],[102.26123371748241,2.389277155252665],[102.26124694744247,2.389781947727985],[102.26128660106029,2.390285356417371],[102.26135256964803,2.390786001514855],[102.26144467239035,2.391282510790731],[102.2615626568401,2.391773523352784],[102.26170619961006,2.392257693376299],[102.26187490725948,2.392733693792798],[102.26206831737245,2.393200219927377],[102.26228589982524,2.393655993074591],[102.26252705823954,2.39409976400327],[102.26279113161682,2.394530316380324],[102.26307739615038,2.394946470104601],[102.26338506720899,2.395347084541295],[102.26371330148767,2.395731061648138],[102.26406119931909,2.396097348984991],[102.26442780713946,2.396444942598283],[102.26481212010223,2.396772889772678],[102.26521308483231,2.397080291642154],[102.2656296023132,2.397366305653679],[102.26606053089948,2.397630147876362],[102.26650468944581,2.397871095150016],[102.26696086054453,2.398088487067167],[102.26742779386231,2.398281727783046],[102.26790420956746,2.398450287648609],[102.26838880183756,2.398593704662181],[102.26888024243894,2.398711585735678],[102.26937718436706,2.398803607771879],[102.26987826553862,2.398869518550024],[102.27038211252498,2.39890913741705],[102.27088734431655,2.398922355782676],[102.27139257610813,2.39890913741705],[102.27189642309449,2.398869518550024],[102.27239750426605,2.398803607771879],[102.27289444619416,2.398711585735678],[102.27338588679555,2.398593704662181],[102.27387047906565,2.398450287648609],[102.27434689477079,2.398281727783046],[102.27481382808858,2.398088487067167],[102.27526999918729,2.397871095150016],[102.27571415773363,2.397630147876362],[102.27614508631991,2.397366305653679],[102.2765616038008,2.397080291642154],[102.27696256853088,2.396772889772678],[102.27734688149364,2.396444942598283],[102.27771348931401,2.396097348984991],[102.27806138714544,2.395731061648138],[102.27838962142411,2.395347084541295],[102.27869729248273,2.394946470104601],[102.27898355701628,2.394530316380324],[102.27924763039357,2.39409976400327],[102.27948878880787,2.393655993074591],[102.27970637126066,2.393200219927377],[102.27989978137362,2.392733693792798],[102.28006848902304,2.392257693376299],[102.28021203179301,2.391773523352784],[102.28033001624276,2.391282510790731],[102.28042211898509,2.390786001514855],[102.28048808757282,2.390285356417371],[102.28052774119064,2.389781947727985],[102.28054097115069,2.389277155252665]],[[102.35558344217195,2.383668554774934],[102.35556785360077,2.383073766231454],[102.35552113061442,2.382480607706142],[102.3554434012774,2.381890705008465],[102.35533487864036,2.381305675026027],[102.35519586015633,2.380727121292607],[102.35502672686532,2.380156629592986],[102.35482794234991,2.379595763616288],[102.35460005146467,2.379046060669906],[102.35434367884264,2.37850902746568],[102.35405952718338,2.377986135990002],[102.35374837532679,2.377478819468979],[102.35341107611856,2.376988468439895],[102.3530485540723,2.376516426939665],[102.3526618028358,2.376063988820682],[102.35225188246726,2.375632394204268],[102.35181991652999,2.375222826081389],[102.3513670890125,2.374836407069886],[102.35089464108363,2.37447419633728],[102.35040386769026,2.374137186697443],[102.34989611400817,2.373826301889135],[102.3493727717549,2.373542394043935],[102.34883527537521,2.373286241350345],[102.34828509810929,2.373058545920721],[102.34772374795479,2.372859931866607],[102.34715276353347,2.372690943587962],[102.34657370987392,2.37255204428086],[102.34598817412201,2.37244361466776],[102.34539776119051,2.372365951953876],[102.34480408936024,2.372319269012525],[102.3442087858444,2.372303693801531],[102.34361348232855,2.372319269012525],[102.34301981049828,2.372365951953876],[102.34242939756679,2.37244361466776],[102.34184386181487,2.37255204428086],[102.34126480815534,2.372690943587962],[102.34069382373401,2.372859931866607],[102.34013247357952,2.373058545920721],[102.3395822963136,2.373286241350345],[102.3390447999339,2.373542394043935],[102.33852145768063,2.373826301889135],[102.33801370399854,2.374137186697443],[102.33752293060518,2.37447419633728],[102.33705048267629,2.374836407069886],[102.33659765515883,2.375222826081389],[102.33616568922153,2.375632394204268],[102.33575576885299,2.376063988820682],[102.33536901761649,2.376516426939665],[102.33500649557024,2.376988468439895],[102.334669196362,2.377478819468979],[102.33435804450542,2.377986135990002],[102.33407389284616,2.37850902746568],[102.33381752022413,2.379046060669906],[102.33358962933887,2.379595763616288],[102.33339084482347,2.380156629592986],[102.33322171153247,2.380727121292607],[102.33308269304842,2.381305675026027],[102.3329741704114,2.381890705008465],[102.33289644107437,2.382480607706142],[102.33284971808803,2.383073766231454],[102.33283412951685,2.383668554774934],[102.33284971808803,2.384263343061374],[102.33289644107437,2.384856500818442],[102.3329741704114,2.38544640224503],[102.33308269304842,2.386031430467501],[102.33322171153247,2.38660998197134],[102.33339084482347,2.387180470996204],[102.33358962933887,2.387741333882255],[102.33381752022413,2.388291033355993],[102.33407389284616,2.388828062743592],[102.33435804450542,2.389350950100502],[102.334669196362,2.389858262245743],[102.33500649557024,2.390348608689943],[102.33536901761649,2.390820645446452],[102.33575576885299,2.391273078714822],[102.33616568922153,2.391704668426897],[102.33659765515883,2.392114231645425],[102.33705048267629,2.392500645806327],[102.33752293060518,2.392862851795212],[102.33801370399854,2.393199856850166],[102.33852145768063,2.393510737282678],[102.3390447999339,2.393794641009111],[102.3395822963136,2.394050789886086],[102.34013247357952,2.394278481843054],[102.34069382373401,2.394477092806534],[102.34126480815534,2.394646078410409],[102.34184386181487,2.394784975487942],[102.34242939756679,2.394893403341075],[102.34301981049828,2.394971064783882],[102.34361348232855,2.395017746956976],[102.3442087858444,2.395033321910931],[102.34480408936024,2.395017746956976],[102.34539776119051,2.394971064783882],[102.34598817412201,2.394893403341075],[102.34657370987392,2.394784975487942],[102.34715276353347,2.394646078410409],[102.34772374795479,2.394477092806534],[102.34828509810929,2.394278481843054],[102.34883527537521,2.394050789886086],[102.3493727717549,2.393794641009111],[102.34989611400817,2.393510737282678],[102.35040386769026,2.393199856850166],[102.35089464108363,2.392862851795212],[102.3513670890125,2.392500645806327],[102.35181991652999,2.392114231645425],[102.35225188246726,2.391704668426897],[102.3526618028358,2.391273078714822],[102.3530485540723,2.390820645446452],[102.35341107611856,2.390348608689943],[102.35374837532679,2.389858262245743],[102.35405952718338,2.389350950100502],[102.35434367884264,2.388828062743592],[102.35460005146467,2.388291033355993],[102.35482794234991,2.387741333882255],[102.35502672686532,2.387180470996204],[102.35519586015633,2.38660998197134],[102.35533487864036,2.386031430467501],[102.3554434012774,2.38544640224503],[102.35552113061442,2.384856500818442],[102.35556785360077,2.384263343061374],[102.35558344217195,2.383668554774934]],[[102.47925819817617,2.41515741666508],[102.47924445827833,2.414633177121568],[102.47920327624492,2.414110374280761],[102.47913476495303,2.413590441111459],[102.47903911218735,2.413074802718461],[102.47891658012546,2.412564872436506],[102.47876750461921,2.412062047956277],[102.47859229427424,2.411567707493413],[102.47839142932989,2.411083206010771],[102.47816546034304,2.410609871504494],[102.47791500667894,2.410149001363905],[102.47764075481369,2.409701858815325],[102.47734345645262,2.409269669459587],[102.47702392646983,2.408853617912448],[102.4766830406748,2.408454844557617],[102.47632173341182,2.4080744424208],[102.47594099499898,2.407713454173634],[102.47554186901377,2.40737286927565],[102.47512544943282,2.407053621262012],[102.47469287763325,2.406756585184632],[102.47424533926426,2.406482575213554],[102.47378406099742,2.406232342405135],[102.47331030716441,2.406006572643399],[102.47282537629158,2.405805884759875],[102.47233059754069,2.405630828837284],[102.47182732706597,2.405481884701687],[102.47131694429673,2.405359460607227],[102.47080084815674,2.405263892117027],[102.4702804532296,2.405195441183325],[102.46975718588168,2.405154295429474],[102.46923248035233,2.405140567635614],[102.46870777482299,2.405154295429474],[102.46818450747504,2.405195441183325],[102.46766411254791,2.405263892117027],[102.46714801640792,2.405359460607227],[102.4666376336387,2.405481884701687],[102.46613436316396,2.405630828837284],[102.46563958441308,2.405805884759875],[102.46515465354025,2.406006572643399],[102.46468089970723,2.406232342405135],[102.46421962144042,2.406482575213554],[102.46377208307142,2.406756585184632],[102.46333951127184,2.407053621262012],[102.46292309169088,2.40737286927565],[102.46252396570567,2.407713454173634],[102.46214322729283,2.4080744424208],[102.46178192002985,2.408454844557617],[102.46144103423484,2.408853617912448],[102.46112150425203,2.409269669459587],[102.46082420589097,2.409701858815325],[102.46054995402574,2.410149001363905],[102.46029950036163,2.410609871504494],[102.46007353137476,2.411083206010771],[102.45987266643041,2.411567707493413],[102.45969745608545,2.412062047956277],[102.4595483805792,2.412564872436506],[102.45942584851731,2.413074802718461],[102.45933019575163,2.413590441111459],[102.45926168445975,2.414110374280761],[102.45922050242633,2.414633177121568],[102.4592067625285,2.41515741666508],[102.45922050242633,2.415681656006283],[102.45926168445975,2.416204458242365],[102.45933019575163,2.416724390411192],[102.45942584851731,2.41724002741888],[102.4595483805792,2.417749955945894],[102.45969745608545,2.418252778320761],[102.45987266643041,2.418747116350921],[102.46007353137476,2.419231615100169],[102.46029950036163,2.419704946602323],[102.46054995402574,2.420165813500947],[102.46082420589097,2.42061295260524],[102.46112150425203,2.421045138352143],[102.46144103423484,2.4214611861654],[102.46178192002985,2.42185995570223],[102.46214322729283,2.422240353978744],[102.46252396570567,2.422601338365607],[102.46292309169088,2.422941919445589],[102.46333951127184,2.423261163725333],[102.46377208307142,2.423558196193864],[102.46421962144042,2.423832202720682],[102.46468089970723,2.424082432287123],[102.46515465354025,2.424308199044723],[102.46563958441308,2.424508884194853],[102.46613436316396,2.424683937684752],[102.4666376336387,2.424832879715],[102.46714801640792,2.424955302054519],[102.46766411254791,2.42505086915941],[102.46818450747504,2.425119319092623],[102.46870777482299,2.425160464241749],[102.46923248035233,2.425174191833301],[102.46975718588168,2.425160464241749],[102.4702804532296,2.425119319092623],[102.47080084815674,2.42505086915941],[102.47131694429673,2.424955302054519],[102.47182732706597,2.424832879715],[102.47233059754069,2.424683937684752],[102.47282537629158,2.424508884194853],[102.47331030716441,2.424308199044723],[102.47378406099742,2.424082432287123],[102.47424533926426,2.423832202720682],[102.47469287763325,2.423558196193864],[102.47512544943282,2.423261163725333],[102.47554186901377,2.422941919445589],[102.47594099499898,2.422601338365607],[102.47632173341182,2.422240353978744],[102.4766830406748,2.42185995570223],[102.47702392646983,2.4214611861654],[102.47734345645262,2.421045138352143],[102.47764075481369,2.42061295260524],[102.47791500667894,2.420165813500947],[102.47816546034304,2.419704946602323],[102.47839142932989,2.419231615100169],[102.47859229427424,2.418747116350921],[102.47876750461921,2.418252778320761],[102.47891658012546,2.417749955945894],[102.47903911218735,2.41724002741888],[102.47913476495303,2.416724390411192],[102.47920327624492,2.416204458242365],[102.47924445827833,2.415681656006283],[102.47925819817617,2.41515741666508]],[[102.34022329860196,2.229517914164924],[102.34020290583426,2.228739735101848],[102.34014178342629,2.227963688563843],[102.34004009891034,2.227191901645741],[102.33989813099657,2.226426489770299],[102.33971626880923,2.225669550889984],[102.33949501081986,2.224923159736415],[102.33923496348127,2.224189362133542],[102.33893683956514,2.223470169389989],[102.3386014562084,2.222767552785978],[102.33822973267348,2.222083438169886],[102.33782268782882,2.221419700679442],[102.33738143735596,2.220778159601735],[102.33690719069185,2.220160573386376],[102.33640124771362,2.219568634825393],[102.33586499517577,2.219003966413057],[102.33529990290927,2.218468115898407],[102.3347075197927,2.217962552042588],[102.33408946950705,2.217488660592765],[102.33344744608517,2.217047740483527],[102.33278320926864,2.216641000276252],[102.3320985796844,2.216269554846207],[102.33139543385454,2.215934422326448],[102.33067569905293,2.215636521316879],[102.32994134802264,2.21537666836615],[102.32919439356877,2.215155575733339],[102.32843688304156,2.214973849435481],[102.32767089272473,2.214831987586269],[102.32689852214448,2.214730379030712],[102.32612188831489,2.214669302279056],[102.3253431199353,2.214648924743484],[102.32456435155572,2.214669302279056],[102.32378771772615,2.214730379030712],[102.32301534714588,2.214831987586269],[102.32224935682905,2.214973849435481],[102.32149184630184,2.215155575733339],[102.32074489184797,2.21537666836615],[102.32001054081768,2.215636521316879],[102.31929080601607,2.215934422326448],[102.31858766018621,2.216269554846207],[102.31790303060197,2.216641000276252],[102.31723879378544,2.217047740483527],[102.31659677036356,2.217488660592765],[102.31597872007791,2.217962552042588],[102.31538633696134,2.218468115898407],[102.31482124469484,2.219003966413057],[102.31428499215698,2.219568634825393],[102.31377904917876,2.220160573386376],[102.31330480251465,2.220778159601735],[102.3128635520418,2.221419700679442],[102.31245650719713,2.222083438169886],[102.31208478366221,2.222767552785978],[102.31174940030547,2.223470169389989],[102.31145127638932,2.224189362133542],[102.31119122905075,2.224923159736415],[102.31096997106138,2.225669550889984],[102.31078810887402,2.226426489770299],[102.31064614096027,2.227191901645741],[102.31054445644432,2.227963688563843],[102.31048333403635,2.228739735101848],[102.31046294126865,2.229517914164924],[102.31048333403635,2.230296092816526],[102.31054445644432,2.231072138124611],[102.31064614096027,2.231843923007832],[102.31078810887402,2.232609332065709],[102.31096997106138,2.233366267376665],[102.31119122905075,2.234112654248178],[102.31145127638932,2.234846446903214],[102.31174940030547,2.235565634087349],[102.31208478366221,2.236268244581298],[102.31245650719713,2.236952352603591],[102.3128635520418,2.237616083088774],[102.31330480251465,2.238257616826487],[102.31377904917876,2.238875195447558],[102.31428499215698,2.239467126243154],[102.31482124469484,2.240031786804061],[102.31538633696134,2.240567629467295],[102.31597872007791,2.241073185557727],[102.31659677036356,2.24154706941325],[102.31723879378544,2.241987982182506],[102.31790303060197,2.242394715384507],[102.31858766018621,2.242766154220767],[102.31929080601607,2.243101280630452],[102.32001054081768,2.243399176080614],[102.32074489184797,2.243659024083519],[102.32149184630184,2.243880112434261],[102.32224935682905,2.24406183516276],[102.32301534714588,2.244203694194408],[102.32378771772615,2.244305300715097],[102.32456435155572,2.24436637623682],[102.3253431199353,2.244386753360929],[102.32612188831489,2.24436637623682],[102.32689852214448,2.244305300715097],[102.32767089272473,2.244203694194408],[102.32843688304156,2.24406183516276],[102.32919439356877,2.243880112434261],[102.32994134802264,2.243659024083519],[102.33067569905293,2.243399176080614],[102.33139543385454,2.243101280630452],[102.3320985796844,2.242766154220767],[102.33278320926864,2.242394715384507],[102.33344744608517,2.241987982182506],[102.33408946950705,2.24154706941325],[102.3347075197927,2.241073185557727],[102.33529990290927,2.240567629467295],[102.33586499517577,2.240031786804061],[102.33640124771362,2.239467126243154],[102.33690719069185,2.238875195447558],[102.33738143735596,2.238257616826487],[102.33782268782882,2.237616083088774],[102.33822973267348,2.236952352603591],[102.3386014562084,2.236268244581298],[102.33893683956514,2.235565634087349],[102.33923496348127,2.234846446903214],[102.33949501081986,2.234112654248178],[102.33971626880923,2.233366267376665],[102.33989813099657,2.232609332065709],[102.34004009891034,2.231843923007832],[102.34014178342629,2.231072138124611],[102.34020290583426,2.230296092816526],[102.34022329860196,2.229517914164924]],[[102.26587991738589,2.264214831828514],[102.26585946943067,2.263434565370022],[102.26579818161146,2.262656437149397],[102.26569622191388,2.261882579967313],[102.2655538698024,2.261115114921156],[102.26537151545428,2.260356145591234],[102.26514965869006,2.259607752274803],[102.26488890760378,2.258871986283977],[102.26458997689596,2.258150864323011],[102.26425368591497,2.25744636296045],[102.26388095641094,2.256760413211214],[102.2634728100096,2.256094895243575],[102.26303036541181,2.255451633225361],[102.2625548353275,2.254832390323825],[102.26204752315157,2.254238863872507],[102.26150981939142,2.253672680718639],[102.26094319785567,2.253135392763725],[102.26034921161457,2.252628472709542],[102.25972948874316,2.25215331002116],[102.25908572785872,2.251711207118189],[102.25841969346506,2.251303375804595],[102.2577332111162,2.250930933946919],[102.25702816241254,2.250594902409895],[102.25630647984357,2.250296202258113],[102.25557014149099,2.250035652231093],[102.25482116560714,2.249813966498978],[102.25406160508275,2.249631752704808],[102.25329354182051,2.249489510298806],[102.2525190810284,2.249387629169254],[102.25174034544962,2.249326388573728],[102.25095946954426,2.249305956373569],[102.25017859363888,2.249326388573728],[102.24939985806012,2.249387629169254],[102.248625397268,2.249489510298806],[102.24785733400574,2.249631752704808],[102.24709777348139,2.249813966498978],[102.24634879759752,2.250035652231093],[102.24561245924495,2.250296202258113],[102.24489077667597,2.250594902409895],[102.2441857279723,2.250930933946919],[102.24349924562344,2.251303375804595],[102.24283321122981,2.251711207118189],[102.24218945034534,2.25215331002116],[102.24156972747393,2.252628472709542],[102.24097574123284,2.253135392763725],[102.2404091196971,2.253672680718639],[102.23987141593695,2.254238863872507],[102.23936410376099,2.254832390323825],[102.23888857367669,2.255451633225361],[102.23844612907892,2.256094895243575],[102.23803798267755,2.256760413211214],[102.23766525317355,2.25744636296045],[102.23732896219255,2.258150864323011],[102.23703003148475,2.258871986283977],[102.23676928039843,2.259607752274803],[102.23654742363424,2.260356145591234],[102.2363650692861,2.261115114921156],[102.23622271717463,2.261882579967313],[102.23612075747705,2.262656437149397],[102.23605946965785,2.263434565370022],[102.23603902170262,2.264214831828514],[102.23605946965785,2.264995097866881],[102.23612075747705,2.265773224831708],[102.23622271717463,2.266547079936114],[102.2363650692861,2.267314542105446],[102.23654742363424,2.268073507790923],[102.23676928039843,2.268821896735224],[102.23703003148475,2.269557657674146],[102.23732896219255,2.270278773958776],[102.23766525317355,2.270983269082743],[102.23803798267755,2.271669212099483],[102.23844612907892,2.272334722914511],[102.23888857367669,2.272977977438334],[102.23936410376099,2.273597212585843],[102.23987141593695,2.274190731108432],[102.2404091196971,2.274756906245726],[102.24097574123284,2.275294186184076],[102.24156972747393,2.275801098309518],[102.24218945034534,2.276276253243874],[102.24283321122981,2.276718348652465],[102.24349924562344,2.277126172813436],[102.2441857279723,2.277498607938629],[102.24489077667597,2.277834633237059],[102.24561245924495,2.278133327712505],[102.24634879759752,2.278393872687609],[102.24709777348139,2.278615554047593],[102.24785733400574,2.278797764197318],[102.248625397268,2.278940003726496],[102.24939985806012,2.279041882778368],[102.25017859363888,2.27910312211811],[102.25095946954426,2.279123553898131],[102.25174034544962,2.27910312211811],[102.2525190810284,2.279041882778368],[102.25329354182051,2.278940003726496],[102.25406160508275,2.278797764197318],[102.25482116560714,2.278615554047593],[102.25557014149099,2.278393872687609],[102.25630647984357,2.278133327712505],[102.25702816241254,2.277834633237059],[102.2577332111162,2.277498607938629],[102.25841969346506,2.277126172813436],[102.25908572785872,2.276718348652465],[102.25972948874316,2.276276253243874],[102.26034921161457,2.275801098309518],[102.26094319785567,2.275294186184076],[102.26150981939142,2.274756906245726],[102.26204752315157,2.274190731108432],[102.2625548353275,2.273597212585843],[102.26303036541181,2.272977977438334],[102.2634728100096,2.272334722914511],[102.26388095641094,2.271669212099483],[102.26425368591497,2.270983269082743],[102.26458997689596,2.270278773958776],[102.26488890760378,2.269557657674146],[102.26514965869006,2.268821896735224],[102.26537151545428,2.268073507790923],[102.2655538698024,2.267314542105446],[102.26569622191388,2.266547079936114],[102.26579818161146,2.265773224831708],[102.26585946943067,2.264995097866881],[102.26587991738589,2.264214831828514]],[[102.21866869553475,2.299435251587488],[102.21865189683461,2.298794251522449],[102.2186015467783,2.298155008107327],[102.21851778337178,2.297519273467522],[102.21840083620476,2.296888790113414],[102.2182510258213,2.296265286164211],[102.21806876284121,2.295650470611216],[102.21785454683469,2.295046028633504],[102.21760896495289,2.294453616978777],[102.21733269031871,2.293874859422207],[102.21702648018169,2.293311342315618],[102.21669117384255,2.292764610239183],[102.21632769035264,2.292236161767664],[102.21593702599498,2.291727445362659],[102.21552025155337,2.29123985540228],[102.2150785093776,2.290774728358985],[102.2146130102523,2.290333339136201],[102.21412503007818,2.289916897573621],[102.213615906375,2.289526545130858],[102.21308703461541,2.289163351758581],[102.21253986440018,2.288828312965621],[102.21197589548481,2.288522347090045],[102.21139667366892,2.288246292781962],[102.21080378655921,2.288000906704504],[102.2101988592181,2.287786861459771],[102.2095835497093,2.287604743745043],[102.20895954455348,2.287455052744586],[102.20832855410534,2.287338198761214],[102.20769230786586,2.287254502091641],[102.20705254974176,2.28720419214845],[102.20641103326561,2.287187406831193],[102.20576951678947,2.28720419214845],[102.20512975866538,2.287254502091641],[102.2044935124259,2.287338198761214],[102.20386252197777,2.287455052744586],[102.20323851682194,2.287604743745043],[102.20262320731314,2.287786861459771],[102.20201827997201,2.288000906704504],[102.20142539286232,2.288246292781962],[102.20084617104642,2.288522347090045],[102.20028220213105,2.288828312965621],[102.19973503191581,2.289163351758581],[102.19920616015622,2.289526545130858],[102.19869703645305,2.289916897573621],[102.19820905627893,2.290333339136201],[102.19774355715363,2.290774728358985],[102.19730181497786,2.29123985540228],[102.19688504053626,2.291727445362659],[102.19649437617859,2.292236161767664],[102.19613089268869,2.292764610239183],[102.19579558634955,2.293311342315618],[102.19548937621252,2.293874859422207],[102.19521310157833,2.294453616978777],[102.19496751969655,2.295046028633504],[102.19475330369002,2.295650470611216],[102.19457104070993,2.296265286164211],[102.19442123032647,2.296888790113414],[102.19430428315944,2.297519273467522],[102.19422051975293,2.298155008107327],[102.19417016969662,2.298794251522449],[102.19415337099649,2.299435251587488],[102.19417016969662,2.300076251364584],[102.19422051975293,2.300715493918998],[102.19430428315944,2.301351227134766],[102.19442123032647,2.301981708517121],[102.19457104070993,2.302605209968444],[102.19475330369002,2.303220022524797],[102.19496751969655,2.303824461039953],[102.19521310157833,2.304416868804149],[102.19548937621252,2.30499562208482],[102.19579558634955,2.305559134576997],[102.19613089268869,2.306105861751052],[102.19649437617859,2.306634305085962],[102.19688504053626,2.3071430161764],[102.19730181497786,2.307630600702459],[102.19774355715363,2.30809572225123],[102.19820905627893,2.308537105979492],[102.19869703645305,2.308953542107776],[102.19920616015622,2.30934388923596],[102.19973503191581,2.309707077471628],[102.20028220213105,2.310042111362221],[102.20084617104642,2.310348072623372],[102.20142539286232,2.310624122655568],[102.20201827997201,2.310869504842483],[102.20262320731314,2.31108354662466],[102.20323851682194,2.311265661342746],[102.20386252197775,2.311415349845335],[102.2044935124259,2.311532201856929],[102.20512975866538,2.311615897102465],[102.20576951678947,2.31166620618496],[102.20641103326561,2.311682991214249],[102.20705254974176,2.31166620618496],[102.20769230786586,2.311615897102465],[102.20832855410534,2.311532201856929],[102.20895954455345,2.311415349845335],[102.2095835497093,2.311265661342746],[102.2101988592181,2.31108354662466],[102.21080378655921,2.310869504842483],[102.21139667366892,2.310624122655568],[102.21197589548481,2.310348072623372],[102.21253986440018,2.310042111362221],[102.21308703461541,2.309707077471628],[102.213615906375,2.30934388923596],[102.21412503007818,2.308953542107776],[102.2146130102523,2.308537105979492],[102.2150785093776,2.30809572225123],[102.21552025155337,2.307630600702459],[102.21593702599498,2.3071430161764],[102.21632769035264,2.306634305085962],[102.21669117384255,2.306105861751052],[102.21702648018169,2.305559134576997],[102.21733269031871,2.30499562208482],[102.21760896495289,2.304416868804149],[102.21785454683469,2.303824461039953],[102.21806876284121,2.303220022524797],[102.2182510258213,2.302605209968444],[102.21840083620476,2.301981708517121],[102.21851778337178,2.301351227134766],[102.2186015467783,2.300715493918998],[102.21865189683461,2.300076251364584],[102.21866869553475,2.299435251587488]],[[102.17255120276585,2.259192561018585],[102.17252881293805,2.258338192335831],[102.1724617048236,2.2574861649179],[102.1723500623612,2.256638814119089],[102.17219419155504,2.255798462479405],[102.1719945196362,2.254967413358585],[102.17175159389153,2.254147944622563],[102.1714660801636,2.253342302399769],[102.17113876102569,2.252552694924496],[102.1707705336368,2.251781286483877],[102.17036240728261,2.251030191485563],[102.1699155006091,2.2503014686618],[102.16943103855638,2.249597115426346],[102.1689103490013,2.248919062399264],[102.16835485911768,2.248269168114757],[102.16776609146474,2.247649213926783],[102.16714565981366,2.24706089912593],[102.16649526472445,2.24650583628142],[102.16581668888489,2.245985546820746],[102.16511179222414,2.245501456859082],[102.16438250681499,2.245054893289987],[102.16363083157803,2.24464708014815],[102.16285882680285,2.244279135253914],[102.16206860850086,2.243952067149134],[102.16126234260551,2.243666772332496],[102.1604422390356,2.24342403280189],[102.15961054563796,2.243224513910871],[102.15876954202642,2.243068762544595],[102.15792153333342,2.242957205620813],[102.15706884389182,2.242890148919413],[102.15621381086412,2.242867776244281],[102.15535877783643,2.242890148919413],[102.15450608839483,2.242957205620813],[102.15365807970183,2.243068762544595],[102.15281707609029,2.243224513910871],[102.15198538269264,2.24342403280189],[102.15116527912272,2.243666772332496],[102.15035901322737,2.243952067149134],[102.1495687949254,2.244279135253914],[102.14879679015021,2.24464708014815],[102.14804511491326,2.245054893289987],[102.14731582950411,2.245501456859082],[102.14661093284336,2.245985546820746],[102.14593235700379,2.24650583628142],[102.14528196191459,2.24706089912593],[102.1446615302635,2.247649213926783],[102.14407276261055,2.248269168114757],[102.14351727272695,2.248919062399264],[102.14299658317186,2.249597115426346],[102.14251212111915,2.2503014686618],[102.14206521444564,2.251030191485563],[102.14165708809145,2.251781286483877],[102.14128886070256,2.252552694924496],[102.14096154156465,2.253342302399769],[102.14067602783672,2.254147944622563],[102.14043310209205,2.254967413358585],[102.1402334301732,2.255798462479405],[102.14007755936704,2.256638814119089],[102.13996591690464,2.2574861649179],[102.13989880879018,2.258338192335831],[102.13987641896239,2.259192561018585],[102.13989880879018,2.260046929198735],[102.13996591690464,2.260898955114376],[102.14007755936704,2.261746303427659],[102.1402334301732,2.262586651625805],[102.14043310209205,2.263417696386785],[102.14067602783672,2.264237159892448],[102.14096154156465,2.265042796071641],[102.14128886070256,2.265832396756315],[102.14165708809145,2.266603797733712],[102.14206521444564,2.267354884677983],[102.14251212111915,2.268083598945075],[102.14299658317186,2.268787943215016],[102.14351727272695,2.269465986965971],[102.14407276261055,2.27011587176534],[102.1446615302635,2.270735816363114],[102.14528196191459,2.271324121573769],[102.14593235700379,2.27187917493314],[102.14661093284336,2.272399455117675],[102.14731582950411,2.272883536113838],[102.14804511491326,2.273330091126261],[102.14879679015021,2.273737896214056],[102.1495687949254,2.27410583364507],[102.15035901322737,2.274432894959238],[102.15116527912272,2.274718183732301],[102.15198538269264,2.274960918032535],[102.15281707609029,2.275160432563727],[102.15365807970183,2.275316180488451],[102.15450608839483,2.275427734926707],[102.15535877783643,2.275494790125803],[102.15621381086412,2.275517162298344],[102.15706884389182,2.275494790125803],[102.15792153333342,2.275427734926707],[102.15876954202642,2.275316180488451],[102.15961054563796,2.275160432563727],[102.1604422390356,2.274960918032535],[102.16126234260551,2.274718183732301],[102.16206860850086,2.274432894959238],[102.16285882680285,2.27410583364507],[102.16363083157803,2.273737896214056],[102.16438250681499,2.273330091126261],[102.16511179222414,2.272883536113838],[102.16581668888489,2.272399455117675],[102.16649526472445,2.27187917493314],[102.16714565981366,2.271324121573769],[102.16776609146474,2.270735816363114],[102.16835485911768,2.27011587176534],[102.1689103490013,2.269465986965971],[102.16943103855638,2.268787943215016],[102.1699155006091,2.268083598945075],[102.17036240728261,2.267354884677983],[102.1707705336368,2.266603797733712],[102.17113876102569,2.265832396756315],[102.1714660801636,2.265042796071641],[102.17175159389153,2.264237159892448],[102.1719945196362,2.263417696386785],[102.17219419155504,2.262586651625805],[102.1723500623612,2.261746303427659],[102.1724617048236,2.260898955114376],[102.17252881293805,2.260046929198735],[102.17255120276585,2.259192561018585]],[[102.23501801934903,2.221869102008175],[102.23499746247842,2.221084656779962],[102.23493584821159,2.220302361246765],[102.23483334542894,2.219524359631516],[102.23469023508346,2.218752784391172],[102.23450690943069,2.217989750371665],[102.23428387095348,2.217237349011163],[102.2340217309848,2.216497642607428],[102.23372120803208,2.215772658664925],[102.23338312580783,2.215064384337452],[102.23300841097196,2.214374760981137],[102.23259809059178,2.213705678833135],[102.23215328932692,2.213058971830195],[102.23167522634671,2.212436412581786],[102.2311652119886,2.211839707511078],[102.23062464416644,2.211270492177388],[102.2300550045391,2.210730326792962],[102.22945785444918,2.210220691946128],[102.22883483064356,2.209742984542725],[102.22818764078723,2.209298513977026],[102.22751805878255,2.208888498542349],[102.22682791990728,2.208514062091455],[102.2261191157841,2.208176230955944],[102.22539358919583,2.207875931132748],[102.22465332876044,2.207613985745792],[102.22390036348033,2.207391112789636],[102.22313675718097,2.207207923161252],[102.22236460285416,2.207064918985445],[102.22158601692125,2.206962492238354],[102.22080313343214,2.206900923672973],[102.22001809821609,2.206880382049571],[102.21923306300002,2.206900923672973],[102.21845017951092,2.206962492238354],[102.217671593578,2.207064918985445],[102.2168994392512,2.207207923161252],[102.21613583295184,2.207391112789636],[102.21538286767174,2.207613985745792],[102.21464260723633,2.207875931132748],[102.21391708064806,2.208176230955944],[102.21320827652488,2.208514062091455],[102.21251813764962,2.208888498542349],[102.21184855564495,2.209298513977026],[102.2112013657886,2.209742984542725],[102.21057834198298,2.210220691946128],[102.20998119189308,2.210730326792962],[102.20941155226572,2.211270492177388],[102.20887098444356,2.211839707511078],[102.20836097008545,2.212436412581786],[102.20788290710524,2.213058971830195],[102.20743810584038,2.213705678833135],[102.2070277854602,2.214374760981137],[102.20665307062431,2.215064384337452],[102.2063149884001,2.215772658664925],[102.20601446544738,2.216497642607428],[102.2057523254787,2.217237349011163],[102.20552928700148,2.217989750371665],[102.20534596134871,2.218752784391172],[102.20520285100324,2.219524359631516],[102.20510034822058,2.220302361246765],[102.20503873395374,2.221084656779962],[102.20501817708315,2.221869102008175],[102.20503873395374,2.222653546819684],[102.20510034822058,2.223435841107364],[102.20520285100324,2.224213840661931],[102.20534596134871,2.224985413048986],[102.20552928700148,2.225748443453882],[102.2057523254787,2.226500840478016],[102.20601446544738,2.227240541871194],[102.2063149884001,2.227965520183785],[102.20665307062431,2.228673788323717],[102.2070277854602,2.229363405002624],[102.20743810584038,2.230032480056551],[102.20788290710524,2.23067917962642],[102.20836097008545,2.231301731184235],[102.20887098444356,2.231898428391098],[102.20941155226572,2.232467635773808],[102.20998119189308,2.233007793207268],[102.21057834198298,2.233517420190243],[102.2112013657886,2.233995119903053],[102.21184855564495,2.234439583035681],[102.21251813764962,2.234849591376296],[102.21320827652488,2.235224021149769],[102.21391708064806,2.235561846097739],[102.21464260723633,2.235862140291035],[102.21538286767174,2.236124080667409],[102.21613583295184,2.236346949287222],[102.2168994392512,2.236530135300982],[102.217671593578,2.236673136623513],[102.21845017951092,2.23677556130991],[102.21923306300002,2.236837128629773],[102.22001809821609,2.236857669836498],[102.22080313343214,2.236837128629773],[102.22158601692125,2.23677556130991],[102.22236460285416,2.236673136623513],[102.22313675718097,2.236530135300982],[102.22390036348033,2.236346949287222],[102.22465332876044,2.236124080667409],[102.22539358919583,2.235862140291035],[102.2261191157841,2.235561846097739],[102.22682791990728,2.235224021149769],[102.22751805878255,2.234849591376296],[102.22818764078723,2.234439583035681],[102.22883483064356,2.233995119903053],[102.22945785444918,2.233517420190243],[102.2300550045391,2.233007793207268],[102.23062464416644,2.232467635773808],[102.2311652119886,2.231898428391098],[102.23167522634671,2.231301731184235],[102.23215328932692,2.23067917962642],[102.23259809059178,2.230032480056551],[102.23300841097196,2.229363405002624],[102.23338312580783,2.228673788323717],[102.23372120803208,2.227965520183785],[102.2340217309848,2.227240541871194],[102.23428387095348,2.226500840478016],[102.23450690943069,2.225748443453882],[102.23469023508346,2.224985413048986],[102.23483334542894,2.224213840661931],[102.23493584821159,2.223435841107364],[102.23499746247842,2.222653546819684],[102.23501801934903,2.221869102008175]],[[102.25631244912297,2.207559137943259],[102.25629511783356,2.206897773756218],[102.2562431714692,2.206238222029433],[102.25615675241121,2.205582290552094],[102.25603609752828,2.204931777192795],[102.25588153752702,2.204288464971814],[102.25569349604568,2.203654117173796],[102.25547248849287,2.203030472514576],[102.25521912063493,2.202419240375408],[102.25493408693556,2.201822096117476],[102.2546181686523,2.201240676489626],[102.25427223169523,2.200676575142048],[102.25389722425348,2.20013133825788],[102.25349417419639,2.199606460315086],[102.25306418625614,2.199103379989881],[102.25260843899981,2.198623476213235],[102.25212818159893,2.198168064391053],[102.25162473040568,2.197738392798493],[102.25109946534477,2.197335639158251],[102.2505538261312,2.196960907412294],[102.24998930832413,2.196615224695771],[102.24940745922767,2.196299538521455],[102.24880987364973,2.196014714182503],[102.24819818953084,2.195761532380501],[102.24757408345462,2.19554068708542],[102.24693926605251,2.195352783633302],[102.24629547731483,2.195198337066977],[102.24564448182178,2.195077770724176],[102.24498806390675,2.194991415077099],[102.24432802276564,2.194939506826507],[102.24366616752529,2.194922188252923],[102.24300431228495,2.194939506826507],[102.24234427114385,2.194991415077099],[102.24168785322881,2.195077770724176],[102.24103685773576,2.195198337066977],[102.24039306899809,2.195352783633302],[102.23975825159597,2.19554068708542],[102.23913414551976,2.195761532380501],[102.23852246140086,2.196014714182503],[102.23792487582293,2.196299538521455],[102.23734302672646,2.196615224695771],[102.2367785089194,2.196960907412294],[102.23623286970583,2.197335639158251],[102.23570760464492,2.197738392798493],[102.23520415345168,2.198168064391053],[102.23472389605078,2.198623476213235],[102.23426814879446,2.199103379989881],[102.23383816085422,2.199606460315086],[102.23343511079713,2.20013133825788],[102.23306010335537,2.200676575142048],[102.2327141663983,2.201240676489626],[102.23239824811503,2.201822096117476],[102.23211321441565,2.202419240375408],[102.23185984655773,2.203030472514576],[102.23163883900492,2.203654117173796],[102.23145079752358,2.204288464971814],[102.23129623752232,2.204931777192795],[102.23117558263938,2.205582290552094],[102.2310891635814,2.206238222029433],[102.23103721721705,2.206897773756218],[102.23101988592762,2.207559137943259],[102.23103721721705,2.208220501836034],[102.2310891635814,2.20888005268318],[102.23117558263938,2.209535982705212],[102.23129623752232,2.210186494049426],[102.23145079752358,2.210829803717642],[102.23163883900492,2.211464148453194],[102.23185984655773,2.212087789573779],[102.23211321441565,2.212699017736936],[102.23239824811503,2.213296157625028],[102.2327141663983,2.213877572537082],[102.23306010335537,2.214441668874599],[102.23343511079713,2.2149869005093],[102.23383816085422,2.215511773020762],[102.23426814879446,2.216014847792261],[102.23472389605078,2.216494745953676],[102.23520415345168,2.216950152160627],[102.23570760464492,2.21737981819948],[102.23623286970583,2.217782566408378],[102.2367785089194,2.21815729290488],[102.23734302672646,2.218502970611342],[102.23792487582293,2.218818652069863],[102.23852246140086,2.219103472038962],[102.23913414551976,2.219356649864952],[102.23975825159597,2.219577491621425],[102.24039306899809,2.219765392011063],[102.24103685773576,2.219919836024624],[102.24168785322881,2.220040400352341],[102.24234427114385,2.220126754544097],[102.24300431228495,2.220178661915062],[102.24366616752529,2.220195980194382],[102.24432802276564,2.220178661915062],[102.24498806390675,2.220126754544097],[102.24564448182178,2.220040400352341],[102.24629547731483,2.219919836024624],[102.24693926605251,2.219765392011063],[102.24757408345462,2.219577491621425],[102.24819818953084,2.219356649864952],[102.24880987364973,2.219103472038962],[102.24940745922767,2.218818652069863],[102.24998930832413,2.218502970611342],[102.2505538261312,2.21815729290488],[102.25109946534477,2.217782566408378],[102.25162473040568,2.21737981819948],[102.25212818159893,2.216950152160627],[102.25260843899981,2.216494745953676],[102.25306418625614,2.216014847792261],[102.25349417419639,2.215511773020762],[102.25389722425348,2.2149869005093],[102.25427223169523,2.214441668874599],[102.2546181686523,2.213877572537082],[102.25493408693556,2.213296157625028],[102.25521912063493,2.212699017736936],[102.25547248849287,2.212087789573779],[102.25569349604568,2.211464148453194],[102.25588153752702,2.210829803717642],[102.25603609752828,2.210186494049426],[102.25615675241121,2.209535982705212],[102.2562431714692,2.20888005268318],[102.25629511783356,2.208220501836034],[102.25631244912297,2.207559137943259]],[[102.2793217612888,2.19510509173829],[102.27930379093995,2.194419335227928],[102.27924992914885,2.193735458015269],[102.27916032354693,2.193055334564198],[102.27903521973694,2.192380829052276],[102.27887496061972,2.191713790261184],[102.27867998545435,2.191056046509156],[102.27845082865421,2.190409400639619],[102.27818811832218,2.189775625079518],[102.277892574529,2.189156456981129],[102.27756500733969,2.188553593460392],[102.27720631459312,2.187968686945001],[102.27681747944119,2.18740334064508],[102.276399567654,2.186859104158536],[102.27595372469872,2.186337469223592],[102.27548117259994,2.185839865629674],[102.27498320659008,2.185367657298244],[102.27446119155935,2.184922138544085],[102.27391655831471,2.184504530527451],[102.27335079965796,2.184115977906653],[102.2727654662943,2.183757545700349],[102.2721621625818,2.183430216368229],[102.27154254213397,2.183134887117836],[102.2709083032874,2.182872367445233],[102.27026118444668,2.182643376915943],[102.26960295931958,2.182448543192547],[102.26893543205541,2.182288400314121],[102.26826043230001,2.182163387232298],[102.26757981018082,2.182073846608068],[102.2668954312357,2.18202002387238],[102.2662091712998,2.18200206655347],[102.26552291136392,2.18202002387238],[102.26483853241879,2.182073846608068],[102.2641579102996,2.182163387232298],[102.2634829105442,2.182288400314121],[102.26281538328003,2.182448543192547],[102.26215715815293,2.182643376915943],[102.26151003931221,2.182872367445233],[102.26087580046566,2.183134887117836],[102.2602561800178,2.183430216368229],[102.25965287630531,2.183757545700349],[102.25906754294165,2.184115977906653],[102.25850178428492,2.184504530527451],[102.25795715104026,2.184922138544085],[102.25743513600953,2.185367657298244],[102.25693716999967,2.185839865629674],[102.25646461790089,2.186337469223592],[102.25601877494562,2.186859104158536],[102.25560086315842,2.18740334064508],[102.2552120280065,2.187968686945001],[102.25485333525992,2.188553593460392],[102.25452576807061,2.189156456981129],[102.25423022427744,2.189775625079518],[102.2539675139454,2.190409400639619],[102.25373835714527,2.191056046509156],[102.25354338197988,2.191713790261184],[102.25338312286267,2.192380829052276],[102.25325801905268,2.193055334564198],[102.25316841345077,2.193735458015269],[102.25311455165966,2.194419335227928],[102.25309658131081,2.19510509173829],[102.25311455165966,2.195790847934069],[102.25316841345077,2.196474724206352],[102.25325801905268,2.197154846101623],[102.25338312286267,2.197829349459305],[102.25354338197988,2.198496385521366],[102.25373835714527,2.199154125999459],[102.2539675139454,2.199800768086019],[102.25423022427744,2.200434539395537],[102.25452576807061,2.201053702822339],[102.25485333525992,2.201656561301656],[102.2552120280065,2.202241462461006],[102.25560086315842,2.202806803148991],[102.25601877494562,2.20335103382914],[102.25646461790089,2.203872662826866],[102.25693716999967,2.204370260417818],[102.25743513600953,2.204842462746268],[102.25795715104026,2.205287975563235],[102.25850178428492,2.205705577773474],[102.25906754294165,2.206094124782336],[102.25965287630531,2.206452551632599],[102.2602561800178,2.206779875923285],[102.26087580046566,2.207075200502092],[102.26151003931221,2.207337715924126],[102.26215715815293,2.207566702670439],[102.26281538328003,2.207761533119898],[102.2634829105442,2.207921673269294],[102.2641579102996,2.208046684196889],[102.26483853241879,2.208136223265306],[102.26552291136392,2.208190045060631],[102.2662091712998,2.208208002064934],[102.2668954312357,2.208190045060631],[102.26757981018082,2.208136223265306],[102.26826043230001,2.208046684196889],[102.26893543205541,2.207921673269294],[102.26960295931958,2.207761533119898],[102.27026118444668,2.207566702670439],[102.2709083032874,2.207337715924126],[102.27154254213397,2.207075200502092],[102.2721621625818,2.206779875923285],[102.2727654662943,2.206452551632599],[102.27335079965796,2.206094124782336],[102.27391655831471,2.205705577773474],[102.27446119155935,2.205287975563235],[102.27498320659008,2.204842462746268],[102.27548117259994,2.204370260417818],[102.27595372469872,2.203872662826866],[102.276399567654,2.20335103382914],[102.27681747944119,2.202806803148991],[102.27720631459312,2.202241462461006],[102.27756500733969,2.201656561301656],[102.277892574529,2.201053702822339],[102.27818811832218,2.200434539395537],[102.27845082865421,2.199800768086019],[102.27867998545435,2.199154125999459],[102.27887496061972,2.198496385521366],[102.27903521973694,2.197829349459305],[102.27916032354693,2.197154846101623],[102.27924992914885,2.196474724206352],[102.27930379093995,2.195790847934069],[102.2793217612888,2.19510509173829]],[[102.30902809343806,2.18691656188652],[102.30900691501459,2.186108379370057],[102.30894343779278,2.185302411592314],[102.30883783575928,2.184500867660443],[102.30869039836193,2.183705944559652],[102.3085015297164,2.18291982113129],[102.30827174749845,2.18214465210065],[102.30800168152527,2.181382562170875],[102.30769207202884,2.180635640199065],[102.3073437676273,2.179905933470685],[102.3069577229988,2.179195442087726],[102.30653499626486,2.178506113486351],[102.30607674609003,2.17783983709877],[102.3055842285062,2.177198439174114],[102.30505879346984,2.176583677772441],[102.30450188116188,2.175997237945708],[102.30391501804023,2.175440727118706],[102.30329981265587,2.174915670682954],[102.30265795124407,2.174423507815236],[102.30199119310231,2.173965587532629],[102.3013013657683,2.173543164994525],[102.30059036001084,2.173157398062036],[102.29986012464727,2.172809344124012],[102.29911266120196,2.172499957198479],[102.29835001842027,2.17223008531752],[102.29757428665306,2.172000468202572],[102.29678759212716,2.171811735236666],[102.29599209111761,2.171664403739148],[102.29518996403735,2.171558877547575],[102.29438340946099,2.171495445910688],[102.29357463809855,2.171474282695505],[102.2927658667361,2.171495445910688],[102.29195931215975,2.171558877547575],[102.29115718507948,2.171664403739148],[102.29036168406994,2.171811735236666],[102.28957498954404,2.172000468202572],[102.28879925777683,2.17223008531752],[102.28803661499514,2.172499957198479],[102.28728915154983,2.172809344124012],[102.28655891618625,2.173157398062036],[102.2858479104288,2.173543164994525],[102.28515808309479,2.173965587532629],[102.28449132495302,2.174423507815236],[102.28384946354122,2.174915670682954],[102.28323425815687,2.175440727118706],[102.28264739503521,2.175997237945708],[102.28209048272726,2.176583677772441],[102.28156504769089,2.177198439174114],[102.28107253010705,2.17783983709877],[102.28061427993224,2.178506113486351],[102.28019155319829,2.179195442087726],[102.2798055085698,2.179905933470685],[102.27945720416825,2.180635640199065],[102.27914759467183,2.181382562170875],[102.27887752869863,2.18214465210065],[102.2786477464807,2.18291982113129],[102.27845887783515,2.183705944559652],[102.2783114404378,2.184500867660443],[102.2782058384043,2.185302411592314],[102.2781423611825,2.186108379370057],[102.27812118275904,2.18691656188652],[102.2781423611825,2.187724743967654],[102.2782058384043,2.188530710444181],[102.2783114404378,2.189332252223198],[102.27845887783515,2.190127172343098],[102.2786477464807,2.1909132919952],[102.27887752869863,2.191688456495573],[102.27914759467183,2.192450541190688],[102.27945720416825,2.1931974572808],[102.2798055085698,2.193927157544918],[102.28019155319829,2.194637641951853],[102.28061427993224,2.195326963141886],[102.28107253010705,2.19599323176399],[102.28156504769089,2.196634621654121],[102.28209048272726,2.197249374840242],[102.28264739503521,2.197835806360435],[102.28323425815687,2.198392308880872],[102.28384946354122,2.198917357101085],[102.28449132495302,2.199409511934277],[102.28515808309479,2.199867424451408],[102.2858479104288,2.200289839578157],[102.28655891618625,2.200675599534621],[102.28728915154983,2.201023647008397],[102.28803661499514,2.201333028052245],[102.28879925777683,2.201602894698545],[102.28957498954404,2.201832507283213],[102.29036168406994,2.202021236472846],[102.29115718507948,2.202168564989485],[102.29195931215975,2.202274089028204],[102.2927658667361,2.202337519363875],[102.29357463809855,2.202358682143742],[102.29438340946099,2.202337519363875],[102.29518996403735,2.202274089028204],[102.29599209111761,2.202168564989485],[102.29678759212716,2.202021236472846],[102.29757428665306,2.201832507283213],[102.29835001842027,2.201602894698545],[102.29911266120196,2.201333028052245],[102.29986012464727,2.201023647008397],[102.30059036001084,2.200675599534621],[102.3013013657683,2.200289839578157],[102.30199119310231,2.199867424451408],[102.30265795124407,2.199409511934277],[102.30329981265587,2.198917357101085],[102.30391501804023,2.198392308880872],[102.30450188116188,2.197835806360435],[102.30505879346984,2.197249374840242],[102.3055842285062,2.196634621654121],[102.30607674609003,2.19599323176399],[102.30653499626486,2.195326963141886],[102.3069577229988,2.194637641951853],[102.3073437676273,2.193927157544918],[102.30769207202884,2.1931974572808],[102.30800168152527,2.192450541190688],[102.30827174749845,2.191688456495573],[102.3085015297164,2.1909132919952],[102.30869039836193,2.190127172343098],[102.30883783575928,2.189332252223198],[102.30894343779278,2.188530710444181],[102.30900691501459,2.187724743967654],[102.30902809343806,2.18691656188652]],[[102.4038402155287,2.173317412045086],[102.40382334925785,2.172673778317711],[102.4037727966745,2.172031908472452],[102.40368869633983,2.171393561833411],[102.40357127876698,2.170760488069991],[102.40342086578934,2.170134422401147],[102.40323786967846,2.169517080839233],[102.40302279201393,2.168910155486309],[102.40277622230872,2.168315309896184],[102.4024988363932,2.167734174514531],[102.40219139456295,2.167168342209799],[102.40185473949461,2.166619363907077],[102.40148979393629,2.166088744336911],[102.40109755817848,2.165577937910739],[102.40067910731207,2.165088344734238],[102.40023558828182,2.164621306769507],[102.39976821674256,2.1641781041566],[102.39927827372719,2.163759951704524],[102.39876710213545,2.163367995561271],[102.39823610305316,2.16300331007212],[102.39768673191188,2.162666894834671],[102.39712049449976,2.16235967195881],[102.39653894283413,2.162082483539086],[102.39594367090771,2.161836089346324],[102.3953363103195,2.161621164745039],[102.39471852580257,2.161438298842111],[102.39409201066145,2.161287992871941],[102.39345848213054,2.161170658822451],[102.3928196766675,2.161086618305809],[102.3921773451937,2.161036101676779],[102.39153324829508,2.161019247401267],[102.39088915139645,2.161036101676779],[102.39024681992265,2.161086618305809],[102.38960801445961,2.161170658822451],[102.38897448592868,2.161287992871941],[102.38834797078756,2.161438298842111],[102.38773018627066,2.161621164745039],[102.38712282568243,2.161836089346324],[102.38652755375603,2.162082483539086],[102.38594600209039,2.16235967195881],[102.38537976467826,2.162666894834671],[102.38483039353699,2.16300331007212],[102.3842993944547,2.163367995561271],[102.38378822286296,2.163759951704524],[102.38329827984758,2.1641781041566],[102.38283090830832,2.164621306769507],[102.38238738927807,2.165088344734238],[102.38196893841166,2.165577937910739],[102.38157670265385,2.166088744336911],[102.38121175709554,2.166619363907077],[102.38087510202719,2.167168342209799],[102.38056766019693,2.167734174514531],[102.38029027428142,2.168315309896184],[102.38004370457621,2.168910155486309],[102.37982862691169,2.169517080839233],[102.3796456308008,2.170134422401147],[102.37949521782316,2.170760488069991],[102.37937780025031,2.171393561833411],[102.37929369991565,2.172031908472452],[102.3792431473323,2.172673778317711],[102.37922628106143,2.173317412045086],[102.3792431473323,2.173961045498095],[102.37929369991565,2.174602914523191],[102.37937780025031,2.175241259805292],[102.37949521782316,2.17587433168987],[102.3796456308008,2.176500394978526],[102.37982862691169,2.177117733685014],[102.38004370457621,2.177724655738533],[102.38029027428142,2.178319497621442],[102.38056766019693,2.178900628928652],[102.38087510202719,2.179466456836407],[102.38121175709554,2.180015430467759],[102.38157670265385,2.180546045143356],[102.38196893841166,2.181056846505373],[102.38238738927807,2.181546434503614],[102.38283090830832,2.182013467232719],[102.38329827984758,2.182456664610012],[102.38378822286296,2.182874811883827],[102.3842993944547,2.183266762962937],[102.38483039353699,2.183631443557508],[102.38537976467826,2.183967854123574],[102.38594600209039,2.184275072602458],[102.38652755375603,2.184552256947765],[102.38712282568243,2.184798647433311],[102.38773018627066,2.18501356873519],[102.38834797078756,2.185196431782679],[102.38897448592868,2.185346735372675],[102.38960801445961,2.185464067543296],[102.39024681992265,2.185548106703],[102.39088915139645,2.185598622511879],[102.39153324829508,2.185615476513011],[102.3921773451937,2.185598622511879],[102.3928196766675,2.185548106703],[102.39345848213054,2.185464067543296],[102.39409201066145,2.185346735372675],[102.39471852580257,2.185196431782679],[102.3953363103195,2.18501356873519],[102.39594367090771,2.184798647433311],[102.39653894283413,2.184552256947765],[102.39712049449976,2.184275072602458],[102.39768673191188,2.183967854123574],[102.39823610305316,2.183631443557508],[102.39876710213545,2.183266762962937],[102.39927827372719,2.18287481188384],[102.39976821674256,2.182456664610012],[102.40023558828182,2.182013467232719],[102.40067910731207,2.181546434503614],[102.40109755817848,2.181056846505373],[102.40148979393629,2.180546045143356],[102.40185473949461,2.180015430467759],[102.40219139456295,2.179466456836407],[102.4024988363932,2.178900628928652],[102.40277622230872,2.178319497621442],[102.40302279201393,2.177724655738533],[102.40323786967846,2.177117733685014],[102.40342086578934,2.176500394978526],[102.40357127876698,2.17587433168987],[102.40368869633983,2.175241259805292],[102.4037727966745,2.174602914523191],[102.40382334925785,2.173961045498095],[102.4038402155287,2.173317412045086]],[[102.39916407976769,2.276603092771578],[102.39914827184371,2.275999888868807],[102.3991008914002,2.275398338054651],[102.39902206830361,2.274800089141237],[102.39891201860263,2.274206781892437],[102.39877104393584,2.273620042529346],[102.39859953070497,2.273041479272824],[102.39839794901587,2.27247267793536],[102.39816685138996,2.271915197574404],[102.39790687124976,2.271370566218905],[102.39761872118274,2.270840276680981],[102.39730319098823,2.270325782463993],[102.39696114551253,2.269828493778499],[102.39659352227858,2.269349773676689],[102.39620132891602,2.268890934316206],[102.39578564039967,2.268453233363379],[102.39534759610284,2.268037870545841],[102.39488839667447,2.267645984363952],[102.39440930074831,2.267278648969981],[102.39391162149296,2.266936871223831],[102.39339672301273,2.266621587932934],[102.39286601660848,2.266333663284491],[102.39232095690963,2.266073886476509],[102.3917630378869,2.26584296955447],[102.39119378875756,2.265641545459583],[102.39061476979393,2.265470166293686],[102.3900275680467,2.265329301805915],[102.38943379299506,2.265219338104972],[102.3888350721352,2.265140576600805],[102.38823304651929,2.265093233178319],[102.38762936625774,2.265077437605621],[102.38702568599622,2.265093233178319],[102.38642366038032,2.265140576600805],[102.38582493952045,2.265219338104972],[102.3852311644688,2.265329301805915],[102.38464396272157,2.265470166293686],[102.38406494375795,2.265641545459583],[102.3834956946286,2.26584296955447],[102.38293777560588,2.266073886476509],[102.38239271590703,2.266333663284491],[102.38186200950278,2.266621587932934],[102.38134711102254,2.266936871223831],[102.38084943176719,2.267278648969981],[102.38037033584104,2.267645984363952],[102.37991113641267,2.268037870545841],[102.37947309211583,2.268453233363379],[102.37905740359948,2.268890934316206],[102.37866521023693,2.269349773676689],[102.37829758700296,2.269828493778499],[102.37795554152729,2.270325782463993],[102.37764001133277,2.270840276680981],[102.37735186126575,2.271370566218905],[102.37709188112554,2.271915197574404],[102.37686078349962,2.27247267793536],[102.37665920181054,2.273041479272824],[102.37648768857966,2.273620042529346],[102.37634671391287,2.274206781892437],[102.3762366642119,2.274800089141237],[102.37615784111532,2.275398338054651],[102.3761104606718,2.275999888868807],[102.37609465274782,2.276603092771578],[102.3761104606718,2.277206296421876],[102.37615784111532,2.277807846481414],[102.3762366642119,2.27840609414632],[102.37634671391287,2.278999399666374],[102.37648768857966,2.279586136839462],[102.37665920181054,2.280164697468706],[102.37686078349962,2.280733495770382],[102.37709188112554,2.28129097272032],[102.37735186126575,2.281835600326938],[102.37764001133277,2.282365885819209],[102.37795554152729,2.282880375738058],[102.37829758700296,2.283377659920065],[102.37866521023693,2.283856375362337],[102.37905740359948,2.284315209958299],[102.37947309211583,2.284752906093831],[102.37991113641267,2.285168264094076],[102.38037033584104,2.285560145511456],[102.38084943176719,2.285927476245889],[102.38134711102254,2.286269249488551],[102.38186200950278,2.286584528481311],[102.38239271590703,2.286872449084075],[102.38293777560588,2.287132222143188],[102.3834956946286,2.28736313565421],[102.38406494375795,2.287564556713321],[102.38464396272157,2.287735933251927],[102.3852311644688,2.287876795549709],[102.38582493952045,2.287986757521905],[102.38642366038032,2.288065517777552],[102.38702568599622,2.28811286044542],[102.38762936625774,2.288128655765657],[102.38823304651929,2.28811286044542],[102.3888350721352,2.288065517777552],[102.38943379299506,2.287986757521905],[102.3900275680467,2.287876795549709],[102.39061476979393,2.287735933251927],[102.39119378875756,2.287564556713321],[102.3917630378869,2.28736313565421],[102.39232095690963,2.287132222143188],[102.39286601660848,2.286872449084075],[102.39339672301273,2.286584528481311],[102.39391162149296,2.286269249488551],[102.39440930074831,2.285927476245889],[102.39488839667447,2.285560145511456],[102.39534759610284,2.285168264094076],[102.39578564039967,2.284752906093831],[102.39620132891602,2.284315209958299],[102.39659352227858,2.283856375362337],[102.39696114551253,2.283377659920065],[102.39730319098823,2.282880375738058],[102.39761872118274,2.282365885819209],[102.39790687124976,2.281835600326938],[102.39816685138996,2.28129097272032],[102.39839794901587,2.280733495770382],[102.39859953070497,2.280164697468706],[102.39877104393584,2.279586136839462],[102.39891201860263,2.278999399666374],[102.39902206830361,2.27840609414632],[102.3991008914002,2.277807846481414],[102.39914827184371,2.277206296421876],[102.39916407976769,2.276603092771578]],[[102.4683062517674,2.313750723269892],[102.46829435836825,2.313296902893892],[102.46825871076979,2.312844326263393],[102.46819940667962,2.312394233861272],[102.46811660864613,2.311947859362515],[102.46801054361295,2.311506426252694],[102.46788150229698,2.31107114447449],[102.46772983839149,2.310643207111214],[102.46755596759672,2.310223787116612],[102.46736036648042,2.309814034099832],[102.46714357117165,2.30941507117426],[102.4669061758913,2.309027991879123],[102.46664883132331,2.308653857181993],[102.46637224283126,2.308293692570708],[102.46607716852498,2.307948485242457],[102.46576441718265,2.307619181397754],[102.46543484603394,2.307306683646914],[102.46508935841048,2.307011848535918],[102.46472890126982,2.306735484198548],[102.4643544625999,2.306478348141226],[102.46396706871113,2.306241145166615],[102.46356778142321,2.30602452544173],[102.46315769515488,2.305829082715686],[102.46273793392402,2.30565535269226],[102.46230964826707,2.305503811561401],[102.46187401208516,2.30537487469396],[102.46143221942687,2.305268895503122],[102.4609854812151,2.305186164475637],[102.4605350219283,2.305126908375563],[102.460082076244,2.305091289622696],[102.45962788565488,2.305079405847356],[102.45917369506574,2.305091289622696],[102.45872074938146,2.305126908375563],[102.45827029009465,2.305186164475637],[102.45782355188288,2.305268895503122],[102.45738175922459,2.30537487469396],[102.4569461230427,2.305503811561401],[102.45651783738575,2.30565535269226],[102.45609807615489,2.305829082715686],[102.45568798988653,2.30602452544173],[102.45528870259862,2.306241145166615],[102.45490130870986,2.306478348141226],[102.45452687003994,2.306735484198548],[102.45416641289927,2.307011848535918],[102.4538209252758,2.307306683646914],[102.45349135412711,2.307619181397754],[102.45317860278476,2.307948485242457],[102.45288352847848,2.308293692570708],[102.45260693998644,2.308653857181993],[102.45234959541845,2.309027991879123],[102.4521122001381,2.30941507117426],[102.45189540482932,2.309814034099832],[102.45169980371303,2.310223787116612],[102.45152593291826,2.310643207111214],[102.45137426901277,2.31107114447449],[102.45124522769682,2.311506426252694],[102.45113916266362,2.311947859362515],[102.45105636463015,2.312394233861272],[102.45099706053996,2.312844326263393],[102.4509614129415,2.313296902893892],[102.45094951954236,2.313750723269892],[102.4509614129415,2.314204543500656],[102.45099706053996,2.314657119697034],[102.45105636463015,2.31510721138091],[102.45113916266362,2.315553584885171],[102.45124522769682,2.315995016735124],[102.45137426901277,2.316430297001928],[102.45152593291826,2.316858232618787],[102.45169980371303,2.317277650651101],[102.45189540482932,2.317687401511249],[102.4521122001381,2.318086362109443],[102.45234959541845,2.318473438931979],[102.45260693998644,2.318847571038344],[102.45288352847848,2.319207732969109],[102.45317860278476,2.319552937556447],[102.45349135412711,2.319882238629881],[102.4538209252758,2.32019473360944],[102.45416641289927,2.320489565979523],[102.45452687003994,2.320765927636373],[102.45490130870986,2.321023061102941],[102.45528870259862,2.321260261604939],[102.45568798988653,2.321476879002447],[102.45609807615489,2.321672319571859],[102.45651783738575,2.321846047632997],[102.4569461230427,2.32199758701745],[102.45738175922459,2.322126522373467],[102.45782355188288,2.322232500304449],[102.45827029009465,2.322315230337439],[102.45872074938146,2.322374485719267],[102.45917369506574,2.322410104038013],[102.45962788565488,2.322421987668129],[102.460082076244,2.322410104038013],[102.4605350219283,2.322374485719267],[102.4609854812151,2.322315230337439],[102.46143221942687,2.322232500304449],[102.46187401208516,2.322126522373467],[102.46230964826707,2.32199758701745],[102.46273793392402,2.321846047632997],[102.46315769515488,2.321672319571859],[102.46356778142321,2.321476879002447],[102.46396706871113,2.321260261604939],[102.4643544625999,2.321023061102941],[102.46472890126982,2.320765927636373],[102.46508935841048,2.320489565979523],[102.46543484603394,2.32019473360944],[102.46576441718265,2.319882238629881],[102.46607716852498,2.319552937556447],[102.46637224283126,2.319207732969109],[102.46664883132331,2.318847571038344],[102.4669061758913,2.318473438931979],[102.46714357117165,2.318086362109443],[102.46736036648042,2.317687401511249],[102.46755596759672,2.317277650651101],[102.46772983839149,2.316858232618787],[102.46788150229698,2.316430297001928],[102.46801054361295,2.315995016735124],[102.46811660864613,2.315553584885171],[102.46819940667962,2.31510721138091],[102.46825871076979,2.314657119697034],[102.46829435836825,2.314204543500656],[102.4683062517674,2.313750723269892]],[[102.48245197270566,2.163506748904538],[102.48243800683227,2.162973793804369],[102.48239614749161,2.162442299310607],[102.48232650941723,2.161913722215078],[102.48222928348227,2.161389511314687],[102.48210473617623,2.160871103440393],[102.48195320887459,2.160359919518841],[102.48177511690321,2.159857360677687],[102.48157094839976,2.159364804405048],[102.48134126297595,2.158883600773832],[102.48108669018355,2.158415068741186],[102.48080792778886,2.157960492533172],[102.48050573986028,2.157521118124681],[102.48018095467388,2.157098149824118],[102.47983446244329,2.156692746972405],[102.47946721287963,2.156306020765045],[102.47908021258843,2.15593903120636],[102.47867452231057,2.155592784203853],[102.47825125401494,2.155268228810971],[102.47781156785048,2.154966254625652],[102.47735666896642,2.154687689351821],[102.476887804209,2.154433296530584],[102.47640625870389,2.154203773447259],[102.47591335233388,2.153999749220028],[102.47541043612107,2.153821783075501],[102.4748988885238,2.153670362815695],[102.47438011165852,2.153545903480999],[102.47385552745654,2.153448746212441],[102.4733265737667,2.153379157316591],[102.47279470041427,2.153337327535539],[102.4722613652272,2.153323371524107],[102.47172803004014,2.153337327535539],[102.47119615668772,2.153379157316591],[102.47066720299787,2.153448746212441],[102.47014261879589,2.153545903480999],[102.46962384193061,2.153670362815695],[102.46911229433336,2.153821783075501],[102.46860937812053,2.153999749220028],[102.46811647175052,2.154203773447259],[102.46763492624541,2.154433296530584],[102.46716606148799,2.154687689351821],[102.46671116260393,2.154966254625652],[102.46627147643947,2.155268228810971],[102.46584820814384,2.155592784203853],[102.46544251786598,2.15593903120636],[102.46505551757478,2.156306020765045],[102.46468826801112,2.156692746972405],[102.46434177578053,2.157098149824118],[102.46401699059415,2.157521118124681],[102.46371480266555,2.157960492533172],[102.46343604027088,2.158415068741186],[102.46318146747846,2.158883600773832],[102.46295178205465,2.159364804405048],[102.46274761355122,2.159857360677687],[102.46256952157982,2.160359919518841],[102.46241799427818,2.160871103440393],[102.46229344697214,2.161389511314687],[102.46219622103716,2.161913722215078],[102.46212658296278,2.162442299310607],[102.46208472362214,2.162973793804369],[102.46207075774875,2.163506748904538],[102.46208472362214,2.164039703817436],[102.46212658296278,2.164571197751395],[102.46219622103716,2.16509977392076],[102.46229344697214,2.165623983538726],[102.46241799427818,2.166142389788418],[102.46256952157982,2.166653571760977],[102.46274761355122,2.167156128350107],[102.46295178205465,2.167648682092373],[102.46318146747846,2.168129882942575],[102.46343604027088,2.16859841197405],[102.46371480266555,2.169052984993597],[102.46401699059415,2.169492356061284],[102.46434177578053,2.16991532090527],[102.46468826801112,2.170320720222561],[102.46505551757478,2.170707442856326],[102.46544251786598,2.171074428841416],[102.46584820814384,2.1714206723095],[102.46627147643947,2.171745224245806],[102.46671116260393,2.172047195090308],[102.46716606148799,2.172325757175684],[102.46763492624541,2.17258014699575],[102.46811647175052,2.172809667298061],[102.46860937812053,2.173013688994895],[102.46911229433336,2.173191652887422],[102.46962384193061,2.173343071198235],[102.47014261879589,2.17346752890833],[102.47066720299787,2.173564684894463],[102.47119615668772,2.173634272864135],[102.47172803004014,2.173676102085384],[102.4722613652272,2.173690057909532],[102.47279470041427,2.173676102085384],[102.4733265737667,2.173634272864135],[102.47385552745654,2.173564684894463],[102.47438011165852,2.17346752890833],[102.4748988885238,2.173343071198235],[102.47541043612107,2.173191652887422],[102.47591335233388,2.173013688994895],[102.47640625870389,2.172809667298061],[102.476887804209,2.17258014699575],[102.47735666896642,2.172325757175684],[102.47781156785048,2.172047195090308],[102.47825125401494,2.171745224245806],[102.47867452231057,2.1714206723095],[102.47908021258843,2.171074428841416],[102.47946721287963,2.170707442856326],[102.47983446244329,2.170320720222561],[102.48018095467388,2.16991532090527],[102.48050573986028,2.169492356061284],[102.48080792778886,2.169052984993597],[102.48108669018355,2.16859841197405],[102.48134126297595,2.168129882942575],[102.48157094839976,2.167648682092373],[102.48177511690321,2.167156128350107],[102.48195320887459,2.166653571760977],[102.48210473617623,2.166142389788418],[102.48222928348227,2.165623983538726],[102.48232650941723,2.16509977392076],[102.48239614749161,2.164571197751395],[102.48243800683227,2.164039703817436],[102.48245197270566,2.163506748904538]]],"bbox":[102.02333566125712,2.153323371524107,102.48245197270566,2.446075010437654]}
