{"type":"Topology","objects":{"MLK_SE-07":{"type":"GeometryCollection","geometries":[{"type":"Polygon","arcs":[[0]],"properties":{"state":"Melaka","parlimen":"P.110 Alor Gajah","code_parlimen":"P.110","dun":"N.01 Kuala Linggi","code_dun":"N.01","voters_total":8363}},{"type":"Polygon","arcs":[[1]],"properties":{"state":"Melaka","parlimen":"P.110 Alor Gajah","code_parlimen":"P.110","dun":"N.02 Sungai Bahru","code_dun":"N.02","voters_total":7678}},{"type":"Polygon","arcs":[[2]],"properties":{"state":"Melaka","parlimen":"P.110 Alor Gajah","code_parlimen":"P.110","dun":"N.03 Masjid Tanah","code_dun":"N.03","voters_total":9331}},{"type":"Polygon","arcs":[[3]],"properties":{"state":"Melaka","parlimen":"P.110 Alor Gajah","code_parlimen":"P.110","dun":"N.04 Kelemak","code_dun":"N.04","voters_total":9594}},{"type":"Polygon","arcs":[[4]],"properties":{"state":"Melaka","parlimen":"P.111 Selandar","code_parlimen":"P.111","dun":"N.05 Pulau Sebang","code_dun":"N.05","voters_total":9406}},{"type":"Polygon","arcs":[[5]],"properties":{"state":"Melaka","parlimen":"P.111 Selandar","code_parlimen":"P.111","dun":"N.06 Kemuning","code_dun":"N.06","voters_total":7940}},{"type":"Polygon","arcs":[[6]],"properties":{"state":"Melaka","parlimen":"P.111 Selandar","code_parlimen":"P.111","dun":"N.07 Tebong","code_dun":"N.07","voters_total":11151}},{"type":"Polygon","arcs":[[7]],"properties":{"state":"Melaka","parlimen":"P.111 Selandar","code_parlimen":"P.111","dun":"N.08 Bukit Asahan","code_dun":"N.08","voters_total":8816}},{"type":"Polygon","arcs":[[8]],"properties":{"state":"Melaka","parlimen":"P.112 Batu Berendam","code_parlimen":"P.112","dun":"N.09 Ayer Molek","code_dun":"N.09","voters_total":16494}},{"type":"Polygon","arcs":[[9]],"properties":{"state":"Melaka","parlimen":"P.112 Batu Berendam","code_parlimen":"P.112","dun":"N.10 Krubong","code_dun":"N.10","voters_total":17239}},{"type":"Polygon","arcs":[[10]],"properties":{"state":"Melaka","parlimen":"P.112 Batu Berendam","code_parlimen":"P.112","dun":"N.11 Tanjong Minyak","code_dun":"N.11","voters_total":12057}},{"type":"Polygon","arcs":[[11]],"properties":{"state":"Melaka","parlimen":"P.112 Batu Berendam","code_parlimen":"P.112","dun":"N.12 Sungai Udang","code_dun":"N.12","voters_total":16210}},{"type":"Polygon","arcs":[[12]],"properties":{"state":"Melaka","parlimen":"P.113 Kota Melaka","code_parlimen":"P.113","dun":"N.13 Tranquerah","code_dun":"N.13","voters_total":19269}},{"type":"Polygon","arcs":[[13]],"properties":{"state":"Melaka","parlimen":"P.113 Kota Melaka","code_parlimen":"P.113","dun":"N.14 Kubu","code_dun":"N.14","voters_total":14260}},{"type":"Polygon","arcs":[[14]],"properties":{"state":"Melaka","parlimen":"P.113 Kota Melaka","code_parlimen":"P.113","dun":"N.15 Durian Daun","code_dun":"N.15","voters_total":15491}},{"type":"Polygon","arcs":[[15]],"properties":{"state":"Melaka","parlimen":"P.113 Kota Melaka","code_parlimen":"P.113","dun":"N.16 Bandar Hilir","code_dun":"N.16","voters_total":20014}},{"type":"Polygon","arcs":[[16]],"properties":{"state":"Melaka","parlimen":"P.114 Jasin","code_parlimen":"P.114","dun":"N.17 Serkam","code_dun":"N.17","voters_total":13055}},{"type":"Polygon","arcs":[[17]],"properties":{"state":"Melaka","parlimen":"P.114 Jasin","code_parlimen":"P.114","dun":"N.18 Ayer Panas","code_dun":"N.18","voters_total":11146}},{"type":"Polygon","arcs":[[18]],"properties":{"state":"Melaka","parlimen":"P.114 Jasin","code_parlimen":"P.114","dun":"N.19 Rim","code_dun":"N.19","voters_total":6627}},{"type":"Polygon","arcs":[[19]],"properties":{"state":"Melaka","parlimen":"P.114 Jasin","code_parlimen":"P.114","dun":"N.20 Sungai Rambai","code_dun":"N.20","voters_total":8772}}]}},"arcs":[[[102.0437922195916,2.367086975249573],[102.0437777463819,2.366534737176435],[102.04373436642291,2.365984012530409],[102.04366219861606,2.365436310812199],[102.0435614407683,2.364893133238692],[102.04343236904985,2.364355968628055],[102.04327533723738,2.363826289319062],[102.04309077574413,2.363305547135309],[102.04287919044036,2.36279516940581],[102.04264116126664,2.362296555052682],[102.04237734064442,2.361811070756646],[102.04208845168768,2.361340047210893],[102.04177528622094,2.360884775473596],[102.04143870260901,2.360446503429061],[102.04107962340417,2.360026432367167],[102.04069903281757,2.359625713690516],[102.04029797402153,2.359245445758349],[102.03987754629034,2.358886670875865],[102.03943890198721,2.358550372437073],[102.03898324340565,2.35823747222925],[102.03851181947417,2.357948827906204],[102.03802592233302,2.357685230637286],[102.03752688379247,2.35744740293871],[102.03701607168249,2.357235996693068],[102.03649488610353,2.357051591362312],[102.03596475558905,2.356894692399492],[102.03542713318997,2.356765729863091],[102.03488349249189,2.356665057238305],[102.03433532357617,2.356592950467919],[102.03378412893575,2.356549607196067],[102.03323141935677,2.356535146226314],[102.03267870977778,2.356549607196067],[102.03212751513733,2.356592950467919],[102.03157934622162,2.356665057238305],[102.03103570552355,2.356765729863091],[102.03049808312447,2.356894692399492],[102.02996795261001,2.357051591362312],[102.02944676703103,2.357235996693068],[102.02893595492105,2.35744740293871],[102.02843691638049,2.357685230637286],[102.02795101923935,2.357948827906204],[102.02747959530788,2.35823747222925],[102.02702393672631,2.358550372437073],[102.02658529242318,2.358886670875865],[102.02616486469199,2.359245445758349],[102.02576380589595,2.359625713690516],[102.02538321530936,2.360026432367167],[102.0250241361045,2.360446503429061],[102.02468755249258,2.360884775473596],[102.02437438702584,2.361340047210893],[102.0240854980691,2.361811070756646],[102.02382167744689,2.362296555052682],[102.02358364827316,2.36279516940581],[102.02337206296939,2.363305547135309],[102.02318750147613,2.363826289319062],[102.02303046966365,2.364355968628055],[102.02290139794522,2.364893133238692],[102.02280064009746,2.365436310812199],[102.02272847229061,2.365984012530409],[102.02268509233161,2.366534737176435],[102.02267061912193,2.367086975249573],[102.02268509233161,2.367639213102693],[102.02272847229061,2.368189937091057],[102.02280064009746,2.368737637721173],[102.02290139794522,2.36928081378809],[102.02303046966365,2.369817976490114],[102.02318750147613,2.370347653509413],[102.02337206296939,2.370868393047467],[102.02358364827316,2.371378767804254],[102.02382167744689,2.371877378890215],[102.0240854980691,2.37236285966044],[102.02437438702584,2.372833879460352],[102.02468755249258,2.373289147272819],[102.0250241361045,2.373727415256549],[102.02538321530936,2.374147482166139],[102.02576380589595,2.374548196644509],[102.02616486469199,2.374928460378369],[102.02658529242318,2.375287231108563],[102.02702393672631,2.37562352548655],[102.02747959530788,2.375936421769544],[102.02795101923935,2.376225062346748],[102.02843691638049,2.376488656089856],[102.02893595492105,2.376726480521252],[102.02944676703103,2.376937883794195],[102.02996795261001,2.377122286479238],[102.03049808312447,2.377279183152377],[102.03103570552355,2.377408143780165],[102.03157934622162,2.377508814898361],[102.03212751513733,2.377580920580654],[102.03267870977778,2.377624263194855],[102.03323141935677,2.377638723944578],[102.03378412893575,2.377624263194855],[102.03433532357617,2.377580920580654],[102.03488349249189,2.377508814898361],[102.03542713318997,2.377408143780165],[102.03596475558905,2.377279183152377],[102.03649488610353,2.377122286479238],[102.03701607168249,2.376937883794195],[102.03752688379247,2.376726480521252],[102.03802592233302,2.376488656089856],[102.03851181947417,2.376225062346748],[102.03898324340565,2.375936421769544],[102.03943890198721,2.37562352548655],[102.03987754629034,2.375287231108563],[102.04029797402153,2.374928460378369],[102.04069903281757,2.374548196644509],[102.04107962340417,2.374147482166139],[102.04143870260901,2.373727415256549],[102.04177528622094,2.373289147272819],[102.04208845168768,2.372833879460352],[102.04237734064442,2.37236285966044],[102.04264116126664,2.371877378890215],[102.04287919044036,2.371378767804254],[102.04309077574413,2.370868393047467],[102.04327533723738,2.370347653509413],[102.04343236904985,2.369817976490114],[102.0435614407683,2.36928081378809],[102.04366219861606,2.368737637721173],[102.04373436642291,2.368189937091057],[102.0437777463819,2.367639213102693],[102.0437922195916,2.367086975249573]],[[102.10151071594082,2.413124267400061],[102.10149684813156,2.412595146662078],[102.10145528271448,2.412067476002242],[102.10138613361751,2.411542701731714],[102.10128959037351,2.411022262224506],[102.10116591760078,2.410507583974976],[102.10101545427786,2.410000077687799],[102.10083861281417,2.40950113441126],[102.10063587791993,2.409012121724409],[102.10040780527738,2.408534379988445],[102.1001550200178,2.408069218672855],[102.09987821500793,2.407617912766022],[102.09957814895118,2.407181699280468],[102.09925564430768,2.406761773862115],[102.09891158504027,2.406359287512915],[102.09854691419146,2.405975343435955],[102.09816263129873,2.405610994011335],[102.09775978965477,2.405267237911638],[102.0973394934205,2.404945017364342],[102.09690289459871,2.404645215569153],[102.09645118987642,2.40436865427699],[102.09598561734487,2.40411609153749],[102.09550745310598,2.403888219621074],[102.09501800777475,2.403685663121346],[102.0945186228868,2.403508977242977],[102.09401066722134,2.403358646279818],[102.09349553304958,2.403235082287332],[102.09297463231852,2.403138623953184],[102.09244939278076,2.40306953566869],[102.09192125408146,2.403028006804216],[102.09139166381202,2.403014151190033],[102.0908620735426,2.403028006804216],[102.09033393484329,2.40306953566869],[102.08980869530554,2.403138623953184],[102.08928779457446,2.403235082287332],[102.08877266040271,2.403358646279818],[102.08826470473726,2.403508977242977],[102.08776531984928,2.403685663121346],[102.08727587451806,2.403888219621074],[102.08679771027917,2.40411609153749],[102.08633213774762,2.40436865427699],[102.08588043302532,2.404645215569153],[102.08544383420353,2.404945017364342],[102.08502353796928,2.405267237911638],[102.0846206963253,2.405610994011335],[102.08423641343258,2.405975343435955],[102.08387174258377,2.406359287512915],[102.08352768331636,2.406761773862115],[102.08320517867286,2.407181699280468],[102.0829051126161,2.407617912766022],[102.08262830760626,2.408069218672855],[102.08237552234667,2.408534379988445],[102.08214744970411,2.409012121724409],[102.08194471480988,2.40950113441126],[102.0817678733462,2.410000077687799],[102.08161741002324,2.410507583974976],[102.08149373725054,2.411022262224506],[102.08139719400653,2.411542701731714],[102.08132804490957,2.412067476002242],[102.08128647949248,2.412595146662078],[102.08127261168322,2.413124267400061],[102.08128647949248,2.413653387932109],[102.08132804490957,2.414181057976444],[102.08139719400653,2.414705831228622],[102.08149373725054,2.415226269325788],[102.08161741002324,2.415740945789055],[102.0817678733462,2.416248449933288],[102.08194471480988,2.416747390733702],[102.08214744970411,2.417236400638381],[102.08237552234667,2.417714139316573],[102.08262830760626,2.418179297332338],[102.0829051126161,2.418630599733411],[102.08320517867286,2.419066809545704],[102.08352768331636,2.419486731163536],[102.08387174258377,2.419889213626569],[102.08423641343258,2.420273153774323],[102.0846206963253,2.420637499269736],[102.08502353796928,2.420981251483279],[102.08544383420353,2.421303468230041],[102.08588043302532,2.421603266351956],[102.08633213774762,2.421879824138372],[102.08679771027917,2.422132383578034],[102.08727587451806,2.422360252436689],[102.08776531984928,2.422562806154234],[102.08826470473726,2.422739489556478],[102.08877266040271,2.422889818376707],[102.08928779457446,2.423013380582916],[102.08980869530554,2.423109837507048],[102.09033393484329,2.423178924773192],[102.0908620735426,2.423220453022152],[102.09139166381202,2.423234308430426],[102.09192125408146,2.423220453022152],[102.09244939278076,2.423178924773192],[102.09297463231852,2.423109837507048],[102.09349553304958,2.423013380582916],[102.09401066722134,2.422889818376707],[102.0945186228868,2.422739489556478],[102.09501800777475,2.422562806154234],[102.09550745310598,2.422360252436689],[102.09598561734487,2.422132383578034],[102.09645118987642,2.421879824138372],[102.09690289459871,2.421603266351956],[102.0973394934205,2.421303468230041],[102.09775978965477,2.420981251483279],[102.09816263129873,2.420637499269736],[102.09854691419146,2.420273153774323],[102.09891158504027,2.419889213626569],[102.09925564430768,2.419486731163536],[102.09957814895118,2.419066809545704],[102.09987821500793,2.418630599733411],[102.1001550200178,2.418179297332338],[102.10040780527738,2.417714139316573],[102.10063587791993,2.417236400638381],[102.10083861281417,2.416747390733702],[102.10101545427786,2.416248449933288],[102.10116591760078,2.415740945789055],[102.10128959037351,2.415226269325788],[102.10138613361751,2.414705831228622],[102.10145528271448,2.414181057976444],[102.10149684813156,2.413653387932109],[102.10151071594082,2.413124267400061]],[[102.14055628011499,2.337595393760431],[102.14054099221262,2.337012058030771],[102.14049517040861,2.33643032094242],[102.14041894029732,2.335851776999344],[102.1403125108202,2.335278011955234],[102.14017617369304,2.33471059846708],[102.14001030260641,2.334151091784482],[102.13981535220148,2.333601025486787],[102.13959185682371,2.333061907279481],[102.13934042905842,2.332535214861589],[102.13906175805164,2.332022391875189],[102.13875660762123,2.331524843948433],[102.13842581416327,2.331043934842522],[102.1380702843597,2.330580982713675],[102.13769099269295,2.33013725649983],[102.13728897877513,2.329713972442462],[102.13686534449845,2.329312290752719],[102.13642125101501,2.328933312431153],[102.13595791555419,2.328578076249723],[102.13547660808626,2.328247555904456],[102.13497864784155,2.32794265734633],[102.13446539969449,2.327664216298005],[102.13393827042252,2.327412995962942],[102.13339870485042,2.327189684933353],[102.13284818188986,2.326994895302624],[102.132288210486,2.326829160987529],[102.13172032548157,2.32669293626462],[102.13114608340987,2.326586594525],[102.13056705822852,2.326510427250767],[102.12998483700531,2.326464643216037],[102.1294010155681,2.326449367914607],[102.12881719413089,2.326464643216037],[102.12823497290768,2.326510427250767],[102.12765594772634,2.326586594525],[102.12708170565465,2.32669293626462],[102.12651382065022,2.326829160987529],[102.12595384924637,2.326994895302624],[102.1254033262858,2.327189684933353],[102.12486376071368,2.327412995962942],[102.12433663144174,2.327664216298005],[102.12382338329466,2.32794265734633],[102.12332542304995,2.328247555904456],[102.12284411558201,2.328578076249723],[102.1223807801212,2.328933312431153],[102.12193668663775,2.329312290752719],[102.12151305236108,2.329713972442462],[102.12111103844325,2.33013725649983],[102.12073174677651,2.330580982713675],[102.12037621697293,2.331043934842522],[102.12004542351498,2.331524843948433],[102.11974027308457,2.332022391875189],[102.11946160207778,2.332535214861589],[102.11921017431249,2.333061907279481],[102.11898667893472,2.333601025486787],[102.11879172852979,2.334151091784482],[102.11862585744318,2.33471059846708],[102.11848952031602,2.335278011955234],[102.11838309083889,2.335851776999344],[102.1183068607276,2.33643032094242],[102.11826103892358,2.337012058030771],[102.1182457510212,2.337595393760431],[102.11826103892358,2.338178729247644],[102.1183068607276,2.338760465611338],[102.11838309083889,2.339339008355471],[102.11848952031602,2.339912771739498],[102.11862585744318,2.340480183124606],[102.11879172852979,2.341039687284235],[102.11898667893472,2.341589750666697],[102.11921017431249,2.342128865598426],[102.11946160207778,2.342655554416312],[102.11974027308457,2.34316837351769],[102.12004542351498,2.343665917316989],[102.12037621697293,2.344146822098211],[102.12073174677651,2.344609769752552],[102.12111103844325,2.345053491391067],[102.12151305236108,2.345476770822433],[102.12193668663775,2.345878447886161],[102.1223807801212,2.346257421632409],[102.12284411558201,2.346612653339334],[102.12332542304995,2.346943169359924],[102.12382338329466,2.347248063790581],[102.12433663144174,2.347526500953883],[102.12486376071368,2.347777717688928],[102.1254033262858,2.348001025442952],[102.12595384924637,2.348195812158449],[102.12651382065022,2.348361543950575],[102.12708170565465,2.348497766570437],[102.12765594772634,2.348604106649973],[102.12823497290768,2.348680272725265],[102.12881719413089,2.348726056035337],[102.1294010155681,2.34874133109432],[102.12998483700531,2.348726056035337],[102.13056705822852,2.348680272725265],[102.13114608340987,2.348604106649973],[102.13172032548157,2.348497766570437],[102.132288210486,2.348361543950575],[102.13284818188986,2.348195812158449],[102.13339870485042,2.348001025442952],[102.13393827042252,2.347777717688928],[102.13446539969449,2.347526500953883],[102.13497864784155,2.347248063790581],[102.13547660808626,2.346943169359924],[102.13595791555419,2.346612653339334],[102.13642125101501,2.346257421632409],[102.13686534449845,2.345878447886161],[102.13728897877513,2.345476770822433],[102.13769099269295,2.345053491391067],[102.1380702843597,2.344609769752552],[102.13842581416327,2.344146822098211],[102.13875660762123,2.343665917316989],[102.13906175805164,2.34316837351769],[102.13934042905842,2.342655554416312],[102.13959185682371,2.342128865598426],[102.13981535220148,2.341589750666697],[102.14001030260641,2.341039687284235],[102.14017617369304,2.340480183124606],[102.1403125108202,2.339912771739498],[102.14041894029732,2.339339008355471],[102.14049517040861,2.338760465611338],[102.14054099221262,2.338178729247644],[102.14055628011499,2.337595393760431]],[[102.18798764408514,2.418201968273514],[102.18797214223041,2.417610503378875],[102.18792567915571,2.417020659391681],[102.18784838221312,2.416434053036524],[102.18774046326817,2.415852292165931],[102.18760221811918,2.415276971353346],[102.18743402568653,2.41470966752232],[102.18723634697395,2.414151935624322],[102.18700972380508,2.41360530437647],[102.18675477733825,2.413071272071348],[102.186472206364,2.41255130247014],[102.18616278538974,2.412046820790341],[102.18582736251686,2.411559209799205],[102.18546685711614,2.411089806023453],[102.18508225730781,2.410639896085708],[102.18467461725324,2.410210713177818],[102.18424505426543,2.409803433680437],[102.18379474574674,2.409419173938564],[102.18332492596147,2.40905898720133],[102.182836882653,2.40872386073507],[102.18233195351414,2.408414713116953],[102.18181152252055,2.408132391717072],[102.18127701613739,2.407877670375693],[102.18072989940951,2.407651247281946],[102.18017167194586,2.407453743060072],[102.17960386380909,2.407285699068075],[102.17902803132183,2.407147575913831],[102.17844575280095,2.40703975219248],[102.17785862423133,2.406962523448527],[102.17726825489162,2.406916101365839],[102.17667626294313,2.406900613187251],[102.17608427099464,2.406916101365839],[102.17549390165493,2.406962523448527],[102.17490677308531,2.40703975219248],[102.17432449456442,2.407147575913831],[102.17374866207716,2.407285699068075],[102.17318085394041,2.407453743060072],[102.17262262647675,2.407651247281946],[102.17207550974888,2.407877670375693],[102.17154100336572,2.408132391717072],[102.17102057237213,2.408414713116953],[102.17051564323326,2.40872386073507],[102.1700275999248,2.40905898720133],[102.16955778013953,2.409419173938564],[102.16910747162082,2.409803433680437],[102.16867790863303,2.410210713177818],[102.16827026857844,2.410639896085708],[102.16788566877013,2.411089806023453],[102.16752516336939,2.411559209799205],[102.16718974049653,2.412046820790341],[102.16688031952226,2.41255130247014],[102.16659774854801,2.413071272071348],[102.16634280208119,2.41360530437647],[102.1661161789123,2.414151935624322],[102.16591850019972,2.41470966752232],[102.16575030776707,2.415276971353346],[102.1656120626181,2.415852292165931],[102.16550414367313,2.416434053036524],[102.16542684673054,2.417020659391681],[102.16538038365586,2.417610503378875],[102.16536488180112,2.418201968273514],[102.16538038365586,2.418793432910298],[102.16542684673054,2.419383276126781],[102.16550414367313,2.419969881206789],[102.1656120626181,2.42055164031178],[102.16575030776707,2.421126958887672],[102.16591850019972,2.421694260035365],[102.1661161789123,2.422251988832857],[102.16634280208119,2.422798616596945],[102.16659774854801,2.42333264507324],[102.16688031952226,2.423852610542513],[102.16718974049653,2.424357087832523],[102.16752516336939,2.424844694224106],[102.16788566877013,2.42531409324096],[102.16827026857844,2.425763998312583],[102.16867790863303,2.42619317630046],[102.16910747162082,2.426600450877803],[102.16955778013953,2.426984705753567],[102.1700275999248,2.42734488773189],[102.17051564323326,2.42768000959861],[102.17102057237213,2.427989152826939],[102.17154100336572,2.428271470094872],[102.17207550974888,2.428526187607435],[102.17262262647675,2.428752607217419],[102.17318085394041,2.428950108338773],[102.17374866207716,2.429118149647464],[102.17432449456442,2.429256270564989],[102.17490677308531,2.429364092520751],[102.17549390165493,2.429441319989555],[102.17608427099464,2.429487741301532],[102.17667626294313,2.429503229222266],[102.17726825489162,2.429487741301532],[102.17785862423133,2.429441319989555],[102.17844575280095,2.429364092520751],[102.17902803132183,2.429256270564989],[102.17960386380909,2.429118149647464],[102.18017167194586,2.428950108338773],[102.18072989940951,2.428752607217419],[102.18127701613739,2.428526187607435],[102.18181152252055,2.428271470094872],[102.18233195351414,2.427989152826939],[102.182836882653,2.42768000959861],[102.18332492596147,2.42734488773189],[102.18379474574674,2.426984705753567],[102.18424505426543,2.426600450877803],[102.18467461725324,2.42619317630046],[102.18508225730781,2.425763998312583],[102.18546685711614,2.42531409324096],[102.18582736251686,2.424844694224106],[102.18616278538974,2.424357087832523],[102.186472206364,2.423852610542513],[102.18675477733825,2.42333264507324],[102.18700972380508,2.422798616596945],[102.18723634697395,2.422251988832857],[102.18743402568653,2.421694260035365],[102.18760221811918,2.421126958887672],[102.18774046326817,2.42055164031178],[102.18784838221312,2.419969881206789],[102.18792567915571,2.419383276126781],[102.18797214223041,2.418793432910298],[102.18798764408514,2.418201968273514]],[[102.2385055310232,2.436136203780303],[102.23849018180383,2.435550570376034],[102.23844417621687,2.434966541898651],[102.23836764036044,2.434385719132814],[102.23826078401399,2.43380969407858],[102.23812390006334,2.433240045587795],[102.2379573636979,2.432678335036493],[102.23776163138227,2.432126102045182],[102.2375372396051,2.431584860258726],[102.23728480340868,2.431056093197381],[102.23700501470306,2.430541250190462],[102.23669864036965,2.430041742403647],[102.23636652015918,2.429558938970831],[102.23600956439007,2.42909416324134],[102.23562875145329,2.42864868915241],[102.23522512513061,2.428223737737277],[102.23479979173372,2.42782047377813],[102.23435391707189,2.427440002613392],[102.23388872325661,2.427083367107745],[102.23340548535177,2.426751544793577],[102.23290552787888,2.426445445191415],[102.23239022118663,2.426165907316697],[102.23186097769484,2.425913697380034],[102.23131924802314,2.425689506686791],[102.23076651701489,2.425493949742168],[102.23020429966736,2.425327562566688],[102.22963413697924,2.425190801226853],[102.2290575917268,2.425084040585026],[102.22847624418054,2.425007573271857],[102.22789168777363,2.424961608884066],[102.2273055247346,2.424946273409963],[102.22671936169556,2.424961608884066],[102.22613480528865,2.425007573271857],[102.22555345774241,2.425084040585026],[102.22497691248996,2.425190801226853],[102.22440674980184,2.425327562566688],[102.22384453245434,2.425493949742168],[102.22329180144605,2.425689506686791],[102.22275007177436,2.425913697380034],[102.22222082828256,2.426165907316697],[102.22170552159031,2.426445445191415],[102.22120556411743,2.426751544793577],[102.2207223262126,2.427083367107745],[102.22025713239731,2.427440002613392],[102.21981125773549,2.42782047377813],[102.2193859243386,2.428223737737277],[102.21898229801592,2.42864868915241],[102.21860148507912,2.42909416324134],[102.21824452931001,2.429558938970831],[102.21791240909955,2.430041742403647],[102.21760603476613,2.430541250190462],[102.21732624606051,2.431056093197381],[102.2170738098641,2.431584860258726],[102.21684941808692,2.432126102045182],[102.21665368577129,2.432678335036493],[102.21648714940585,2.433240045587795],[102.2163502654552,2.43380969407858],[102.21624340910877,2.434385719132814],[102.21616687325232,2.434966541898651],[102.21612086766537,2.435550570376034],[102.216105518446,2.436136203780303],[102.21612086766537,2.436721836929924],[102.21616687325232,2.437305864646099],[102.21624340910877,2.437886686152538],[102.2163502654552,2.438462709462963],[102.21648714940585,2.439032355744649],[102.21665368577129,2.439594063645747],[102.21684941808692,2.440146293574796],[102.2170738098641,2.440687531920501],[102.21732624606051,2.441216295200269],[102.21760603476613,2.441731134126243],[102.21791240909955,2.442230637577454],[102.21824452931001,2.442713436467484],[102.21860148507912,2.443178207496815],[102.21898229801592,2.443623676779672],[102.2193859243386,2.444048623335515],[102.21981125773549,2.44445188243536],[102.22025713239731,2.444832348794038],[102.2207223262126,2.445188979599513],[102.22120556411743,2.445520797370894],[102.22170552159031,2.445826892637464],[102.22222082828256,2.446106426431225],[102.22275007177436,2.446358632586323],[102.22329180144605,2.446582819838804],[102.22384453245434,2.446778373721175],[102.22440674980184,2.446944758246465],[102.22497691248996,2.447081517377202],[102.22555345774241,2.447188276275206],[102.22613480528865,2.447264742328978],[102.22671936169556,2.447310705955561],[102.2273055247346,2.44732604117499],[102.22789168777363,2.447310705955561],[102.22847624418054,2.447264742328978],[102.2290575917268,2.447188276275206],[102.22963413697924,2.447081517377202],[102.23020429966736,2.446944758246465],[102.23076651701489,2.446778373721175],[102.23131924802314,2.446582819838804],[102.23186097769484,2.446358632586323],[102.23239022118663,2.446106426431225],[102.23290552787888,2.445826892637464],[102.23340548535177,2.445520797370894],[102.23388872325661,2.445188979599513],[102.23435391707189,2.444832348794038],[102.23479979173372,2.44445188243536],[102.23522512513061,2.444048623335515],[102.23562875145329,2.443623676779672],[102.23600956439007,2.443178207496815],[102.23636652015918,2.442713436467484],[102.23669864036965,2.442230637577454],[102.23700501470306,2.441731134126243],[102.23728480340868,2.441216295200269],[102.2375372396051,2.440687531920501],[102.23776163138227,2.440146293574796],[102.2379573636979,2.439594063645747],[102.23812390006334,2.439032355744649],[102.23826078401399,2.438462709462963],[102.23836764036044,2.437886686152538],[102.23844417621687,2.437305864646099],[102.23849018180383,2.436721836929924],[102.2385055310232,2.436136203780303]],[[102.28117759679307,2.389277155252665],[102.2811634943597,2.388739073132751],[102.28112122571333,2.388202465648593],[102.2810509067094,2.387668803606637],[102.2809527300874,2.387139549741767],[102.28082696494266,2.386616154708026],[102.28067395598868,2.386100053102353],[102.28049412261237,2.385592659532431],[102.28028795772448,2.385095364739203],[102.28005602640869,2.384609531784847],[102.27979896437259,2.384136492316594],[102.27951747620534,2.383677542916628],[102.27921233344647,2.38323394154809],[102.27888437247105,2.382806904106948],[102.27853449219732,2.382397601089103],[102.27816365162283,2.382007154381989],[102.27777286719576,2.381636634189408],[102.27736321002908,2.381287056097928],[102.27693580296462,2.380959378293093],[102.27649181749543,2.380654498932959],[102.27603247055482,2.380373253686032],[102.27555902118081,2.380116413440716],[102.27507276706525,2.379884682192076],[102.27457504099688,2.379678695112176],[102.27406720720822,2.37949901680896],[102.27355065763639,2.37934613977851],[102.2730268081079,2.379220483055138],[102.27249709445786,2.379122391062677],[102.27196296859455,2.379052132670359],[102.2714258945199,2.37900990045581],[102.27088734431655,2.378995810177186],[102.2703487941132,2.37900990045581],[102.26981172003855,2.379052132670359],[102.26927759417525,2.379122391062677],[102.26874788052521,2.379220483055138],[102.26822403099672,2.37934613977851],[102.26770748142489,2.37949901680896],[102.26719964763623,2.379678695112176],[102.26670192156786,2.379884682192076],[102.2662156674523,2.380116413440716],[102.26574221807829,2.380373253686032],[102.26528287113767,2.380654498932959],[102.26483888566848,2.380959378293093],[102.26441147860403,2.381287056097928],[102.26400182143735,2.381636634189408],[102.26361103701028,2.382007154381989],[102.26324019643577,2.382397601089103],[102.26289031616204,2.382806904106948],[102.26256235518665,2.38323394154809],[102.26225721242777,2.383677542916628],[102.26197572426052,2.384136492316594],[102.26171866222442,2.384609531784847],[102.26148673090863,2.385095364739203],[102.26128056602074,2.385592659532431],[102.26110073264444,2.386100053102353],[102.26094772369044,2.386616154708026],[102.2608219585457,2.387139549741767],[102.2607237819237,2.387668803606637],[102.26065346291978,2.388202465648593],[102.26061119427341,2.388739073132751],[102.26059709184004,2.389277155252665],[102.26061119427341,2.389815237161721],[102.26065346291978,2.390351844015659],[102.2607237819237,2.390885505014889],[102.2608219585457,2.391414757435991],[102.26094772369044,2.391938150640708],[102.26110073264444,2.392454250052181],[102.26128056602074,2.392961641086718],[102.26148673090863,2.393458933031199],[102.26171866222442,2.393944762854642],[102.26197572426052,2.394417798944091],[102.26225721242777,2.394876744754419],[102.26256235518665,2.395320342361798],[102.26289031616204,2.395747375911468],[102.26324019643577,2.396156674950173],[102.26361103701028,2.39654711763405],[102.26400182143735,2.39691763380342],[102.26441147860403,2.397267207915759],[102.26483888566848,2.397594881829109],[102.26528287113767,2.397899757428096],[102.26574221807829,2.398180999085374],[102.2662156674523,2.398437835951911],[102.26670192156786,2.398669564069625],[102.26719964763623,2.398875548300766],[102.26770748142489,2.399055224068622],[102.26822403099672,2.399208098904845],[102.26874788052521,2.399333753799207],[102.26927759417525,2.399431844347887],[102.26981172003855,2.399502101697491],[102.2703487941132,2.399544333281808],[102.27088734431655,2.399558423349587],[102.2714258945199,2.399544333281808],[102.27196296859455,2.399502101697491],[102.27249709445786,2.399431844347887],[102.2730268081079,2.399333753799207],[102.27355065763639,2.399208098904845],[102.27406720720822,2.399055224068622],[102.27457504099688,2.398875548300766],[102.27507276706525,2.398669564069625],[102.27555902118081,2.398437835951911],[102.27603247055482,2.398180999085374],[102.27649181749543,2.397899757428096],[102.27693580296462,2.397594881829109],[102.27736321002908,2.397267207915759],[102.27777286719576,2.39691763380342],[102.27816365162283,2.39654711763405],[102.27853449219732,2.396156674950173],[102.27888437247105,2.395747375911468],[102.27921233344647,2.395320342361798],[102.27951747620534,2.394876744754419],[102.27979896437259,2.394417798944091],[102.28005602640869,2.393944762854642],[102.28028795772448,2.393458933031199],[102.28049412261237,2.392961641086718],[102.28067395598868,2.392454250052181],[102.28082696494266,2.391938150640708],[102.2809527300874,2.391414757435991],[102.2810509067094,2.390885505014889],[102.28112122571333,2.390351844015659],[102.2811634943597,2.389815237161721],[102.28117759679307,2.389277155252665]],[[102.35640352982946,2.383668554774934],[102.35638681735664,2.383030883278139],[102.35633672574595,2.382394959300474],[102.35625339229499,2.381762525869031],[102.35613704541495,2.381135316445994],[102.35598800400454,2.380515050177149],[102.35580667657594,2.379903427179819],[102.35559356013499,2.379302123882814],[102.35534923881907,2.378712788431288],[102.3550743822959,2.378137036169183],[102.3547697439281,2.377576445211487],[102.3544361587083,2.377032552118465],[102.35407454097037,2.376506847683959],[102.3536858818834,2.3760007728489],[102.35327124673492,2.375515714751607],[102.35283177201109,2.37505300292546],[102.35236866228152,2.374613905654525],[102.35188318689784,2.37419962649699],[102.3513766765143,2.373811300986065],[102.35085051944067,2.373449993517313],[102.35030615783693,2.373116694430946],[102.34974508376037,2.37281231729719],[102.34916883507604,2.372537696411962],[102.34857899124155,2.372293584509987],[102.34797716897785,2.372080650701309],[102.34736501783789,2.371899478637267],[102.34674421568542,2.37175056491042],[102.34611646409601,2.371634317693448],[102.3454834836931,2.371551055620134],[102.344847009432,2.371501006912031],[102.3442087858444,2.371484308752761],[102.3435705622568,2.371501006912031],[102.3429340879957,2.371551055620134],[102.34230110759279,2.371634317693448],[102.34167335600338,2.37175056491042],[102.34105255385091,2.371899478637267],[102.34044040271097,2.372080650701309],[102.33983858044725,2.372293584509987],[102.33924873661275,2.372537696411962],[102.33867248792842,2.37281231729719],[102.33811141385188,2.373116694430946],[102.33756705224812,2.373449993517313],[102.3370408951745,2.373811300986065],[102.33653438479097,2.37419962649699],[102.3360489094073,2.374613905654525],[102.33558579967772,2.37505300292546],[102.33514632495388,2.375515714751607],[102.33473168980542,2.3760007728489],[102.33434303071843,2.376506847683959],[102.33398141298049,2.377032552118465],[102.3336478277607,2.377576445211487],[102.3333431893929,2.378137036169183],[102.33306833286973,2.378712788431288],[102.3328240115538,2.379302123882814],[102.33261089511285,2.379903427179819],[102.33242956768424,2.380515050177149],[102.33228052627385,2.381135316445994],[102.33216417939381,2.381762525869031],[102.33208084594284,2.382394959300474],[102.33203075433215,2.383030883278139],[102.33201404185934,2.383668554774934],[102.33203075433215,2.384306225976294],[102.33208084594284,2.384942149070935],[102.33216417939381,2.385574581041397],[102.33228052627385,2.386201788441537],[102.33242956768424,2.386822052147721],[102.33261089511285,2.387433672070688],[102.3328240115538,2.388034971815344],[102.33306833286973,2.388624303275426],[102.3333431893929,2.389200051150732],[102.3336478277607,2.389760637374351],[102.33398141298049,2.390304525437859],[102.33434303071843,2.390830224602531],[102.33473168980542,2.391336293985177],[102.33514632495388,2.391821346507212],[102.33558579967772,2.392284052696348],[102.3360489094073,2.392723144330259],[102.33653438479097,2.393137417912536],[102.3370408951745,2.393525737971061],[102.33756705224812,2.393887040169978],[102.33811141385188,2.394220334226831],[102.33867248792842,2.39452470662651],[102.33924873661275,2.394799323124927],[102.33983858044725,2.395043431035471],[102.34044040271097,2.395256361291774],[102.34105255385091,2.395437530281479],[102.34167335600338,2.395586441445665],[102.34230110759279,2.39570268663974],[102.3429340879957,2.395785947252073],[102.3435705622568,2.395835995077152],[102.3442087858444,2.395852692940999],[102.344847009432,2.395835995077152],[102.3454834836931,2.395785947252073],[102.34611646409601,2.39570268663974],[102.34674421568542,2.395586441445665],[102.34736501783789,2.395437530281479],[102.34797716897785,2.395256361291774],[102.34857899124155,2.395043431035471],[102.34916883507604,2.394799323124927],[102.34974508376037,2.39452470662651],[102.35030615783693,2.394220334226831],[102.35085051944067,2.393887040169978],[102.3513766765143,2.393525737971061],[102.35188318689784,2.393137417912536],[102.35236866228152,2.392723144330259],[102.35283177201109,2.392284052696348],[102.35327124673492,2.391821346507212],[102.3536858818834,2.391336293985177],[102.35407454097037,2.390830224602531],[102.3544361587083,2.390304525437859],[102.3547697439281,2.389760637374351],[102.3550743822959,2.389200051150732],[102.35534923881907,2.388624303275426],[102.35559356013499,2.388034971815344],[102.35580667657594,2.387433672070688],[102.35598800400454,2.386822052147721],[102.35613704541495,2.386201788441537],[102.35625339229499,2.385574581041397],[102.35633672574595,2.384942149070935],[102.35638681735664,2.384306225976294],[102.35640352982946,2.383668554774934]],[[102.48007553308994,2.41515741666508],[102.48006067306302,2.414590439097313],[102.48001613371252,2.414025015340034],[102.47994203711772,2.413462695183432],[102.47983858637225,2.412905019912805],[102.4797060650274,2.412353518084019],[102.47954483631497,2.411809701333737],[102.47935534215165,2.41127506023601],[102.47913810192776,2.410751060216648],[102.47889371108367,2.41023913753644],[102.47862283947768,2.409740695354294],[102.47832622955005,2.409257099881189],[102.47800469428796,2.408789676635234],[102.47765911499724,2.408339706808395],[102.47729043888667,2.407908423754601],[102.47689967647186,2.407497009609032],[102.47648789880544,2.407106592047796],[102.47605623454135,2.406738241196771],[102.47560586684133,2.406392966698361],[102.47513803013196,2.406071714943823],[102.47465400672112,2.405775366479198],[102.47415512328338,2.405504733591513],[102.47364274722351,2.405260558082224],[102.47311828292872,2.405043509233809],[102.47258316791917,2.404854181975154],[102.47203886890787,2.404693095250766],[102.47148687778063,2.404560690598221],[102.47092870750673,2.404457330937866],[102.47036588799212,2.404383299577991],[102.46979996188595,2.404338799438163],[102.46923248035233,2.404323952493087],[102.46866499881872,2.404338799438163],[102.46809907271253,2.404383299577991],[102.46753625319792,2.404457330937866],[102.46697808292403,2.404560690598221],[102.46642609179678,2.404693095250766],[102.4658817927855,2.404854181975154],[102.46534667777593,2.405043509233809],[102.46482221348114,2.405260558082224],[102.46430983742127,2.405504733591513],[102.46381095398353,2.405775366479198],[102.46332693057269,2.406071714943823],[102.46285909386332,2.406392966698361],[102.4624087261633,2.406738241196771],[102.46197706189922,2.407106592047796],[102.46156528423279,2.407497009609032],[102.461174521818,2.407908423754601],[102.46080584570741,2.408339706808395],[102.46046026641669,2.408789676635234],[102.4601387311546,2.409257099881189],[102.45984212122698,2.409740695354294],[102.45957124962098,2.41023913753644],[102.45932685877689,2.410751060216648],[102.45910961855301,2.41127506023601],[102.45892012438969,2.411809701333737],[102.45875889567725,2.412353518084019],[102.45862637433241,2.412905019912805],[102.45852292358693,2.413462695183432],[102.45844882699214,2.414025015340034],[102.45840428764163,2.414590439097313],[102.4583894276147,2.41515741666508],[102.45840428764163,2.415724393996201],[102.45844882699214,2.416289817046151],[102.45852292358693,2.416852136032486],[102.45862637433241,2.417409809682735],[102.45875889567725,2.417961309458765],[102.45892012438969,2.418505123746433],[102.45910961855301,2.419039761998633],[102.45932685877689,2.419563758820773],[102.45957124962098,2.420075677987067],[102.45984212122698,2.420574116377101],[102.4601387311546,2.421057707821461],[102.46046026641669,2.421525126846171],[102.46080584570741,2.421975092305511],[102.461174521818,2.422406370893412],[102.46156528423279,2.42281778052361],[102.46197706189922,2.423208193569476],[102.4624087261633,2.423576539954595],[102.46285909386332,2.423921810085519],[102.46332693057269,2.424243057618813],[102.46381095398353,2.424539402054679],[102.46430983742127,2.424810031150264],[102.46482221348114,2.42505420314564],[102.46534667777593,2.425271248796821],[102.4658817927855,2.42546057320996],[102.46642609179678,2.425621657471734],[102.46697808292403,2.425754060071524],[102.46753625319792,2.425857418111488],[102.46809907271253,2.42593144830111],[102.46866499881872,2.425975947733607],[102.46923248035233,2.42599079444205],[102.46979996188595,2.425975947733607],[102.47036588799212,2.42593144830111],[102.47092870750673,2.425857418111488],[102.47148687778063,2.425754060071524],[102.47203886890787,2.425621657471734],[102.47258316791917,2.42546057320996],[102.47311828292872,2.425271248796821],[102.47364274722351,2.42505420314564],[102.47415512328338,2.424810031150264],[102.47465400672112,2.424539402054679],[102.47513803013196,2.424243057618813],[102.47560586684133,2.423921810085519],[102.47605623454135,2.423576539954595],[102.47648789880544,2.423208193569476],[102.47689967647186,2.42281778052361],[102.47729043888667,2.422406370893412],[102.47765911499724,2.421975092305511],[102.47800469428796,2.421525126846171],[102.47832622955005,2.421057707821461],[102.47862283947768,2.420574116377101],[102.47889371108367,2.420075677987067],[102.47913810192776,2.419563758820773],[102.47935534215165,2.419039761998633],[102.47954483631497,2.418505123746433],[102.4797060650274,2.417961309458765],[102.47983858637225,2.417409809682735],[102.47994203711772,2.416852136032486],[102.48001613371252,2.416289817046151],[102.48006067306302,2.415724393996201],[102.48007553308994,2.41515741666508]],[[102.34017440472982,2.229517914164924],[102.34015407896946,2.228742292073671],[102.34009315739989,2.227968795501706],[102.3399918070029,2.22719954455453],[102.33985030557287,2.226436647703923],[102.33966904095537,2.225682196008782],[102.33944850998417,2.224938257383409],[102.33918931711928,2.224206870929435],[102.33889217279035,2.223490041346572],[102.33855789144931,2.222789733437601],[102.33818738933813,2.222107866722804],[102.33778168197728,2.221446310178348],[102.33734188138249,2.220806877113341],[102.33686919301658,2.22019132019927],[102.33636491248552,2.219601326665791],[102.33583042198721,2.219038513675779],[102.33526718652296,2.21850442389246],[102.33467674988198,2.218000521250758],[102.33406073041007,2.217528186944338],[102.33342081657382,2.217088715639563],[102.33275876233256,2.216683311926555],[102.33207638233095,2.216313087017142],[102.33137554692513,2.215979055698859],[102.33065817705622,2.215682133553096],[102.32992623898522,2.215423134445388],[102.32918173890347,2.215202768294356],[102.32842671743393,2.215021639125666],[102.32766324403799,2.214880243416245],[102.32689341134316,2.214778968733347],[102.32611932940733,2.214718092672083],[102.3253431199353,2.214697782094465],[102.32456691046328,2.214718092672083],[102.32379282852744,2.214778968733347],[102.32302299583263,2.214880243416245],[102.32225952243668,2.215021639125666],[102.32150450096714,2.215202768294356],[102.32076000088539,2.215423134445388],[102.32002806281439,2.215682133553096],[102.31931069294546,2.215979055698859],[102.31860985753966,2.216313087017142],[102.31792747753805,2.216683311926555],[102.31726542329679,2.217088715639563],[102.31662550946054,2.217528186944338],[102.31600948998864,2.218000521250758],[102.31541905334765,2.21850442389246],[102.3148558178834,2.219038513675779],[102.31432132738507,2.219601326665791],[102.31381704685403,2.22019132019927],[102.31334435848812,2.220806877113341],[102.31290455789333,2.221446310178348],[102.31249885053248,2.222107866722804],[102.3121283484213,2.222789733437601],[102.31179406708026,2.223490041346572],[102.31149692275133,2.224206870929435],[102.31123772988644,2.224938257383409],[102.31101719891524,2.225682196008782],[102.31083593429776,2.226436647703923],[102.3106944328677,2.22719954455453],[102.31059308247072,2.227968795501706],[102.31053216090115,2.228742292073671],[102.31051183514079,2.229517914164924],[102.31053216090115,2.2302935358474],[102.31059308247072,2.23106703119751],[102.3106944328677,2.231836280123164],[102.31083593429776,2.232599174174691],[102.31101719891524,2.233353622323896],[102.31123772988644,2.234097556695303],[102.31149692275133,2.234828938233894],[102.31179406708026,2.235545762293838],[102.3121283484213,2.236246064132823],[102.31249885053248,2.23692792429709],[102.31290455789333,2.237589473882225],[102.31334435848812,2.238228899655416],[102.31381704685403,2.238844449025007],[102.31432132738507,2.239434434844051],[102.3148558178834,2.239997240034148],[102.31541905334765,2.240531322017563],[102.31600948998864,2.241035216944817],[102.31662550946054,2.24150754370677],[102.31726542329679,2.241947007719717],[102.31792747753805,2.242352404473429],[102.31860985753966,2.242722622832299],[102.31931069294546,2.243056648080608],[102.32002806281439,2.24335356470344],[102.32076000088539,2.243612558895766],[102.32150450096714,2.243832920792832],[102.32225952243668,2.244014046415585],[102.32302299583263,2.244155439325927],[102.32379282852744,2.244256711987289],[102.32456691046328,2.244317586826712],[102.3253431199353,2.244337896995539],[102.32611932940733,2.244317586826712],[102.32689341134316,2.244256711987289],[102.32766324403799,2.244155439325927],[102.32842671743393,2.244014046415585],[102.32918173890347,2.243832920792832],[102.32992623898522,2.243612558895766],[102.33065817705622,2.24335356470344],[102.33137554692513,2.243056648080608],[102.33207638233095,2.242722622832299],[102.33275876233256,2.242352404473429],[102.33342081657382,2.241947007719717],[102.33406073041007,2.24150754370677],[102.33467674988198,2.241035216944817],[102.33526718652296,2.240531322017563],[102.33583042198721,2.239997240034148],[102.33636491248552,2.239434434844051],[102.33686919301658,2.238844449025007],[102.33734188138249,2.238228899655416],[102.33778168197728,2.237589473882225],[102.33818738933813,2.23692792429709],[102.33855789144931,2.236246064132823],[102.33889217279035,2.235545762293838],[102.33918931711928,2.234828938233894],[102.33944850998417,2.234097556695303],[102.33966904095537,2.233353622323896],[102.33985030557287,2.232599174174691],[102.3399918070029,2.231836280123164],[102.34009315739989,2.23106703119751],[102.34015407896946,2.2302935358474],[102.34017440472982,2.229517914164924]],[[102.26612200446667,2.264214831828514],[102.26610122473953,2.263421905396087],[102.26603894251389,2.262631151887957],[102.26593532850099,2.261844738709982],[102.26579066669966,2.261064821374998],[102.26560535361783,2.260293537594527],[102.26537989718577,2.25953300141939],[102.26511491536391,2.258785297445007],[102.26481113444898,2.258052475097512],[102.26446938708337,2.257336543016164],[102.26409060997284,2.25663946354753],[102.26367584131913,2.255963147366552],[102.26322621797429,2.255309448239197],[102.26274297232465,2.25468015794111],[102.26222742891296,2.254077001346063],[102.26168100080787,2.25350163169793],[102.26110518573083,2.252955626078836],[102.26050156195095,2.2524404810861],[102.25987178395901,2.251957608729874],[102.25921757793279,2.251508332562457],[102.25854073700546,2.251093884050233],[102.25784311635101,2.250715399197985],[102.25712662809913,2.250373915434754],[102.2563932360943,2.250070368770147],[102.2556449505131,2.249805591228404],[102.2548838223542,2.249580308567663],[102.25411193781706,2.249395138290454],[102.25333141258349,2.249250587951014],[102.25254438601893,2.249147053763904],[102.25175301530848,2.249084819517868],[102.25095946954426,2.249064055797973],[102.25016592378003,2.249084819517868],[102.24937455306957,2.249147053763904],[102.24858752650502,2.249250587951014],[102.24780700127145,2.249395138290454],[102.24703511673431,2.249580308567663],[102.24627398857542,2.249805591228404],[102.2455257029942,2.250070368770147],[102.24479231098938,2.250373915434754],[102.2440758227375,2.250715399197985],[102.24337820208304,2.251093884050233],[102.24270136115572,2.251508332562457],[102.24204715512948,2.251957608729874],[102.24141737713758,2.2524404810861],[102.24081375335768,2.252955626078836],[102.24023793828064,2.25350163169793],[102.23969151017553,2.254077001346063],[102.23917596676385,2.25468015794111],[102.2386927211142,2.255309448239197],[102.23824309776937,2.255963147366552],[102.23782832911567,2.25663946354753],[102.23744955200515,2.257336543016164],[102.23710780463954,2.258052475097512],[102.23680402372459,2.258785297445007],[102.23653904190273,2.25953300141939],[102.23631358547067,2.260293537594527],[102.23612827238884,2.261064821374998],[102.23598361058751,2.261844738709982],[102.23587999657461,2.262631151887957],[102.23581771434898,2.263421905396087],[102.23579693462185,2.264214831828514],[102.23581771434898,2.265007757827076],[102.23587999657461,2.265798510038341],[102.23598361058751,2.266584921070649],[102.23612827238884,2.267364835434703],[102.23631358547067,2.268136115451509],[102.23653904190273,2.268896647111493],[102.23680402372459,2.269644345868697],[102.23710780463954,2.27037716235415],[102.23744955200515,2.271093087992826],[102.23782832911567,2.271790160508731],[102.23824309776937,2.272466469303099],[102.2386927211142,2.273120160690905],[102.23917596676385,2.273749442981309],[102.23969151017553,2.274352591388234],[102.24023793828064,2.274927952757535],[102.24081375335768,2.275473950097812],[102.24141737713758,2.275989086902439],[102.24204715512948,2.276471951250969],[102.24270136115572,2.276921219678837],[102.24337820208304,2.277335660804452],[102.2440758227375,2.277714138703982],[102.24479231098938,2.278055616024517],[102.2455257029942,2.278359156827094],[102.24627398857542,2.278623929151658],[102.24703511673431,2.278849207297259],[102.24780700127145,2.279034373810791],[102.24858752650502,2.279178921179299],[102.24937455306957,2.279282453220756],[102.25016592378003,2.279344686169915],[102.25095946954426,2.279365449455944],[102.25175301530848,2.279344686169915],[102.25254438601893,2.279282453220756],[102.25333141258349,2.279178921179299],[102.25411193781706,2.279034373810791],[102.2548838223542,2.278849207297259],[102.2556449505131,2.278623929151658],[102.2563932360943,2.278359156827094],[102.25712662809913,2.278055616024517],[102.25784311635101,2.277714138703982],[102.25854073700546,2.277335660804452],[102.25921757793279,2.276921219678837],[102.25987178395901,2.276471951250969],[102.26050156195095,2.275989086902439],[102.26110518573083,2.275473950097812],[102.26168100080787,2.274927952757535],[102.26222742891296,2.274352591388234],[102.26274297232465,2.273749442981309],[102.26322621797429,2.273120160690905],[102.26367584131913,2.272466469303099],[102.26409060997284,2.271790160508731],[102.26446938708337,2.271093087992826],[102.26481113444898,2.27037716235415],[102.26511491536391,2.269644345868697],[102.26537989718577,2.268896647111493],[102.26560535361783,2.268136115451509],[102.26579066669966,2.267364835434703],[102.26593532850099,2.266584921070649],[102.26603894251389,2.265798510038341],[102.26610122473953,2.265007757827076],[102.26612200446667,2.264214831828514]],[[102.21909150498408,2.299435251587488],[102.2190741268383,2.298772141193284],[102.21902204003322,2.298110848031782],[102.2189353873352,2.297453184665411],[102.2188144062532,2.2968009537101],[102.218659428388,2.296155942894312],[102.21847087852315,2.29551992015891],[102.21824927346071,2.29489462881123],[102.21799522060478,2.294281782746648],[102.21770941629656,2.293683061750768],[102.21739264390577,2.29310010689505],[102.21704577168356,2.292534516038526],[102.21666975038254,2.291987839447949],[102.21626561065099,2.291461575548416],[102.2158344602078,2.290957166816038],[102.21537748080638,2.290475995823928],[102.2148959249955,2.290019381452405],[102.21439111268616,2.289588575273843],[102.21386442753384,2.289184758121813],[102.21331731314591,2.288809036854355],[102.21275126912484,2.288462441319847],[102.21216784695802,2.288145921534019],[102.211568645765,2.287860345075778],[102.21095530791465,2.287606494709082],[102.21032951452331,2.287385066237151],[102.20969298084724,2.28719666659517],[102.20904745158097,2.287041812186598],[102.20839469607535,2.286920927467487],[102.20773650348785,2.286834343783113],[102.20707467787861,2.286782298459532],[102.20641103326561,2.286764934153134],[102.20574738865261,2.286782298459532],[102.20508556304337,2.286834343783113],[102.20442737045589,2.286920927467487],[102.20377461495026,2.287041812186598],[102.203129085684,2.28719666659517],[102.20249255200793,2.287385066237151],[102.20186675861659,2.287606494709082],[102.20125342076624,2.287860345075778],[102.20065421957321,2.288145921534019],[102.2000707974064,2.288462441319847],[102.19950475338533,2.288809036854355],[102.19895763899738,2.289184758121813],[102.19843095384506,2.289588575273843],[102.19792614153572,2.290019381452405],[102.19744458572484,2.290475995823928],[102.19698760632342,2.290957166816038],[102.19655645588024,2.291461575548416],[102.1961523161487,2.291987839447949],[102.19577629484768,2.292534516038526],[102.19542942262547,2.29310010689505],[102.19511265023468,2.293683061750768],[102.19482684592646,2.294281782746648],[102.1945727930705,2.29489462881123],[102.19435118800807,2.29551992015891],[102.19416263814324,2.296155942894312],[102.19400766027803,2.2968009537101],[102.19388667919604,2.297453184665411],[102.19380002649801,2.298110848031782],[102.19374793969294,2.298772141193284],[102.19373056154714,2.299435251587488],[102.19374793969294,2.300098361673534],[102.19380002649801,2.300759653913947],[102.19388667919604,2.301417315756336],[102.19400766027803,2.302069544601515],[102.19416263814324,2.302714552744123],[102.19435118800807,2.303350572272597],[102.1945727930705,2.30397585991474],[102.19482684592646,2.30458870181576],[102.19511265023468,2.305187418235662],[102.19542942262547,2.305770368153149],[102.19577629484768,2.306335953763271],[102.1961523161487,2.306882624856768],[102.19655645588024,2.307408883068757],[102.19698760632342,2.307913285985453],[102.19744458572484,2.308394451097467],[102.19792614153572,2.308851059588883],[102.19843095384506,2.309281859951775],[102.19895763899738,2.309685671416261],[102.19950475338533,2.310061387186639],[102.2000707974064,2.310407977474746],[102.20065421957321,2.310724492322343],[102.20125342076624,2.311010064204606],[102.20186675861659,2.311263910407751],[102.20249255200793,2.311485335174132],[102.203129085684,2.311673731609173],[102.20377461495026,2.311828583344591],[102.20442737045589,2.311949465953556],[102.20508556304337,2.312036048113962],[102.20574738865261,2.312088092516428],[102.20641103326561,2.312105456514656],[102.20707467787861,2.312088092516428],[102.20773650348785,2.312036048113962],[102.20839469607535,2.311949465953556],[102.20904745158097,2.311828583344591],[102.20969298084724,2.311673731609173],[102.21032951452331,2.311485335174132],[102.21095530791465,2.311263910407751],[102.211568645765,2.311010064204606],[102.21216784695802,2.310724492322343],[102.21275126912484,2.310407977474746],[102.21331731314591,2.310061387186639],[102.21386442753384,2.309685671416261],[102.21439111268616,2.309281859951775],[102.2148959249955,2.308851059588883],[102.21537748080638,2.308394451097467],[102.2158344602078,2.307913285985453],[102.21626561065099,2.307408883068757],[102.21666975038254,2.306882624856768],[102.21704577168356,2.306335953763271],[102.21739264390577,2.305770368153149],[102.21770941629656,2.305187418235662],[102.21799522060478,2.30458870181576],[102.21824927346071,2.30397585991474],[102.21847087852315,2.303350572272597],[102.218659428388,2.302714552744123],[102.2188144062532,2.302069544601515],[102.2189353873352,2.301417315756336],[102.21902204003322,2.300759653913947],[102.2190741268383,2.300098361673534],[102.21909150498408,2.299435251587488]],[[102.17091685587448,2.259192561018585],[102.17089670586228,2.258423661006637],[102.17083631105551,2.257656868090919],[102.1707358369921,2.256894284002638],[102.17059555906448,2.256137998940171],[102.17041586176472,2.255390085839865],[102.1701972376306,2.254652594694171],[102.16994028589569,2.253927546932528],[102.16964571084685,2.253216929880637],[102.16931431989377,2.252522691313099],[102.16894702135608,2.25184673411442],[102.16854482197348,2.251190911063106],[102.16810882414654,2.250557019753014],[102.16764022291503,2.249946797665968],[102.16714030268233,2.24936191740907],[102.16661043369504,2.248803982129955],[102.16605206828723,2.248274521122276],[102.16546673689965,2.247774985633619],[102.164856043885,2.247306744887493],[102.16422166311034,2.246871082329962],[102.16356533336929,2.246469192111515],[102.16288885361605,2.246102175813627],[102.16219407803462,2.245771039429128],[102.16148291095655,2.245476690604511],[102.16075730164138,2.245219936151922],[102.1600192389338,2.245001479837452],[102.15927074581238,2.24482192045197],[102.15851387384477,2.244681750169684],[102.15775069756441,2.244581353198979],[102.15698330878442,2.244521004729194],[102.15621381086412,2.244500870176233],[102.15544431294383,2.244521004729194],[102.15467692416384,2.244581353198979],[102.15391374788348,2.244681750169684],[102.15315687591585,2.24482192045197],[102.15240838279445,2.245001479837452],[102.15167032008686,2.245219936151922],[102.1509447107717,2.245476690604511],[102.15023354369362,2.245771039429128],[102.14953876811218,2.246102175813627],[102.14886228835896,2.246469192111515],[102.14820595861791,2.246871082329962],[102.14757157784325,2.247306744887493],[102.14696088482859,2.247774985633619],[102.14637555344102,2.248274521122276],[102.1458171880332,2.248803982129955],[102.14528731904592,2.24936191740907],[102.14478739881322,2.249946797665968],[102.1443187975817,2.250557019753014],[102.14388279975476,2.251190911063106],[102.14348060037217,2.25184673411442],[102.14311330183448,2.252522691313099],[102.1427819108814,2.253216929880637],[102.14248733583254,2.253927546932528],[102.14223038409764,2.254652594694171],[102.14201175996352,2.255390085839865],[102.14183206266375,2.256137998940171],[102.14169178473615,2.256894284002638],[102.14159131067274,2.257656868090919],[102.14153091586596,2.258423661006637],[102.14151076585377,2.259192561018585],[102.14153091586596,2.259961460623461],[102.14159131067274,2.260728252322425],[102.14169178473615,2.261490834397593],[102.14183206266375,2.262247116672647],[102.14201175996352,2.262995026241774],[102.14223038409764,2.263732513151225],[102.14248733583254,2.264457556017956],[102.1427819108814,2.265168167569917],[102.14311330183448,2.265862400092747],[102.14348060037217,2.266538350768184],[102.14388279975476,2.267194166889172],[102.1443187975817,2.267828050937803],[102.14478739881322,2.268438265511807],[102.14528731904592,2.26902313808638],[102.1458171880332,2.269581065598058],[102.14637555344102,2.270110518838327],[102.14696088482859,2.270610046644673],[102.14757157784325,2.271078279877743],[102.14820595861791,2.271513935173813],[102.14886228835896,2.271915818461933],[102.14953876811218,2.27228282823658],[102.15023354369362,2.272613958576371],[102.1509447107717,2.272908301901045],[102.15167032008686,2.273165051458736],[102.15240838279445,2.273383503536961],[102.15315687591585,2.273563059391264],[102.15391374788348,2.273703226886138],[102.15467692416384,2.273803621843717],[102.15544431294383,2.273863969096749],[102.15621381086412,2.273884103242637],[102.15698330878442,2.273863969096749],[102.15775069756441,2.273803621843717],[102.15851387384477,2.273703226886138],[102.15927074581238,2.273563059391264],[102.1600192389338,2.273383503536961],[102.16075730164138,2.273165051458736],[102.16148291095655,2.272908301901045],[102.16219407803462,2.272613958576371],[102.16288885361605,2.27228282823658],[102.16356533336929,2.271915818461933],[102.16422166311034,2.271513935173813],[102.164856043885,2.271078279877743],[102.16546673689965,2.270610046644673],[102.16605206828723,2.270110518838327],[102.16661043369504,2.269581065598058],[102.16714030268233,2.26902313808638],[102.16764022291503,2.268438265511807],[102.16810882414654,2.267828050937803],[102.16854482197348,2.267194166889172],[102.16894702135608,2.266538350768184],[102.16931431989377,2.265862400092747],[102.16964571084685,2.265168167569917],[102.16994028589569,2.264457556017956],[102.1701972376306,2.263732513151225],[102.17041586176472,2.262995026241774],[102.17059555906448,2.262247116672647],[102.1707358369921,2.261490834397593],[102.17083631105551,2.260728252322425],[102.17089670586228,2.259961460623461],[102.17091685587448,2.259192561018585]],[[102.23319642241476,2.223605567877143],[102.23317445325767,2.222767231107679],[102.23310860600238,2.221931191686882],[102.23299906113158,2.22109974114669],[102.23284611890016,2.220275158445115],[102.23265019851219,2.219459703719542],[102.2324118369718,2.218655612091834],[102.2321316876114,2.217865087541709],[102.23181051830093,2.217090296865617],[102.23144920934314,2.216333363737463],[102.23104875106075,2.21559636288744],[102.23061024108212,2.214881314414982],[102.23013488133259,2.214190178251572],[102.22962397474019,2.213524848788247],[102.22907892166438,2.212887149682838],[102.22850121605778,2.212278828861114],[102.22789244137127,2.211701553725383],[102.22725426621395,2.211156906583849],[102.22658843977959,2.210646380313235],[102.22589678705215,2.210171374266522],[102.22518120380369,2.209733190436961],[102.22444365139813,2.209333029889134],[102.2236861514154,2.208971989466444],[102.22291078011021,2.208651058784474],[102.22211966272151,2.208371117518186],[102.22131496764703,2.208132932990496],[102.2204989005,2.207937158068861],[102.21967369806383,2.207784329375603],[102.21884162216095,2.207674865816846],[102.21800495345363,2.207609067434185],[102.21716598519261,2.207587114582246],[102.21632701693159,2.207609067434185],[102.21549034822426,2.207674865816846],[102.2146582723214,2.207784329375603],[102.21383306988521,2.207937158068861],[102.21301700273818,2.208132932990496],[102.2122123076637,2.208371117518186],[102.211421190275,2.208651058784474],[102.21064581896982,2.208971989466444],[102.20988831898708,2.209333029889134],[102.20915076658153,2.209733190436961],[102.20843518333308,2.210171374266522],[102.20774353060563,2.210646380313235],[102.20707770417127,2.211156906583849],[102.20643952901396,2.211701553725383],[102.20583075432745,2.212278828861114],[102.20525304872083,2.212887149682838],[102.20470799564502,2.213524848788247],[102.20419708905263,2.214190178251572],[102.2037217293031,2.214881314414982],[102.20328321932446,2.21559636288744],[102.20288276104209,2.216333363737463],[102.20252145208428,2.217090296865617],[102.20220028277382,2.217865087541709],[102.20192013341342,2.218655612091834],[102.20168177187303,2.219459703719542],[102.20148585148506,2.220275158445115],[102.20133290925364,2.22109974114669],[102.20122336438284,2.221931191686882],[102.20115751712754,2.222767231107679],[102.20113554797045,2.223605567877143],[102.20115751712754,2.224443904170324],[102.20122336438284,2.225279942167505],[102.20133290925364,2.226111390352293],[102.20148585148506,2.226935969792527],[102.20168177187303,2.227751420386534],[102.20192013341342,2.228555507057729],[102.20220028277382,2.229346025880706],[102.20252145208428,2.230120810121734],[102.20288276104209,2.230877736177442],[102.20328321932446,2.231614729395126],[102.2037217293031,2.232329769758925],[102.20419708905263,2.233020897426246],[102.20470799564502,2.233686218099142],[102.20525304872083,2.234323908216036],[102.20583075432745,2.234932219949693],[102.20643952901396,2.235509485997359],[102.20707770417127,2.23605412415039],[102.20774353060563,2.236564641630562],[102.20843518333308,2.237039639181186],[102.20915076658153,2.237477814902102],[102.20988831898708,2.237877967817577],[102.21064581896982,2.23823900116782],[102.211421190275,2.238559925414727],[102.2122123076637,2.238839860953866],[102.21301700273818,2.239078040525056],[102.21383306988521,2.239273811315113],[102.2146582723214,2.239426636747043],[102.21549034822426,2.239536097950408],[102.21632701693159,2.239601894909427],[102.21716598519261,2.239623847285084],[102.21800495345363,2.239601894909427],[102.21884162216095,2.239536097950408],[102.21967369806383,2.239426636747043],[102.2204989005,2.239273811315113],[102.22131496764703,2.239078040525056],[102.22211966272151,2.238839860953866],[102.22291078011021,2.238559925414727],[102.2236861514154,2.23823900116782],[102.22444365139813,2.237877967817577],[102.22518120380369,2.237477814902102],[102.22589678705215,2.237039639181186],[102.22658843977959,2.236564641630562],[102.22725426621395,2.23605412415039],[102.22789244137127,2.235509485997359],[102.22850121605778,2.234932219949693],[102.22907892166438,2.234323908216036],[102.22962397474019,2.233686218099142],[102.23013488133259,2.233020897426246],[102.23061024108212,2.232329769758925],[102.23104875106075,2.231614729395126],[102.23144920934314,2.230877736177442],[102.23181051830093,2.230120810121734],[102.2321316876114,2.229346025880706],[102.2324118369718,2.228555507057729],[102.23265019851219,2.227751420386534],[102.23284611890016,2.226935969792527],[102.23299906113158,2.226111390352293],[102.23310860600238,2.225279942167505],[102.23317445325767,2.224443904170324],[102.23319642241476,2.223605567877143]],[[102.25637581842165,2.208024596888718],[102.25635691921524,2.207303401002464],[102.25630027339737,2.206584181515547],[102.25620603623034,2.205868909762998],[102.25607446601165,2.205159546262196],[102.25590592336611,2.204458035339115],[102.25570087025743,2.203766299798991],[102.2554598687219,2.203086235655901],[102.25518357932799,2.202419706935745],[102.25487275936572,2.201768540566854],[102.25452826077101,2.201134521372409],[102.25415102779054,2.200519387177948],[102.25374209439373,2.199924824048038],[102.25330258143856,2.199352461664507],[102.25283369359948,2.198803868859351],[102.25233671606549,2.198280549314384],[102.25181301101748,2.197783937439476],[102.25126401389453,2.197315394440595],[102.25069122945966,2.19687620458856],[102.25009622767516,2.196467571698676],[102.24948063939955,2.196090615830817],[102.24884615191752,2.195746370219175],[102.24819450431517,2.195435778439975],[102.24752748271325,2.195159691824925],[102.24684691537162,2.194918867127571],[102.24615466767807,2.194713964448872],[102.24545263703541,2.194545545427672],[102.24474274766081,2.194414071701231],[102.24402694531172,2.19431990363965],[102.24330719195264,2.194263299358135],[102.24258546037744,2.194244414009346],[102.24186372880227,2.194263299358135],[102.2411439754432,2.19431990363965],[102.2404281730941,2.194414071701231],[102.2397182837195,2.194545545427672],[102.23901625307683,2.194713964448872],[102.23832400538328,2.194918867127571],[102.23764343804166,2.195159691824925],[102.23697641643975,2.195435778439975],[102.23632476883739,2.195746370219175],[102.23569028135536,2.196090615830817],[102.23507469307975,2.196467571698676],[102.23447969129525,2.19687620458856],[102.23390690686037,2.197315394440595],[102.23335790973744,2.197783937439476],[102.23283420468941,2.198280549314384],[102.23233722715543,2.198803868859351],[102.23186833931635,2.199352461664507],[102.23142882636118,2.199924824048038],[102.23101989296437,2.200519387177948],[102.2306426599839,2.201134521372409],[102.23029816138917,2.201768540566854],[102.22998734142692,2.202419706935745],[102.22971105203301,2.203086235655901],[102.22947005049748,2.203766299798991],[102.2292649973888,2.204458035339115],[102.22909645474326,2.205159546262196],[102.22896488452457,2.205868909762998],[102.22887064735752,2.206584181515547],[102.22881400153967,2.207303401002464],[102.22879510233327,2.208024596888718],[102.22881400153967,2.208745792424959],[102.22887064735752,2.209465010865677],[102.22896488452457,2.210180280887304],[102.22909645474326,2.210889641991445],[102.2292649973888,2.211591149878343],[102.22947005049748,2.212282881776069],[102.22971105203301,2.212962941710421],[102.22998734142692,2.213629465701626],[102.23029816138917,2.214280626873148],[102.2306426599839,2.214914640458798],[102.23101989296437,2.215529768694414],[102.23142882636118,2.216124325580782],[102.23186833931635,2.21669668150444],[102.23233722715543,2.217245267704195],[102.23283420468941,2.217768580570569],[102.23335790973744,2.21826518576691],[102.23390690686037,2.218733722160377],[102.23447969129525,2.21917290555254],[102.23507469307975,2.219581532198881],[102.23569028135536,2.219958482107907],[102.23632476883739,2.220302722110731],[102.23697641643975,2.220613308692585],[102.23764343804166,2.220889390578685],[102.23832400538328,2.2211302110673],[102.23901625307683,2.221335110103603],[102.2397182837195,2.22150352608862],[102.2404281730941,2.221634997418386],[102.2411439754432,2.221729163749045],[102.24186372880227,2.221785766984361],[102.24258546037744,2.221804651983148],[102.24330719195264,2.221785766984361],[102.24402694531172,2.221729163749045],[102.24474274766081,2.221634997418386],[102.24545263703541,2.22150352608862],[102.24615466767807,2.221335110103603],[102.24684691537162,2.2211302110673],[102.24752748271325,2.220889390578685],[102.24819450431517,2.220613308692585],[102.24884615191752,2.220302722110731],[102.24948063939955,2.219958482107907],[102.25009622767516,2.219581532198881],[102.25069122945966,2.21917290555254],[102.25126401389453,2.218733722160377],[102.25181301101748,2.21826518576691],[102.25233671606549,2.217768580570569],[102.25283369359948,2.217245267704195],[102.25330258143856,2.21669668150444],[102.25374209439373,2.216124325580782],[102.25415102779054,2.215529768694414],[102.25452826077101,2.214914640458798],[102.25487275936572,2.214280626873148],[102.25518357932799,2.213629465701626],[102.2554598687219,2.212962941710421],[102.25570087025743,2.212282881776069],[102.25590592336611,2.211591149878343],[102.25607446601165,2.210889641991445],[102.25620603623034,2.210180280887304],[102.25630027339737,2.209465010865677],[102.25635691921524,2.208745792424959],[102.25637581842165,2.208024596888718]],[[102.28125327370532,2.193788533578664],[102.28123357564185,2.193036846030966],[102.28117453544242,2.19228721843051],[102.28107631493214,2.191541705459168],[102.28093918332661,2.19080235052399],[102.28076351649399,2.190071180156189],[102.2805497959249,2.189350198456489],[102.28029860741253,2.188641381601843],[102.28001063944714,2.187946672428697],[102.27968668132894,2.187267975107646],[102.27932762100458,2.186607149923902],[102.27893444263344,2.185966008178282],[102.27850822389014,2.185346307222128],[102.27805013301062,2.184749745640338],[102.27756142559012,2.184177958595346],[102.27704344114174,2.183632513344899],[102.27649759942483,2.18311490494605],[102.27592539655359,2.182626552156945],[102.27532840089633,2.182168793547822],[102.27470824877663,2.181742883831729],[102.27406663998838,2.181349990425143],[102.27340533313664,2.180991190247872],[102.27272614081753,2.180667466771],[102.27203092464997,2.180379707320987],[102.27132159017319,2.180128700647344],[102.27060008162366,2.17991513476047],[102.26986837660618,2.17973959504564],[102.26912848067332,2.179602562658413],[102.26838242182842,2.179504413205581],[102.26763224496689,2.179445415715606],[102.26688000627142,2.179425731901109],[102.26612776757594,2.179445415715606],[102.26537759071441,2.179504413205581],[102.26463153186953,2.179602562658413],[102.26389163593664,2.17973959504564],[102.26315993091917,2.17991513476047],[102.26243842236964,2.180128700647344],[102.26172908789286,2.180379707320987],[102.26103387172532,2.180667466771],[102.2603546794062,2.180991190247872],[102.25969337255445,2.181349990425143],[102.2590517637662,2.181742883831729],[102.2584316116465,2.182168793547822],[102.25783461598924,2.182626552156945],[102.257262413118,2.18311490494605],[102.2567165714011,2.183632513344899],[102.2561985869527,2.184177958595346],[102.2557098795322,2.184749745640338],[102.2552517886527,2.185346307222128],[102.25482556990939,2.185966008178282],[102.25443239153826,2.186607149923902],[102.25407333121389,2.187267975107646],[102.25374937309569,2.187946672428697],[102.2534614051303,2.188641381601843],[102.25321021661793,2.189350198456489],[102.25299649604885,2.190071180156189],[102.25282082921623,2.19080235052399],[102.25268369761069,2.191541705459168],[102.25258547710042,2.19228721843051],[102.25252643690098,2.193036846030966],[102.25250673883751,2.193788533578664],[102.25252643690098,2.194540220748577],[102.25258547710042,2.195289847219847],[102.25268369761069,2.196035358322943],[102.25282082921623,2.196774710671313],[102.25299649604885,2.197505877762061],[102.25321021661793,2.19822685553038],[102.2534614051303,2.198935667842392],[102.25374937309569,2.199630371911409],[102.25407333121389,2.200309063622789],[102.25443239153826,2.200969882752728],[102.25482556990939,2.201611018066784],[102.2552517886527,2.202230712284055],[102.2557098795322,2.202827266893483],[102.2561985869527,2.203399046809033],[102.2567165714011,2.203944484851046],[102.257262413118,2.204462086041472],[102.25783461598924,2.20495043170111],[102.2584316116465,2.205408183337884],[102.2590517637662,2.205834086315094],[102.25969337255445,2.206226973290116],[102.2603546794062,2.206585767413595],[102.26103387172532,2.206909485280783],[102.26172908789286,2.207197239626654],[102.26243842236964,2.207448241757664],[102.26315993091917,2.207661803713169],[102.26389163593664,2.207837340150946],[102.26463153186953,2.207974369951364],[102.26537759071441,2.208072517535952],[102.26612776757594,2.208131513896727],[102.26688000627142,2.208151197333451],[102.26763224496689,2.208131513896727],[102.26838242182842,2.208072517535952],[102.26912848067332,2.207974369951364],[102.26986837660618,2.207837340150946],[102.27060008162366,2.207661803713169],[102.27132159017319,2.207448241757664],[102.27203092464997,2.207197239626654],[102.27272614081753,2.206909485280783],[102.27340533313664,2.206585767413595],[102.27406663998838,2.206226973290116],[102.27470824877663,2.205834086315094],[102.27532840089633,2.205408183337884],[102.27592539655359,2.20495043170111],[102.27649759942483,2.204462086041472],[102.27704344114174,2.203944484851046],[102.27756142559012,2.203399046809033],[102.27805013301062,2.202827266893483],[102.27850822389014,2.202230712284055],[102.27893444263344,2.201611018066784],[102.27932762100458,2.200969882752728],[102.27968668132894,2.200309063622789],[102.28001063944714,2.199630371911409],[102.28029860741253,2.198935667842392],[102.2805497959249,2.19822685553038],[102.28076351649399,2.197505877762061],[102.28093918332661,2.196774710671313],[102.28107631493214,2.196035358322943],[102.28117453544242,2.195289847219847],[102.28123357564185,2.194540220748577],[102.28125327370532,2.193788533578664]],[[102.31293595916341,2.186051338554066],[102.3129135693356,2.185196927548638],[102.31284646122116,2.184344857940204],[102.31273481875874,2.183497465198502],[102.31257894795259,2.182657071978181],[102.31237927603375,2.181825981752481],[102.31213635028908,2.181006472499438],[102.31185083656115,2.180200790457842],[102.31152351742324,2.179411143970305],[102.31115529003435,2.178639697430012],[102.31074716368016,2.177888565348021],[102.31030025700666,2.177159806557197],[102.30981579495395,2.176455418568713],[102.30929510539885,2.175777332096687],[102.30873961551524,2.175127405765801],[102.3081508478623,2.174507421016552],[102.30753041621121,2.173919077222053],[102.306880021122,2.17336398702971],[102.30620144528244,2.172843671940711],[102.3054965486217,2.172359558139238],[102.30476726321253,2.171912972583033],[102.30401558797558,2.171505139365865],[102.3032435832004,2.171137176362072],[102.30245336489843,2.170810092162159],[102.30164709900306,2.170524783308002],[102.30082699543316,2.17028203183519],[102.29999530203551,2.170082503129285],[102.29915429842396,2.169926744101803],[102.29830628973096,2.169815181690991],[102.29745360028937,2.169748121691483],[102.29659856726168,2.169725747915995],[102.29574353423398,2.169748121691483],[102.29489084479238,2.169815181690991],[102.29404283609938,2.169926744101803],[102.29320183248784,2.170082503129285],[102.2923701390902,2.17028203183519],[102.29155003552029,2.170524783308002],[102.29074376962494,2.170810092162159],[102.28995355132295,2.171137176362072],[102.28918154654778,2.171505139365865],[102.28842987131081,2.171912972583033],[102.28770058590166,2.172359558139238],[102.28699568924091,2.172843671940711],[102.28631711340134,2.17336398702971],[102.28566671831214,2.173919077222053],[102.28504628666106,2.174507421016552],[102.28445751900811,2.175127405765801],[102.2839020291245,2.175777332096687],[102.28338133956942,2.176455418568713],[102.2828968775167,2.177159806557197],[102.2824499708432,2.177888565348021],[102.28204184448902,2.178639697430012],[102.28167361710013,2.179411143970305],[102.28134629796222,2.180200790457842],[102.28106078423427,2.181006472499438],[102.2808178584896,2.181825981752481],[102.28061818657075,2.182657071978181],[102.2804623157646,2.183497465198502],[102.2803506733022,2.184344857940204],[102.28028356518773,2.185196927548638],[102.28026117535995,2.186051338554066],[102.28028356518773,2.18690574907315],[102.2803506733022,2.187757817227816],[102.2804623157646,2.188605207564293],[102.28061818657075,2.189445597454281],[102.2808178584896,2.190276683461],[102.28106078423427,2.191096187652687],[102.28134629796222,2.191901863845955],[102.28167361710013,2.192691503762314],[102.28204184448902,2.193462943080533],[102.2824499708432,2.19421406736869],[102.2828968775167,2.194942817879347],[102.28338133956942,2.19564719719199],[102.2839020291245,2.196325274687614],[102.28445751900811,2.196975191839838],[102.28504628666106,2.197595167308751],[102.28566671831214,2.198183501822924],[102.28631711340134,2.198738582836608],[102.28699568924091,2.19925888894919],[102.28770058590166,2.199742994074847],[102.28842987131081,2.200189571350861],[102.28918154654778,2.200597396774207],[102.28995355132295,2.200965352555926],[102.29074376962494,2.201292430184636],[102.29155003552029,2.20157773319049],[102.2923701390902,2.201820479601946],[102.29320183248784,2.202020004088884],[102.29404283609938,2.202175759786019],[102.29489084479238,2.202287319791606],[102.29574353423398,2.202354378337346],[102.29659856726168,2.202376751626478],[102.29745360028937,2.202354378337346],[102.29830628973096,2.202287319791606],[102.29915429842396,2.202175759786019],[102.29999530203551,2.202020004088884],[102.30082699543316,2.201820479601946],[102.30164709900306,2.20157773319049],[102.30245336489843,2.201292430184636],[102.3032435832004,2.200965352555926],[102.30401558797558,2.200597396774207],[102.30476726321253,2.200189571350861],[102.3054965486217,2.199742994074847],[102.30620144528244,2.19925888894919],[102.306880021122,2.198738582836608],[102.30753041621121,2.198183501822924],[102.3081508478623,2.197595167308751],[102.30873961551524,2.196975191839838],[102.30929510539885,2.196325274687614],[102.30981579495395,2.19564719719199],[102.31030025700666,2.194942817879347],[102.31074716368016,2.19421406736869],[102.31115529003435,2.193462943080533],[102.31152351742324,2.192691503762314],[102.31185083656115,2.191901863845955],[102.31213635028908,2.191096187652687],[102.31237927603375,2.190276683461],[102.31257894795259,2.189445597454281],[102.31273481875874,2.188605207564293],[102.31284646122116,2.187757817227816],[102.3129135693356,2.18690574907315],[102.31293595916341,2.186051338554066]],[[102.40472809100028,2.173317412045086],[102.40471000792692,2.17262734391036],[102.40465580827134,2.171939166890409],[102.40456564059099,2.171254767234585],[102.40443975202923,2.170576020841264],[102.40427848763785,2.169904788116102],[102.40408228943136,2.169242908872644],[102.40385169517536,2.168592197289448],[102.40358733691272,2.167954436937357],[102.40328993923104,2.167331375890711],[102.40296031727672,2.16672472193579],[102.40259937452059,2.166136137889685],[102.40220810028168,2.165567237042398],[102.40178756701548,2.165019578734714],[102.40133892737444,2.16449466408384],[102.40086341104862,2.163993931868763],[102.40036232139522,2.163518754586316],[102.39983703186616,2.163070434689062],[102.39928898224352,2.162650201015026],[102.39871967469321,2.16225920541935],[102.39813066964767,2.161898519616751],[102.39752358152879,2.161569132243941],[102.3969000743229,2.161271946149453],[102.39626185701991,2.161007775918864],[102.39561067892909,2.16077734564183],[102.3949483248843,2.160581286927202],[102.39427661035198,2.160420137171712],[102.39359737645495,2.160294338086802],[102.39291248492611,2.160204234487855],[102.39222381300553,2.160150073348909],[102.39153324829508,2.160132003125753],[102.39084268358462,2.160150073348909],[102.39015401166404,2.160204234487855],[102.38946912013519,2.160294338086802],[102.38878988623816,2.160420137171712],[102.38811817170584,2.160581286927202],[102.38745581766106,2.16077734564183],[102.38680463957023,2.161007775918864],[102.38616642226724,2.161271946149453],[102.38554291506135,2.161569132243941],[102.38493582694247,2.161898519616751],[102.38434682189693,2.16225920541935],[102.38377751434662,2.162650201015026],[102.38322946472398,2.163070434689062],[102.38270417519493,2.163518754586316],[102.38220308554153,2.163993931868763],[102.38172756921571,2.16449466408384],[102.38127892957466,2.165019578734714],[102.38085839630845,2.165567237042398],[102.38046712206956,2.166136137889685],[102.38010617931342,2.16672472193579],[102.37977655735911,2.167331375890711],[102.37947915967742,2.167954436937357],[102.37921480141478,2.168592197289448],[102.3789842071588,2.169242908872644],[102.37878800895228,2.169904788116102],[102.37862674456092,2.170576020841264],[102.37850085599916,2.171254767234585],[102.3784106883188,2.171939166890409],[102.37835648866321,2.17262734391036],[102.37833840558987,2.173317412045086],[102.37835648866321,2.174007479864416],[102.3784106883188,2.174695655941613],[102.37850085599916,2.175380054037655],[102.37862674456092,2.176058798271239],[102.37878800895228,2.176730028260399],[102.3789842071588,2.17739190422155],[102.37921480141478,2.178042612012113],[102.37947915967742,2.17868036810277],[102.37977655735911,2.179303424465896],[102.38010617931342,2.179910073366521],[102.38046712206956,2.180498652042921],[102.38085839630845,2.181067547263922],[102.38127892957466,2.181615199750389],[102.38172756921571,2.182140108448893],[102.38220308554153,2.182640834645674],[102.38270417519493,2.183116005909811],[102.38322946472398,2.183564319854695],[102.38377751434662,2.183984547707502],[102.38434682189693,2.184375537676917],[102.38493582694247,2.184736218109798],[102.38554291506135,2.185065600428313],[102.38616642226724,2.185362781839268],[102.38680463957023,2.185626947808436],[102.38745581766106,2.185857374292836],[102.38811817170584,2.186053429725145],[102.38878988623816,2.186214576744644],[102.38946912013519,2.186340373669818],[102.39015401166404,2.186430475708983],[102.39084268358462,2.186484635905161],[102.39153324829508,2.186502705812909],[102.39222381300553,2.186484635905161],[102.39291248492611,2.186430475708983],[102.39359737645495,2.186340373669818],[102.39427661035198,2.186214576744644],[102.3949483248843,2.186053429725145],[102.39561067892909,2.185857374292836],[102.39626185701991,2.185626947808436],[102.3969000743229,2.185362781839268],[102.39752358152879,2.185065600428313],[102.39813066964767,2.184736218109798],[102.39871967469321,2.184375537676917],[102.39928898224352,2.183984547707502],[102.39983703186616,2.183564319854695],[102.40036232139522,2.183116005909811],[102.40086341104862,2.182640834645674],[102.40133892737444,2.182140108448893],[102.40178756701548,2.181615199750389],[102.40220810028168,2.181067547263922],[102.40259937452059,2.180498652042921],[102.40296031727672,2.179910073366521],[102.40328993923104,2.179303424465896],[102.40358733691272,2.17868036810277],[102.40385169517536,2.178042612012113],[102.40408228943136,2.17739190422155],[102.40427848763785,2.176730028260399],[102.40443975202923,2.176058798271239],[102.40456564059099,2.175380054037655],[102.40465580827134,2.174695655941613],[102.40471000792692,2.174007479864416],[102.40472809100028,2.173317412045086]],[[102.39982137593394,2.276603092771578],[102.39980466720841,2.275965515782726],[102.39975458682926,2.275329686067261],[102.39967127206334,2.274697346393787],[102.39955495127064,2.27407022996718],[102.39940594327835,2.273450055677991],[102.39922465650702,2.272838523390945],[102.3990115878511,2.272237309285638],[102.39876732131698,2.271648061262115],[102.3984925264222,2.271072394423946],[102.39818795636053,2.270511886651125],[102.39785444593728,2.269968074275086],[102.39749290928137,2.26944244786746],[102.39710433733964,2.26893644815433],[102.39668979516078,2.268451462067123],[102.39625041897608,2.267988818940791],[102.39578741308512,2.267549786870057],[102.39530204655485,2.267135569233343],[102.39479564974121,2.26674730139422],[102.39426961064268,2.266386047589135],[102.39372537109585,2.266052798010239],[102.39316442282349,2.265748466091147],[102.39258830334579,2.265473886002956],[102.39199859176624,2.26522981036774],[102.39139690444328,2.265016908195416],[102.39078489056001,2.264835763049923],[102.390164227604,2.264686871449494],[102.38953661676922,2.264570641505669],[102.38890377829334,2.264487391804535],[102.38826744674267,2.264437350533422],[102.38762936625774,2.264420654855442],[102.38699128577282,2.264437350533422],[102.38635495422217,2.264487391804535],[102.38572211574629,2.264570641505669],[102.38509450491149,2.264686871449494],[102.38447384195548,2.264835763049923],[102.38386182807223,2.265016908195416],[102.38326014074927,2.26522981036774],[102.38267042916972,2.265473886002956],[102.38209430969202,2.265748466091147],[102.38153336141964,2.266052798010239],[102.38098912187282,2.266386047589135],[102.38046308277428,2.26674730139422],[102.37995668596066,2.267135569233343],[102.3794713194304,2.267549786870057],[102.37900831353943,2.267988818940791],[102.37856893735473,2.268451462067123],[102.37815439517586,2.26893644815433],[102.37776582323414,2.26944244786746],[102.37740428657823,2.269968074275086],[102.37707077615498,2.270511886651125],[102.37676620609331,2.271072394423946],[102.37649141119853,2.271648061262115],[102.3762471446644,2.272237309285638],[102.37603407600848,2.272838523390945],[102.37585278923716,2.273450055677991],[102.37570378124487,2.27407022996718],[102.37558746045215,2.274697346393787],[102.37550414568624,2.275329686067261],[102.3754540653071,2.275965515782726],[102.37543735658157,2.276603092771578],[102.3754540653071,2.277240669478365],[102.37550414568624,2.277876498350754],[102.37558746045215,2.278508836629377],[102.37570378124487,2.279135951124611],[102.37585278923716,2.279756122967089],[102.37603407600848,2.280367652318889],[102.3762471446644,2.280968863032581],[102.37649141119853,2.281558107245264],[102.37676620609331,2.282133769895127],[102.37707077615498,2.28269427314806],[102.37740428657823,2.283238080722175],[102.37776582323414,2.283763702098418],[102.37815439517586,2.284269696605832],[102.37856893735473,2.284754677370063],[102.37900831353943,2.285217315114425],[102.3794713194304,2.285656341803216],[102.37995668596066,2.286070554116928],[102.38046308277428,2.286458816750361],[102.38098912187282,2.286820065524076],[102.38153336141964,2.287153310301008],[102.38209430969202,2.287457637700227],[102.38267042916972,2.287732213600123],[102.38326014074927,2.2879762854245],[102.38386182807223,2.288189184205195],[102.38447384195548,2.288370326415444],[102.38509450491149,2.288519215569161],[102.38572211574629,2.288635443581613],[102.38635495422217,2.288718691887896],[102.38699128577282,2.28876873231592],[102.38762936625774,2.288785427711849],[102.38826744674267,2.28876873231592],[102.38890377829334,2.288718691887896],[102.38953661676922,2.288635443581613],[102.390164227604,2.288519215569161],[102.39078489056001,2.288370326415444],[102.39139690444328,2.288189184205195],[102.39199859176624,2.2879762854245],[102.39258830334579,2.287732213600123],[102.39316442282349,2.287457637700227],[102.39372537109585,2.287153310301008],[102.39426961064268,2.286820065524076],[102.39479564974121,2.286458816750361],[102.39530204655485,2.286070554116928],[102.39578741308512,2.285656341803216],[102.39625041897608,2.285217315114425],[102.39668979516078,2.284754677370063],[102.39710433733964,2.284269696605832],[102.39749290928137,2.283763702098418],[102.39785444593728,2.283238080722175],[102.39818795636053,2.28269427314806],[102.3984925264222,2.282133769895127],[102.39876732131698,2.281558107245264],[102.3990115878511,2.280968863032581],[102.39922465650702,2.280367652318889],[102.39940594327835,2.279756122967089],[102.39955495127064,2.279135951124611],[102.39967127206334,2.278508836629377],[102.39975458682926,2.277876498350754],[102.39980466720841,2.277240669478365],[102.39982137593394,2.276603092771578]],[[102.46902889024236,2.313750723269892],[102.4690160064923,2.313259113738996],[102.46897739055558,2.312768851505961],[102.46891314827582,2.312281280347621],[102.46882345573661,2.311797736666109],[102.46870855877899,2.311319545825887],[102.46856877232752,2.310848018520895],[102.46840447952715,2.310384447182019],[102.46821613069304,2.309930102434521],[102.46800424207623,2.309486229615221],[102.46776939444872,2.309054045359095],[102.4675122315115,2.308634734264345],[102.46723345813034,2.308229445645471],[102.46693383840368,2.307839290382875],[102.46661419356835,2.307465337877917],[102.46627539974865,2.307108613121631],[102.46591838555489,2.306770093885087],[102.46554412953813,2.306450708039325],[102.46515365750814,2.306151331011934],[102.46474803972157,2.305872783387421],[102.46432838794861,2.305615828657924],[102.4638958524256,2.305381171130357],[102.46345161870234,2.30516945399589],[102.46299690439254,2.304981257566824],[102.46253295583661,2.304817097685913],[102.46206104468523,2.304677424312385],[102.46158246441405,2.304562620288499],[102.46109852677837,2.304473000290142],[102.46061055821757,2.304408809964289],[102.46011989621961,2.304370225255609],[102.45962788565488,2.304357351924176],[102.45913587509014,2.304370225255609],[102.45864521309217,2.304408809964289],[102.45815724453139,2.304473000290142],[102.4576733068957,2.304562620288499],[102.45719472662454,2.304677424312385],[102.45672281547316,2.304817097685913],[102.4562588669172,2.304981257566824],[102.45580415260741,2.30516945399589],[102.45535991888417,2.305381171130357],[102.45492738336114,2.305615828657924],[102.45450773158817,2.305872783387421],[102.45410211380162,2.306151331011934],[102.45371164177163,2.306450708039325],[102.45333738575486,2.306770093885087],[102.4529803715611,2.307108613121631],[102.45264157774139,2.307465337877917],[102.45232193290607,2.307839290382875],[102.45202231317941,2.308229445645471],[102.45174353979824,2.308634734264345],[102.45148637686103,2.309054045359095],[102.4512515292335,2.309486229615221],[102.45103964061671,2.309930102434521],[102.45085129178261,2.310384447182019],[102.45068699898225,2.310848018520895],[102.45054721253076,2.311319545825887],[102.45043231557315,2.311797736666109],[102.45034262303393,2.312281280347621],[102.45027838075418,2.312768851505961],[102.45023976481745,2.313259113738996],[102.4502268810674,2.313750723269892],[102.45023976481745,2.314242332630348],[102.45027838075418,2.314732594353961],[102.45034262303393,2.315220164669466],[102.45043231557315,2.31570370718397],[102.45054721253076,2.316181896545781],[102.45068699898225,2.316653422077168],[102.45085129178261,2.317116991366672],[102.45103964061671,2.317571333811513],[102.4512515292335,2.318015204100045],[102.45148637686103,2.318447385625054],[102.45174353979824,2.318866693818262],[102.45202231317941,2.319271979396957],[102.45232193290607,2.319662131514048],[102.45264157774139,2.320036080802613],[102.4529803715611,2.320392802306896],[102.45333738575486,2.320731318291425],[102.45371164177163,2.321050700920806],[102.45410211380162,2.32135007480268],[102.45450773158817,2.321628619387015],[102.45492738336114,2.321885571214982],[102.45535991888417,2.322120226011431],[102.45580415260741,2.322331940615144],[102.4562588669172,2.322520134741538],[102.45672281547316,2.322684292573078],[102.45719472662454,2.322823964173002],[102.4576733068957,2.322938766718478],[102.45815724453139,2.323028385549825],[102.45864521309217,2.323092575032832],[102.45913587509014,2.323131159232088],[102.45962788565488,2.323144032393095],[102.46011989621961,2.323131159232088],[102.46061055821757,2.323092575032832],[102.46109852677837,2.323028385549825],[102.46158246441405,2.322938766718478],[102.46206104468523,2.322823964173002],[102.46253295583661,2.322684292573078],[102.46299690439254,2.322520134741538],[102.46345161870234,2.322331940615144],[102.4638958524256,2.322120226011431],[102.46432838794861,2.321885571214982],[102.46474803972157,2.321628619387015],[102.46515365750814,2.32135007480268],[102.46554412953813,2.321050700920806],[102.46591838555489,2.320731318291425],[102.46627539974865,2.320392802306896],[102.46661419356835,2.320036080802613],[102.46693383840368,2.319662131514048],[102.46723345813034,2.319271979396957],[102.4675122315115,2.318866693818262],[102.46776939444872,2.318447385625054],[102.46800424207623,2.318015204100045],[102.46821613069304,2.317571333811513],[102.46840447952715,2.317116991366672],[102.46856877232752,2.316653422077168],[102.46870855877899,2.316181896545781],[102.46882345573661,2.31570370718397],[102.46891314827582,2.315220164669466],[102.46897739055558,2.314732594353961],[102.4690160064923,2.314242332630348],[102.46902889024236,2.313750723269892]],[[102.48307732568396,2.163506748904538],[102.48306250278605,2.162941088676428],[102.48301807472089,2.162376978673633],[102.48294416326269,2.16181596508509],[102.48284097099761,2.161259585614411],[102.48270878076852,2.160709365265011],[102.48254795489959,2.160166812160185],[102.4823589342034,2.159633413409355],[102.4821422367725,2.159110631031855],[102.48189845655953,2.158599897949566],[102.48162826174908,2.158102614059242],[102.48133239292635,2.157620142395389],[102.4810116610472,2.15715380539402],[102.48066694521546,2.156704881267888],[102.48029919027321,2.1562746005028],[102.47990940421121,2.15586414248474],[102.47949865540599,2.155474632267131],[102.47906806969142,2.155107137486864],[102.47861882727307,2.154762665437921],[102.47815215949312,2.154442160310185],[102.47766934545558,2.154146500601318],[102.47717170852015,2.153876496708766],[102.47666061267502,2.153632888708227],[102.47613745879845,2.153416344325122],[102.47560368081882,2.153227457104223],[102.47506074178449,2.153066744782645],[102.4745101298536,2.152934647870673],[102.47395335421517,2.152831528444203],[102.47339194095251,2.152757669152375],[102.47282742886038,2.152713272442608],[102.4722613652272,2.152698460005774],[102.47169530159402,2.152713272442608],[102.47113078950188,2.152757669152375],[102.47056937623925,2.152831528444203],[102.47001260060081,2.152934647870673],[102.4694619886699,2.153066744782645],[102.46891904963559,2.153227457104223],[102.46838527165596,2.153416344325122],[102.46786211777938,2.153632888708227],[102.46735102193428,2.153876496708766],[102.46685338499883,2.154146500601318],[102.46637057096127,2.154442160310185],[102.46590390318134,2.154762665437921],[102.46545466076299,2.155107137486864],[102.46502407504842,2.155474632267131],[102.4646133262432,2.15586414248474],[102.46422354018121,2.1562746005028],[102.46385578523895,2.156704881267888],[102.46351106940722,2.15715380539402],[102.46319033752806,2.157620142395389],[102.46289446870533,2.158102614059242],[102.46262427389487,2.158599897949566],[102.4623804936819,2.159110631031855],[102.462163796251,2.159633413409355],[102.46197477555482,2.160166812160185],[102.4618139496859,2.160709365265011],[102.4616817594568,2.161259585614411],[102.46157856719172,2.16181596508509],[102.46150465573352,2.162376978673633],[102.46146022766835,2.162941088676428],[102.46144540477044,2.163506748904538],[102.46146022766835,2.164072408921689],[102.46150465573352,2.164636518293869],[102.46157856719172,2.165197530839063],[102.4616817594568,2.165753908865121],[102.4618139496859,2.166304127384404],[102.46197477555482,2.166846678293693],[102.462163796251,2.167380074507637],[102.4623804936819,2.167902854034685],[102.46262427389487,2.168413583984166],[102.46289446870533,2.168910864493663],[102.46319033752806,2.169393332565728],[102.46351106940722,2.169859665803686],[102.46385578523895,2.170308586036018],[102.46422354018121,2.170738862819573],[102.4646133262432,2.17114931681198],[102.46502407504842,2.17153882300396],[102.46545466076299,2.171906313802682],[102.46590390318134,2.172250781957824],[102.46637057096127,2.17257128332215],[102.46685338499883,2.172866939439217],[102.46735102193428,2.173136939950967],[102.46786211777938,2.173380544818698],[102.46838527165596,2.173597086351326],[102.46891904963559,2.173785971035326],[102.4694619886699,2.173946681161379],[102.47001260060081,2.17407877624326],[102.47056937623925,2.174181894225071],[102.47113078950188,2.174255752473563],[102.47169530159402,2.174300148552728],[102.4722613652272,2.174314960778576],[102.47282742886038,2.174300148552728],[102.47339194095251,2.174255752473563],[102.47395335421517,2.174181894225071],[102.4745101298536,2.17407877624326],[102.47506074178449,2.173946681161379],[102.47560368081882,2.173785971035326],[102.47613745879845,2.173597086351326],[102.47666061267502,2.173380544818698],[102.47717170852015,2.173136939950967],[102.47766934545558,2.172866939439217],[102.47815215949312,2.17257128332215],[102.47861882727307,2.172250781957824],[102.47906806969142,2.171906313802682],[102.47949865540599,2.17153882300396],[102.47990940421121,2.17114931681198],[102.48029919027321,2.170738862819573],[102.48066694521546,2.170308586036018],[102.4810116610472,2.169859665803686],[102.48133239292635,2.169393332565728],[102.48162826174908,2.168910864493663],[102.48189845655953,2.168413583984166],[102.4821422367725,2.167902854034685],[102.4823589342034,2.167380074507637],[102.48254795489959,2.166846678293693],[102.48270878076852,2.166304127384404],[102.48284097099761,2.165753908865121],[102.48294416326269,2.165197530839063],[102.48301807472089,2.164636518293869],[102.48306250278605,2.164072408921689],[102.48307732568396,2.163506748904538]]],"bbox":[102.02267061912193,2.152698460005774,102.48307732568396,2.44732604117499]}
