{"type":"Topology","objects":{"MLK_SE-05":{"type":"GeometryCollection","geometries":[{"type":"Polygon","arcs":[[0]],"properties":{"state":"Melaka","parlimen":"P.095 Alor Gajah","code_parlimen":"P.095","dun":"N.01 Taboh Naning","code_dun":"N.01","voters_total":9823}},{"type":"Polygon","arcs":[[1]],"properties":{"state":"Melaka","parlimen":"P.095 Alor Gajah","code_parlimen":"P.095","dun":"N.02 Sungai Bahru","code_dun":"N.02","voters_total":8627}},{"type":"Polygon","arcs":[[2]],"properties":{"state":"Melaka","parlimen":"P.095 Alor Gajah","code_parlimen":"P.095","dun":"N.03 Machap","code_dun":"N.03","voters_total":6884}},{"type":"Polygon","arcs":[[3]],"properties":{"state":"Melaka","parlimen":"P.095 Alor Gajah","code_parlimen":"P.095","dun":"N.04 Kelemak","code_dun":"N.04","voters_total":7673}},{"type":"Polygon","arcs":[[4]],"properties":{"state":"Melaka","parlimen":"P.095 Alor Gajah","code_parlimen":"P.095","dun":"N.05 Masjid Tanah","code_dun":"N.05","voters_total":8656}},{"type":"Polygon","arcs":[[5]],"properties":{"state":"Melaka","parlimen":"P.096 Jasin","code_parlimen":"P.096","dun":"N.06 Batang Melaka","code_dun":"N.06","voters_total":8599}},{"type":"Polygon","arcs":[[6]],"properties":{"state":"Melaka","parlimen":"P.096 Jasin","code_parlimen":"P.096","dun":"N.07 Nyalas","code_dun":"N.07","voters_total":7770}},{"type":"Polygon","arcs":[[7]],"properties":{"state":"Melaka","parlimen":"P.096 Jasin","code_parlimen":"P.096","dun":"N.08 Ayer Panas","code_dun":"N.08","voters_total":8670}},{"type":"Polygon","arcs":[[8]],"properties":{"state":"Melaka","parlimen":"P.096 Jasin","code_parlimen":"P.096","dun":"N.09 Serkam","code_dun":"N.09","voters_total":7891}},{"type":"Polygon","arcs":[[9]],"properties":{"state":"Melaka","parlimen":"P.096 Jasin","code_parlimen":"P.096","dun":"N.10 Sungei Rambai","code_dun":"N.10","voters_total":7162}},{"type":"Polygon","arcs":[[10]],"properties":{"state":"Melaka","parlimen":"P.097 Batu Berendam","code_parlimen":"P.097","dun":"N.11 Tanjong Minyak","code_dun":"N.11","voters_total":10899}},{"type":"Polygon","arcs":[[11]],"properties":{"state":"Melaka","parlimen":"P.097 Batu Berendam","code_parlimen":"P.097","dun":"N.12 Ayer Keroh","code_dun":"N.12","voters_total":9779}},{"type":"Polygon","arcs":[[12]],"properties":{"state":"Melaka","parlimen":"P.097 Batu Berendam","code_parlimen":"P.097","dun":"N.13 Ayer Molek","code_dun":"N.13","voters_total":8254}},{"type":"Polygon","arcs":[[13]],"properties":{"state":"Melaka","parlimen":"P.097 Batu Berendam","code_parlimen":"P.097","dun":"N.14 Sungai Udang","code_dun":"N.14","voters_total":8529}},{"type":"Polygon","arcs":[[14]],"properties":{"state":"Melaka","parlimen":"P.097 Batu Berendam","code_parlimen":"P.097","dun":"N.15 Bukit Rambai","code_dun":"N.15","voters_total":8720}},{"type":"Polygon","arcs":[[15]],"properties":{"state":"Melaka","parlimen":"P.098 Kota Melaka","code_parlimen":"P.098","dun":"N.16 Pringgit","code_dun":"N.16","voters_total":12853}},{"type":"Polygon","arcs":[[16]],"properties":{"state":"Melaka","parlimen":"P.098 Kota Melaka","code_parlimen":"P.098","dun":"N.17 Tranquerah","code_dun":"N.17","voters_total":12056}},{"type":"Polygon","arcs":[[17]],"properties":{"state":"Melaka","parlimen":"P.098 Kota Melaka","code_parlimen":"P.098","dun":"N.18 Kubu","code_dun":"N.18","voters_total":12739}},{"type":"Polygon","arcs":[[18]],"properties":{"state":"Melaka","parlimen":"P.098 Kota Melaka","code_parlimen":"P.098","dun":"N.19 Durian Daun","code_dun":"N.19","voters_total":11304}},{"type":"Polygon","arcs":[[19]],"properties":{"state":"Melaka","parlimen":"P.098 Kota Melaka","code_parlimen":"P.098","dun":"N.20 Bandar Hilir","code_dun":"N.20","voters_total":11134}}]}},"arcs":[[[102.18153549836217,2.446128853362612],[102.18151560519533,2.445369855990299],[102.18145598022055,2.444612938549403],[102.18135678686579,2.443860175703417],[102.18121829701313,2.443113630731837],[102.18104089025361,2.44237534987472],[102.18082505284684,2.441647356724002],[102.18057137638816,2.440931646676744],[102.18028055618709,2.440230181465715],[102.1799533893616,2.439544883782197],[102.1795907726532,2.438877632005731],[102.1791936999691,2.438230255055333],[102.17876325965793,2.437604527376263],[102.17830063152664,2.437002164076042],[102.1778070836068,2.436424816223097],[102.17728396867895,2.435874066320999],[102.17673272056474,2.435351423970524],[102.17615485019695,2.434858321731591],[102.17555194147806,2.434396111196357],[102.174925646939,2.4339660592842],[102.17427768320952,2.433569344768849],[102.17360982631322,2.433207055047143],[102.1729239067994,2.432880183158147],[102.17222180472577,2.432589625061076],[102.1715054445053,2.432336177179161],[102.17077678963157,2.432120534216575],[102.17003783729696,2.431943287253921],[102.16929061291843,2.431804922128026],[102.16853716458607,2.431705818100087],[102.1677795574494,2.431646246816039],[102.16701986805691,2.431626371561882],[102.1662601786644,2.431646246816039],[102.16550257152772,2.431705818100087],[102.16474912319538,2.431804922128026],[102.16400189881685,2.431943287253921],[102.16326294648222,2.432120534216575],[102.16253429160851,2.432336177179161],[102.16181793138806,2.432589625061076],[102.16111582931441,2.432880183158147],[102.16042990980058,2.433207055047143],[102.15976205290427,2.433569344768849],[102.15911408917482,2.4339660592842],[102.15848779463575,2.434396111196357],[102.15788488591686,2.434858321731591],[102.15730701554905,2.435351423970524],[102.15675576743487,2.435874066320999],[102.15623265250701,2.436424816223097],[102.15573910458717,2.437002164076042],[102.15527647645588,2.437604527376263],[102.1548460361447,2.438230255055333],[102.1544489634606,2.438877632005731],[102.15408634675221,2.439544883782197],[102.15375917992671,2.440230181465715],[102.15346835972565,2.440931646676744],[102.15321468326697,2.441647356724002],[102.15299884586018,2.44237534987472],[102.15282143910068,2.443113630731837],[102.15268294924802,2.443860175703417],[102.15258375589325,2.444612938549403],[102.1525241309185,2.445369855990299],[102.15250423775166,2.446128853362612],[102.1525241309185,2.446887850305423],[102.15258375589325,2.447644766462481],[102.15268294924802,2.448397527184379],[102.15282143910068,2.449144069214862],[102.15299884586018,2.449882346346125],[102.15321468326697,2.450610335027068],[102.15346835972565,2.451326039909564],[102.15375917992671,2.452027499317455],[102.15408634675221,2.452712790623032],[102.1544489634606,2.453380035516624],[102.1548460361447,2.454027405154635],[102.15527647645588,2.454653125171927],[102.15573910458717,2.455255480544908],[102.15623265250701,2.455832820292018],[102.15675576743487,2.456383561998476],[102.15730701554905,2.456906196153311],[102.15788488591686,2.457399290286396],[102.15848779463575,2.457861492894403],[102.15911408917482,2.458291537144782],[102.15976205290427,2.458688244347732],[102.16042990980058,2.459050527186578],[102.16111582931441,2.459377392697621],[102.16181793138806,2.459667944991566],[102.16253429160851,2.459921387708705],[102.16326294648222,2.460137026201518],[102.16400189881685,2.460314269438331],[102.16474912319538,2.460452631623129],[102.16550257152772,2.460551733526978],[102.1662601786644,2.460611303527176],[102.16701986805691,2.460631178351818],[102.1677795574494,2.460611303527176],[102.16853716458607,2.460551733526978],[102.16929061291843,2.460452631623129],[102.17003783729696,2.460314269438331],[102.17077678963157,2.460137026201518],[102.1715054445053,2.459921387708705],[102.17222180472577,2.459667944991566],[102.1729239067994,2.459377392697621],[102.17360982631322,2.459050527186578],[102.17427768320952,2.458688244347732],[102.174925646939,2.458291537144782],[102.17555194147806,2.457861492894403],[102.17615485019695,2.457399290286396],[102.17673272056474,2.456906196153311],[102.17728396867895,2.456383561998476],[102.1778070836068,2.455832820292018],[102.17830063152664,2.455255480544908],[102.17876325965793,2.454653125171927],[102.1791936999691,2.454027405154635],[102.1795907726532,2.453380035516624],[102.1799533893616,2.452712790623032],[102.18028055618709,2.452027499317455],[102.18057137638816,2.451326039909564],[102.18082505284684,2.450610335027068],[102.18104089025361,2.449882346346125],[102.18121829701313,2.449144069214862],[102.18135678686579,2.448397527184379],[102.18145598022055,2.447644766462481],[102.18151560519533,2.446887850305423],[102.18153549836217,2.446128853362612]],[[102.06359390279856,2.392277148411513],[102.06357525997231,2.391565827896383],[102.06351938259223,2.390856456694019],[102.06342642381433,2.390150979146251],[102.06329663843219,2.389451328925557],[102.06313038217846,2.388759423735054],[102.06292811075005,2.388077160051996],[102.06269037855884,2.387406407929548],[102.06241783721227,2.386749005870947],[102.0621112337272,2.386106755790045],[102.06177140848247,2.385481418072206],[102.06139929291547,2.384874706748959],[102.06099590696908,2.384288284799627],[102.06056235629619,2.383723759593039],[102.06009982922902,2.383182678481476],[102.05960959352211,2.382666524559176],[102.05909299287747,2.382176712597038],[102.05855144326155,2.381714585164431],[102.05798642902423,2.38128140894901],[102.0573994988302,2.38087837128456],[102.0567922614144,2.380506576896229],[102.0561663811723,2.380167044872286],[102.05552357359821,2.379860705870575],[102.05486560058299,2.379588399567402],[102.05419426558493,2.3793508723558],[102.05351140868656,2.379148775299472],[102.05281890155125,2.378982662348082],[102.05211864229285,2.378852988818759],[102.05141255027337,2.378760110147964],[102.05070256084193,2.378704280917144],[102.0499906200302,2.378685654154804],[102.04927867921847,2.378704280917144],[102.04856868978703,2.378760110147964],[102.04786259776753,2.378852988818759],[102.04716233850915,2.378982662348082],[102.04646983137384,2.379148775299472],[102.04578697447549,2.3793508723558],[102.04511563947743,2.379588399567402],[102.0444576664622,2.379860705870575],[102.0438148588881,2.380167044872286],[102.04318897864601,2.380506576896229],[102.04258174123021,2.38087837128456],[102.04199481103619,2.38128140894901],[102.04142979679887,2.381714585164431],[102.04088824718293,2.382176712597038],[102.04037164653829,2.382666524559176],[102.03988141083138,2.383182678481476],[102.03941888376421,2.383723759593039],[102.0389853330913,2.384288284799627],[102.03858194714493,2.384874706748959],[102.03820983157793,2.385481418072206],[102.03787000633321,2.386106755790045],[102.03756340284814,2.386749005870947],[102.03729086150155,2.387406407929548],[102.03705312931034,2.388077160051996],[102.03685085788193,2.388759423735054],[102.03668460162822,2.389451328925557],[102.03655481624608,2.390150979146251],[102.03646185746818,2.390856456694019],[102.03640598008809,2.391565827896383],[102.03638733726184,2.392277148411513],[102.03640598008809,2.3929884685577],[102.03646185746818,2.393697838657288],[102.03655481624608,2.394403314380563],[102.03668460162822,2.395102962074994],[102.03685085788193,2.395794864065159],[102.03705312931034,2.39647712390888],[102.03729086150155,2.397147871595027],[102.03756340284814,2.397805268668987],[102.03787000633321,2.39844751327151],[102.03820983157793,2.399072845077257],[102.03858194714493,2.399679550119507],[102.0389853330913,2.400265965487699],[102.03941888376421,2.40083048388514],[102.03988141083138,2.40137155803415],[102.04037164653829,2.40188770491675],[102.04088824718293,2.402377509839201],[102.04142979679887,2.402839630309256],[102.04199481103619,2.403272799715529],[102.04258174123021,2.403675830798839],[102.04318897864601,2.404047618906159],[102.0438148588881,2.404387145018023],[102.0444576664622,2.404693478541357],[102.04511563947743,2.404965779859888],[102.04578697447549,2.405203302635189],[102.04646983137384,2.40540539585218],[102.04716233850915,2.405571505603232],[102.04786259776753,2.405701176606279],[102.04856868978703,2.405794053452567],[102.04927867921847,2.405849881580639],[102.0499906200302,2.405868507974047],[102.05070256084193,2.405849881580639],[102.05141255027337,2.405794053452567],[102.05211864229285,2.405701176606279],[102.05281890155125,2.405571505603232],[102.05351140868656,2.40540539585218],[102.05419426558493,2.405203302635189],[102.05486560058299,2.404965779859888],[102.05552357359821,2.404693478541357],[102.0561663811723,2.404387145018023],[102.0567922614144,2.404047618906159],[102.0573994988302,2.403675830798839],[102.05798642902423,2.403272799715529],[102.05855144326155,2.402839630309256],[102.05909299287747,2.402377509839201],[102.05960959352211,2.40188770491675],[102.06009982922902,2.40137155803415],[102.06056235629619,2.40083048388514],[102.06099590696908,2.400265965487699],[102.06139929291547,2.399679550119507],[102.06177140848247,2.399072845077257],[102.0621112337272,2.39844751327151],[102.06241783721227,2.397805268668987],[102.06269037855884,2.397147871595027],[102.06292811075005,2.39647712390888],[102.06313038217846,2.395794864065159],[102.06329663843219,2.395102962074994],[102.06342642381433,2.394403314380563],[102.06351938259223,2.393697838657288],[102.06357525997231,2.3929884685577],[102.06359390279856,2.392277148411513]],[[102.30778312543332,2.399221820710039],[102.30776647205745,2.398586411285538],[102.30771655757562,2.397952743180159],[102.30763351879995,2.397322553237805],[102.30751758333395,2.396697568771402],[102.30736906894863,2.396079502828286],[102.30718838271167,2.395470049494817],[102.30697601987146,2.394870879252916],[102.30673256249975,2.394283634401178],[102.3064586778963,2.393709924553329],[102.3061551167598,2.393151322226214],[102.30582271113016,2.392609358529441],[102.30546237210817,2.392085518968452],[102.30507508735798,2.391581239372702],[102.30466191840021,2.391097901959855],[102.30422399770228,2.390636831547001],[102.30376252557433,2.390199291919211],[102.30327876687942,2.389786482365261],[102.30277404756647,2.389399534390253],[102.30224975103607,2.389039508614021],[102.30170731434856,2.388707391863744],[102.30114822428519,2.388404094468902],[102.30057401327295,2.388130447765945],[102.29998625518434,2.387887201819408],[102.29938656102341,2.387675023365814],[102.29877657451016,2.387494493986088],[102.29815796757524,2.387346108511257],[102.29753243577726,2.387230273666075],[102.29690169365539,2.387147306954068],[102.29626747002993,2.387097435787199],[102.29563150326379,2.387080796862452],[102.29499553649767,2.387097435787199],[102.29436131287223,2.387147306954068],[102.29373057075036,2.387230273666075],[102.29310503895236,2.387346108511257],[102.29248643201744,2.387494493986088],[102.2918764455042,2.387675023365814],[102.29127675134326,2.387887201819408],[102.29068899325465,2.388130447765945],[102.29011478224241,2.388404094468902],[102.28955569217905,2.388707391863744],[102.28901325549153,2.389039508614021],[102.28848895896114,2.389399534390253],[102.2879842396482,2.389786482365261],[102.28750048095327,2.390199291919211],[102.28703900882532,2.390636831547001],[102.28660108812738,2.391097901959855],[102.28618791916962,2.391581239372702],[102.28580063441945,2.392085518968452],[102.28544029539744,2.392609358529441],[102.2851078897678,2.393151322226214],[102.2848043286313,2.393709924553329],[102.28453044402787,2.394283634401178],[102.28428698665616,2.394870879252916],[102.28407462381593,2.395470049494817],[102.28389393757897,2.396079502828286],[102.28374542319366,2.396697568771402],[102.28362948772767,2.397322553237805],[102.28354644895198,2.397952743180159],[102.28349653447015,2.398586411285538],[102.2834798810943,2.399221820710039],[102.28349653447015,2.399857229839283],[102.28354644895198,2.40049089706216],[102.28362948772767,2.401121085544411],[102.28374542319366,2.401746067989126],[102.28389393757897,2.402364131371106],[102.28407462381593,2.402973581632045],[102.28428698665616,2.403572748323723],[102.28453044402787,2.404159989186396],[102.2848043286313,2.404733694650066],[102.2851078897678,2.405292292245903],[102.28544029539744,2.405834250916165],[102.28580063441945,2.40635808521046],[102.28618791916962,2.406862359357056],[102.28660108812738,2.407345691197966],[102.28703900882532,2.407806755977154],[102.28750048095327,2.408244289971291],[102.2879842396482,2.408657093953316],[102.28848895896114,2.409044036479144],[102.28901325549153,2.409404056988695],[102.28955569217905,2.409736168712461],[102.29011478224241,2.410039461376024],[102.29068899325465,2.410313103694804],[102.29127675134326,2.410556345652289],[102.2918764455042,2.410768520555633],[102.29248643201744,2.410949046862842],[102.29310503895236,2.411097429776537],[102.29373057075036,2.411213262600019],[102.29436131287223,2.411296227851922],[102.29499553649767,2.411346098136302],[102.29563150326379,2.411362736765791],[102.29626747002993,2.411346098136302],[102.29690169365539,2.411296227851922],[102.29753243577726,2.411213262600019],[102.29815796757524,2.411097429776537],[102.29877657451016,2.410949046862842],[102.29938656102341,2.410768520555633],[102.29998625518434,2.410556345652289],[102.30057401327295,2.410313103694804],[102.30114822428519,2.410039461376024],[102.30170731434856,2.409736168712461],[102.30224975103607,2.409404056988695],[102.30277404756647,2.409044036479144],[102.30327876687942,2.408657093953316],[102.30376252557433,2.408244289971291],[102.30422399770228,2.407806755977154],[102.30466191840021,2.407345691197966],[102.30507508735798,2.406862359357056],[102.30546237210817,2.40635808521046],[102.30582271113016,2.405834250916165],[102.3061551167598,2.405292292245903],[102.3064586778963,2.404733694650066],[102.30673256249975,2.404159989186396],[102.30697601987146,2.403572748323723],[102.30718838271167,2.402973581632045],[102.30736906894863,2.402364131371106],[102.30751758333395,2.401746067989126],[102.30763351879995,2.401121085544411],[102.30771655757562,2.40049089706216],[102.30776647205745,2.399857229839283],[102.30778312543332,2.399221820710039]],[[102.2074718689263,2.377227606629071],[102.20745428708109,2.376556760716455],[102.20740158973608,2.3758877532212],[102.207313921331,2.375222417850465],[102.20719152215888,2.374562578248927],[102.20703472770737,2.373910043000344],[102.2068439677391,2.373266600670174],[102.20661976511394,2.372634014903087],[102.20636273435566,2.372014019588875],[102.20607357996772,2.371408314109723],[102.20575309450221,2.370818558682173],[102.20540215638749,2.370246369806297],[102.20502172752059,2.369693315834856],[102.20461285063051,2.369160912674203],[102.20417664642044,2.368650619629071],[102.20371431049578,2.368163835402489],[102.2032271100872,2.367701894261648],[102.2027163805771,2.367266062380597],[102.2021835218396,2.366857534369452],[102.20162999440345,2.366477429999727],[102.20105731544888,2.366126791134853],[102.2004670546491,2.365806578874322],[102.19986082986792,2.365517670919043],[102.19924030272536,2.365260859165453],[102.19860717404315,2.365036847534716],[102.19796317918302,2.364846250043181],[102.19731008329012,2.364689589119192],[102.19664967645488,2.364567294171002],[102.19598376880654,2.364479700409685],[102.19531418555168,2.364427047930251],[102.19464276197145,2.36440948105346],[102.19397133839122,2.364427047930251],[102.19330175513636,2.364479700409685],[102.19263584748802,2.364567294171002],[102.19197544065277,2.364689589119192],[102.19132234475987,2.364846250043181],[102.19067834989974,2.365036847534716],[102.19004522121753,2.365260859165453],[102.18942469407497,2.365517670919043],[102.18881846929379,2.365806578874322],[102.18822820849402,2.366126791134853],[102.18765552953946,2.366477429999727],[102.1871020021033,2.366857534369452],[102.18656914336579,2.367266062380597],[102.1860584138557,2.367701894261648],[102.18557121344712,2.368163835402489],[102.18510887752247,2.368650619629071],[102.18467267331239,2.369160912674203],[102.18426379642231,2.369693315834856],[102.1838833675554,2.370246369806297],[102.18353242944069,2.370818558682173],[102.18321194397518,2.371408314109723],[102.18292278958724,2.372014019588875],[102.18266575882897,2.372634014903087],[102.18244155620378,2.373266600670174],[102.18225079623554,2.373910043000344],[102.18209400178401,2.374562578248927],[102.1819716026119,2.375222417850465],[102.18188393420682,2.3758877532212],[102.1818312368618,2.376556760716455],[102.1818136550166,2.377227606629071],[102.1818312368618,2.377898452215629],[102.18188393420682,2.378567458736211],[102.1819716026119,2.379232792494404],[102.18209400178401,2.379892629863128],[102.18225079623554,2.380545162283143],[102.18244155620378,2.381188601219966],[102.18266575882897,2.381821183066091],[102.18292278958724,2.3824411739747],[102.18321194397518,2.383046874611891],[102.18353242944069,2.383636624814146],[102.1838833675554,2.38420880813863],[102.18426379642231,2.384761856293435],[102.18467267331239,2.385294253435931],[102.18510887752247,2.385804540327313],[102.18557121344712,2.38629131833198],[102.1860584138557,2.386753253250905],[102.18656914336579,2.387189078978194],[102.1871020021033,2.387597600971182],[102.18765552953946,2.387977699524283],[102.18822820849402,2.388328332837766],[102.18881846929379,2.388648539873002],[102.18942469407497,2.388937442986307],[102.19004522121753,2.389194250334294],[102.19067834989974,2.389418258044068],[102.19132234475987,2.389608852142257],[102.19197544065277,2.389765510237677],[102.19263584748802,2.389887802953079],[102.19330175513636,2.38997539510183],[102.19397133839122,2.390028046606602],[102.19464276197145,2.39004561315731],[102.19531418555168,2.390028046606602],[102.19598376880654,2.38997539510183],[102.19664967645488,2.389887802953079],[102.19731008329012,2.389765510237677],[102.19796317918302,2.389608852142257],[102.19860717404315,2.389418258044068],[102.19924030272536,2.389194250334294],[102.19986082986792,2.388937442986307],[102.2004670546491,2.388648539873002],[102.20105731544888,2.388328332837766],[102.20162999440345,2.387977699524283],[102.2021835218396,2.387597600971182],[102.2027163805771,2.387189078978194],[102.2032271100872,2.386753253250905],[102.20371431049578,2.38629131833198],[102.20417664642044,2.385804540327313],[102.20461285063051,2.385294253435931],[102.20502172752059,2.384761856293435],[102.20540215638749,2.38420880813863],[102.20575309450221,2.383636624814146],[102.20607357996772,2.383046874611891],[102.20636273435566,2.3824411739747],[102.20661976511394,2.381821183066091],[102.2068439677391,2.381188601219966],[102.20703472770737,2.380545162283143],[102.20719152215888,2.379892629863128],[102.207313921331,2.379232792494404],[102.20740158973608,2.378567458736211],[102.20745428708109,2.377898452215629],[102.2074718689263,2.377227606629071]],[[102.1249089222605,2.3348113784678],[102.12489024812626,2.334098833896938],[102.12483427690796,2.333388242001505],[102.12474116201886,2.332681550469054],[102.12461115868038,2.331980696299371],[102.12444462322264,2.331287600495283],[102.12424201210779,2.330604162797179],[102.12400388067874,2.329932256475788],[102.12373088163724,2.329273723197547],[102.12342376325469,2.328630367976472],[102.12308336732117,2.328003954226593],[102.12271062683836,2.327396198928216],[102.12230656346193,2.326808767921666],[102.12187228470157,2.326243271340918],[102.12140898088515,2.325701259200163],[102.12091792189621,2.325184217144939],[102.12040045369335,2.324693562379829],[102.11985799462093,2.324230639783679],[102.11929203152152,2.323796718223055],[102.11870411566066,2.323392987074101],[102.1180958584749,2.323020552962182],[102.11746892715486,2.322680436728472],[102.11682504007574,2.3223735706316],[102.11616596208724,2.322100795792139],[102.11549349967632,2.321862859886918],[102.11480949601572,2.321660415099453],[102.11411582591194,2.321494016332212],[102.11341439066648,2.32136411968545],[102.11270711286461,2.321271081206949],[102.11199593110562,2.321215155915997],[102.1112827946893,2.321196497104353],[102.11056965827298,2.321215155915997],[102.10985847651398,2.321271081206949],[102.10915119871211,2.32136411968545],[102.10844976346667,2.321494016332212],[102.10775609336287,2.321660415099453],[102.10707208970227,2.321862859886918],[102.10639962729137,2.322100795792139],[102.10574054930287,2.3223735706316],[102.10509666222373,2.322680436728472],[102.10446973090367,2.323020552962182],[102.10386147371791,2.323392987074101],[102.10327355785708,2.323796718223055],[102.10270759475767,2.324230639783679],[102.10216513568523,2.324693562379829],[102.10164766748237,2.325184217144939],[102.10115660849344,2.325701259200163],[102.10069330467701,2.326243271340918],[102.10025902591666,2.326808767921666],[102.09985496254023,2.327396198928216],[102.09948222205742,2.328003954226593],[102.09914182612391,2.328630367976472],[102.09883470774136,2.329273723197547],[102.09856170869985,2.329932256475788],[102.0983235772708,2.330604162797179],[102.09812096615595,2.331287600495283],[102.09795443069821,2.331980696299371],[102.09782442735974,2.332681550469054],[102.09773131247063,2.333388242001505],[102.09767534125234,2.334098833896938],[102.09765666711807,2.3348113784678],[102.09767534125234,2.33552392267735],[102.09773131247063,2.33623451349282],[102.09782442735974,2.336941203238523],[102.09795443069821,2.337642054934193],[102.09812096615595,2.33833514760415],[102.0983235772708,2.33901858154233],[102.09856170869985,2.339690483519197],[102.09883470774136,2.340349011915923],[102.09914182612391,2.340992361771936],[102.09948222205742,2.341618769732049],[102.09985496254023,2.342226518879334],[102.10025902591666,2.342813943440897],[102.10069330467701,2.343379433353345],[102.10115660849344,2.343921438675577],[102.10164766748237,2.344438473836745],[102.10216513568523,2.344929121707786],[102.10270759475767,2.345392037485412],[102.10327355785708,2.345825952377736],[102.10386147371791,2.346229677081703],[102.10446973090367,2.346602105042544],[102.10509666222373,2.346942215486474],[102.10574054930287,2.347249076218297],[102.10639962729137,2.34752184617623],[102.10707208970227,2.347759777736927],[102.10775609336287,2.347962218764455],[102.10844976346667,2.348128614397566],[102.10915119871211,2.348258508570326],[102.10985847651398,2.348351545262068],[102.11056965827298,2.348407469473069],[102.1112827946893,2.348426127923414],[102.11199593110562,2.348407469473069],[102.11270711286461,2.348351545262068],[102.11341439066648,2.348258508570326],[102.11411582591194,2.348128614397566],[102.11480949601572,2.347962218764455],[102.11549349967632,2.347759777736927],[102.11616596208724,2.34752184617623],[102.11682504007574,2.347249076218297],[102.11746892715486,2.346942215486474],[102.1180958584749,2.346602105042544],[102.11870411566066,2.346229677081703],[102.11929203152152,2.345825952377736],[102.11985799462093,2.345392037485412],[102.12040045369335,2.344929121707786],[102.12091792189621,2.344438473836745],[102.12140898088515,2.343921438675577],[102.12187228470157,2.343379433353345],[102.12230656346193,2.342813943440897],[102.12271062683836,2.342226518879334],[102.12308336732117,2.341618769732049],[102.12342376325469,2.340992361771936],[102.12373088163724,2.340349011915923],[102.12400388067874,2.339690483519197],[102.12424201210779,2.33901858154233],[102.12444462322264,2.33833514760415],[102.12461115868038,2.337642054934193],[102.12474116201886,2.336941203238523],[102.12483427690796,2.33623451349282],[102.12489024812626,2.33552392267735],[102.1249089222605,2.3348113784678]],[[102.39983813219176,2.407481281862681],[102.3998195196439,2.406771124522376],[102.399763733016,2.406062913305542],[102.39967092521535,2.405358589374549],[102.39954135062166,2.404660083239932],[102.3993753643899,2.403969309468973],[102.39917342147676,2.403288161437833],[102.39893607539379,2.402618506141818],[102.39866397669006,2.40196217907785],[102.3983578711692,2.401320979213394],[102.3980185978452,2.400696664055297],[102.39764708664262,2.400090944832395],[102.39724435584786,2.39950548180483],[102.39681150931806,2.398941879713171],[102.39634973345542,2.398401683379568],[102.39586029395552,2.397886373473278],[102.395344532338,2.397397362451855],[102.39480386226961,2.396935990689435],[102.39423976568943,2.396503522802561],[102.39365378874693,2.396101144183595],[102.39304753756423,2.395729957751384],[102.39242267383366,2.395390980927903],[102.39178091026328,2.395085142849305],[102.3911240058824,2.394813281818978],[102.39045376122033,2.394576143009551],[102.38977201337103,2.394374376420195],[102.38908063095803,2.394208535094855],[102.38838150901242,2.394079073606178],[102.38767656377887,2.393986346809466],[102.38696772746327,2.393930608869902],[102.38625694293668,2.393912012565814],[102.38554615841011,2.393930608869902],[102.38483732209451,2.393986346809466],[102.38413237686096,2.394079073606178],[102.38343325491535,2.394208535094855],[102.38274187250234,2.394374376420195],[102.38206012465304,2.394576143009551],[102.38138987999096,2.394813281818978],[102.38073297561009,2.395085142849305],[102.3800912120397,2.395390980927903],[102.37946634830914,2.395729957751384],[102.37886009712643,2.396101144183595],[102.37827412018395,2.396503522802561],[102.37771002360375,2.396935990689435],[102.37716935353536,2.397397362451855],[102.37665359191784,2.397886373473278],[102.37616415241794,2.398401683379568],[102.37570237655531,2.398941879713171],[102.3752695300255,2.39950548180483],[102.37486679923074,2.400090944832395],[102.37449528802817,2.400696664055297],[102.37415601470417,2.401320979213394],[102.3738499091833,2.40196217907785],[102.37357781047959,2.402618506141818],[102.3733404643966,2.403288161437833],[102.37313852148347,2.403969309468973],[102.3729725352517,2.404660083239932],[102.37284296065802,2.405358589374549],[102.37275015285738,2.406062913305542],[102.37269436622947,2.406771124522376],[102.3726757536816,2.407481281862681],[102.37269436622947,2.40819143883291],[102.37275015285738,2.408899648943597],[102.37284296065802,2.409603971044486],[102.3729725352517,2.410302474645067],[102.37313852148347,2.410993245205841],[102.3733404643966,2.411674389385825],[102.37357781047959,2.412344040231927],[102.3738499091833,2.413000362295923],[102.37415601470417,2.413641556665156],[102.37449528802817,2.414265865892994],[102.37486679923074,2.414871578815573],[102.3752695300255,2.415457035241757],[102.37570237655531,2.416020630503354],[102.37616415241794,2.41656081985298],[102.37665359191784,2.417076122697942],[102.37716935353536,2.417565126658038],[102.37771002360375,2.418026491436494],[102.37827412018395,2.418458952493279],[102.37886009712643,2.418861324510877],[102.37946634830914,2.419232504642765],[102.3800912120397,2.419571475536],[102.38073297561009,2.419877308119376],[102.38138987999096,2.420149164149743],[102.38206012465304,2.420386298509231],[102.38274187250234,2.420588061247432],[102.38343325491535,2.4207538993626],[102.38413237686096,2.42088335831724],[102.38483732209451,2.420976083283836],[102.38554615841011,2.421031820117253],[102.38625694293668,2.421050416051265],[102.38696772746327,2.421031820117253],[102.38767656377887,2.420976083283836],[102.38838150901242,2.42088335831724],[102.38908063095803,2.4207538993626],[102.38977201337103,2.420588061247432],[102.39045376122033,2.420386298509231],[102.3911240058824,2.420149164149743],[102.39178091026328,2.419877308119376],[102.39242267383366,2.419571475536],[102.39304753756423,2.419232504642765],[102.39365378874693,2.418861324510877],[102.39423976568943,2.418458952493279],[102.39480386226961,2.418026491436494],[102.395344532338,2.417565126658038],[102.39586029395552,2.417076122697942],[102.39634973345542,2.41656081985298],[102.39681150931806,2.416020630503354],[102.39724435584786,2.415457035241757],[102.39764708664262,2.414871578815573],[102.3980185978452,2.414265865892994],[102.3983578711692,2.413641556665156],[102.39866397669006,2.413000362295923],[102.39893607539379,2.412344040231927],[102.39917342147676,2.411674389385825],[102.3993753643899,2.410993245205841],[102.39954135062166,2.410302474645067],[102.39967092521535,2.409603971044486],[102.399763733016,2.408899648943597],[102.3998195196439,2.40819143883291],[102.39983813219176,2.407481281862681]],[[102.50033352049677,2.378133302238635],[102.50031582786812,2.377458229758529],[102.5002627984764,2.376785007276297],[102.50017457767149,2.376115480052096],[102.50005140726049,2.375451483220331],[102.49989362484493,2.374794836759516],[102.49970166289542,2.374147340503814],[102.49947604756639,2.373510769209622],[102.4992173972537,2.372886867690982],[102.49892642089992,2.372277346036959],[102.49860391605102,2.371683874924188],[102.49825076667034,2.371108081037515],[102.49786794071579,2.370551542611059],[102.49745648748673,2.370015785102113],[102.49701753474784,2.369502277009795],[102.49655228563806,2.369012425849649],[102.49606201537289,2.36854757429548],[102.49554806774898,2.368108996498905],[102.49501185146114,2.367697894596723],[102.49445483624086,2.367315395415615],[102.49387854882819,2.366962547383348],[102.49328456878688,2.366640317654898],[102.49267452417487,2.366349589461164],[102.4920500870821,2.366091159687998],[102.49141296904722,2.365865736691681],[102.49076491636647,2.365673938357223],[102.4901077053072,2.365516290404563],[102.48944313723926,2.365393224947485],[102.48877303369751,2.365305079309119],[102.48809923138921,2.365252095097195],[102.4874235771596,2.365234417541783],[102.48674792293002,2.365252095097195],[102.48607412062171,2.365305079309119],[102.48540401707997,2.365393224947485],[102.48473944901203,2.365516290404563],[102.48408223795276,2.365673938357223],[102.483434185272,2.365865736691681],[102.48279706723713,2.366091159687998],[102.48217263014436,2.366349589461164],[102.48156258553236,2.366640317654898],[102.48096860549103,2.366962547383348],[102.48039231807836,2.367315395415615],[102.47983530285809,2.367697894596723],[102.47929908657024,2.368108996498905],[102.47878513894635,2.36854757429548],[102.47829486868117,2.369012425849649],[102.4778296195714,2.369502277009795],[102.47739066683249,2.370015785102113],[102.47697921360343,2.370551542611059],[102.4765963876489,2.371108081037515],[102.47624323826821,2.371683874924188],[102.4759207334193,2.372277346036959],[102.47562975706553,2.372886867690982],[102.47537110675285,2.373510769209622],[102.4751454914238,2.374147340503814],[102.4749535294743,2.374794836759516],[102.47479574705875,2.375451483220331],[102.47467257664775,2.376115480052096],[102.47458435584284,2.376785007276297],[102.4745313264511,2.377458229758529],[102.47451363382245,2.378133302238635],[102.4745313264511,2.378808374388421],[102.47458435584284,2.379481595883294],[102.47467257664775,2.380151121473923],[102.47479574705875,2.380815116043805],[102.4749535294743,2.381471759639209],[102.4751454914238,2.382119252457354],[102.47537110675285,2.382755819779517],[102.47562975706553,2.383379716835164],[102.4759207334193,2.383989233584149],[102.47624323826821,2.384582699403535],[102.4765963876489,2.385158487666516],[102.47697921360343,2.385715020200575],[102.47739066683249,2.38625077161297],[102.4778296195714,2.386764273471363],[102.47829486868117,2.387254118328541],[102.47878513894635,2.38771896357974],[102.47929908657024,2.388157535142402],[102.47983530285809,2.388568630948022],[102.48039231807836,2.388951124236732],[102.48096860549103,2.389303966645294],[102.48156258553236,2.389626191080386],[102.48217263014436,2.389916914369055],[102.48279706723713,2.390175339679241],[102.483434185272,2.390400758703529],[102.48408223795276,2.390592553600431],[102.48473944901203,2.390750198687678],[102.48540401707997,2.39087326188286],[102.48607412062171,2.390961405887669],[102.48674792293002,2.391014389112233],[102.4874235771596,2.391032066337326],[102.48809923138921,2.391014389112233],[102.48877303369751,2.390961405887669],[102.48944313723926,2.39087326188286],[102.4901077053072,2.390750198687678],[102.49076491636647,2.390592553600431],[102.49141296904722,2.390400758703529],[102.4920500870821,2.390175339679241],[102.49267452417487,2.389916914369055],[102.49328456878688,2.389626191080386],[102.49387854882819,2.389303966645294],[102.49445483624086,2.388951124236732],[102.49501185146114,2.388568630948022],[102.49554806774898,2.388157535142402],[102.49606201537289,2.38771896357974],[102.49655228563806,2.387254118328541],[102.49701753474784,2.386764273471363],[102.49745648748673,2.38625077161297],[102.49786794071579,2.385715020200575],[102.49825076667034,2.385158487666516],[102.49860391605102,2.384582699403535],[102.49892642089992,2.383989233584149],[102.4992173972537,2.383379716835164],[102.49947604756639,2.382755819779517],[102.49970166289542,2.382119252457354],[102.49989362484493,2.381471759639209],[102.50005140726049,2.380815116043805],[102.50017457767149,2.380151121473923],[102.5002627984764,2.379481595883294],[102.50031582786812,2.378808374388421],[102.50033352049677,2.378133302238635]],[[102.4188980468324,2.270172807968053],[102.41887935760268,2.269459655060602],[102.41882334113946,2.268748456505367],[102.41873015097991,2.268041161652583],[102.41860004255182,2.267339709155515],[102.41843337247333,2.266646021656696],[102.41823059757557,2.265962000517984],[102.41799227365038,2.265289520608861],[102.41771905392714,2.264630425167465],[102.41741168728208,2.26398652074817],[102.41707101618583,2.263359572269709],[102.41669797439418,2.262751298177446],[102.41629358438873,2.262163365733003],[102.41585895457439,2.261597386444102],[102.41539527624128,2.261054911647242],[102.41490382029947,2.260537428255388],[102.41438593379554,2.260046354682052],[102.41384303622041,2.259583036953241],[102.41327661561857,2.259148745017838],[102.41268822450955,2.258744669266433],[102.41207947563245,2.258371917268238],[102.41145203752566,2.258031510735087],[102.4108076299534,2.257724382720656],[102.41014801919202,2.257451375062875],[102.4094750131888,2.257213236076147],[102.40879045660638,2.257010618500188],[102.40809622576683,2.256844077710646],[102.40739422350852,2.256714070196721],[102.40668637397096,2.256620952309806],[102.40597461732047,2.256564979286655],[102.40526090443252,2.256546304549745],[102.40454719154461,2.256564979286655],[102.40383543489412,2.256620952309806],[102.40312758535654,2.256714070196721],[102.40242558309825,2.256844077710646],[102.40173135225868,2.257010618500188],[102.40104679567627,2.257213236076147],[102.40037378967304,2.257451375062875],[102.39971417891167,2.257724382720656],[102.3990697713394,2.258031510735087],[102.39844233323261,2.258371917268238],[102.39783358435551,2.258744669266433],[102.39724519324649,2.259148745017838],[102.39667877264463,2.259583036953241],[102.39613587506952,2.260046354682052],[102.39561798856559,2.260537428255388],[102.39512653262379,2.261054911647242],[102.39466285429067,2.261597386444102],[102.39422822447634,2.262163365733003],[102.3938238344709,2.262751298177446],[102.39345079267923,2.263359572269709],[102.39311012158298,2.26398652074817],[102.39280275493792,2.264630425167465],[102.39252953521468,2.265289520608861],[102.39229121128949,2.265962000517984],[102.39208843639173,2.266646021656696],[102.39192176631326,2.267339709155515],[102.39179165788515,2.268041161652583],[102.39169846772562,2.268748456505367],[102.39164245126238,2.269459655060602],[102.39162376203267,2.270172807968053],[102.39164245126238,2.27088596052362],[102.39169846772562,2.271597158027046],[102.39179165788515,2.272304451139621],[102.39192176631326,2.273005901227138],[102.39208843639173,2.273699585673478],[102.39229121128949,2.274383603150226],[102.39252953521468,2.275056078828003],[102.39280275493792,2.275715169515042],[102.39311012158298,2.27635906870908],[102.39345079267923,2.276986011548608],[102.3938238344709,2.277594279650042],[102.39422822447634,2.278182205817406],[102.39466285429067,2.278748178611754],[102.39512653262379,2.279290646767718],[102.39561798856559,2.279808123445116],[102.39613587506952,2.280299190304021],[102.39667877264463,2.280762501391949],[102.39724519324649,2.281196786832786],[102.39783358435551,2.281600856307112],[102.39844233323261,2.281973602314477],[102.3990697713394,2.282314003208697],[102.39971417891167,2.282621125997845],[102.40037378967304,2.282894128901295],[102.40104679567627,2.283132263656676],[102.40173135225868,2.283334877570659],[102.40242558309825,2.28350141530772],[102.40312758535654,2.283631420412109],[102.40383543489412,2.283724536558815],[102.40454719154461,2.283780508530143],[102.40526090443252,2.28379918291517],[102.40597461732047,2.283780508530143],[102.40668637397096,2.283724536558815],[102.40739422350852,2.283631420412109],[102.40809622576683,2.28350141530772],[102.40879045660638,2.283334877570659],[102.4094750131888,2.283132263656676],[102.41014801919202,2.282894128901295],[102.4108076299534,2.282621125997845],[102.41145203752566,2.282314003208697],[102.41207947563245,2.281973602314477],[102.41268822450955,2.281600856307112],[102.41327661561857,2.281196786832786],[102.41384303622041,2.280762501391949],[102.41438593379554,2.280299190304021],[102.41490382029947,2.279808123445116],[102.41539527624128,2.279290646767718],[102.41585895457439,2.278748178611754],[102.41629358438873,2.278182205817406],[102.41669797439418,2.277594279650042],[102.41707101618583,2.276986011548608],[102.41741168728208,2.27635906870908],[102.41771905392714,2.275715169515042],[102.41799227365038,2.275056078828003],[102.41823059757557,2.274383603150226],[102.41843337247333,2.273699585673478],[102.41860004255182,2.273005901227138],[102.41873015097991,2.272304451139621],[102.41882334113946,2.271597158027046],[102.41887935760268,2.27088596052362],[102.4188980468324,2.270172807968053]],[[102.41141815858442,2.173485575152101],[102.41140032872683,2.172805170060724],[102.41134688802438,2.172126629607111],[102.41125798295442,2.171451813627328],[102.41113385719946,2.1707825717514],[102.41097485097966,2.170120738333476],[102.41078140011994,2.169468127423975],[102.41055403485574,2.168826527797191],[102.41029337837935,2.168197698048308],[102.41000014513213,2.167583361773009],[102.40967513884598,2.16698520284306],[102.40931925034059,2.166404860790697],[102.40893345508157,2.165843926314572],[102.40851881050695,2.165303936919562],[102.40807645312863,2.164786372702269],[102.40760759541747,2.164292652293959],[102.40711352247989,2.163824128971924],[102.40659558853544,2.163382086949972],[102.40605521320504,2.162967737858275],[102.40549387761995,2.162582217422043],[102.40491312036198,2.16222658234837],[102.4043145332464,2.161901807429622],[102.4036997569589,2.16160878287135],[102.40307047655853,2.161348311852157],[102.40242841685912,2.161121108321892],[102.40177533770172,2.160927795044711],[102.40111302913087,2.160768901891916],[102.40044330648833,2.160644864389442],[102.39976800543731,2.160556022524068],[102.39908897693107,2.160502619811337],[102.39840808213954,2.160484802628111],[102.39772718734801,2.160502619811337],[102.39704815884177,2.160556022524068],[102.39637285779077,2.160644864389442],[102.39570313514821,2.160768901891916],[102.39504082657737,2.160927795044711],[102.39438774741997,2.161121108321892],[102.39374568772055,2.161348311852157],[102.39311640732019,2.16160878287135],[102.39250163103269,2.161901807429622],[102.39190304391708,2.16222658234837],[102.39132228665913,2.162582217422043],[102.39076095107404,2.162967737858275],[102.39022057574365,2.163382086949972],[102.3897026417992,2.163824128971924],[102.3892085688616,2.164292652293959],[102.38873971115045,2.164786372702269],[102.38829735377215,2.165303936919562],[102.38788270919751,2.165843926314572],[102.38749691393849,2.166404860790697],[102.3871410254331,2.16698520284306],[102.38681601914696,2.167583361773009],[102.38652278589974,2.168197698048308],[102.38626212942336,2.168826527797191],[102.38603476415913,2.169468127423975],[102.38584131329942,2.170120738333476],[102.38568230707962,2.1707825717514],[102.38555818132467,2.171451813627328],[102.38546927625468,2.172126629607111],[102.38541583555225,2.172805170060724],[102.38539800569465,2.173485575152101],[102.38541583555225,2.174165979936821],[102.38546927625468,2.174844519473812],[102.38555818132467,2.175519333937068],[102.38568230707962,2.176188573713168],[102.38584131329942,2.176850404470965],[102.38603476415913,2.1775030121892],[102.38626212942336,2.178144608128525],[102.38652278589974,2.178773433734176],[102.38681601914696,2.179387765455849],[102.3871410254331,2.179985919471676],[102.38749691393849,2.180566256303259],[102.38788270919751,2.181127185309136],[102.38829735377215,2.181667169044388],[102.38873971115045,2.182184727474394],[102.3892085688616,2.182678442031322],[102.3897026417992,2.183146959501977],[102.39022057574365,2.183588995736629],[102.39076095107404,2.184003339168568],[102.39132228665913,2.184388854134564],[102.39190304391708,2.184744483987458],[102.39250163103269,2.185069253992084],[102.39311640732019,2.185362273996718],[102.39374568772055,2.185622740872691],[102.39438774741997,2.185849940715498],[102.39504082657737,2.186043250801411],[102.39570313514821,2.186202141294079],[102.39637285779077,2.186326176696726],[102.39704815884177,2.186415017045573],[102.39772718734801,2.186468418841693],[102.39840808213954,2.18648623571825],[102.39908897693107,2.186468418841693],[102.39976800543731,2.186415017045573],[102.40044330648833,2.186326176696726],[102.40111302913087,2.186202141294079],[102.40177533770172,2.186043250801411],[102.40242841685912,2.185849940715498],[102.40307047655853,2.185622740872691],[102.4036997569589,2.185362273996718],[102.4043145332464,2.185069253992084],[102.40491312036198,2.184744483987458],[102.40549387761995,2.184388854134564],[102.40605521320504,2.184003339168568],[102.40659558853544,2.183588995736629],[102.40711352247989,2.183146959501977],[102.40760759541747,2.182678442031322],[102.40807645312863,2.182184727474394],[102.40851881050695,2.181667169044388],[102.40893345508157,2.181127185309136],[102.40931925034059,2.180566256303259],[102.40967513884598,2.179985919471676],[102.41000014513213,2.179387765455849],[102.41029337837935,2.178773433734176],[102.41055403485574,2.178144608128525],[102.41078140011994,2.1775030121892],[102.41097485097966,2.176850404470965],[102.41113385719946,2.176188573713168],[102.41125798295442,2.175519333937068],[102.41134688802438,2.174844519473812],[102.41140032872683,2.174165979936821],[102.41141815858442,2.173485575152101]],[[102.48465677257506,2.163497346676952],[102.4846397862664,2.162849127980621],[102.4845888738987,2.162202685730831],[102.48450417501924,2.161559791784381],[102.48438592178174,2.160922208274552],[102.48423443831011,2.160291682781313],[102.48405013981002,2.159669943541132],[102.48383353143086,2.159058694709968],[102.48358520688112,2.158459611692094],[102.48330584680113,2.157874336547832],[102.48299621689748,2.157304473492579],[102.48265716584416,2.156751584499613],[102.4822896229566,2.1562171850186],[102.48189459564426,2.155702739821645],[102.4814731666496,2.155209658988252],[102.48102649108013,2.154739294040148],[102.4805557932426,2.154292934236622],[102.48006236328703,2.153871803040512],[102.47954755367063,2.153477054764561],[102.47901277545081,2.153109771407302],[102.47845949441745,2.152770959687089],[102.47788922707544,2.152461548282595],[102.47730353648791,2.15218238528711],[102.47670402799206,2.151934235883848],[102.47609234479899,2.151717780248358],[102.47547016348982,2.15153361168411],[102.4748391894203,2.15138223499611],[102.47420115204643,2.151264065107155],[102.47355780018437,2.151179425920468],[102.4729108972168,2.151128549431738],[102.47226221625985,2.15111157509329],[102.4716135353029,2.151128549431738],[102.47096663233533,2.151179425920468],[102.47032328047325,2.151264065107155],[102.46968524309942,2.15138223499611],[102.46905426902988,2.15153361168411],[102.4684320877207,2.151717780248358],[102.46782040452764,2.151934235883848],[102.46722089603178,2.15218238528711],[102.46663520544425,2.152461548282595],[102.46606493810224,2.152770959687089],[102.46551165706889,2.153109771407302],[102.46497687884906,2.153477054764561],[102.46446206923265,2.153871803040512],[102.4639686392771,2.154292934236622],[102.46349794143956,2.154739294040148],[102.4630512658701,2.155209658988252],[102.46262983687542,2.155702739821645],[102.46223480956309,2.1562171850186],[102.46186726667553,2.156751584499613],[102.46152821562222,2.157304473492579],[102.46121858571856,2.157874336547832],[102.46093922563857,2.158459611692094],[102.46069090108882,2.159058694709968],[102.46047429270968,2.159669943541132],[102.46028999420959,2.160291682781313],[102.46013851073795,2.160922208274552],[102.46002025750046,2.161559791784381],[102.45993555862098,2.162202685730831],[102.45988464625329,2.162849127980621],[102.45986765994462,2.163497346676952],[102.45988464625329,2.164145565096232],[102.45993555862098,2.164792006517895],[102.46002025750046,2.165434899094239],[102.46013851073795,2.166072480706968],[102.46028999420959,2.166703003796904],[102.46047429270968,2.167324740153924],[102.46069090108882,2.167935985653649],[102.46093922563857,2.168535064928302],[102.46121858571856,2.16912033595858],[102.46152821562222,2.169690194574148],[102.46186726667553,2.170243078850377],[102.46223480956309,2.170777473389292],[102.46262983687542,2.171291913472907],[102.4630512658701,2.171784989077761],[102.46349794143956,2.172255348739415],[102.4639686392771,2.172701703256489],[102.46446206923265,2.17312282922406],[102.46497687884906,2.173517572386672],[102.46551165706889,2.173884850801832],[102.46606493810224,2.17422365780532],[102.46663520544425,2.174533064770129],[102.46722089603178,2.174812223651617],[102.46782040452764,2.175060369311659],[102.4684320877207,2.175276821615709],[102.46905426902988,2.175460987296809],[102.46968524309942,2.175612361581506],[102.47032328047325,2.175730529573362],[102.47096663233533,2.175815167389942],[102.4716135353029,2.175866043050545],[102.47226221625985,2.175883017111941],[102.4729108972168,2.175866043050545],[102.47355780018437,2.175815167389942],[102.47420115204643,2.175730529573362],[102.4748391894203,2.175612361581506],[102.47547016348982,2.175460987296809],[102.47609234479899,2.175276821615709],[102.47670402799206,2.175060369311659],[102.47730353648791,2.174812223651617],[102.47788922707544,2.174533064770129],[102.47845949441745,2.17422365780532],[102.47901277545081,2.173884850801832],[102.47954755367063,2.173517572386672],[102.48006236328703,2.17312282922406],[102.4805557932426,2.172701703256489],[102.48102649108013,2.172255348739415],[102.4814731666496,2.171784989077761],[102.48189459564426,2.171291913472907],[102.4822896229566,2.170777473389292],[102.48265716584416,2.170243078850377],[102.48299621689748,2.169690194574148],[102.48330584680113,2.16912033595858],[102.48358520688112,2.168535064928302],[102.48383353143086,2.167935985653649],[102.48405013981002,2.167324740153924],[102.48423443831011,2.166703003796904],[102.48438592178174,2.166072480706968],[102.48450417501924,2.165434899094239],[102.4845888738987,2.164792006517895],[102.4846397862664,2.164145565096232],[102.48465677257506,2.163497346676952]],[[102.23536224104747,2.302843087510346],[102.23534128664991,2.302043517380114],[102.23527848089176,2.301246138369319],[102.23517399591927,2.300453136044061],[102.23502811811844,2.299666683977864],[102.2348412473302,2.298888937793916],[102.2346138957544,2.298122029256562],[102.23434668654592,2.297368060428055],[102.23404035210659,2.296629097906825],[102.23369573207786,2.295907167162711],[102.23331377103922,2.295204246985136],[102.23289551591938,2.294522264058965],[102.23244211312652,2.293863087683369],[102.23195480540618,2.293228524647826],[102.23143492843498,2.292620314279464],[102.23088390715951,2.292040123675332],[102.23030325189082,2.291489543132605],[102.22969455416465,2.290970081789341],[102.22905948237913,2.290483163487621],[102.22839977722188,2.290030122870541],[102.2277172468989,2.289612201723681],[102.22701376217837,2.289230545571059],[102.22629125126298,2.288886200535049],[102.22555169450496,2.288580110468672],[102.22479711897793,2.2883131143683],[102.22402959292103,2.288085944073711],[102.22325122006977,2.287899222261955],[102.22246413389009,2.287753460740411],[102.2216704917304,2.287649059043831],[102.22087246890881,2.287586303339061],[102.22007225275034,2.287565365640612],[102.21927203659186,2.287586303339061],[102.21847401377026,2.287649059043831],[102.2176803716106,2.287753460740411],[102.2168932854309,2.287899222261955],[102.21611491257964,2.288085944073711],[102.21534738652274,2.2883131143683],[102.21459281099571,2.288580110468672],[102.2138532542377,2.288886200535049],[102.2131307433223,2.289230545571059],[102.21242725860176,2.289612201723681],[102.2117447282788,2.290030122870541],[102.21108502312154,2.290483163487621],[102.21044995133605,2.290970081789341],[102.20984125360985,2.291489543132605],[102.20926059834116,2.292040123675332],[102.2087095770657,2.292620314279464],[102.2081897000945,2.293228524647826],[102.20770239237416,2.293863087683369],[102.2072489895813,2.294522264058965],[102.20683073446145,2.295204246985136],[102.20644877342282,2.295907167162711],[102.20610415339408,2.296629097906825],[102.20579781895475,2.297368060428055],[102.20553060974626,2.298122029256562],[102.20530325817047,2.298888937793916],[102.20511638738223,2.299666683977864],[102.20497050958141,2.300453136044061],[102.20486602460892,2.301246138369319],[102.20480321885076,2.302043517380114],[102.2047822644532,2.302843087510346],[102.20480321885076,2.303642657191865],[102.20486602460892,2.304440034861445],[102.20497050958141,2.305233034967669],[102.20511638738223,2.306019483961348],[102.20530325817047,2.306797226252946],[102.20553060974626,2.307564130120749],[102.20579781895475,2.308318093553674],[102.20610415339408,2.309057050012437],[102.20644877342282,2.309778974093568],[102.20683073446145,2.310481887080672],[102.2072489895813,2.311163862367672],[102.20770239237416,2.311823030739072],[102.2081897000945,2.3124575854931],[102.2087095770657,2.313065787393374],[102.20926059834116,2.313645969435606],[102.20984125360985,2.314196541416432],[102.21044995133605,2.31471599429161],[102.21108502312154,2.315202904311814],[102.2117447282788,2.315655936924697],[102.21242725860176,2.316073850432399],[102.2131307433223,2.31645549939455],[102.2138532542377,2.316799837767578],[102.21459281099571,2.317105921771462],[102.21534738652274,2.317372912476265],[102.21611491257964,2.317600078101303],[102.2168932854309,2.317786796020709],[102.2176803716106,2.317932554469735],[102.21847401377026,2.318036953947293],[102.21927203659186,2.318099708310849],[102.22007225275034,2.318120645560585],[102.22087246890881,2.318099708310849],[102.2216704917304,2.318036953947293],[102.22246413389009,2.317932554469735],[102.22325122006977,2.317786796020709],[102.22402959292103,2.317600078101303],[102.22479711897793,2.317372912476265],[102.22555169450496,2.317105921771462],[102.22629125126298,2.316799837767578],[102.22701376217837,2.31645549939455],[102.2277172468989,2.316073850432399],[102.22839977722188,2.315655936924697],[102.22905948237913,2.315202904311814],[102.22969455416465,2.31471599429161],[102.23030325189082,2.314196541416432],[102.23088390715951,2.313645969435606],[102.23143492843498,2.313065787393374],[102.23195480540618,2.3124575854931],[102.23244211312652,2.311823030739072],[102.23289551591938,2.311163862367672],[102.23331377103922,2.310481887080672],[102.23369573207786,2.309778974093568],[102.23404035210659,2.309057050012437],[102.23434668654592,2.308318093553674],[102.2346138957544,2.307564130120749],[102.2348412473302,2.306797226252946],[102.23502811811844,2.306019483961348],[102.23517399591927,2.305233034967669],[102.23527848089176,2.304440034861445],[102.23534128664991,2.303642657191865],[102.23536224104747,2.302843087510346]],[[102.3087313379423,2.272522459932834],[102.30871148937902,2.271765069819351],[102.30865199809273,2.271009755263973],[102.30855302714487,2.270258586536408],[102.30841484780795,2.269513622546107],[102.30823783882195,2.268776905198883],[102.30802248535616,2.268050453800026],[102.30776937767949,2.26733625951942],[102.30747920954246,2.266636279933599],[102.3071527762758,2.265952433660079],[102.30679097261037,2.265286595098216],[102.30639479022489,2.264640589291404],[102.30596531502773,2.264016186924406],[102.30550372418057,2.263415099469803],[102.30501128287179,2.262838974496612],[102.30448934084883,2.262289391154046],[102.30393932871851,2.261767855842917],[102.30336275402581,2.261275798086284],[102.3027611971219,2.260814566610956],[102.30213630683245,2.260385425650346],[102.3014897959383,2.259989551478966],[102.30082343648084,2.259628029188082],[102.30013905490509,2.259301849711171],[102.29943852705333,2.259011907107599],[102.29872377302372,2.258758996111839],[102.29799675190739,2.258543809954853],[102.29725945641864,2.258366938463829],[102.29651390743321,2.258228866445297],[102.29576214844901,2.258129972356155],[102.29500623998518,2.258070527266276],[102.29424825393428,2.258050694115347],[102.29349026788339,2.258070527266276],[102.29273435941954,2.258129972356155],[102.29198260043535,2.258228866445297],[102.29123705144991,2.258366938463829],[102.29049975596118,2.258543809954853],[102.28977273484483,2.258758996111839],[102.28905798081523,2.259011907107599],[102.28835745296348,2.259301849711171],[102.28767307138772,2.259628029188082],[102.28700671193026,2.259989551478966],[102.28636020103612,2.260385425650346],[102.28573531074666,2.260814566610956],[102.28513375384274,2.261275798086284],[102.28455717915004,2.261767855842917],[102.28400716701972,2.262289391154046],[102.28348522499677,2.262838974496612],[102.28299278368802,2.263415099469803],[102.28253119284084,2.264016186924406],[102.28210171764367,2.264640589291404],[102.2817055352582,2.265286595098216],[102.28134373159277,2.265952433660079],[102.28101729832609,2.266636279933599],[102.28072713018908,2.26733625951942],[102.28047402251241,2.268050453800026],[102.28025866904663,2.268776905198883],[102.28008166006062,2.269513622546107],[102.27994348072369,2.270258586536408],[102.27984450977584,2.271009755263973],[102.27978501848955,2.271765069819351],[102.27976516992626,2.272522459932834],[102.27978501848955,2.273279849649014],[102.27984450977584,2.274035163016824],[102.27994348072369,2.274786329779557],[102.28008166006062,2.275531291049288],[102.28025866904663,2.276268004950024],[102.28047402251241,2.276994452214224],[102.28072713018908,2.277708641717345],[102.28101729832609,2.27840861593514],[102.28134373159277,2.279092456308921],[102.2817055352582,2.279758288503988],[102.28210171764367,2.280404287546702],[102.28253119284084,2.281028682826381],[102.28299278368802,2.281629762948113],[102.28348522499677,2.282205880423236],[102.28400716701972,2.282755456184669],[102.28455717915004,2.28327698391468],[102.28513375384274,2.283769034173231],[102.28573531074666,2.284230258315701],[102.28636020103612,2.284659392189005],[102.28700671193026,2.285055259596274],[102.28767307138772,2.285416775520375],[102.28835745296348,2.28574294909756],[102.28905798081523,2.286032886333094],[102.28977273484483,2.286285792551343],[102.29049975596118,2.286500974573683],[102.29123705144991,2.28667784261822],[102.29198260043535,2.286815911916195],[102.29273435941954,2.286914804040505],[102.29349026788339,2.286974247942803],[102.29424825393428,2.28699408069643],[102.29500623998518,2.286974247942803],[102.29576214844901,2.286914804040505],[102.29651390743321,2.286815911916195],[102.29725945641864,2.28667784261822],[102.29799675190739,2.286500974573683],[102.29872377302372,2.286285792551343],[102.29943852705333,2.286032886333094],[102.30013905490509,2.28574294909756],[102.30082343648084,2.285416775520375],[102.3014897959383,2.285055259596274],[102.30213630683245,2.284659392189005],[102.3027611971219,2.284230258315701],[102.30336275402581,2.283769034173231],[102.30393932871851,2.28327698391468],[102.30448934084883,2.282755456184669],[102.30501128287179,2.282205880423236],[102.30550372418057,2.281629762948113],[102.30596531502773,2.281028682826381],[102.30639479022489,2.280404287546702],[102.30679097261037,2.279758288503988],[102.3071527762758,2.279092456308921],[102.30747920954246,2.27840861593514],[102.30776937767949,2.277708641717345],[102.30802248535616,2.276994452214224],[102.30823783882195,2.276268004950024],[102.30841484780795,2.275531291049288],[102.30855302714487,2.274786329779557],[102.30865199809273,2.274035163016824],[102.30871148937902,2.273279849649014],[102.3087313379423,2.272522459932834]],[[102.36043642501271,2.196628694474576],[102.36041818966345,2.195932826138455],[102.36036353359754,2.195238864806332],[102.36027260662341,2.194548712582066],[102.36014565796563,2.193864261131608],[102.35998303558162,2.193187386498025],[102.35978518520803,2.192519943959244],[102.35955264913899,2.19186376294281],[102.35928606473969,2.191220642011329],[102.35898616269944,2.19059234393263],[102.35865376502888,2.18998059084784],[102.35828978280693,2.189387059551011],[102.35789521368358,2.188813376892821],[102.35747113914535,2.1882611153213],[102.35701872155106,2.187731788571551],[102.35653920094589,2.187226847516492],[102.35603389166252,2.186747676189784],[102.35550417871855,2.18629558799208],[102.35495151402034,2.185871822090717],[102.35437741238341,2.185477540023092],[102.35378344738045,2.185113822512565],[102.35317124702824,2.184781666506139],[102.3525424893254,2.184481982441574],[102.3518988976531,2.184215591751732],[102.35124223605132,2.183983224612887],[102.35057430438393,2.18378551794311],[102.34989693340519,2.183623013656441],[102.34921197974185,2.183496157177311],[102.34852132080432,2.183405296219581],[102.3478268496407,2.183350679833366],[102.34713046974821,2.18333245772235],[102.3464340898557,2.183350679833366],[102.3457396186921,2.183405296219581],[102.34504895975455,2.183496157177311],[102.34436400609123,2.183623013656441],[102.34368663511248,2.18378551794311],[102.34301870344508,2.183983224612887],[102.34236204184333,2.184215591751732],[102.34171845017102,2.184481982441574],[102.34108969246816,2.184781666506139],[102.34047749211595,2.185113822512565],[102.339883527113,2.185477540023092],[102.33930942547607,2.185871822090717],[102.33875676077785,2.18629558799208],[102.3382270478339,2.186747676189784],[102.33772173855051,2.187226847516492],[102.33724221794536,2.187731788571551],[102.33678980035107,2.1882611153213],[102.33636572581283,2.188813376892821],[102.33597115668948,2.189387059551011],[102.33560717446753,2.18998059084784],[102.33527477679698,2.19059234393263],[102.33497487475672,2.191220642011329],[102.33470829035741,2.19186376294281],[102.33447575428838,2.192519943959244],[102.33427790391478,2.193187386498025],[102.33411528153077,2.193864261131608],[102.33398833287299,2.194548712582066],[102.33389740589888,2.195238864806332],[102.33384274983297,2.195932826138455],[102.33382451448371,2.196628694474576],[102.33384274983297,2.197324562486509],[102.33389740589888,2.198018522849657],[102.33398833287299,2.198708673470771],[102.33411528153077,2.199393122701469],[102.33427790391478,2.200069994522996],[102.33447575428838,2.200737433688227],[102.33470829035741,2.201393610806598],[102.33497487475672,2.202036727358175],[102.33527477679698,2.202665020623156],[102.33560717446753,2.203276768513133],[102.33597115668948,2.203870294290987],[102.33636572581283,2.204443971166496],[102.33678980035107,2.204996226754974],[102.33724221794536,2.205525547386888],[102.33772173855051,2.20603048225634],[102.3382270478339,2.20650964739743],[102.33875676077785,2.206961729477311],[102.33930942547607,2.207385489395632],[102.339883527113,2.207779765680575],[102.34047749211595,2.208143477672114],[102.34108969246816,2.208475628483727],[102.34171845017102,2.208775307734574],[102.34236204184333,2.209041694044525],[102.34301870344508,2.209274057285321],[102.34368663511248,2.209471760581547],[102.34436400609123,2.209634262056147],[102.34504895975455,2.209761116315504],[102.3457396186921,2.209851975670083],[102.3464340898557,2.209906591087335],[102.34713046974821,2.209924812874188],[102.3478268496407,2.209906591087335],[102.34852132080432,2.209851975670083],[102.34921197974185,2.209761116315504],[102.34989693340519,2.209634262056147],[102.35057430438393,2.209471760581547],[102.35124223605132,2.209274057285321],[102.3518988976531,2.209041694044525],[102.3525424893254,2.208775307734574],[102.35317124702824,2.208475628483727],[102.35378344738045,2.208143477672114],[102.35437741238341,2.207779765680575],[102.35495151402034,2.207385489395632],[102.35550417871855,2.206961729477311],[102.35603389166252,2.20650964739743],[102.35653920094589,2.20603048225634],[102.35701872155106,2.205525547386888],[102.35747113914535,2.204996226754974],[102.35789521368358,2.204443971166496],[102.35828978280693,2.203870294290987],[102.35865376502888,2.203276768513133],[102.35898616269944,2.202665020623156],[102.35928606473969,2.202036727358175],[102.35955264913899,2.201393610806598],[102.35978518520803,2.200737433688227],[102.35998303558162,2.200069994522996],[102.36014565796563,2.199393122701469],[102.36027260662341,2.198708673470771],[102.36036353359754,2.198018522849657],[102.36041818966345,2.197324562486509],[102.36043642501271,2.196628694474576]],[[102.15692261165962,2.265725995672455],[102.15690407502413,2.265018663357775],[102.15684851592522,2.264313269447832],[102.15675608664657,2.26361174738267],[102.15662704053038,2.262916019992601],[102.15646173128309,2.262227994227871],[102.15626061200587,2.261549555931651],[102.15602423395265,2.260882564670997],[102.15575324501928,2.26022884863972],[102.15544838796757,2.259590199647241],[102.15511049838949,2.258968368207131],[102.15474050241693,2.258365058738914],[102.1543394141831,2.257781924896069],[102.15390833304298,2.257220565033184],[102.15344844056001,2.256682517824807],[102.15296099726753,2.256169258047641],[102.15244733921371,2.255682192538095],[102.15190887429956,2.255222656335829],[102.15134707842,2.254791909024359],[102.15076349141849,2.254391131278205],[102.15015971286644,2.254021421626513],[102.14953739767884,2.253683793441815],[102.14889825157844,2.253379172162117],[102.14824402642022,2.25310839275414],[102.1475765153899,2.252872197424505],[102.1468975480888,2.252671233585154],[102.14620898551908,2.252506052078693],[102.1455127149829,2.252377105668392],[102.14481064490938,2.252284747797066],[102.14410469962387,2.252229231618192],[102.14339681407323,2.252210709301961],[102.14268892852259,2.252229231618192],[102.14198298323706,2.252284747797066],[102.14128091316356,2.252377105668392],[102.14058464262737,2.252506052078693],[102.13989608005765,2.252671233585154],[102.13921711275654,2.252872197424505],[102.13854960172623,2.25310839275414],[102.13789537656801,2.253379172162117],[102.1372562304676,2.253683793441815],[102.13663391528002,2.254021421626513],[102.13603013672795,2.254391131278205],[102.13544654972645,2.254791909024359],[102.13488475384688,2.255222656335829],[102.13434628893275,2.255682192538095],[102.13383263087891,2.256169258047641],[102.13334518758643,2.256682517824807],[102.13288529510346,2.257220565033184],[102.13245421396334,2.257781924896069],[102.13205312572951,2.258365058738914],[102.13168312975696,2.258968368207131],[102.13134524017889,2.259590199647241],[102.13104038312716,2.26022884863972],[102.13076939419378,2.260882564670997],[102.13053301614057,2.261549555931651],[102.13033189686337,2.262227994227871],[102.13016658761607,2.262916019992601],[102.13003754149989,2.26361174738267],[102.12994511222122,2.264313269447832],[102.12988955312231,2.265018663357775],[102.12987101648682,2.265725995672455],[102.12988955312231,2.266433327641638],[102.12994511222122,2.267138720518894],[102.13003754149989,2.2678402408755],[102.13016658761607,2.268535965899834],[102.13033189686337,2.269223988667604],[102.13053301614057,2.269902423368448],[102.13076939419378,2.270569410474713],[102.13104038312716,2.271223121838106],[102.13134524017889,2.271861765700351],[102.13168312975696,2.272483591604056],[102.13205312572951,2.273086895190397],[102.13245421396334,2.273670022870319],[102.13288529510346,2.274231376356739],[102.13334518758643,2.274769417045018],[102.13383263087891,2.275282670229835],[102.13434628893275,2.275769729147057],[102.13488475384688,2.2762292588292],[102.13544654972645,2.276659999764229],[102.13603013672795,2.277060771347461],[102.13663391528002,2.277430475117264],[102.1372562304676,2.277768097765571],[102.13789537656801,2.278072713915035],[102.13854960172623,2.278343488655114],[102.13921711275654,2.278579679830373],[102.13989608005765,2.278780640074349],[102.14058464262737,2.278945818583836],[102.14128091316356,2.279074762628415],[102.14198298323706,2.279167118791173],[102.14268892852259,2.279222633937371],[102.14339681407323,2.279241155908105],[102.14410469962387,2.279222633937371],[102.14481064490938,2.279167118791173],[102.1455127149829,2.279074762628415],[102.14620898551908,2.278945818583836],[102.1468975480888,2.278780640074349],[102.1475765153899,2.278579679830373],[102.14824402642022,2.278343488655114],[102.14889825157844,2.278072713915035],[102.14953739767884,2.277768097765571],[102.15015971286644,2.277430475117264],[102.15076349141849,2.277060771347461],[102.15134707842,2.276659999764229],[102.15190887429956,2.2762292588292],[102.15244733921371,2.275769729147057],[102.15296099726753,2.275282670229835],[102.15344844056001,2.274769417045018],[102.15390833304298,2.274231376356739],[102.1543394141831,2.273670022870319],[102.15474050241693,2.273086895190397],[102.15511049838949,2.272483591604056],[102.15544838796757,2.271861765700351],[102.15575324501928,2.271223121838106],[102.15602423395265,2.270569410474713],[102.15626061200587,2.269902423368448],[102.15646173128309,2.269223988667604],[102.15662704053038,2.268535965899834],[102.15675608664657,2.2678402408755],[102.15684851592522,2.267138720518894],[102.15690407502413,2.266433327641638],[102.15692261165962,2.265725995672455]],[[102.20752740796726,2.238842022480366],[102.2075086649245,2.238126800753133],[102.20745248716965,2.237413539051425],[102.20735902868202,2.236704192380413],[102.20722854562479,2.236000705017181],[102.20706139564298,2.235305005181618],[102.20685803688308,2.234618999751136],[102.2066190267373,2.233944569033927],[102.20634502031584,2.233283561615023],[102.20603676865127,2.232637789289194],[102.20569511663994,2.232009022094849],[102.2053210007263,2.231398983462119],[102.20491544633606,2.230809345488904],[102.20447956506558,2.230241724357449],[102.20401455163518,2.229697675904255],[102.20352168061432,2.229178691355296],[102.20300230292818,2.228686193238451],[102.20245784215496,2.228221531484074],[102.20188979062374,2.227785979724727],[102.20129970532432,2.227380731803837],[102.20068920363946,2.227006898503283],[102.20005995891185,2.226665504498433],[102.19941369585757,2.226357485549404],[102.1987521858387,2.226083685935899],[102.19807724200825,2.225844856142885],[102.19739071434032,2.225641650803398],[102.19669448455954,2.225474626903961],[102.19599046098337,2.225344242257851],[102.19528057329144,2.225250854250066],[102.1945667672366,2.225194718857702],[102.19385099931164,2.225175989948224],[102.19313523138669,2.225194718857702],[102.19242142533184,2.225250854250066],[102.19171153763993,2.225344242257851],[102.19100751406374,2.225474626903961],[102.19031128428297,2.225641650803398],[102.18962475661503,2.225844856142885],[102.1889498127846,2.226083685935899],[102.18828830276571,2.226357485549404],[102.18764203971145,2.226665504498433],[102.18701279498384,2.227006898503283],[102.18640229329897,2.227380731803837],[102.18581220799955,2.227785979724727],[102.18524415646834,2.228221531484074],[102.1846996956951,2.228686193238451],[102.18418031800897,2.229178691355296],[102.18368744698812,2.229697675904255],[102.1832224335577,2.230241724357449],[102.18278655228723,2.230809345488904],[102.182380997897,2.231398983462119],[102.18200688198334,2.232009022094849],[102.18166522997203,2.232637789289194],[102.18135697830745,2.233283561615023],[102.18108297188598,2.233944569033927],[102.1808439617402,2.234618999751136],[102.1806406029803,2.235305005181618],[102.1804734529985,2.236000705017181],[102.18034296994128,2.236704192380413],[102.18024951145364,2.237413539051425],[102.18019333369878,2.238126800753133],[102.18017459065602,2.238842022480366],[102.18019333369878,2.239557243858577],[102.18024951145364,2.240270504516962],[102.18034296994128,2.240979849461849],[102.1804734529985,2.241683334435008],[102.1806406029803,2.242379031242772],[102.1808439617402,2.243065033040895],[102.18108297188598,2.243739459560968],[102.18135697830745,2.244400462263974],[102.18166522997203,2.245046229406772],[102.18200688198334,2.245674991007781],[102.182380997897,2.246285023698114],[102.18278655228723,2.246874655445],[102.1832224335577,2.247442270134394],[102.18368744698812,2.247986312000405],[102.18418031800897,2.248505289889206],[102.1846996956951,2.248997781345893],[102.18524415646834,2.249462436513074],[102.18581220799955,2.249897981830385],[102.18640229329897,2.250303223524933],[102.18701279498384,2.250677050883104],[102.18764203971145,2.251018439294604],[102.18828830276571,2.251326453060614],[102.1889498127846,2.251600247958209],[102.18962475661503,2.2518390735541],[102.19031128428297,2.252042275261227],[102.19100751406374,2.252209296132853],[102.19171153763993,2.252339678388904],[102.19242142533184,2.252433064670551],[102.19313523138669,2.252489199019603],[102.19385099931164,2.252507927580035],[102.1945667672366,2.252489199019603],[102.19528057329144,2.252433064670551],[102.19599046098337,2.252339678388904],[102.19669448455954,2.252209296132853],[102.19739071434032,2.252042275261227],[102.19807724200825,2.2518390735541],[102.1987521858387,2.251600247958209],[102.19941369585757,2.251326453060614],[102.20005995891185,2.251018439294604],[102.20068920363946,2.250677050883104],[102.20129970532432,2.250303223524933],[102.20188979062374,2.249897981830385],[102.20245784215496,2.249462436513074],[102.20300230292818,2.248997781345893],[102.20352168061432,2.248505289889206],[102.20401455163518,2.247986312000405],[102.20447956506558,2.247442270134394],[102.20491544633606,2.246874655445],[102.2053210007263,2.246285023698114],[102.20569511663994,2.245674991007781],[102.20603676865127,2.245046229406772],[102.20634502031584,2.244400462263974],[102.2066190267373,2.243739459560968],[102.20685803688308,2.243065033040895],[102.20706139564298,2.242379031242772],[102.20722854562479,2.241683334435008],[102.20735902868202,2.240979849461849],[102.20745248716965,2.240270504516962],[102.2075086649245,2.239557243858577],[102.20752740796726,2.238842022480366]],[[102.3022847890367,2.216058190581394],[102.30226203365594,2.215189847298621],[102.30219382988456,2.214323883577463],[102.30208036466438,2.21346267297073],[102.30192194899564,2.212608576007368],[102.30171901708472,2.211763933722271],[102.30147212515386,2.210931061239539],[102.3011819499167,2.210112241426657],[102.30084928672338,2.209309718637049],[102.30047504738056,2.20852569255826],[102.30006025765232,2.207762312182366],[102.29960605444846,2.207021669915479],[102.29911368270837,2.206305795842156],[102.29858449198878,2.205616652160724],[102.29801993276466,2.204956127804655],[102.2974215524536,2.20432603326468],[102.29679099117446,2.203728095625907],[102.29612997725187,2.203163953833621],[102.29544032247901,2.202635154200545],[102.29472391715171,2.202143146168157],[102.29398272488717,2.201689278333396],[102.29321877724188,2.201274794751867],[102.2924341681432,2.200900831527574],[102.29163104815018,2.200568413698587],[102.29081161855883,2.200278452427156],[102.28997812536878,2.200031742501939],[102.28913285312686,2.19982896015933],[102.28827811866556,2.199670661229643],[102.28741626475265,2.199557279613459],[102.28654965366975,2.19948912609218],[102.28568066073764,2.199466387476065],[102.28481166780554,2.19948912609218],[102.28394505672264,2.199557279613459],[102.28308320280972,2.199670661229643],[102.28222846834844,2.19982896015933],[102.28138319610652,2.200031742501939],[102.28054970291645,2.200278452427156],[102.27973027332513,2.200568413698587],[102.27892715333208,2.200900831527574],[102.27814254423342,2.201274794751867],[102.27737859658814,2.201689278333396],[102.27663740432358,2.202143146168157],[102.27592099899628,2.202635154200545],[102.27523134422344,2.203163953833621],[102.27457033030083,2.203728095625907],[102.2739397690217,2.20432603326468],[102.27334138871065,2.204956127804655],[102.27277682948652,2.205616652160724],[102.27224763876693,2.206305795842156],[102.27175526702685,2.207021669915479],[102.27130106382296,2.207762312182366],[102.27088627409474,2.20852569255826],[102.27051203475193,2.209309718637049],[102.2701793715586,2.210112241426657],[102.26988919632143,2.210931061239539],[102.26964230439059,2.211763933722271],[102.26943937247965,2.212608576007368],[102.26928095681092,2.21346267297073],[102.26916749159075,2.214323883577463],[102.26909928781936,2.215189847298621],[102.26907653243858,2.216058190581394],[102.26909928781936,2.216926533354921],[102.26916749159075,2.217792495553903],[102.26928095681092,2.218653703642184],[102.26943937247965,2.21950779711845],[102.26964230439059,2.220352434985998],[102.26988919632143,2.221185302169125],[102.2701793715586,2.222004115858409],[102.27051203475193,2.22280663176751],[102.27088627409474,2.223590650284288],[102.27130106382296,2.22435402249949],[102.27175526702685,2.225094656096439],[102.27224763876693,2.225810521085577],[102.27277682948652,2.226499655368062],[102.27334138871065,2.227160170113436],[102.2739397690217,2.227790254936244],[102.27457033030083,2.228388182857863],[102.27523134422344,2.228952315039455],[102.27592099899628,2.229481105273597],[102.27663740432358,2.229973104221773],[102.27737859658814,2.230426963386597],[102.27814254423342,2.230841438807446],[102.27892715333208,2.231215394469728],[102.27973027332513,2.231547805418209],[102.28054970291645,2.231837760566054],[102.28138319610652,2.232084465191653],[102.28222846834844,2.232287243116713],[102.28308320280972,2.232445538559304],[102.28394505672264,2.232558917657048],[102.28481166780554,2.232627069656139],[102.28568066073764,2.232649807762997],[102.28654965366975,2.232627069656139],[102.28741626475265,2.232558917657048],[102.28827811866556,2.232445538559304],[102.28913285312686,2.232287243116713],[102.28997812536878,2.232084465191653],[102.29081161855883,2.231837760566054],[102.29163104815018,2.231547805418209],[102.2924341681432,2.231215394469728],[102.29321877724188,2.230841438807446],[102.29398272488717,2.230426963386597],[102.29472391715171,2.229973104221773],[102.29544032247901,2.229481105273597],[102.29612997725187,2.228952315039455],[102.29679099117446,2.228388182857863],[102.2974215524536,2.227790254936244],[102.29801993276466,2.227160170113436],[102.29858449198878,2.226499655368062],[102.29911368270837,2.225810521085577],[102.29960605444846,2.225094656096439],[102.30006025765232,2.22435402249949],[102.30047504738056,2.223590650284288],[102.30084928672338,2.22280663176751],[102.3011819499167,2.222004115858409],[102.30147212515386,2.221185302169125],[102.30171901708472,2.220352434985998],[102.30192194899564,2.21950779711845],[102.30208036466438,2.218653703642184],[102.30219382988456,2.217792495553903],[102.30226203365594,2.216926533354921],[102.3022847890367,2.216058190581394]],[[102.23520702150813,2.212979899448702],[102.23518498293501,2.21213890774207],[102.23511892762185,2.211300220660373],[102.23500903662168,2.210466136992648],[102.23485561113807,2.209638942914094],[102.23465907169962,2.208820905719756],[102.23441995700729,2.20801426760986],[102.23413892245779,2.207221239543915],[102.23381673834733,2.206443995180353],[102.23345428776014,2.205684664918528],[102.23305256414805,2.204945330059023],[102.23261266860763,2.204228017098716],[102.23213580686192,2.203534692175904],[102.23162328595585,2.20286725568094],[102.23107651067359,2.202227537046943],[102.23049697968818,2.201617289735107],[102.22988628145377,2.201038186428173],[102.22924608985178,2.200491814445297],[102.22857815960289,2.19997967139093],[102.22788432145747,2.199503161049584],[102.22716647717763,2.199063589537769],[102.22642659432469,2.198662161723603],[102.22566670086613,2.198299977924061],[102.22488887961703,2.197978030888654],[102.22409526253145,2.197697203078168],[102.2232880248586,2.197458264245498],[102.22246937918084,2.19726186932563],[102.22164156934909,2.197108556640279],[102.22080686433254,2.196998746422168],[102.21996755199964,2.196932739663101],[102.21912593284715,2.19691071728883],[102.21828431369465,2.196932739663101],[102.21744500136175,2.196998746422168],[102.21661029634521,2.197108556640279],[102.21578248651346,2.19726186932563],[102.21496384083571,2.197458264245498],[102.21415660316286,2.197697203078168],[102.21336298607727,2.197978030888654],[102.21258516482817,2.198299977924061],[102.2118252713696,2.198662161723603],[102.21108538851666,2.199063589537769],[102.21036754423685,2.199503161049584],[102.20967370609142,2.19997967139093],[102.20900577584251,2.200491814445297],[102.20836558424052,2.201038186428173],[102.20775488600613,2.201617289735107],[102.20717535502071,2.202227537046943],[102.20662857973845,2.20286725568094],[102.20611605883238,2.203534692175904],[102.20563919708668,2.204228017098716],[102.20519930154624,2.204945330059023],[102.20479757793417,2.205684664918528],[102.20443512734697,2.206443995180353],[102.20411294323651,2.207221239543915],[102.20383190868702,2.20801426760986],[102.20359279399467,2.208820905719756],[102.20339625455622,2.209638942914094],[102.20324282907264,2.210466136992648],[102.20313293807246,2.211300220660373],[102.20306688275929,2.21213890774207],[102.20304484418618,2.212979899448702],[102.20306688275929,2.213820890678315],[102.20313293807246,2.214659576334195],[102.20324282907264,2.215493657642928],[102.20339625455622,2.216320848455153],[102.20359279399467,2.217138881511603],[102.20383190868702,2.217945514657416],[102.20411294323651,2.218738536987447],[102.20443512734697,2.219515774906086],[102.20479757793417,2.22027509808465],[102.20519930154624,2.221014425300124],[102.20563919708668,2.221731730139381],[102.20611605883238,2.222425046553102],[102.20662857973845,2.223092474244164],[102.20717535502071,2.22373218387592],[102.20775488600613,2.224342422085771],[102.20836558424052,2.224921516290734],[102.20900577584251,2.225467879271355],[102.20967370609142,2.225980013521819],[102.21036754423685,2.226456515354074],[102.21108538851666,2.226896078744852],[102.2118252713696,2.227297498914975],[102.21258516482817,2.227659675631256],[102.21336298607727,2.227981616221765],[102.21415660316286,2.228262438296337],[102.21496384083571,2.228501372164912],[102.21578248651346,2.228697762946891],[102.21661029634521,2.228851072365914],[102.21744500136175,2.22896088022502],[102.21828431369465,2.22902688555827],[102.21912593284715,2.229048907455522],[102.21996755199964,2.22902688555827],[102.22080686433254,2.22896088022502],[102.22164156934909,2.228851072365914],[102.22246937918084,2.228697762946891],[102.2232880248586,2.228501372164912],[102.22409526253145,2.228262438296337],[102.22488887961703,2.227981616221765],[102.22566670086613,2.227659675631256],[102.22642659432469,2.227297498914975],[102.22716647717763,2.226896078744852],[102.22788432145747,2.226456515354074],[102.22857815960289,2.225980013521819],[102.22924608985178,2.225467879271355],[102.22988628145377,2.224921516290734],[102.23049697968818,2.224342422085771],[102.23107651067359,2.22373218387592],[102.23162328595585,2.223092474244164],[102.23213580686192,2.222425046553102],[102.23261266860763,2.221731730139381],[102.23305256414805,2.221014425300124],[102.23345428776014,2.22027509808465],[102.23381673834733,2.219515774906086],[102.23413892245779,2.218738536987447],[102.23441995700729,2.217945514657416],[102.23465907169962,2.217138881511603],[102.23485561113807,2.216320848455153],[102.23500903662168,2.215493657642928],[102.23511892762185,2.214659576334195],[102.23518498293501,2.213820890678315],[102.23520702150813,2.212979899448702]],[[102.26819704512184,2.215123519813934],[102.26817439088053,2.214259035459825],[102.26810649025037,2.213396920095001],[102.2679935293422,2.212539536724115],[102.26783581777403,2.211689235385831],[102.26763378782235,2.21084834671136],[102.26738799323718,2.210019175536226],[102.26709910772439,2.209203994582711],[102.26676792309912,2.208405038230146],[102.26639534711536,2.207624496390451],[102.26598240097802,2.206864508505346],[102.26553021654377,2.20612715768206],[102.26504003321865,2.205414464983175],[102.26451319456116,2.204728383886788],[102.26395114459939,2.204070794931657],[102.26335542387324,2.203443500562417],[102.2627276652118,2.202848220188737],[102.26206958925793,2.202286585472138],[102.26138299975209,2.201760135853312],[102.26066977858838,2.201270314332094],[102.25993188065641,2.200818463512036],[102.25917132848318,2.200405821919909],[102.25839020668927,2.200033520610651],[102.25759065627526,2.199702580066836],[102.25677486875323,2.19941390740132],[102.25594508014011,2.19916829387059],[102.25510356482877,2.198966412705644],[102.25425262935423,2.198808817266588],[102.25339460607144,2.198695939525658],[102.25253184676261,2.198628088883066],[102.251666716191,2.198605451318848],[102.25080158561939,2.198628088883066],[102.24993882631054,2.198695939525658],[102.24908080302777,2.198808817266588],[102.2482298675532,2.198966412705644],[102.24738835224188,2.19916829387059],[102.24655856362875,2.19941390740132],[102.24574277610674,2.199702580066836],[102.24494322569272,2.200033520610651],[102.24416210389882,2.200405821919909],[102.24340155172557,2.200818463512036],[102.24266365379361,2.201270314332094],[102.24195043262989,2.201760135853312],[102.24126384312405,2.202286585472138],[102.24060576717018,2.202848220188737],[102.23997800850876,2.203443500562417],[102.2393822877826,2.204070794931657],[102.23882023782083,2.204728383886788],[102.23829339916334,2.205414464983175],[102.23780321583823,2.20612715768206],[102.23735103140397,2.206864508505346],[102.23693808526663,2.207624496390451],[102.23656550928288,2.208405038230146],[102.2362343246576,2.209203994582711],[102.23594543914481,2.210019175536226],[102.23569964455965,2.21084834671136],[102.23549761460795,2.211689235385831],[102.2353399030398,2.212539536724115],[102.23522694213162,2.213396920095001],[102.23515904150145,2.214259035459825],[102.23513638726014,2.215123519813934],[102.23515904150145,2.215988003663506],[102.23522694213162,2.216850117520276],[102.2353399030398,2.217707498396118],[102.23549761460795,2.218557796279697],[102.23569964455965,2.219398680577636],[102.23594543914481,2.220227846502373],[102.2362343246576,2.221043021389158],[102.23656550928288,2.221841970925107],[102.23693808526663,2.222622505273031],[102.23735103140397,2.22338248507323],[102.23780321583823,2.22411982730711],[102.23829339916334,2.224832511006145],[102.23882023782083,2.225518582790885],[102.2393822877826,2.226176162224568],[102.23997800850876,2.226803446966892],[102.24060576717018,2.227398717713644],[102.24126384312405,2.227960342908781],[102.24195043262989,2.228486783215974],[102.24266365379361,2.228976595737342],[102.24340155172557,2.229428437967981],[102.24416210389882,2.229841071475215],[102.24494322569272,2.230213365292689],[102.24574277610674,2.230544299019901],[102.24655856362875,2.230832965618674],[102.24738835224188,2.231078573899021],[102.2482298675532,2.231280450687447],[102.24908080302777,2.231438042671785],[102.24993882631054,2.231550917917672],[102.25080158561939,2.231618767052209],[102.251666716191,2.231641404111903],[102.25253184676261,2.231618767052209],[102.25339460607144,2.231550917917672],[102.25425262935423,2.231438042671785],[102.25510356482877,2.231280450687447],[102.25594508014011,2.231078573899021],[102.25677486875323,2.230832965618674],[102.25759065627526,2.230544299019901],[102.25839020668927,2.230213365292689],[102.25917132848318,2.229841071475215],[102.25993188065641,2.229428437967981],[102.26066977858838,2.228976595737342],[102.26138299975209,2.228486783215974],[102.26206958925793,2.227960342908781],[102.2627276652118,2.227398717713644],[102.26335542387324,2.226803446966892],[102.26395114459939,2.226176162224568],[102.26451319456116,2.225518582790885],[102.26504003321865,2.224832511006145],[102.26553021654377,2.22411982730711],[102.26598240097802,2.22338248507323],[102.26639534711536,2.222622505273031],[102.26676792309912,2.221841970925107],[102.26709910772439,2.221043021389158],[102.26738799323718,2.220227846502373],[102.26763378782235,2.219398680577636],[102.26783581777403,2.218557796279697],[102.2679935293422,2.217707498396118],[102.26810649025037,2.216850117520276],[102.26817439088053,2.215988003663506],[102.26819704512184,2.215123519813934]],[[102.25961803528493,2.179759973702535],[102.25959669511232,2.178945614854354],[102.25953273308647,2.178133487668573],[102.25942632452283,2.177325818134945],[102.25927776107986,2.17652482002861],[102.25908744995965,2.175732688842229],[102.25885591279177,2.174951595768172],[102.25858378420345,2.174183681747182],[102.25827181008027,2.173431051600044],[102.25792084552162,2.172695768258225],[102.25753185249695,2.17197984710913],[102.2571058972091,2.171285250471897],[102.25664414717193,2.170613882218427],[102.25614786801016,2.169967582554672],[102.2556184199905,2.169348122976436],[102.25505725429315,2.16875720141341],[102.2544659090343,2.168196437574959],[102.2538460050502,2.167667368510201],[102.25319924145457,2.167171444394659],[102.25252739098147,2.166710024555127],[102.25183229512636,2.166284373743437],[102.25111585909865,2.165895658669498],[102.2503800465997,2.165544944803176],[102.24962687444044,2.165233193453483],[102.24885840701337,2.164961259133521],[102.24807675063431,2.164729887217957],[102.24728404776909,2.164539711899867],[102.2464824711611,2.16439125445215],[102.24567421787616,2.164284921798661],[102.24486150328033,2.16422100539869],[102.24404655496782,2.16419968044804],[102.24323160665529,2.16422100539869],[102.24241889205948,2.164284921798661],[102.24161063877453,2.16439125445215],[102.24080906216655,2.164539711899867],[102.24001635930131,2.164729887217957],[102.23923470292226,2.164961259133521],[102.2384662354952,2.165233193453483],[102.23771306333593,2.165544944803176],[102.23697725083697,2.165895658669498],[102.23626081480927,2.166284373743437],[102.23556571895415,2.166710024555127],[102.23489386848107,2.167171444394659],[102.23424710488543,2.167667368510201],[102.23362720090134,2.168196437574959],[102.23303585564248,2.16875720141341],[102.23247468994514,2.169348122976436],[102.23194524192546,2.169967582554672],[102.23144896276371,2.170613882218427],[102.23098721272653,2.171285250471897],[102.23056125743867,2.17197984710913],[102.23017226441401,2.172695768258225],[102.22982129985535,2.173431051600044],[102.2295093257322,2.174183681747182],[102.22923719714387,2.174951595768172],[102.22900565997598,2.175732688842229],[102.22881534885576,2.17652482002861],[102.22866678541281,2.177325818134945],[102.22856037684916,2.178133487668573],[102.22849641482331,2.178945614854354],[102.2284750746507,2.179759973702535],[102.22849641482331,2.18057433211017],[102.22856037684916,2.181386457979087],[102.22866678541281,2.182194125334009],[102.22881534885576,2.18299512042364],[102.22900565997598,2.183787247788355],[102.22923719714387,2.184568336277694],[102.2295093257322,2.185336245001126],[102.22982129985535,2.186088869195895],[102.23017226441401,2.186824145995783],[102.23056125743867,2.187540060085026],[102.23098721272653,2.188234649221837],[102.23144896276371,2.188906009616512],[102.23194524192546,2.18955230114918],[102.23247468994514,2.190171752413153],[102.23303585564248,2.190762665569808],[102.23362720090134,2.191323421001887],[102.23424710488543,2.191852481752382],[102.23489386848107,2.192348397736836],[102.23556571895415,2.192809809717574],[102.23626081480927,2.193235453028867],[102.23697725083697,2.193624161042941],[102.23771306333593,2.193974868367334],[102.2384662354952,2.194286613764656],[102.23923470292226,2.194558542787061],[102.24001635930131,2.194789910117894],[102.24080906216655,2.194980081614344],[102.24161063877453,2.195128536045343],[102.24241889205948,2.195234866520126],[102.24323160665529,2.195298781603233],[102.24404655496782,2.195320106113338],[102.24486150328033,2.195298781603233],[102.24567421787616,2.195234866520126],[102.2464824711611,2.195128536045343],[102.24728404776909,2.194980081614344],[102.24807675063431,2.194789910117894],[102.24885840701337,2.194558542787061],[102.24962687444044,2.194286613764656],[102.2503800465997,2.193974868367334],[102.25111585909865,2.193624161042941],[102.25183229512636,2.193235453028867],[102.25252739098147,2.192809809717574],[102.25319924145457,2.192348397736836],[102.2538460050502,2.191852481752382],[102.2544659090343,2.191323421001887],[102.25505725429315,2.190762665569808],[102.2556184199905,2.190171752413153],[102.25614786801016,2.18955230114918],[102.25664414717193,2.188906009616512],[102.2571058972091,2.188234649221837],[102.25753185249695,2.187540060085026],[102.25792084552162,2.186824145995783],[102.25827181008027,2.186088869195895],[102.25858378420345,2.185336245001126],[102.25885591279177,2.184568336277694],[102.25908744995965,2.183787247788355],[102.25927776107986,2.18299512042364],[102.25942632452283,2.182194125334009],[102.25953273308647,2.181386457979087],[102.25959669511232,2.18057433211017],[102.25961803528493,2.179759973702535]],[[102.28987786310012,2.186063576529169],[102.28985668400203,2.185255367809478],[102.28979320475821,2.184449373900488],[102.28968759936087,2.183647803980953],[102.28954015726703,2.182852855107313],[102.28935128260524,2.182066706191538],[102.28912149306782,2.181291512028791],[102.28885141849192,2.180529397391107],[102.28854179913317,2.179782451203291],[102.28819348363672,2.179052720817157],[102.28780742671114,2.178342206399539],[102.28738468651161,2.177652855449743],[102.28692642173965,2.176986557461208],[102.28643388846713,2.176345138742276],[102.28590843669353,2.175730357409976],[102.28535150664563,2.175143898570879],[102.28476462482999,2.174587369701913],[102.28414939984886,2.174062296243986],[102.28350751799115,2.173570117420557],[102.28284073861042,2.173112182292418],[102.28215088930261,2.17268974605966],[102.28143986089671,2.172303966620899],[102.28070960227215,2.171955901399259],[102.27996211501711,2.171646504443681],[102.27919944794215,2.171376623813742],[102.27842369146471,2.171146999254845],[102.2776369718794,2.170958260170418],[102.27684144552988,2.170810923896584],[102.27603929289863,2.170705394283981],[102.27523271263023,2.170641960590713],[102.27442391550511,2.170620796689434],[102.27361511837998,2.170641960590713],[102.27280853811158,2.170705394283981],[102.27200638548032,2.170810923896584],[102.27121085913082,2.170958260170418],[102.2704241395455,2.171146999254845],[102.26964838306806,2.171376623813742],[102.26888571599311,2.171646504443681],[102.26813822873805,2.171955901399259],[102.26740797011351,2.172303966620899],[102.26669694170761,2.17268974605966],[102.26600709239979,2.173112182292418],[102.26534031301905,2.173570117420557],[102.26469843116135,2.174062296243986],[102.26408320618022,2.174587369701913],[102.26349632436458,2.175143898570879],[102.26293939431667,2.175730357409976],[102.26241394254308,2.176345138742276],[102.26192140927057,2.176986557461208],[102.2614631444986,2.177652855449743],[102.26104040429908,2.178342206399539],[102.26065434737349,2.179052720817157],[102.26030603187704,2.179782451203291],[102.25999641251829,2.180529397391107],[102.25972633794238,2.181291512028791],[102.25949654840497,2.182066706191538],[102.25930767374318,2.182852855107313],[102.25916023164933,2.183647803980953],[102.25905462625201,2.184449373900488],[102.25899114700819,2.185255367809478],[102.2589699679101,2.186063576529169],[102.25899114700819,2.186871784813646],[102.25905462625201,2.187677777421853],[102.25916023164933,2.188479345189233],[102.25930767374318,2.189274291082973],[102.25949654840497,2.190060436223697],[102.25972633794238,2.19083562585764],[102.25999641251829,2.191597735262383],[102.26030603187704,2.192344675570435],[102.26065434737349,2.193074399494406],[102.26104040429908,2.193784906938276],[102.2614631444986,2.194474250479123],[102.26192140927057,2.195140540704712],[102.26241394254308,2.195781951391739],[102.26293939431667,2.196396724511173],[102.26349632436458,2.196983175046401],[102.26408320618022,2.197539695611537],[102.26469843116135,2.198064760856598],[102.26534031301905,2.198556931648108],[102.26600709239979,2.199014859013302],[102.26669694170761,2.199437287837123],[102.26740797011351,2.199823060302136],[102.26813822873805,2.200171119061627],[102.26888571599311,2.200480510137428],[102.26964838306806,2.200750385534413],[102.2704241395455,2.200980005564505],[102.27121085913082,2.201168740873894],[102.27200638548032,2.201316074167816],[102.27280853811158,2.201421601628277],[102.27361511837998,2.201485034020749],[102.27442391550511,2.20150619748684],[102.27523271263023,2.201485034020749],[102.27603929289863,2.201421601628277],[102.27684144552988,2.201316074167816],[102.2776369718794,2.201168740873894],[102.27842369146471,2.200980005564505],[102.27919944794215,2.200750385534413],[102.27996211501711,2.200480510137428],[102.28070960227215,2.200171119061627],[102.28143986089671,2.199823060302136],[102.28215088930261,2.199437287837123],[102.28284073861042,2.199014859013302],[102.28350751799115,2.198556931648108],[102.28414939984886,2.198064760856598],[102.28476462482999,2.197539695611537],[102.28535150664563,2.196983175046401],[102.28590843669353,2.196396724511173],[102.28643388846713,2.195781951391739],[102.28692642173965,2.195140540704712],[102.28738468651161,2.194474250479123],[102.28780742671114,2.193784906938276],[102.28819348363672,2.193074399494406],[102.28854179913317,2.192344675570435],[102.28885141849192,2.191597735262383],[102.28912149306782,2.19083562585764],[102.28935128260524,2.190060436223697],[102.28954015726703,2.189274291082973],[102.28968759936087,2.188479345189233],[102.28979320475821,2.187677777421853],[102.28985668400203,2.186871784813646],[102.28987786310012,2.186063576529169]]],"bbox":[102.03638733726184,2.15111157509329,102.50033352049677,2.460631178351818]}
