{"type":"Topology","objects":{"PLS_SE-15":{"type":"GeometryCollection","geometries":[{"type":"Polygon","arcs":[[0]],"properties":{"state":"Perlis","parlimen":"P.001 Padang Besar","code_parlimen":"P.001","dun":"N.01 Titi Tinggi","code_dun":"N.01","voters_total":13403}},{"type":"Polygon","arcs":[[1]],"properties":{"state":"Perlis","parlimen":"P.001 Padang Besar","code_parlimen":"P.001","dun":"N.02 Beseri","code_dun":"N.02","voters_total":12128}},{"type":"Polygon","arcs":[[2]],"properties":{"state":"Perlis","parlimen":"P.001 Padang Besar","code_parlimen":"P.001","dun":"N.03 Chuping","code_dun":"N.03","voters_total":14248}},{"type":"Polygon","arcs":[[3]],"properties":{"state":"Perlis","parlimen":"P.001 Padang Besar","code_parlimen":"P.001","dun":"N.04 Mata Ayer","code_dun":"N.04","voters_total":9662}},{"type":"Polygon","arcs":[[4]],"properties":{"state":"Perlis","parlimen":"P.001 Padang Besar","code_parlimen":"P.001","dun":"N.05 Santan","code_dun":"N.05","voters_total":10751}},{"type":"Polygon","arcs":[[5]],"properties":{"state":"Perlis","parlimen":"P.002 Kangar","code_parlimen":"P.002","dun":"N.06 Bintong","code_dun":"N.06","voters_total":16366}},{"type":"Polygon","arcs":[[6]],"properties":{"state":"Perlis","parlimen":"P.002 Kangar","code_parlimen":"P.002","dun":"N.07 Sena","code_dun":"N.07","voters_total":15870}},{"type":"Polygon","arcs":[[7]],"properties":{"state":"Perlis","parlimen":"P.002 Kangar","code_parlimen":"P.002","dun":"N.08 Indera Kayangan","code_dun":"N.08","voters_total":14465}},{"type":"Polygon","arcs":[[8]],"properties":{"state":"Perlis","parlimen":"P.002 Kangar","code_parlimen":"P.002","dun":"N.09 Kuala Perlis","code_dun":"N.09","voters_total":14717}},{"type":"Polygon","arcs":[[9]],"properties":{"state":"Perlis","parlimen":"P.002 Kangar","code_parlimen":"P.002","dun":"N.10 Kayang","code_dun":"N.10","voters_total":13441}},{"type":"Polygon","arcs":[[10]],"properties":{"state":"Perlis","parlimen":"P.003 Arau","code_parlimen":"P.003","dun":"N.11 Pauh","code_dun":"N.11","voters_total":14797}},{"type":"Polygon","arcs":[[11]],"properties":{"state":"Perlis","parlimen":"P.003 Arau","code_parlimen":"P.003","dun":"N.12 Tambun Tulang","code_dun":"N.12","voters_total":13451}},{"type":"Polygon","arcs":[[12]],"properties":{"state":"Perlis","parlimen":"P.003 Arau","code_parlimen":"P.003","dun":"N.13 Guar Sanji","code_dun":"N.13","voters_total":11510}},{"type":"Polygon","arcs":[[13]],"properties":{"state":"Perlis","parlimen":"P.003 Arau","code_parlimen":"P.003","dun":"N.14 Simpang Empat","code_dun":"N.14","voters_total":10697}},{"type":"Polygon","arcs":[[14]],"properties":{"state":"Perlis","parlimen":"P.003 Arau","code_parlimen":"P.003","dun":"N.15 Sanglang","code_dun":"N.15","voters_total":10421}}]}},"arcs":[[[100.27719671497962,6.648323790822317],[100.27717961251722,6.647675065605427],[100.27712835200666,6.647028117646718],[100.27704307394944,6.646384720196185],[100.27692401208681,6.645746636778985],[100.27677149275901,6.645115616361539],[100.27658593401097,6.644493388557525],[100.2763678444463,6.64388165888677],[100.27611782183334,6.643282104100097],[100.27583655146667,6.642696367583046],[100.27552480428884,6.642126054850934],[100.27518343477716,6.641572729147696],[100.2748133786018,6.641037907160463],[100.27441565006096,6.64052305486186],[100.27399133930095,6.640029583491109],[100.27354160932805,6.639558845685269],[100.27306769282085,6.639112131770998],[100.27257088875159,6.638690666227117],[100.27205255882565,6.638295604327699],[100.27151412374937,6.637928028974746],[100.27095705933586,6.637588947729444],[100.2703828924599,6.637279290049677],[100.26979319687307,6.636999904741906],[100.26918958888993,6.636751557633978],[100.26857372295802,6.636534929475495],[100.26794728712305,6.636350614071386],[100.2673119984021,6.636199116653906],[100.26666959807741,6.636080852497407],[100.26602184692359,6.635996145779746],[100.26537052038155,6.635945228693513],[100.26471740369206,6.6359282408094],[100.26406428700258,6.635945228693513],[100.26341296046053,6.635996145779746],[100.26276520930672,6.636080852497407],[100.26212280898203,6.636199116653906],[100.26148752026107,6.636350614071386],[100.26086108442611,6.636534929475495],[100.2602452184942,6.636751557633978],[100.25964161051107,6.636999904741906],[100.25905191492423,6.637279290049677],[100.25847774804828,6.637588947729444],[100.25792068363477,6.637928028974746],[100.25738224855849,6.638295604327699],[100.25686391863255,6.638690666227117],[100.25636711456329,6.639112131770998],[100.25589319805609,6.639558845685269],[100.25544346808319,6.640029583491109],[100.25501915732318,6.64052305486186],[100.25462142878234,6.641037907160463],[100.25425137260697,6.641572729147696],[100.25391000309529,6.642126054850934],[100.25359825591747,6.642696367583046],[100.2533169855508,6.643282104100097],[100.25306696293784,6.64388165888677],[100.25284887337317,6.644493388557525],[100.25266331462512,6.645115616361539],[100.25251079529733,6.645746636778985],[100.25239173343469,6.646384720196185],[100.25230645537748,6.647028117646718],[100.25225519486692,6.647675065605427],[100.25223809240451,6.648323790822317],[100.25225519486692,6.648972515183067],[100.25230645537748,6.64961946058274],[100.25239173343469,6.650262853799382],[100.25251079529733,6.650900931354235],[100.25266331462512,6.651531944345084],[100.25284887337317,6.652154163239627],[100.25306696293784,6.652765882615652],[100.2533169855508,6.653365425835145],[100.25359825591747,6.653951149639264],[100.25391000309529,6.65452144865199],[100.25425137260697,6.655074759779712],[100.25462142878234,6.655609566494991],[100.25501915732318,6.656124402992509],[100.25544346808319,6.656617858206182],[100.25589319805609,6.657088579675955],[100.25636711456329,6.657535277254172],[100.25686391863255,6.657956726640962],[100.25738224855849,6.658351772739308],[100.25792068363477,6.658719332820294],[100.25847774804828,6.659058399490093],[100.25905191492423,6.659368043450486],[100.25964161051107,6.659647416045327],[100.2602452184942,6.659895751586061],[100.26086108442611,6.660112369449825],[100.26148752026107,6.66029667594445],[100.26212280898203,6.660448165935335],[100.26276520930672,6.660566424229486],[100.26341296046053,6.660651126713257],[100.26406428700258,6.660702041240453],[100.26471740369206,6.660719028268438],[100.26537052038155,6.660702041240453],[100.26602184692359,6.660651126713257],[100.26666959807741,6.660566424229486],[100.2673119984021,6.660448165935335],[100.26794728712305,6.66029667594445],[100.26857372295802,6.660112369449825],[100.26918958888993,6.659895751586061],[100.26979319687307,6.659647416045327],[100.2703828924599,6.659368043450486],[100.27095705933586,6.659058399490093],[100.27151412374937,6.658719332820294],[100.27205255882565,6.658351772739308],[100.27257088875159,6.657956726640962],[100.27306769282085,6.657535277254172],[100.27354160932805,6.657088579675955],[100.27399133930095,6.656617858206182],[100.27441565006096,6.656124402992509],[100.2748133786018,6.655609566494991],[100.27518343477716,6.655074759779712],[100.27552480428884,6.65452144865199],[100.27583655146667,6.653951149639264],[100.27611782183334,6.653365425835145],[100.2763678444463,6.652765882615652],[100.27658593401097,6.652154163239627],[100.27677149275901,6.651531944345084],[100.27692401208681,6.650900931354235],[100.27704307394944,6.650262853799382],[100.27712835200666,6.64961946058274],[100.27717961251722,6.648972515183067],[100.27719671497962,6.648323790822317]],[[100.22075679926829,6.603003941643862],[100.22074053059156,6.602386786643908],[100.22069176915265,6.601771322456632],[100.22061064860328,6.601159236036125],[100.22049739128923,6.600552205084396],[100.22035230764097,6.59995189345279],[100.22017579532263,6.599359946581246],[100.21996833814227,6.598777986987943],[100.21973050472553,6.598207609821698],[100.21946294695734,6.597650378489408],[100.2191663981949,6.597107820370413],[100.21884167125778,6.59658142262941],[100.21848965619994,6.596072628139868],[100.21811131787017,6.595582831528461],[100.21770769326754,6.595113375351963],[100.21727988869907,6.594665546416758],[100.21682907674727,6.59424057225108],[100.21635649305642,6.593839617739848],[100.21586343294555,6.593463781931087],[100.21535124785815,6.593114095022908],[100.21482134165797,6.592791515539114],[100.21427516678104,6.592496927701423],[100.21371422025472,6.592231139005178],[100.21314003959448,6.591994878005599],[100.21255419858959,6.591788792320311],[100.21195830298953,6.591613446853787],[100.21135398610272,6.591469322248601],[100.2107429043197,6.59135681356766],[100.21012673257322,6.591276229211054],[100.20950715974718,6.591227790070496],[100.20888588404762,6.591211628923724],[100.20826460834807,6.591227790070496],[100.20764503552202,6.591276229211054],[100.20702886377555,6.59135681356766],[100.20641778199253,6.591469322248601],[100.2058134651057,6.591613446853787],[100.20521756950565,6.591788792320311],[100.20463172850076,6.591994878005599],[100.20405754784052,6.592231139005178],[100.20349660131421,6.592496927701423],[100.20295042643728,6.592791515539114],[100.2024205202371,6.593114095022908],[100.2019083351497,6.593463781931087],[100.20141527503883,6.593839617739848],[100.20094269134798,6.59424057225108],[100.20049187939618,6.594665546416758],[100.20006407482771,6.595113375351963],[100.19966045022507,6.595582831528461],[100.1992821118953,6.596072628139868],[100.19893009683746,6.59658142262941],[100.19860536990035,6.597107820370413],[100.1983088211379,6.597650378489408],[100.1980412633697,6.598207609821698],[100.19780342995298,6.598777986987943],[100.1975959727726,6.599359946581246],[100.19741946045428,6.59995189345279],[100.197274376806,6.600552205084396],[100.19716111949197,6.601159236036125],[100.1970799989426,6.601771322456632],[100.1970312375037,6.602386786643908],[100.19701496882695,6.603003941643862],[100.1970312375037,6.603621095874298],[100.1970799989426,6.604236557761486],[100.19716111949197,6.604848640376524],[100.197274376806,6.605455666059092],[100.19741946045428,6.606055971015566],[100.1975959727726,6.606647909879147],[100.19780342995298,6.607229860219415],[100.1980412633697,6.60780022698891],[100.1983088211379,6.608357446894638],[100.19860536990035,6.608899992682483],[100.19893009683746,6.609426377322793],[100.1992821118953,6.609935158085698],[100.19966045022507,6.610424940494872],[100.20006407482771,6.61089438214916],[100.20049187939618,6.611342196401284],[100.20094269134798,6.611767155883894],[100.20141527503883,6.612168095872929],[100.2019083351497,6.612543917479457],[100.2024205202371,6.612893590660986],[100.20295042643728,6.613216157044101],[100.20349660131421,6.613510732550629],[100.20405754784052,6.613776509820324],[100.20463172850076,6.61401276042314],[100.20521756950565,6.614218836855393],[100.2058134651057,6.614394174313968],[100.20641778199253,6.614538292244021],[100.20702886377555,6.614650795655789],[100.20764503552202,6.614731376206924],[100.20826460834807,6.614779813047407],[100.20888588404762,6.614795973424663],[100.20950715974718,6.614779813047407],[100.21012673257322,6.614731376206924],[100.2107429043197,6.614650795655789],[100.21135398610272,6.614538292244021],[100.21195830298953,6.614394174313968],[100.21255419858959,6.614218836855393],[100.21314003959448,6.61401276042314],[100.21371422025472,6.613776509820324],[100.21427516678104,6.613510732550629],[100.21482134165797,6.613216157044101],[100.21535124785815,6.612893590660986],[100.21586343294555,6.612543917479457],[100.21635649305642,6.612168095872929],[100.21682907674727,6.611767155883894],[100.21727988869907,6.611342196401284],[100.21770769326754,6.61089438214916],[100.21811131787017,6.610424940494872],[100.21848965619994,6.609935158085698],[100.21884167125778,6.609426377322793],[100.2191663981949,6.608899992682483],[100.21946294695734,6.608357446894638],[100.21973050472553,6.60780022698891],[100.21996833814227,6.607229860219415],[100.22017579532263,6.606647909879147],[100.22035230764097,6.606055971015566],[100.22049739128923,6.605455666059092],[100.22061064860328,6.604848640376524],[100.22069176915265,6.604236557761486],[100.22074053059156,6.603621095874298],[100.22075679926829,6.603003941643862]],[[100.32232093373734,6.53111485917287],[100.32230330039704,6.530445838771967],[100.3222504487079,6.529778651218903],[100.32216252353274,6.529115125239443],[100.32203976586831,6.528457079530425],[100.3218825121849,6.527806317774628],[100.32169119350387,6.527164623696731],[100.32146633421645,6.526533756173893],[100.32120855064632,6.525915444414345],[100.32091854936031,6.525311383217334],[100.32059712523183,6.524723228327174],[100.32024515926202,6.524152591894401],[100.31986361616515,6.523601038056371],[100.31945354172436,6.52307007864932],[100.31901605992518,6.522561169063835],[100.31855236987478,6.522075704255007],[100.31806374251538,6.521615014918163],[100.3175515171406,6.521180363840798],[100.31701709772462,6.52077294244054],[100.31646194907385,6.52039386749885],[100.31588759281223,6.520044178099241],[100.31529560321027,6.519724832778516],[100.31468760287039,6.519436706898759],[100.31406525827923,6.519180590247456],[100.31343027524004,6.518957184872106],[100.31278439419724,6.518767103155399],[100.3121293854658,6.51861086613626],[100.31146704437917,6.518488902081326],[100.31079918636826,6.518401545310695],[100.3101276419854,6.518349035281346],[100.3094542518871,6.518331515930566],[100.3087808617888,6.518349035281346],[100.30810931740595,6.518401545310695],[100.30744145939502,6.518488902081326],[100.30677911830841,6.51861086613626],[100.30612410957698,6.518767103155399],[100.30547822853417,6.518957184872106],[100.30484324549498,6.519180590247456],[100.30422090090381,6.519436706898759],[100.30361290056392,6.519724832778516],[100.30302091096196,6.520044178099241],[100.30244655470035,6.52039386749885],[100.30189140604959,6.52077294244054],[100.30135698663359,6.521180363840798],[100.30084476125882,6.521615014918163],[100.30035613389943,6.522075704255007],[100.29989244384905,6.522561169063835],[100.29945496204984,6.52307007864932],[100.29904488760904,6.523601038056371],[100.29866334451219,6.524152591894401],[100.2983113785424,6.524723228327174],[100.29798995441388,6.525311383217334],[100.29769995312789,6.525915444414345],[100.29744216955774,6.526533756173893],[100.29721731027033,6.527164623696731],[100.29702599158931,6.527806317774628],[100.29686873790588,6.528457079530425],[100.29674598024147,6.529115125239443],[100.2966580550663,6.529778651218903],[100.29660520337715,6.530445838771967],[100.29658757003686,6.53111485917287],[100.29660520337715,6.531783878679428],[100.2966580550663,6.532451063559249],[100.29674598024147,6.533114585115842],[100.29686873790588,6.533772624700854],[100.29702599158931,6.534423378698579],[100.29721731027033,6.535065063469359],[100.29744216955774,6.53569592023799],[100.29769995312789,6.536314219914052],[100.29798995441388,6.53691826783072],[100.2983113785424,6.537506408389174],[100.29866334451219,6.53807702959588],[100.29904488760904,6.538628567480312],[100.29945496204984,6.539159510381035],[100.29989244384905,6.539668403088308],[100.30035613389943,6.540153850831933],[100.30084476125882,6.540614523103588],[100.30135698663359,6.541049157302742],[100.30189140604959,6.541456562196659],[100.30244655470035,6.541835621184763],[100.30302091096196,6.542185295358293],[100.30361290056392,6.542504626347311],[100.30422090090381,6.542792738946726],[100.30484324549498,6.543048843514542],[100.30547822853417,6.543272238135685],[100.30612410957698,6.543462310545276],[100.30677911830841,6.543618539806342],[100.30744145939502,6.543740497737259],[100.30810931740595,6.543827850085036],[100.3087808617888,6.54388035744114],[100.3094542518871,6.543897875897574],[100.3101276419854,6.54388035744114],[100.31079918636826,6.543827850085036],[100.31146704437917,6.543740497737259],[100.3121293854658,6.543618539806342],[100.31278439419724,6.543462310545276],[100.31343027524004,6.543272238135685],[100.31406525827923,6.543048843514542],[100.31468760287039,6.542792738946726],[100.31529560321027,6.542504626347311],[100.31588759281223,6.542185295358293],[100.31646194907385,6.541835621184763],[100.31701709772462,6.541456562196659],[100.3175515171406,6.541049157302742],[100.31806374251538,6.540614523103588],[100.31855236987478,6.540153850831933],[100.31901605992518,6.539668403088308],[100.31945354172436,6.539159510381035],[100.31986361616515,6.538628567480312],[100.32024515926202,6.53807702959588],[100.32059712523183,6.537506408389174],[100.32091854936031,6.53691826783072],[100.32120855064632,6.536314219914052],[100.32146633421645,6.53569592023799],[100.32169119350387,6.535065063469359],[100.3218825121849,6.534423378698579],[100.32203976586831,6.533772624700854],[100.32216252353274,6.533114585115842],[100.3222504487079,6.532451063559249],[100.32230330039704,6.531783878679428],[100.32232093373734,6.53111485917287]],[[100.26720880938414,6.478206232570106],[100.2671942885638,6.477655245259257],[100.26715076590332,6.477105767567212],[100.26707836069532,6.476559305581522],[100.2669772713974,6.476017357128817],[100.26684777508832,6.475481407669083],[100.26669022670848,6.474952926224016],[100.26650505808699,6.474433361350261],[100.26629277675822,6.473924137168786],[100.2660539645705,6.473426649461075],[100.26578927609147,6.472942261843066],[100.26549943681383,6.47247230202716],[100.2651852411669,6.472018058182619],[100.26484755033911,6.471580775404314],[100.26448728991755,6.471161652299543],[100.26410544735097,6.470761837702213],[100.26370306924336,6.47038242752347],[100.26328125848507,6.470024461747367],[100.26284117123012,6.469688921579794],[100.26238401372707,6.46937672675862],[100.26191103901286,6.469088733032169],[100.26142354347829,6.468825729813247],[100.26092286331476,6.468588438014955],[100.2604103708518,6.468377508074272],[100.2598874707956,6.468193518168854],[100.2593555963789,6.468036972631903],[100.25881620543247,6.467908300569544],[100.25827077638942,6.46780785468435],[100.25772080423286,6.467735910308418],[100.25716779639822,6.46769266464849],[100.25661326864154,6.467678236245262],[100.25605874088487,6.46769266464849],[100.25550573305024,6.467735910308418],[100.25495576089368,6.46780785468435],[100.25441033185064,6.467908300569544],[100.25387094090419,6.468036972631903],[100.2533390664875,6.468193518168854],[100.2528161664313,6.468377508074272],[100.25230367396833,6.468588438014955],[100.2518029938048,6.468825729813247],[100.25131549827024,6.469088733032169],[100.25084252355603,6.46937672675862],[100.25038536605297,6.469688921579794],[100.24994527879804,6.470024461747367],[100.24952346803975,6.47038242752347],[100.24912108993212,6.470761837702213],[100.24873924736553,6.471161652299543],[100.24837898694398,6.471580775404314],[100.2480412961162,6.472018058182619],[100.24772710046926,6.47247230202716],[100.24743726119162,6.472942261843066],[100.2471725727126,6.473426649461075],[100.24693376052488,6.473924137168786],[100.24672147919611,6.474433361350261],[100.24653631057463,6.474952926224016],[100.24637876219477,6.475481407669083],[100.24624926588571,6.476017357128817],[100.24614817658778,6.476559305581522],[100.24607577137978,6.477105767567212],[100.24603224871929,6.477655245259257],[100.24601772789896,6.478206232570106],[100.24603224871929,6.478757219279297],[100.24607577137978,6.479306695172967],[100.24614817658778,6.479853154183261],[100.24624926588571,6.480395098516142],[100.24637876219477,6.48093104275679],[100.24653631057463,6.481459517940668],[100.24672147919611,6.481979075579729],[100.24693376052488,6.482488291632267],[100.2471725727126,6.482985770405889],[100.24743726119162,6.483470148382504],[100.24772710046926,6.483940097955357],[100.2480412961162,6.484394331067422],[100.24837898694398,6.484831602741406],[100.24873924736553,6.485250714491674],[100.24912108993212,6.485650517608727],[100.24952346803975,6.486029916307182],[100.24994527879804,6.486387870728781],[100.25038536605297,6.486723399792019],[100.25084252355603,6.487035583880729],[100.25131549827024,6.487323567364141],[100.2518029938048,6.487586560941669],[100.25230367396833,6.487823843805847],[100.2528161664313,6.488034765617605],[100.2533390664875,6.488218748288342],[100.25387094090419,6.488375287564104],[100.25441033185064,6.488503954407363],[100.25495576089368,6.488604396172746],[100.25550573305024,6.488676337573283],[100.25605874088487,6.488719581434837],[100.25661326864154,6.488734009236405],[100.25716779639822,6.488719581434837],[100.25772080423286,6.488676337573283],[100.25827077638942,6.488604396172746],[100.25881620543247,6.488503954407363],[100.2593555963789,6.488375287564104],[100.2598874707956,6.488218748288342],[100.2604103708518,6.488034765617605],[100.26092286331476,6.487823843805847],[100.26142354347829,6.487586560941669],[100.26191103901286,6.487323567364141],[100.26238401372707,6.487035583880729],[100.26284117123012,6.486723399792019],[100.26328125848507,6.486387870728781],[100.26370306924336,6.486029916307182],[100.26410544735097,6.485650517608727],[100.26448728991755,6.485250714491674],[100.26484755033911,6.484831602741406],[100.2651852411669,6.484394331067422],[100.26549943681383,6.483940097955357],[100.26578927609147,6.483470148382504],[100.2660539645705,6.482985770405889],[100.26629277675822,6.482488291632267],[100.26650505808699,6.481979075579729],[100.26669022670848,6.481459517940668],[100.26684777508832,6.48093104275679],[100.2669772713974,6.480395098516142],[100.26707836069532,6.479853154183261],[100.26715076590332,6.479306695172967],[100.2671942885638,6.478757219279297],[100.26720880938414,6.478206232570106]],[[100.23055374613074,6.503003466900536],[100.23053842883608,6.502422286257071],[100.23049251893578,6.501842697920191],[100.23041614226568,6.501266290509546],[100.23030950816892,6.500694643931474],[100.23017290892214,6.500129325048482],[100.23000671893438,6.499571883384304],[100.22981139372085,6.49902384687657],[100.22958746865439,6.49848671768847],[100.22933555749803,6.497961968091083],[100.22905635072274,6.497451036427606],[100.22875061361492,6.496955323170434],[100.22841918417866,6.496476187082122],[100.22806297083906,6.496014941490652],[100.22768294995213,6.495572850689005],[100.22728016312867,6.495151126469429],[100.22685571437938,6.494750924801317],[100.22641076708881,6.494373342662241],[100.2259465408265,6.494019415030661],[100.22546430800439,6.493690112048488],[100.22496539038913,6.493386336361489],[100.22445115547923,6.493108920644659],[100.22392301275686,6.492858625319347],[100.22338240982444,6.492636136468575],[100.22283082843707,6.49244206395606],[100.22226978044101,6.492276939754225],[100.2217008036298,6.492141216485697],[100.22112545752931,6.492035266182412],[100.22054531912326,6.49195937926569],[100.21996197853068,6.491913763749888],[100.21937703464754,6.49189854467223],[100.21879209076442,6.491913763749888],[100.21820875017183,6.49195937926569],[100.21762861176578,6.492035266182412],[100.2170532656653,6.492141216485697],[100.21648428885409,6.492276939754225],[100.21592324085802,6.49244206395606],[100.21537165947066,6.492636136468575],[100.21483105653824,6.492858625319347],[100.21430291381586,6.493108920644659],[100.21378867890596,6.493386336361489],[100.2132897612907,6.493690112048488],[100.21280752846859,6.494019415030661],[100.21234330220629,6.494373342662241],[100.2118983549157,6.494750924801317],[100.21147390616642,6.495151126469429],[100.21107111934296,6.495572850689005],[100.21069109845602,6.496014941490652],[100.21033488511644,6.496476187082122],[100.21000345568018,6.496955323170434],[100.20969771857234,6.497451036427606],[100.20941851179707,6.497961968091083],[100.20916660064071,6.49848671768847],[100.20894267557425,6.49902384687657],[100.20874735036072,6.499571883384304],[100.20858116037296,6.500129325048482],[100.20844456112619,6.500694643931474],[100.2083379270294,6.501266290509546],[100.20826155035931,6.501842697920191],[100.20821564045902,6.502422286257071],[100.20820032316436,6.503003466900536],[100.20821564045902,6.503584646872001],[100.20826155035931,6.504164233200284],[100.2083379270294,6.504740637287734],[100.20844456112619,6.505312279264395],[100.20858116037296,6.505877592318207],[100.20874735036072,6.506435026989286],[100.20894267557425,6.506983055416629],[100.20916660064071,6.507520175525569],[100.20941851179707,6.508044915144487],[100.20969771857234,6.508555836039548],[100.21000345568018,6.509051537856302],[100.21033488511644,6.50953066195755],[100.21069109845602,6.509991895146663],[100.21107111934296,6.51043397326651],[100.21147390616642,6.510855684663807],[100.2118983549157,6.51125587350964],[100.21234330220629,6.511633442966915],[100.21280752846859,6.511987358196138],[100.2132897612907,6.512316649191247],[100.21378867890596,6.512620413437828],[100.21430291381586,6.512897818386242],[100.21483105653824,6.513148103733098],[100.21537165947066,6.513370583504709],[100.21592324085802,6.513564647936822],[100.21648428885409,6.513729765145571],[100.2170532656653,6.513865482584918],[100.21762861176578,6.513971428286793],[100.21820875017183,6.514047311880319],[100.21879209076442,6.514092925387511],[100.21937703464754,6.514108143793181],[100.21996197853068,6.514092925387511],[100.22054531912326,6.514047311880319],[100.22112545752931,6.513971428286793],[100.2217008036298,6.513865482584918],[100.22226978044101,6.513729765145571],[100.22283082843707,6.513564647936822],[100.22338240982444,6.513370583504709],[100.22392301275686,6.513148103733098],[100.22445115547923,6.512897818386242],[100.22496539038913,6.512620413437828],[100.22546430800439,6.512316649191247],[100.2259465408265,6.511987358196138],[100.22641076708881,6.511633442966915],[100.22685571437938,6.51125587350964],[100.22728016312867,6.510855684663807],[100.22768294995213,6.51043397326651],[100.22806297083906,6.509991895146663],[100.22841918417866,6.50953066195755],[100.22875061361492,6.509051537856302],[100.22905635072274,6.508555836039548],[100.22933555749803,6.508044915144487],[100.22958746865439,6.507520175525569],[100.22981139372085,6.506983055416629],[100.23000671893438,6.506435026989286],[100.23017290892214,6.505877592318207],[100.23030950816892,6.505312279264395],[100.23041614226568,6.504740637287734],[100.23049251893578,6.504164233200284],[100.23053842883608,6.503584646872001],[100.23055374613074,6.503003466900536]],[[100.18999815525379,6.491103624089916],[100.1899792566853,6.490386542926743],[100.18992261277948,6.489671426216375],[100.18982837879332,6.488960234056676],[100.18969681301566,6.488254915796747],[100.18952827605911,6.48755740469374],[100.18932322987179,6.486869612613573],[100.18908223647104,6.486193424790253],[100.18880595640299,6.485530694658078],[100.18849514693217,6.484883238771007],[100.18815065996566,6.484252831822919],[100.18777343971831,6.483641201782658],[100.18736452012463,6.483050025157058],[100.18692502200479,6.482480922394967],[100.18645614999257,6.481935453444845],[100.18595918923357,6.481415113478261],[100.18543550186268,6.480921328790891],[100.18488652327062,6.480455452892154],[100.1843137581695,6.480018762794578],[100.1837187764687,6.479612455512677],[100.18310320897167,6.479237644781194],[100.18246874290614,6.47889535800158],[100.1818171172995,6.4785865334252],[100.18115011821224,6.478312017580945],[100.1804695738425,6.47807256295421],[100.17977734951508,6.47786882592384],[100.17907534256877,6.477701364962426],[100.17836547715578,6.477570639105137],[100.1776496989679,6.477477006691139],[100.17692996990337,6.477420724381054],[100.17620826268954,6.477401946453299],[100.1754865554757,6.477420724381054],[100.17476682641117,6.477477006691139],[100.17405104822328,6.477570639105137],[100.17334118281032,6.477701364962426],[100.17263917586399,6.47786882592384],[100.17194695153657,6.47807256295421],[100.17126640716683,6.478312017580945],[100.17059940807955,6.4785865334252],[100.16994778247292,6.47889535800158],[100.1693133164074,6.479237644781194],[100.16869774891036,6.479612455512677],[100.16810276720956,6.480018762794578],[100.16753000210846,6.480455452892154],[100.16698102351639,6.480921328790891],[100.1664573361455,6.481415113478261],[100.1659603753865,6.481935453444845],[100.16549150337428,6.482480922394967],[100.16505200525444,6.483050025157058],[100.16464308566077,6.483641201782658],[100.16426586541341,6.484252831822919],[100.16392137844691,6.484883238771007],[100.16361056897607,6.485530694658078],[100.16333428890803,6.486193424790253],[100.16309329550728,6.486869612613573],[100.16288824931995,6.48755740469374],[100.16271971236341,6.488254915796747],[100.16258814658576,6.488960234056676],[100.1624939125996,6.489671426216375],[100.16243726869376,6.490386542926743],[100.16241837012527,6.491103624089916],[100.16243726869376,6.491820704231992],[100.1624939125996,6.492535817890198],[100.16258814658576,6.493247005000168],[100.16271971236341,6.493952316268092],[100.16288824931995,6.494649818513421],[100.16309329550728,6.495337599967304],[100.16333428890803,6.496013775512155],[100.16361056897607,6.496676491848178],[100.16392137844691,6.497323932572591],[100.16426586541341,6.497954323157642],[100.16464308566077,6.498565935813729],[100.16505200525444,6.499157094224533],[100.16549150337428,6.499726178140744],[100.1659603753865,6.500271627820381],[100.1664573361455,6.500791948303002],[100.16698102351639,6.501285713506421],[100.16753000210846,6.501751570134673],[100.16810276720956,6.502188241386356],[100.16869774891036,6.502594530453449],[100.1693133164074,6.502969323800784],[100.16994778247292,6.503311594217361],[100.17059940807955,6.503620403631069],[100.17126640716683,6.503894905679185],[100.17194695153657,6.504134348027439],[100.17263917586399,6.504338074431537],[100.17334118281032,6.504505526535272],[100.17405104822328,6.504636245400545],[100.17476682641117,6.504729872764814],[100.1754865554757,6.504786152022762],[100.17620826268954,6.504804928929406],[100.17692996990337,6.504786152022762],[100.1776496989679,6.504729872764814],[100.17836547715578,6.504636245400545],[100.17907534256877,6.504505526535272],[100.17977734951508,6.504338074431537],[100.1804695738425,6.504134348027439],[100.18115011821224,6.503894905679185],[100.1818171172995,6.503620403631069],[100.18246874290614,6.503311594217361],[100.18310320897167,6.502969323800784],[100.1837187764687,6.502594530453449],[100.1843137581695,6.502188241386356],[100.18488652327062,6.501751570134673],[100.18543550186268,6.501285713506421],[100.18595918923357,6.500791948303002],[100.18645614999257,6.500271627820381],[100.18692502200479,6.499726178140744],[100.18736452012463,6.499157094224533],[100.18777343971831,6.498565935813729],[100.18815065996566,6.497954323157642],[100.18849514693217,6.497323932572591],[100.18880595640299,6.496676491848178],[100.18908223647104,6.496013775512155],[100.18932322987179,6.495337599967304],[100.18952827605911,6.494649818513421],[100.18969681301566,6.493952316268092],[100.18982837879332,6.493247005000168],[100.18992261277948,6.492535817890198],[100.1899792566853,6.491820704231992],[100.18999815525379,6.491103624089916]],[[100.232239058841,6.443811438448852],[100.23222044885274,6.443105241017771],[100.23216466989666,6.442400978245804],[100.232071874859,6.441700580480489],[100.2319423180845,6.441005967483424],[100.23177635467925,6.440319043168328],[100.23157443953748,6.439641690382114],[100.2313371260945,6.438975765743767],[100.23106506480997,6.438323094555032],[100.23075900138497,6.437685465796902],[100.23041977471806,6.437064627225434],[100.23004831460598,6.436462280580747],[100.22964563919504,6.435880076921842],[100.2292128521906,6.435319612100505],[100.22875113983172,6.434782422386323],[100.22826176763986,6.434269980255125],[100.22774607695025,6.43378369035217],[100.22720548123517,6.433324885641222],[100.22664146222994,6.432894823750266],[100.2260555658714,6.432494683523423],[100.2254493980608,6.43212556178921],[100.22482462026193,6.431788470353279],[100.22418294494733,6.431484333224434],[100.22352613090443,6.431213984081245],[100.22285597841484,6.430978163986404],[100.22217432432001,6.430777519354861],[100.22148303698638,6.43061260018153],[100.22078401118453,6.430483858533393],[100.22007916289554,6.430391647309925],[100.2193704240596,6.43033621927562],[100.21865973728062,6.430317726366911],[100.21794905050162,6.43033621927562],[100.21724031166569,6.430391647309925],[100.2165354633767,6.430483858533393],[100.21583643757484,6.43061260018153],[100.21514515024121,6.430777519354861],[100.21446349614638,6.430978163986404],[100.21379334365679,6.431213984081245],[100.21313652961389,6.431484333224434],[100.2124948542993,6.431788470353279],[100.21187007650042,6.43212556178921],[100.21126390868982,6.432494683523423],[100.21067801233129,6.432894823750266],[100.21011399332605,6.433324885641222],[100.20957339761098,6.43378369035217],[100.20905770692136,6.434269980255125],[100.20856833472952,6.434782422386323],[100.20810662237062,6.435319612100505],[100.20767383536618,6.435880076921842],[100.20727115995525,6.436462280580747],[100.20689969984316,6.437064627225434],[100.20656047317625,6.437685465796902],[100.20625440975125,6.438323094555032],[100.20598234846672,6.438975765743767],[100.20574503502374,6.439641690382114],[100.20554311988197,6.440319043168328],[100.20537715647671,6.441005967483424],[100.20524759970222,6.441700580480489],[100.20515480466457,6.442400978245804],[100.20509902570849,6.443105241017771],[100.20508041572023,6.443811438448852],[100.20509902570849,6.444517634896872],[100.20515480466457,6.445221894730389],[100.20524759970222,6.445922287634087],[100.20537715647671,6.446616893899597],[100.20554311988197,6.447303809686976],[100.20574503502374,6.447981152242758],[100.20598234846672,6.448647065060027],[100.20625440975125,6.449299722966536],[100.20656047317625,6.449937337126848],[100.20689969984316,6.450558159944814],[100.20727115995525,6.451160489852938],[100.20767383536618,6.451742675975562],[100.20810662237062,6.452303122653069],[100.20856833472952,6.452840293814618],[100.20905770692136,6.453352717187655],[100.20957339761098,6.453838988332474],[100.21011399332605,6.454297774490788],[100.21067801233129,6.454727818237914],[100.21126390868982,6.455127940928477],[100.21187007650042,6.455497045926114],[100.2124948542993,6.455834121608555],[100.21313652961389,6.456138244139582],[100.21379334365679,6.456408580000545],[100.21446349614638,6.456644388274309],[100.21514515024121,6.456845022675419],[100.21583643757484,6.457009933321022],[100.2165354633767,6.457138668237629],[100.21724031166569,6.457230874599467],[100.21794905050162,6.457286299695321],[100.21865973728062,6.457304791620958],[100.2193704240596,6.457286299695321],[100.22007916289554,6.457230874599467],[100.22078401118453,6.457138668237629],[100.22148303698638,6.457009933321022],[100.22217432432001,6.456845022675419],[100.22285597841484,6.456644388274309],[100.22352613090443,6.456408580000545],[100.22418294494733,6.456138244139582],[100.22482462026193,6.455834121608555],[100.2254493980608,6.455497045926114],[100.2260555658714,6.455127940928477],[100.22664146222994,6.454727818237914],[100.22720548123517,6.454297774490788],[100.22774607695025,6.453838988332474],[100.22826176763986,6.453352717187655],[100.22875113983172,6.452840293814618],[100.2292128521906,6.452303122653069],[100.22964563919504,6.451742675975562],[100.23004831460598,6.451160489852938],[100.23041977471806,6.450558159944814],[100.23075900138497,6.449937337126848],[100.23106506480997,6.449299722966536],[100.2313371260945,6.448647065060027],[100.23157443953748,6.447981152242758],[100.23177635467925,6.447303809686976],[100.2319423180845,6.446616893899597],[100.232071874859,6.445922287634087],[100.23216466989666,6.445221894730389],[100.23222044885274,6.444517634896872],[100.232239058841,6.443811438448852]],[[100.2075747649115,6.425631457291789],[100.2075569977989,6.424957220548722],[100.20750374515954,6.424284830951921],[100.20741515295518,6.423616131485574],[100.20729146401088,6.422952955026695],[100.20713301734948,6.422297119321047],[100.20694024726225,6.421650422000644],[100.20671368211859,6.421014635656126],[100.20645394291783,6.420391502977868],[100.20616174158705,6.419782731978858],[100.20583787902979,6.419189991312593],[100.2054832429308,6.418614905698884],[100.20509880532298,6.41805905146989],[100.2046856199231,6.417523952248883],[100.20424481924363,6.41701107477331],[100.20377761148855,6.416521824873935],[100.20328527724189,6.416057543620701],[100.20276916595756,6.415619503646178],[100.20223069226077,6.415208905656716],[100.20167133207043,6.414826875140506],[100.20109261855397,6.414474459282022],[100.20049613792493,6.414152624091036],[100.19988352509522,6.413862251754159],[100.19925645919405,6.413604138216192],[100.19861665896546,6.413378990997922],[100.19796587805739,6.413187427256266],[100.19730590021508,6.41302997209224],[100.19663853439197,6.412907057111314],[100.1959656097913,6.412819019239974],[100.19528897085272,6.412766099802031],[100.19461047219646,6.412748443856911],[100.1939319735402,6.412766099802031],[100.1932553346016,6.412819019239974],[100.19258241000095,6.412907057111314],[100.19191504417782,6.41302997209224],[100.19125506633551,6.413187427256266],[100.19060428542745,6.413378990997922],[100.18996448519887,6.413604138216192],[100.18933741929769,6.413862251754159],[100.18872480646797,6.414152624091036],[100.18812832583893,6.414474459282022],[100.18754961232248,6.414826875140506],[100.18699025213215,6.415208905656716],[100.18645177843534,6.415619503646178],[100.18593566715101,6.416057543620701],[100.18544333290437,6.416521824873935],[100.18497612514929,6.41701107477331],[100.1845353244698,6.417523952248883],[100.18412213906993,6.41805905146989],[100.1837377014621,6.418614905698884],[100.18338306536313,6.419189991312593],[100.18305920280586,6.419782731978858],[100.18276700147509,6.420391502977868],[100.18250726227431,6.421014635656126],[100.18228069713065,6.421650422000644],[100.18208792704344,6.422297119321047],[100.18192948038204,6.422952955026695],[100.18180579143774,6.423616131485574],[100.18171719923338,6.424284830951921],[100.181663946594,6.424957220548722],[100.1816461794814,6.425631457291789],[100.181663946594,6.426305693141299],[100.18171719923338,6.426978080067237],[100.18180579143774,6.427646775114648],[100.18192948038204,6.428309945454967],[100.18208792704344,6.428965773409438],[100.18228069713065,6.429612461430993],[100.18250726227431,6.430248237030845],[100.18276700147509,6.430871357636355],[100.18305920280586,6.43148011536683],[100.18338306536313,6.432072841714109],[100.1837377014621,6.432647912115276],[100.18412213906993,6.433203750404856],[100.1845353244698,6.433738833134204],[100.18497612514929,6.434251693746541],[100.18544333290437,6.434740926595877],[100.18593566715101,6.435205190799112],[100.18645177843534,6.435643213910399],[100.18699025213215,6.436053795408188],[100.18754961232248,6.436435809984984],[100.18812832583893,6.436788210630927],[100.18872480646797,6.437110031502927],[100.18933741929769,6.437400390571256],[100.18996448519887,6.437658492036486],[100.19060428542745,6.437883628510105],[100.19125506633551,6.438075182952913],[100.19191504417782,6.438232630365761],[100.19258241000095,6.438355539228114],[100.1932553346016,6.438443572680531],[100.1939319735402,6.438496489447609],[100.19461047219646,6.43851414449916],[100.19528897085272,6.438496489447609],[100.1959656097913,6.438443572680531],[100.19663853439197,6.438355539228114],[100.19730590021508,6.438232630365761],[100.19796587805739,6.438075182952913],[100.19861665896546,6.437883628510105],[100.19925645919405,6.437658492036486],[100.19988352509522,6.437400390571256],[100.20049613792493,6.437110031502927],[100.20109261855397,6.436788210630927],[100.20167133207043,6.436435809984984],[100.20223069226077,6.436053795408188],[100.20276916595756,6.435643213910399],[100.20328527724189,6.435205190799112],[100.20377761148855,6.434740926595877],[100.20424481924363,6.434251693746541],[100.2046856199231,6.433738833134204],[100.20509880532298,6.433203750404856],[100.2054832429308,6.432647912115276],[100.20583787902979,6.432072841714109],[100.20616174158705,6.43148011536683],[100.20645394291783,6.430871357636355],[100.20671368211859,6.430248237030845],[100.20694024726225,6.429612461430993],[100.20713301734948,6.428965773409438],[100.20729146401088,6.428309945454967],[100.20741515295518,6.427646775114648],[100.20750374515954,6.426978080067237],[100.2075569977989,6.426305693141299],[100.2075747649115,6.425631457291789]],[[100.15397931989976,6.41086848752161],[100.15396139869175,6.410188383361048],[100.15390768418852,6.40951014241546],[100.15381832361777,6.408835623707366],[100.15369356191064,6.408166676064194],[100.15353374103026,6.407505133050505],[100.1533392990346,6.406852807942124],[100.15311076887564,6.406211488755661],[100.15284877693861,6.405582933347264],[100.15255404132526,6.404968864594029],[100.15222736988541,6.404370965671042],[100.15186965800275,6.403790875437418],[100.1514818861407,6.403230183943584],[100.15106511715497,6.402690428072403],[100.15062049338039,6.402173087325933],[100.15014923349982,6.401679579769453],[100.14965262920381,6.40121125814392],[100.14913204165029,6.400769406157363],[100.14858889773348,6.400355234965615],[100.1480246861731,6.399969879851791],[100.14744095343389,6.399614397113838],[100.14683929948666,6.3992897611686],[100.14622137342307,6.398996861880215],[100.14558886893552,6.398736502120527],[100.14494351967483,6.398509395567803],[100.14428709449847,6.398316164750014],[100.14362139262224,6.398157339338123],[100.14294823868866,6.398033354693784],[100.14226947776592,6.397944550675788],[100.14158697029052,6.397891170708121],[100.14090258696801,6.397873361112707],[100.1402182036455,6.397891170708121],[100.1395356961701,6.397944550675788],[100.13885693524736,6.398033354693784],[100.13818378131378,6.398157339338123],[100.13751807943756,6.398316164750014],[100.1368616542612,6.398509395567803],[100.1362163050005,6.398736502120527],[100.13558380051295,6.398996861880215],[100.13496587444936,6.3992897611686],[100.13436422050214,6.399614397113838],[100.13378048776292,6.399969879851791],[100.13321627620255,6.400355234965615],[100.13267313228573,6.400769406157363],[100.13215254473221,6.40121125814392],[100.13165594043622,6.401679579769453],[100.13118468055563,6.402173087325933],[100.13074005678105,6.402690428072403],[100.13032328779532,6.403230183943584],[100.12993551593327,6.403790875437418],[100.12957780405063,6.404370965671042],[100.12925113261076,6.404968864594029],[100.12895639699741,6.405582933347264],[100.12869440506039,6.406211488755661],[100.12846587490142,6.406852807942124],[100.12827143290576,6.407505133050505],[100.12811161202538,6.408166676064194],[100.12798685031825,6.408835623707366],[100.1278974897475,6.40951014241546],[100.12784377524427,6.410188383361048],[100.12782585403626,6.41086848752161],[100.12784377524427,6.411548590775103],[100.1278974897475,6.412226829009422],[100.12798685031825,6.41290134323175],[100.12811161202538,6.413570284663832],[100.12827143290576,6.414231819809122],[100.12846587490142,6.414884135478024],[100.12869440506039,6.415525443757348],[100.12895639699741,6.416153986910418],[100.12925113261076,6.416768042194462],[100.12957780405063,6.41736592658192],[100.12993551593327,6.417946001372947],[100.13032328779532,6.418506676686307],[100.13074005678105,6.419046415816408],[100.13118468055563,6.419563739444636],[100.13165594043622,6.420057229693239],[100.13215254473221,6.420525534010892],[100.13267313228573,6.420967368879207],[100.13321627620255,6.42138152332989],[100.13378048776292,6.421766862263239],[100.13436422050214,6.422122329558582],[100.13496587444936,6.422446950968303],[100.13558380051295,6.422739836787472],[100.1362163050005,6.423000184291847],[100.1368616542612,6.42322727993743],[100.13751807943756,6.42342050131574],[100.13818378131378,6.423579318859232],[100.13885693524736,6.423703297292469],[100.1395356961701,6.423792096824712],[100.1402182036455,6.42384547408111],[100.14090258696801,6.423863282769456],[100.14158697029052,6.42384547408111],[100.14226947776592,6.423792096824712],[100.14294823868866,6.423703297292469],[100.14362139262224,6.423579318859232],[100.14428709449847,6.42342050131574],[100.14494351967483,6.42322727993743],[100.14558886893552,6.423000184291847],[100.14622137342307,6.422739836787472],[100.14683929948666,6.422446950968303],[100.14744095343389,6.422122329558582],[100.1480246861731,6.421766862263239],[100.14858889773348,6.42138152332989],[100.14913204165029,6.420967368879207],[100.14965262920381,6.420525534010892],[100.15014923349982,6.420057229693239],[100.15062049338039,6.419563739444636],[100.15106511715497,6.419046415816408],[100.1514818861407,6.418506676686307],[100.15186965800275,6.417946001372947],[100.15222736988541,6.41736592658192],[100.15255404132526,6.416768042194462],[100.15284877693861,6.416153986910418],[100.15311076887564,6.415525443757348],[100.1533392990346,6.414884135478024],[100.15353374103026,6.414231819809122],[100.15369356191064,6.413570284663832],[100.15381832361777,6.41290134323175],[100.15390768418852,6.412226829009422],[100.15396139869175,6.411548590775103],[100.15397931989976,6.41086848752161]],[[100.18611815540658,6.403779647119284],[100.186101028717,6.403129685670367],[100.18604969559134,6.402481504896552],[100.18596429673012,6.401836881426551],[100.18584506620564,6.401197582145355],[100.18569233082056,6.400565359351209],[100.1855065092119,6.399941945952397],[100.1852881107038,6.399329050717127],[100.18503773391134,6.398728353589559],[100.18475606509998,6.398141501084735],[100.1844438763043,6.397570101775072],[100.1841020232121,6.397015721880827],[100.18373144281897,6.396479880976617],[100.18333315085997,6.395964047825738],[100.18290823902568,6.395469636353695],[100.18245787196994,6.394998001772092],[100.1819832841175,6.394550436863331],[100.1814857762807,6.394128168436511],[100.18096671209392,6.393732353964117],[100.18042751427606,6.393364078408768],[100.1798696607308,6.393024351248724],[100.17929468049599,6.392714103710284],[100.17870414955243,6.392434186214801],[100.17809968650444,6.392185366047046],[100.1774829481432,6.391968325251656],[100.17685562490564,6.391783658763189],[100.17621943624124,6.39163187277495],[100.17557612589886,6.391513383351199],[100.17492745714742,6.391428515286467],[100.17427520794291,6.391377501214996],[100.17362116605503,6.391360480972937],[100.17296712416716,6.391377501214996],[100.17231487496265,6.391428515286467],[100.1716662062112,6.391513383351199],[100.17102289586882,6.39163187277495],[100.17038670720441,6.391783658763189],[100.16975938396688,6.391968325251656],[100.16914264560562,6.392185366047046],[100.16853818255761,6.392434186214801],[100.16794765161409,6.392714103710284],[100.16737267137925,6.393024351248724],[100.16681481783401,6.393364078408768],[100.16627562001612,6.393732353964117],[100.16575655582936,6.394128168436511],[100.16525904799256,6.394550436863331],[100.16478446014013,6.394998001772092],[100.16433409308438,6.395469636353695],[100.16390918125009,6.395964047825738],[100.16351088929109,6.396479880976617],[100.16314030889794,6.397015721880827],[100.16279845580576,6.397570101775072],[100.16248626701008,6.398141501084735],[100.1622045981987,6.398728353589559],[100.16195422140626,6.399329050717127],[100.16173582289815,6.399941945952397],[100.1615500012895,6.400565359351209],[100.1613972659044,6.401197582145355],[100.16127803537995,6.401836881426551],[100.16119263651872,6.402481504896552],[100.16114130339305,6.403129685670367],[100.16112417670347,6.403779647119284],[100.16114130339305,6.404429607740684],[100.16119263651872,6.405077786040981],[100.16127803537995,6.405722405418614],[100.1613972659044,6.406361699033398],[100.1615500012895,6.406993914649171],[100.16173582289815,6.4076173194363],[100.16195422140626,6.408230204720925],[100.1622045981987,6.408830890667915],[100.16248626701008,6.409417730884717],[100.16279845580576,6.409989116933554],[100.16314030889794,6.410543482739455],[100.16351088929109,6.411079308882151],[100.16390918125009,6.41159512676007],[100.16433409308438,6.412089522615055],[100.16478446014013,6.412561141406604],[100.16525904799256,6.41300869052531],[100.16575655582936,6.413430943335072],[100.16627562001612,6.413826742534519],[100.16681481783401,6.414195003328341],[100.16737267137925,6.414534716400042],[100.16794765161409,6.414844950677643],[100.16853818255761,6.415124855885117],[100.16914264560562,6.415373664872292],[100.16975938396688,6.415590695717038],[100.17038670720441,6.415775353593822],[100.17102289586882,6.415927132403689],[100.1716662062112,6.416045616161027],[100.17231487496265,6.416130480133377],[100.17296712416716,6.416181491731357],[100.17362116605503,6.416198511145886],[100.17427520794291,6.416181491731357],[100.17492745714742,6.416130480133377],[100.17557612589886,6.416045616161027],[100.17621943624124,6.415927132403689],[100.17685562490564,6.415775353593822],[100.1774829481432,6.415590695717038],[100.17809968650444,6.415373664872292],[100.17870414955243,6.415124855885117],[100.17929468049599,6.414844950677643],[100.1798696607308,6.414534716400042],[100.18042751427606,6.414195003328341],[100.18096671209392,6.413826742534519],[100.1814857762807,6.413430943335072],[100.1819832841175,6.41300869052531],[100.18245787196994,6.412561141406604],[100.18290823902568,6.412089522615055],[100.18333315085997,6.41159512676007],[100.18373144281897,6.411079308882151],[100.1841020232121,6.410543482739455],[100.1844438763043,6.409989116933554],[100.18475606509998,6.409417730884717],[100.18503773391134,6.408830890667915],[100.1852881107038,6.408230204720925],[100.1855065092119,6.4076173194363],[100.18569233082056,6.406993914649171],[100.18584506620564,6.406361699033398],[100.18596429673012,6.405722405418614],[100.18604969559134,6.405077786040981],[100.186101028717,6.404429607740684],[100.18611815540658,6.403779647119284]],[[100.32716120341647,6.446178284223305],[100.32714323356561,6.445496381429084],[100.32708937326717,6.444816346769953],[100.32699977014845,6.444140044184993],[100.3268746698054,6.443469327391282],[100.32671441512935,6.44280603480282],[100.32651944536724,6.442151984491225],[100.32629029491761,6.441508969202187],[100.32602759186594,6.440878751441276],[100.32573205626305,6.440263058642472],[100.32540449815143,6.43966357843291],[100.32504581534512,6.439081954006523],[100.32465699096879,6.438519779619551],[100.324239090763,6.437978596220103],[100.32379326016317,6.437459887223702],[100.32332072115999,6.436965074446713],[100.32282276895,6.436495514208343],[100.32230076838566,6.436052493612386],[100.32175615023414,6.435637227018496],[100.321190407256,6.43525085271296],[100.32060509011339,6.43489442978798],[100.32000180311994,6.434568935238075],[100.31938219984336,6.434275261281412],[100.31874797857316,6.434014212913748],[100.31810087766573,6.433786505701302],[100.31744267077971,6.433592763818946],[100.3167751620144,6.433433518338807],[100.31610018096497,6.433309205774292],[100.31541957770749,6.433220166883276],[100.31473521772823,6.433166645733712],[100.31404897681034,6.433148789034625],[100.31336273589244,6.433166645733712],[100.31267837591318,6.433220166883276],[100.31199777265572,6.433309205774292],[100.31132279160627,6.433433518338807],[100.31065528284097,6.433592763818946],[100.30999707595494,6.433786505701302],[100.30934997504752,6.434014212913748],[100.30871575377732,6.434275261281412],[100.30809615050073,6.434568935238075],[100.30749286350728,6.43489442978798],[100.30690754636468,6.43525085271296],[100.30634180338653,6.435637227018496],[100.30579718523502,6.436052493612386],[100.30527518467066,6.436495514208343],[100.30477723246068,6.436965074446713],[100.30430469345751,6.437459887223702],[100.30385886285767,6.437978596220103],[100.30344096265188,6.438519779619551],[100.30305213827555,6.439081954006523],[100.30269345546925,6.43966357843291],[100.30236589735763,6.440263058642472],[100.30207036175473,6.440878751441276],[100.30180765870305,6.441508969202187],[100.30157850825344,6.442151984491225],[100.30138353849132,6.44280603480282],[100.30122328381528,6.443469327391282],[100.30109818347223,6.444140044184993],[100.30100858035351,6.444816346769953],[100.30095472005506,6.445496381429084],[100.3009367502042,6.446178284223305],[100.30095472005506,6.446860186100585],[100.30100858035351,6.447540218018943],[100.30109818347223,6.44821651606936],[100.30122328381528,6.448887226584376],[100.30138353849132,6.449550511218844],[100.30157850825344,6.450204551988253],[100.30180765870305,6.450847556251467],[100.30207036175473,6.451477761623734],[100.30236589735763,6.452093440806775],[100.30269345546925,6.45269290632267],[100.30305213827555,6.453274515138437],[100.30344096265188,6.453836673168885],[100.30385886285767,6.454377839645137],[100.30430469345751,6.454896531337017],[100.30477723246068,6.455391326617826],[100.30527518467066,6.455860869360002],[100.30579718523502,6.456303872651465],[100.30634180338653,6.456719122322145],[100.30690754636468,6.45710548027117],[100.30749286350728,6.457461887585517],[100.30809615050073,6.457787367441755],[100.30871575377732,6.458081027782667],[100.30934997504752,6.458342063761675],[100.30999707595494,6.458569759948309],[100.31065528284097,6.45876349228848],[100.31132279160627,6.458922729814624],[100.31199777265572,6.459047036100444],[100.31267837591318,6.459136070456905],[100.31336273589244,6.459189588865709],[100.31404897681034,6.459207444647867],[100.31473521772823,6.459189588865709],[100.31541957770749,6.459136070456905],[100.31610018096497,6.459047036100444],[100.3167751620144,6.458922729814624],[100.31744267077971,6.45876349228848],[100.31810087766573,6.458569759948309],[100.31874797857316,6.458342063761675],[100.31938219984336,6.458081027782667],[100.32000180311994,6.457787367441755],[100.32060509011339,6.457461887585517],[100.321190407256,6.45710548027117],[100.32175615023414,6.456719122322145],[100.32230076838566,6.456303872651465],[100.32282276895,6.455860869360002],[100.32332072115999,6.455391326617826],[100.32379326016317,6.454896531337017],[100.324239090763,6.454377839645137],[100.32465699096879,6.453836673168885],[100.32504581534512,6.453274515138437],[100.32540449815143,6.45269290632267],[100.32573205626305,6.452093440806775],[100.32602759186594,6.451477761623734],[100.32629029491761,6.450847556251467],[100.32651944536724,6.450204551988253],[100.32671441512935,6.449550511218844],[100.3268746698054,6.448887226584376],[100.32699977014845,6.44821651606936],[100.32708937326717,6.447540218018943],[100.32714323356561,6.446860186100585],[100.32716120341647,6.446178284223305]],[[100.24772117221755,6.408701050060378],[100.2477040391581,6.408050853143383],[100.24765268694024,6.407402437545679],[100.24756725631687,6.406757580539607],[100.24744798144738,6.406118049650267],[100.24729518925587,6.405485597810792],[100.24710929853515,6.404861958557293],[100.24689081879875,6.404248841277107],[100.24664034888443,6.403647926523035],[100.24635857531283,6.403060861406694],[100.24604627040571,6.402489255083326],[100.24570429016913,6.401934674340692],[100.24533357194716,6.401398639303999],[100.24493513185263,6.400882619268764],[100.24451006198217,6.400388028672793],[100.24405952742278,6.399916223218752],[100.24358476305832,6.399468496157489],[100.24308707018494,6.399046074742669],[100.2425678129442,6.398650116866201],[100.24202841458413,6.398281707883835],[100.2414703535581,6.397941857639658],[100.2408951594726,6.397631497697414],[100.2403044088947,6.397351478786611],[100.23969972103056,6.397102568470106],[100.2390827532877,6.396885449039674],[100.23845519673175,6.396700715645452],[100.23781877145161,6.396548874664202],[100.23717522184475,6.396430342310966],[100.23652631183592,6.396345443497967],[100.23587382004233,6.396294410943732],[100.23521953489865,6.396277384535125],[100.23456524975497,6.396294410943732],[100.23391275796138,6.396345443497967],[100.23326384795253,6.396430342310966],[100.23262029834568,6.396548874664202],[100.23198387306556,6.396700715645452],[100.23135631650959,6.396885449039674],[100.23073934876672,6.397102568470106],[100.2301346609026,6.397351478786611],[100.22954391032468,6.397631497697414],[100.2289687162392,6.397941857639658],[100.22841065521317,6.398281707883835],[100.22787125685309,6.398650116866201],[100.22735199961235,6.399046074742669],[100.22685430673899,6.399468496157489],[100.22637954237453,6.399916223218752],[100.22592900781511,6.400388028672793],[100.22550393794468,6.400882619268764],[100.22510549785015,6.401398639303999],[100.22473477962816,6.401934674340692],[100.22439279939158,6.402489255083326],[100.22408049448447,6.403060861406694],[100.22379872091288,6.403647926523035],[100.22354825099856,6.404248841277107],[100.22332977126216,6.404861958557293],[100.22314388054143,6.405485597810792],[100.22299108834993,6.406118049650267],[100.22287181348044,6.406757580539607],[100.22278638285705,6.407402437545679],[100.22273503063921,6.408050853143383],[100.22271789757976,6.408701050060378],[100.22273503063921,6.409351246148597],[100.22278638285705,6.409999659269081],[100.22287181348044,6.410644512176652],[100.22299108834993,6.411284037391068],[100.22314388054143,6.411916482041396],[100.22332977126216,6.412540112670298],[100.22354825099856,6.413153219984929],[100.22379872091288,6.413754123541642],[100.22408049448447,6.414341176351527],[100.22439279939158,6.41491276939417],[100.22473477962816,6.415467336027317],[100.22510549785015,6.416003356280333],[100.22550393794468,6.416519361019721],[100.22592900781511,6.417013935975213],[100.22637954237453,6.417485725615498],[100.22685430673899,6.417933436863017],[100.22735199961235,6.418355842637346],[100.22787125685309,6.418751785217953],[100.22841065521317,6.419120179416656],[100.2289687162392,6.419460015551357],[100.22954391032468,6.419770362212879],[100.2301346609026,6.420050368817212],[100.23073934876672,6.420299267936383],[100.23135631650959,6.420516377401247],[100.23198387306556,6.42070110217086],[100.23262029834568,6.420852935962963],[100.23326384795253,6.420971462641288],[100.23391275796138,6.421056357355774],[100.23456524975497,6.421107387432788],[100.23521953489865,6.421124413012645],[100.23587382004233,6.421107387432788],[100.23652631183592,6.421056357355774],[100.23717522184475,6.420971462641288],[100.23781877145161,6.420852935962963],[100.23845519673175,6.42070110217086],[100.2390827532877,6.420516377401247],[100.23969972103056,6.420299267936383],[100.2403044088947,6.420050368817212],[100.2408951594726,6.419770362212879],[100.2414703535581,6.419460015551357],[100.24202841458413,6.419120179416656],[100.2425678129442,6.418751785217953],[100.24308707018494,6.418355842637346],[100.24358476305832,6.417933436863017],[100.24405952742278,6.417485725615498],[100.24451006198217,6.417013935975213],[100.24493513185263,6.416519361019721],[100.24533357194716,6.416003356280333],[100.24570429016913,6.415467336027317],[100.24604627040571,6.41491276939417],[100.24635857531283,6.414341176351527],[100.24664034888443,6.413754123541642],[100.24689081879875,6.413153219984929],[100.24710929853515,6.412540112670298],[100.24729518925587,6.411916482041396],[100.24744798144738,6.411284037391068],[100.24756725631687,6.410644512176652],[100.24765268694024,6.409999659269081],[100.2477040391581,6.409351246148597],[100.24772117221755,6.408701050060378]],[[100.26720710587594,6.371258577408734],[100.26719125711561,6.370657075453852],[100.26714375427504,6.370057221471864],[100.26706472755615,6.369460659629587],[100.26695439356571,6.368869025075943],[100.26681305472152,6.368283939459993],[100.26664109842353,6.367707006485929],[100.266438995992,6.367139807517118],[100.26620730137564,6.366583897241357],[100.26594664963329,6.366040799409241],[100.26565775519326,6.365512002657188],[100.26534140989513,6.364998956426752],[100.26499848081937,6.364503066991303],[100.26462990791075,6.364025693600961],[100.26423670140198,6.363568144756443],[100.26381993904477,6.363131674621945],[100.2633807631558,6.362717479586977],[100.2629203774856,6.362326694986589],[100.26244004391933,6.361960391988785],[100.2619410790179,6.361619574658016],[100.26142485040944,6.361305177202499],[100.26089277304067,6.361018061413041],[100.26034630529864,6.360759014300433],[100.2597869450135,6.360528745937729],[100.25921622535287,6.360327887513588],[100.2586357106197,6.36015698960177],[100.2580469919645,6.360016520651622],[100.25745168302419,6.359906865703903],[100.2568514154992,6.359828325334962],[100.25624783468112,6.359781114832818],[100.25564259494294,6.359765363606798],[100.25503735520478,6.359781114832818],[100.25443377438668,6.359828325334962],[100.2538335068617,6.359906865703903],[100.25323819792138,6.360016520651622],[100.2526494792662,6.36015698960177],[100.25206896453302,6.360327887513588],[100.2514982448724,6.360528745937729],[100.25093888458724,6.360759014300433],[100.25039241684522,6.361018061413041],[100.24986033947646,6.361305177202499],[100.24934411086798,6.361619574658016],[100.24884514596656,6.361960391988785],[100.24836481240028,6.362326694986589],[100.2479044267301,6.362717479586977],[100.24746525084113,6.363131674621945],[100.24704848848391,6.363568144756443],[100.24665528197515,6.364025693600961],[100.24628670906651,6.364503066991303],[100.24594377999077,6.364998956426752],[100.24562743469262,6.365512002657188],[100.24533854025259,6.366040799409241],[100.24507788851025,6.366583897241357],[100.24484619389388,6.367139807517118],[100.24464409146235,6.367707006485929],[100.24447213516437,6.368283939459993],[100.24433079632018,6.368869025075943],[100.24422046232974,6.369460659629587],[100.24414143561086,6.370057221471864],[100.24409393277027,6.370657075453852],[100.24407808400994,6.371258577408734],[100.24409393277027,6.371860078658539],[100.24414143561086,6.37245993053295],[100.24422046232974,6.373056488888285],[100.24433079632018,6.37364811861382],[100.24447213516437,6.374233198113373],[100.24464409146235,6.37481012374977],[100.24484619389388,6.375377314240062],[100.24507788851025,6.375933214989312],[100.24533854025259,6.376476302351321],[100.24562743469262,6.377005087804377],[100.24594377999077,6.377518122030713],[100.24628670906651,6.378013998888492],[100.24665528197515,6.378491359265379],[100.24704848848391,6.378948894803258],[100.24746525084113,6.379385351483704],[100.2479044267301,6.37979953306462],[100.24836481240028,6.380190304358369],[100.24884514596656,6.380556594342729],[100.24934411086798,6.380897399095831],[100.24986033947646,6.381211784547247],[100.25039241684522,6.381498889037695],[100.25093888458724,6.381757925680198],[100.2514982448724,6.381988184516389],[100.25206896453302,6.382189034461999],[100.2526494792662,6.382359925036175],[100.25323819792138,6.382500387869913],[100.2538335068617,6.382610037989537],[100.25443377438668,6.382688574871522],[100.25503735520478,6.382735783266103],[100.25564259494294,6.382751533787032],[100.25624783468112,6.382735783266103],[100.2568514154992,6.382688574871522],[100.25745168302419,6.382610037989537],[100.2580469919645,6.382500387869913],[100.2586357106197,6.382359925036175],[100.25921622535287,6.382189034461999],[100.2597869450135,6.381988184516389],[100.26034630529864,6.381757925680198],[100.26089277304067,6.381498889037695],[100.26142485040944,6.381211784547247],[100.2619410790179,6.380897399095831],[100.26244004391933,6.380556594342729],[100.2629203774856,6.380190304358369],[100.2633807631558,6.37979953306462],[100.26381993904477,6.379385351483704],[100.26423670140198,6.378948894803258],[100.26462990791075,6.378491359265379],[100.26499848081937,6.378013998888492],[100.26534140989513,6.377518122030713],[100.26565775519326,6.377005087804377],[100.26594664963329,6.376476302351321],[100.26620730137564,6.375933214989312],[100.266438995992,6.375377314240062],[100.26664109842353,6.37481012374977],[100.26681305472152,6.374233198113373],[100.26695439356571,6.37364811861382],[100.26706472755615,6.373056488888285],[100.26714375427504,6.37245993053295],[100.26719125711561,6.371860078658539],[100.26720710587594,6.371258577408734]],[[100.18627432304014,6.352070252543335],[100.1862590442617,6.351490361254132],[100.1862132498044,6.35091205875602],[100.1861370651877,6.350336930144062],[100.18603069922833,6.349766551819091],[100.18589444346794,6.349202487166909],[100.18572867137419,6.34864628227283],[100.18553383731681,6.348099461683785],[100.18531047532241,6.347563524229309],[100.18505919761073,6.347039938912957],[100.18478069291645,6.346530140885577],[100.18447572460163,6.346035527511134],[100.18414512856319,6.3455574545362],[100.1837898109419,6.345097232373425],[100.18341074563868,6.344656122509267],[100.18300897164515,6.344235334045812],[100.18258559019594,6.343836020386201],[100.18214176175013,6.343459276072541],[100.18167870281064,6.343106133785419],[100.18119768258988,6.342777561512783],[100.18070001953082,6.342474459896208],[100.18018707769328,6.34219765976178],[100.17966026301521,6.341947919842381],[100.17912101945905,6.341725924697561],[100.17857082505384,6.341532282836781],[100.17801118784426,6.341367525051169],[100.17744364175698,6.341232102958218],[100.17686974239639,6.341126387763723],[100.1762910627807,6.341050669244038],[100.17570918903057,6.341005154951604],[100.17512571602147,6.340989969645952],[100.17454224301237,6.341005154951604],[100.17396036926223,6.341050669244038],[100.17338168964656,6.341126387763723],[100.17280779028597,6.341232102958218],[100.17224024419868,6.341367525051169],[100.1716806069891,6.341532282836781],[100.1711304125839,6.341725924697561],[100.17059116902773,6.341947919842381],[100.17006435434968,6.34219765976178],[100.16955141251212,6.342474459896208],[100.16905374945306,6.342777561512783],[100.1685727292323,6.343106133785419],[100.16810967029281,6.343459276072541],[100.16766584184701,6.343836020386201],[100.16724246039779,6.344235334045812],[100.16684068640426,6.344656122509267],[100.16646162110104,6.345097232373425],[100.16610630347975,6.3455574545362],[100.16577570744131,6.346035527511134],[100.1654707391265,6.346530140885577],[100.16519223443221,6.347039938912957],[100.16494095672053,6.347563524229309],[100.16471759472613,6.348099461683785],[100.16452276066875,6.34864628227283],[100.164356988575,6.349202487166909],[100.16422073281461,6.349766551819091],[100.16411436685526,6.350336930144062],[100.16403818223854,6.35091205875602],[100.16399238778124,6.351490361254132],[100.1639771090028,6.352070252543335],[100.16399238778124,6.352650143179202],[100.16403818223854,6.353228443724415],[100.16411436685526,6.353803569105337],[100.16422073281461,6.354373942956502],[100.164356988575,6.354938001941152],[100.16452276066875,6.355494200036056],[100.16471759472613,6.356041012768788],[100.16494095672053,6.356576941395901],[100.16519223443221,6.357100517010506],[100.1654707391265,6.357610304568086],[100.16577570744131,6.358104906819378],[100.16610630347975,6.358582968139678],[100.16646162110104,6.359043178244028],[100.16684068640426,6.359484275778079],[100.16724246039779,6.359905051774829],[100.16766584184701,6.36030435296776],[100.16810967029281,6.3606810849513],[100.1685727292323,6.361034215179997],[100.16905374945306,6.361362775797987],[100.16955141251212,6.361665866291424],[100.17006435434968,6.361942655956051],[100.17059116902773,6.362192386173716],[100.1711304125839,6.362414372491147],[100.1716806069891,6.362608006495615],[100.17224024419868,6.362772757482054],[100.17280779028597,6.362908173907472],[100.17338168964656,6.363013884628173],[100.17396036926223,6.363089599916822],[100.17454224301237,6.363135112256344],[100.17512571602147,6.363150296908659],[100.17570918903057,6.363135112256344],[100.1762910627807,6.363089599916822],[100.17686974239639,6.363013884628173],[100.17744364175698,6.362908173907472],[100.17801118784426,6.362772757482054],[100.17857082505384,6.362608006495615],[100.17912101945905,6.362414372491147],[100.17966026301521,6.362192386173716],[100.18018707769328,6.361942655956051],[100.18070001953082,6.361665866291424],[100.18119768258988,6.361362775797987],[100.18167870281064,6.361034215179997],[100.18214176175013,6.3606810849513],[100.18258559019594,6.36030435296776],[100.18300897164515,6.359905051774829],[100.18341074563868,6.359484275778079],[100.1837898109419,6.359043178244028],[100.18414512856319,6.358582968139678],[100.18447572460163,6.358104906819378],[100.18478069291645,6.357610304568086],[100.18505919761073,6.357100517010506],[100.18531047532241,6.356576941395901],[100.18553383731681,6.356041012768788],[100.18572867137419,6.355494200036056],[100.18589444346794,6.354938001941152],[100.18603069922833,6.354373942956502],[100.1861370651877,6.353803569105337],[100.1862132498044,6.353228443724415],[100.1862590442617,6.352650143179202],[100.18627432304014,6.352070252543335]],[[100.20633120615949,6.305495448192812],[100.20631612577782,6.304923035263627],[100.20627092596705,6.304352190649238],[100.20619573061673,6.303784479002874],[100.2060907458321,6.303221456395581],[100.20595625936913,6.302664666051013],[100.2057926398459,6.302115634115362],[100.20560033573213,6.30157586547405],[100.20537987412004,6.301046839626632],[100.20513185927956,6.30053000663129],[100.20485697100217,6.300026783129892],[100.2045559627375,6.299538548464678],[100.20422965952828,6.29906664089711],[100.20387895574895,6.298612353939324],[100.20350481265416,6.298176932808157],[100.20310825574417,6.29776157101164],[100.20269037195384,6.29736740707708],[100.20225230667366,6.296995521429883],[100.20179526061007,6.296646933431717],[100.20132048649458,6.296322598585913],[100.20082928565006,6.296023405917976],[100.20032300442381,6.295750175538328],[100.19980303049756,6.295503656394027],[100.19927078908366,6.295284524215365],[100.19872773901884,6.295093379663437],[100.19817536876558,6.294930746683359],[100.19761519233232,6.294797071067753],[100.19704874512377,6.294692719234714],[100.19647757973235,6.294617977223075],[100.19590326168266,6.294573049908316],[100.1953273651406,6.294558060440842],[100.19475146859854,6.294573049908316],[100.19417715054885,6.294617977223075],[100.19360598515742,6.294692719234714],[100.19303953794886,6.294797071067753],[100.19247936151564,6.294930746683359],[100.19192699126236,6.295093379663437],[100.19138394119753,6.295284524215365],[100.19085169978362,6.295503656394027],[100.19033172585738,6.295750175538328],[100.18982544463115,6.296023405917976],[100.18933424378662,6.296322598585913],[100.18885946967112,6.296646933431717],[100.18840242360754,6.296995521429883],[100.18796435832735,6.29736740707708],[100.18754647453703,6.29776157101164],[100.18714991762702,6.298176932808157],[100.18677577453224,6.298612353939324],[100.18642507075292,6.29906664089711],[100.1860987675437,6.299538548464678],[100.18579775927903,6.300026783129892],[100.18552287100164,6.30053000663129],[100.18527485616117,6.301046839626632],[100.18505439454907,6.30157586547405],[100.1848620904353,6.302115634115362],[100.18469847091207,6.302664666051013],[100.18456398444911,6.303221456395581],[100.18445899966447,6.303784479002874],[100.18438380431415,6.304352190649238],[100.18433860450338,6.304923035263627],[100.18432352412171,6.305495448192812],[100.18433860450338,6.306067860490084],[100.18438380431415,6.306638703215694],[100.18445899966447,6.307206411737075],[100.18456398444911,6.30776943001744],[100.18469847091207,6.308326214880537],[100.1848620904353,6.308875240240227],[100.18505439454907,6.309415001283142],[100.18527485616117,6.30994401859296],[100.18552287100164,6.310460842205054],[100.18579775927903,6.310964055580356],[100.1860987675437,6.311452279487584],[100.18642507075292,6.311924175783114],[100.18677577453224,6.312378451078341],[100.18714991762702,6.31281386028417],[100.18754647453703,6.313229210023255],[100.18796435832735,6.313623361900383],[100.18840242360754,6.313995235622244],[100.18885946967112,6.314343811957849],[100.18933424378662,6.314668135531627],[100.18982544463115,6.314967317441568],[100.19033172585738,6.315240537695118],[100.19085169978362,6.315487047456185],[100.19138394119753,6.315706171097246],[100.19192699126236,6.315897308050765],[100.19247936151564,6.316059934454895],[100.19303953794886,6.316193604589017],[100.19360598515742,6.316297952095141],[100.19417715054885,6.316372690981797],[100.19475146859854,6.316417616407763],[100.1953273651406,6.316432605243337],[100.19590326168266,6.316417616407763],[100.19647757973235,6.316372690981797],[100.19704874512377,6.316297952095141],[100.19761519233232,6.316193604589017],[100.19817536876558,6.316059934454895],[100.19872773901884,6.315897308050765],[100.19927078908366,6.315706171097246],[100.19980303049756,6.315487047456185],[100.20032300442381,6.315240537695118],[100.20082928565006,6.314967317441568],[100.20132048649458,6.314668135531627],[100.20179526061007,6.314343811957849],[100.20225230667366,6.313995235622244],[100.20269037195384,6.313623361900383],[100.20310825574417,6.313229210023255],[100.20350481265416,6.31281386028417],[100.20387895574895,6.312378451078341],[100.20422965952828,6.311924175783114],[100.2045559627375,6.311452279487584],[100.20485697100217,6.310964055580356],[100.20513185927956,6.310460842205054],[100.20537987412004,6.30994401859296],[100.20560033573213,6.309415001283142],[100.2057926398459,6.308875240240227],[100.20595625936913,6.308326214880537],[100.2060907458321,6.30776943001744],[100.20619573061673,6.307206411737075],[100.20627092596705,6.306638703215694],[100.20631612577782,6.306067860490084],[100.20633120615949,6.305495448192812]]],"bbox":[100.12782585403626,6.294558060440842,100.32716120341647,6.660719028268438]}
