{"type":"Topology","objects":{"PLS_SE-13":{"type":"GeometryCollection","geometries":[{"type":"Polygon","arcs":[[0]],"properties":{"state":"Perlis","parlimen":"P.001 Padang Besar","code_parlimen":"P.001","dun":"N.01 Titi Tinggi","code_dun":"N.01","voters_total":9159}},{"type":"Polygon","arcs":[[1]],"properties":{"state":"Perlis","parlimen":"P.001 Padang Besar","code_parlimen":"P.001","dun":"N.02 Beseri","code_dun":"N.02","voters_total":8197}},{"type":"Polygon","arcs":[[2]],"properties":{"state":"Perlis","parlimen":"P.001 Padang Besar","code_parlimen":"P.001","dun":"N.03 Chuping","code_dun":"N.03","voters_total":9848}},{"type":"Polygon","arcs":[[3]],"properties":{"state":"Perlis","parlimen":"P.001 Padang Besar","code_parlimen":"P.001","dun":"N.04 Mata Ayer","code_dun":"N.04","voters_total":6365}},{"type":"Polygon","arcs":[[4]],"properties":{"state":"Perlis","parlimen":"P.001 Padang Besar","code_parlimen":"P.001","dun":"N.05 Santan","code_dun":"N.05","voters_total":8405}},{"type":"Polygon","arcs":[[5]],"properties":{"state":"Perlis","parlimen":"P.002 Kangar","code_parlimen":"P.002","dun":"N.06 Bintong","code_dun":"N.06","voters_total":10911}},{"type":"Polygon","arcs":[[6]],"properties":{"state":"Perlis","parlimen":"P.002 Kangar","code_parlimen":"P.002","dun":"N.07 Sena","code_dun":"N.07","voters_total":11194}},{"type":"Polygon","arcs":[[7]],"properties":{"state":"Perlis","parlimen":"P.002 Kangar","code_parlimen":"P.002","dun":"N.08 Indera Kayangan","code_dun":"N.08","voters_total":9776}},{"type":"Polygon","arcs":[[8]],"properties":{"state":"Perlis","parlimen":"P.002 Kangar","code_parlimen":"P.002","dun":"N.09 Kuala Perlis","code_dun":"N.09","voters_total":10150}},{"type":"Polygon","arcs":[[9]],"properties":{"state":"Perlis","parlimen":"P.002 Kangar","code_parlimen":"P.002","dun":"N.10 Kayang","code_dun":"N.10","voters_total":9176}},{"type":"Polygon","arcs":[[10]],"properties":{"state":"Perlis","parlimen":"P.003 Arau","code_parlimen":"P.003","dun":"N.11 Pauh","code_dun":"N.11","voters_total":9594}},{"type":"Polygon","arcs":[[11]],"properties":{"state":"Perlis","parlimen":"P.003 Arau","code_parlimen":"P.003","dun":"N.12 Tambun Tulang","code_dun":"N.12","voters_total":9242}},{"type":"Polygon","arcs":[[12]],"properties":{"state":"Perlis","parlimen":"P.003 Arau","code_parlimen":"P.003","dun":"N.13 Guar Sanji","code_dun":"N.13","voters_total":8723}},{"type":"Polygon","arcs":[[13]],"properties":{"state":"Perlis","parlimen":"P.003 Arau","code_parlimen":"P.003","dun":"N.14 Simpang Empat","code_dun":"N.14","voters_total":7774}},{"type":"Polygon","arcs":[[14]],"properties":{"state":"Perlis","parlimen":"P.003 Arau","code_parlimen":"P.003","dun":"N.15 Sanglang","code_dun":"N.15","voters_total":8361}}]}},"arcs":[[[100.27965260274982,6.647868637029593],[100.2796355200831,6.647220662097461],[100.27958431890538,6.646574462369049],[100.27949913955553,6.645931809043494],[100.27938021550418,6.6452944636063],[100.27922787271395,6.644664173001107],[100.27904252874578,6.644042664841138],[100.27882469161464,6.64343164267364],[100.27857495839696,6.642832781310111],[100.27829401359415,6.642247722235369],[100.27798262725632,6.641678069107792],[100.27764165287185,6.641125383363212],[100.27727202502781,6.640591179934579],[100.2768747568484,6.640076923098913],[100.2764509372181,6.639584022463167],[100.27600172779707,6.639113829099906],[100.2755283598371,6.638667631843335],[100.27503213080686,6.638246653755997],[100.27451440083563,6.637852048775726],[100.27397658898528,6.637484898551996],[100.2734201693607,6.637146209480561],[100.27284666706943,6.636836909944292],[100.27225765404137,6.636557847767824],[100.27165474472025,6.636309787893219],[100.27103959163867,6.636093410282677],[100.27041388088846,6.635909308054304],[100.26977932749926,6.635757985855948],[100.26913767073783,6.635639858481633],[100.26849066934075,6.635555249734254],[100.26784009669387,6.635504391537836],[100.26718773597158,6.635487423301599],[100.2665353752493,6.635504391537836],[100.26588480260241,6.635555249734254],[100.26523780120534,6.635639858481633],[100.2645961444439,6.635757985855948],[100.2639615910547,6.635909308054304],[100.2633358803045,6.636093410282677],[100.26272072722291,6.636309787893219],[100.26211781790181,6.636557847767824],[100.26152880487375,6.636836909944292],[100.26095530258247,6.637146209480561],[100.2603988829579,6.637484898551996],[100.25986107110754,6.637852048775726],[100.25934334113632,6.638246653755997],[100.25884711210607,6.638667631843335],[100.25837374414611,6.639113829099906],[100.25792453472506,6.639584022463167],[100.25750071509476,6.640076923098913],[100.25710344691537,6.640591179934579],[100.2567338190713,6.641125383363212],[100.25639284468684,6.641678069107792],[100.25608145834903,6.642247722235369],[100.2558005135462,6.642832781310111],[100.25555078032852,6.64343164267364],[100.25533294319739,6.644042664841138],[100.25514759922922,6.644664173001107],[100.25499525643897,6.6452944636063],[100.25487633238765,6.645931809043494],[100.25479115303779,6.646574462369049],[100.25473995186006,6.647220662097461],[100.25472286919334,6.647868637029593],[100.25473995186006,6.648516611107645],[100.25479115303779,6.649162808283115],[100.25487633238765,6.649805457384868],[100.25499525643897,6.65044279697367],[100.25514759922922,6.651073080169938],[100.25533294319739,6.651694579441657],[100.25555078032852,6.652305591338941],[100.2558005135462,6.652904441162794],[100.25608145834903,6.653489487554872],[100.25639284468684,6.654059126995745],[100.2567338190713,6.654611798199503],[100.25710344691537,6.655145986392542],[100.25750071509476,6.655660227464741],[100.25792453472506,6.65615311198187],[100.25837374414611,6.656623289047968],[100.25884711210607,6.657069470007365],[100.25934334113632,6.657490431976083],[100.25986107110754,6.657885021192902],[100.2603988829579,6.658252156181026],[100.26095530258247,6.658590830711637],[100.26152880487375,6.658900116561204],[100.26211781790181,6.659179166055008],[100.26272072722291,6.659427214389949],[100.2633358803045,6.659643581730276],[100.2639615910547,6.659827675070399],[100.2645961444439,6.659978989859831],[100.26523780120534,6.660097111385742],[100.26588480260241,6.660181715909319],[100.2665353752493,6.660232571552807],[100.26718773597158,6.660249538934938],[100.26784009669387,6.660232571552807],[100.26849066934075,6.660181715909319],[100.26913767073783,6.660097111385742],[100.26977932749926,6.659978989859831],[100.27041388088846,6.659827675070399],[100.27103959163867,6.659643581730276],[100.27165474472025,6.659427214389949],[100.27225765404137,6.659179166055008],[100.27284666706943,6.658900116561204],[100.2734201693607,6.658590830711637],[100.27397658898528,6.658252156181026],[100.27451440083563,6.657885021192902],[100.27503213080686,6.657490431976083],[100.2755283598371,6.657069470007365],[100.27600172779707,6.656623289047968],[100.2764509372181,6.65615311198187],[100.2768747568484,6.655660227464741],[100.27727202502781,6.655145986392542],[100.27764165287185,6.654611798199503],[100.27798262725632,6.654059126995745],[100.27829401359415,6.653489487554872],[100.27857495839696,6.652904441162794],[100.27882469161464,6.652305591338941],[100.27904252874578,6.651694579441657],[100.27922787271395,6.651073080169938],[100.27938021550418,6.65044279697367],[100.27949913955553,6.649805457384868],[100.27958431890538,6.649162808283115],[100.2796355200831,6.648516611107645],[100.27965260274982,6.647868637029593]],[[100.22151228469072,6.605646649213683],[100.22149612403025,6.605033595105889],[100.22144768634413,6.604422220580361],[100.22136710439666,6.603814201381566],[100.22125459905736,6.603211204063367],[100.22111047869555,6.602614881420912],[100.22093513833514,6.602026867960261],[100.22072905857185,6.601448775417918],[100.22049280425598,6.60088218834293],[100.22022702294421,6.600328659753267],[100.21993244312462,6.599789706878687],[100.21960987222005,6.599266807001537],[100.21926019437488,6.598761393407155],[100.21888436803184,6.598274851454733],[100.21848342330475,6.597808514779485],[100.21805845915527,6.597363661636696],[100.2176106403806,6.59694151139738],[100.21714119442086,6.596543221205495],[100.21665140799482,6.596169882805585],[100.21614262357299,6.595822519549806],[100.21561623569812,6.595502083592264],[100.2150736871628,6.595209453278706],[100.21451646505484,6.594945430738419],[100.21394609668131,6.594710739685096],[100.21336414538229,6.594506023432689],[100.21277220624582,6.594331843131699],[100.21217190173591,6.594188676230611],[100.21156487724554,6.594076915166998],[100.21095279658661,6.593996866291466],[100.21033733742968,6.593948749027864],[100.20972018670552,6.593932695271541],[100.20910303598136,6.593948749027864],[100.20848757682441,6.593996866291466],[100.20787549616551,6.594076915166998],[100.20726847167512,6.594188676230611],[100.20666816716523,6.594331843131699],[100.20607622802875,6.594506023432689],[100.20549427672972,6.594710739685096],[100.20492390835621,6.594945430738419],[100.20436668624824,6.595209453278706],[100.20382413771293,6.595502083592264],[100.20329774983804,6.595822519549806],[100.20278896541622,6.596169882805585],[100.20229917899017,6.596543221205495],[100.20182973303044,6.59694151139738],[100.20138191425575,6.597363661636696],[100.20095695010627,6.597808514779485],[100.20055600537921,6.598274851454733],[100.20018017903615,6.598761393407155],[100.199830501191,6.599266807001537],[100.19950793028642,6.599789706878687],[100.19921335046683,6.600328659753267],[100.19894756915505,6.60088218834293],[100.1987113148392,6.601448775417918],[100.19850523507588,6.602026867960261],[100.19832989471547,6.602614881420912],[100.19818577435368,6.603211204063367],[100.19807326901437,6.603814201381566],[100.19799268706691,6.604422220580361],[100.19794424938078,6.605033595105889],[100.19792808872032,6.605646649213683],[100.19794424938078,6.606259702561858],[100.19799268706691,6.606871074816839],[100.19807326901437,6.607479090259043],[100.19818577435368,6.608082082375776],[100.19832989471547,6.608678398428846],[100.19850523507588,6.609266403984445],[100.1987113148392,6.609844487392617],[100.19894756915505,6.610411064204412],[100.19921335046683,6.610964581514314],[100.19950793028642,6.611503522216161],[100.199830501191,6.612026409160935],[100.20018017903615,6.612531809205021],[100.20055600537921,6.613018337137659],[100.20095695010627,6.613484659477269],[100.20138191425575,6.613929498125622],[100.20182973303044,6.61435163387049],[100.20229917899017,6.614749909726735],[100.20278896541622,6.615123234106876],[100.20329774983804,6.61547058381236],[100.20382413771293,6.615791006837525],[100.20436668624824,6.616083624978336],[100.20492390835621,6.616347636238862],[100.20549427672972,6.616582317029006],[100.20607622802875,6.616787024147243],[100.20666816716523,6.616961196543167],[100.20726847167512,6.617104356854884],[100.20787549616551,6.61721611271703],[100.20848757682441,6.617296157835958],[100.20910303598136,6.617344272829039],[100.20972018670552,6.617360325825731],[100.21033733742968,6.617344272829039],[100.21095279658661,6.617296157835958],[100.21156487724554,6.61721611271703],[100.21217190173591,6.617104356854884],[100.21277220624582,6.616961196543167],[100.21336414538229,6.616787024147243],[100.21394609668131,6.616582317029006],[100.21451646505484,6.616347636238862],[100.2150736871628,6.616083624978336],[100.21561623569812,6.615791006837525],[100.21614262357299,6.61547058381236],[100.21665140799482,6.615123234106876],[100.21714119442086,6.614749909726735],[100.2176106403806,6.61435163387049],[100.21805845915527,6.613929498125622],[100.21848342330475,6.613484659477269],[100.21888436803184,6.613018337137659],[100.21926019437488,6.612531809205021],[100.21960987222005,6.612026409160935],[100.21993244312462,6.611503522216161],[100.22022702294421,6.610964581514314],[100.22049280425598,6.610411064204412],[100.22072905857185,6.609844487392617],[100.22093513833514,6.609266403984445],[100.22111047869555,6.608678398428846],[100.22125459905736,6.608082082375776],[100.22136710439666,6.607479090259043],[100.22144768634413,6.606871074816839],[100.22149612403025,6.606259702561858],[100.22151228469072,6.605646649213683]],[[100.32286630110045,6.530273568202772],[100.32284858754838,6.529601503383744],[100.32279549544381,6.528931279749082],[100.32270717030849,6.528264734346331],[100.32258385423549,6.527603694148541],[100.32242588522558,6.52694997104642],[100.32223369626085,6.526305356881742],[100.3220078141179,6.525671618535772],[100.32174885792396,6.525050493085891],[100.32145753745998,6.5244436830439],[100.32113465121509,6.523852851689],[100.32078108419802,6.523279618508274],[100.32039780551142,6.522725554757119],[100.31998586569554,6.522192179151885],[100.31954639384875,6.521680953706385],[100.31908059453286,6.521193279723944],[100.3185897444714,6.520730493955714],[100.31807518905026,6.520293864935996],[100.31753833863013,6.519884589504425],[100.31698066468063,6.51950378952486],[100.31640369574734,6.519152508809611],[100.31580901326197,6.518831710257716],[100.31519824720792,6.518542273215003],[100.31457307165246,6.518284991063241],[100.31393520015833,6.518060569044936],[100.31328638108695,6.517869622329718],[100.31262839280633,6.517712674327782],[100.31196303881659,6.517590155254771],[100.31129214280676,6.517502400952284],[100.31061754365618,6.517449651967073],[100.30994109039423,6.517432052891492],[100.30926463713229,6.517449651967073],[100.30859003798169,6.517502400952284],[100.30791914197187,6.517590155254771],[100.30725378798213,6.517712674327782],[100.30659579970151,6.517869622329718],[100.30594698063014,6.518060569044936],[100.305309109136,6.518284991063241],[100.30468393358055,6.518542273215003],[100.30407316752648,6.518831710257716],[100.30347848504114,6.519152508809611],[100.30290151610784,6.51950378952486],[100.30234384215835,6.519884589504425],[100.3018069917382,6.520293864935996],[100.30129243631707,6.520730493955714],[100.3008015862556,6.521193279723944],[100.30033578693971,6.521680953706385],[100.29989631509291,6.522192179151885],[100.29948437527703,6.522725554757119],[100.29910109659045,6.523279618508274],[100.29874752957339,6.523852851689],[100.29842464332847,6.5244436830439],[100.2981333228645,6.525050493085891],[100.29787436667057,6.525671618535772],[100.2976484845276,6.526305356881742],[100.29745629556288,6.52694997104642],[100.29729832655298,6.527603694148541],[100.29717501047998,6.528264734346331],[100.29708668534467,6.528931279749082],[100.29703359324009,6.529601503383744],[100.29701587968802,6.530273568202772],[100.29703359324009,6.530945632119426],[100.29708668534467,6.531615853056813],[100.29717501047998,6.532282393996927],[100.29729832655298,6.53294342801565],[100.29745629556288,6.533597143289968],[100.2976484845276,6.534241748063843],[100.29787436667057,6.534875475558892],[100.2981333228645,6.535496588816663],[100.29842464332847,6.536103385458913],[100.29874752957339,6.536694202353257],[100.29910109659045,6.537267420171013],[100.29948437527703,6.53782146782514],[100.29989631509291,6.538354826775653],[100.30033578693971,6.538866035191178],[100.3008015862556,6.539353691955],[100.30129243631707,6.53981646050461],[100.3018069917382,6.540253072494366],[100.30234384215835,6.540662331271204],[100.30290151610784,6.541043115153728],[100.30347848504114,6.541394380506019],[100.30407316752648,6.541715164597356],[100.30468393358055,6.54200458824033],[100.305309109136,6.54226185819997],[100.30594698063014,6.54248626936738],[100.30659579970151,6.542677206691794],[100.30725378798213,6.542834146865914],[100.30791914197187,6.542956659759859],[100.30859003798169,6.543044409599708],[100.30926463713229,6.543097155887643],[100.30994109039423,6.543114754060838],[100.31061754365618,6.543097155887643],[100.31129214280676,6.543044409599708],[100.31196303881659,6.542956659759859],[100.31262839280633,6.542834146865914],[100.31328638108695,6.542677206691794],[100.31393520015833,6.54248626936738],[100.31457307165246,6.54226185819997],[100.31519824720792,6.54200458824033],[100.31580901326197,6.541715164597356],[100.31640369574734,6.541394380506019],[100.31698066468063,6.541043115153728],[100.31753833863013,6.540662331271204],[100.31807518905026,6.540253072494366],[100.3185897444714,6.53981646050461],[100.31908059453286,6.539353691955],[100.31954639384875,6.538866035191178],[100.31998586569554,6.538354826775653],[100.32039780551142,6.53782146782514],[100.32078108419802,6.537267420171013],[100.32113465121509,6.536694202353257],[100.32145753745998,6.536103385458913],[100.32174885792396,6.535496588816663],[100.3220078141179,6.534875475558892],[100.32223369626085,6.534241748063843],[100.32242588522558,6.533597143289968],[100.32258385423549,6.53294342801565],[100.32270717030849,6.532282393996927],[100.32279549544381,6.531615853056813],[100.32284858754838,6.530945632119426],[100.32286630110045,6.530273568202772]],[[100.26951675516867,6.47938176260573],[100.26950251448491,6.478841406241679],[100.26945983146638,6.478302530380528],[100.26938882310422,6.477766612050689],[100.26928968402747,6.477235120178861],[100.2691626859694,6.47670951156364],[100.2690081770229,6.476191226882368],[100.26882658068622,6.47568168674211],[100.26861839470233,6.475182287785568],[100.26838418969449,6.474694398862704],[100.26812460760239,6.474219357278471],[100.26784035992249,6.473758465126929],[100.26753222575792,6.473312985721905],[100.26720104968301,6.472884140133861],[100.26684773942837,6.472473103842629],[100.26647326339284,6.472081003514934],[100.2660786479892,6.471708913915864],[100.26566497483083,6.471357854962463],[100.26523337776715,6.471028788927745],[100.26478503977563,6.470722617802694],[100.26432118971964,6.470440180823415],[100.26384309897988,6.47018225217048],[100.26335207796984,6.469949538846451],[100.26284947254399,6.469742678737623],[100.26233666030889,6.469562238865245],[100.26181504684718,6.469408713831026],[100.26128606186512,6.469282524461104],[100.2607511552738,6.469184016652376],[100.26021179321499,6.469113460424152],[100.25966945404261,6.469071049177872],[100.2591256242706,6.469056899166929],[100.2585817944986,6.469071049177872],[100.25803945532621,6.469113460424152],[100.2575000932674,6.469184016652376],[100.25696518667607,6.469282524461104],[100.25643620169402,6.469408713831026],[100.25591458823232,6.469562238865245],[100.25540177599721,6.469742678737623],[100.25489917057136,6.469949538846451],[100.25440814956131,6.47018225217048],[100.25393005882155,6.470440180823415],[100.25346620876557,6.470722617802694],[100.25301787077406,6.471028788927745],[100.25258627371036,6.471357854962463],[100.252172600552,6.471708913915864],[100.25177798514837,6.472081003514934],[100.25140350911283,6.472473103842629],[100.2510501988582,6.472884140133861],[100.25071902278329,6.473312985721905],[100.25041088861872,6.473758465126929],[100.25012664093882,6.474219357278471],[100.24986705884672,6.474694398862704],[100.24963285383888,6.475182287785568],[100.24942466785498,6.47568168674211],[100.24924307151831,6.476191226882368],[100.2490885625718,6.47670951156364],[100.24896156451373,6.477235120178861],[100.24886242543698,6.477766612050689],[100.24879141707483,6.478302530380528],[100.24874873405628,6.478841406241679],[100.24873449337254,6.47938176260573],[100.24874873405628,6.479922118391009],[100.24879141707483,6.480460992522206],[100.24886242543698,6.480996907989837],[100.24896156451373,6.481528395898567],[100.2490885625718,6.482053999493219],[100.24924307151831,6.482572278151487],[100.24942466785498,6.483081811332272],[100.24963285383888,6.483581202469114],[100.24986705884672,6.484069082797725],[100.25012664093882,6.484544115107322],[100.25041088861872,6.48500499740548],[100.25071902278329,6.485450466486296],[100.2510501988582,6.485879301392421],[100.25140350911283,6.486290326761094],[100.25177798514837,6.486682416045216],[100.252172600552,6.487054494600714],[100.25258627371036,6.487405542631543],[100.25301787077406,6.487734597984343],[100.25346620876557,6.488040758785199],[100.25393005882155,6.488323185911068],[100.25440814956131,6.488581105289366],[100.25489917057136,6.488813810019154],[100.25540177599721,6.489020662308284],[100.25591458823232,6.489201095221175],[100.25643620169402,6.489354614232391],[100.25696518667607,6.489480798581743],[100.2575000932674,6.489579302427385],[100.25803945532621,6.489649855793416],[100.2585817944986,6.489692265309716],[100.2591256242706,6.489706414741899],[100.25966945404261,6.489692265309716],[100.26021179321499,6.489649855793416],[100.2607511552738,6.489579302427385],[100.26128606186512,6.489480798581743],[100.26181504684718,6.489354614232391],[100.26233666030889,6.489201095221175],[100.26284947254399,6.489020662308284],[100.26335207796984,6.488813810019154],[100.26384309897988,6.488581105289366],[100.26432118971964,6.488323185911068],[100.26478503977563,6.488040758785199],[100.26523337776715,6.487734597984343],[100.26566497483083,6.487405542631543],[100.2660786479892,6.487054494600714],[100.26647326339284,6.486682416045216],[100.26684773942837,6.486290326761094],[100.26720104968301,6.485879301392421],[100.26753222575792,6.485450466486296],[100.26784035992249,6.48500499740548],[100.26812460760239,6.484544115107322],[100.26838418969449,6.484069082797725],[100.26861839470233,6.483581202469114],[100.26882658068622,6.483081811332272],[100.2690081770229,6.482572278151487],[100.2691626859694,6.482053999493219],[100.26928968402747,6.481528395898567],[100.26938882310422,6.480996907989837],[100.26945983146638,6.480460992522206],[100.26950251448491,6.479922118391009],[100.26951675516867,6.47938176260573]],[[100.23176663388715,6.506183620581736],[100.23175026947168,6.505562713174617],[100.231701221079,6.504943506867385],[100.23161962314735,6.50432769887099],[100.23150569933098,6.503716977088002],[100.23135976188716,6.503113015486015],[100.23118221082028,6.502517469509201],[100.23097353278546,6.501931971540532],[100.2307342997547,6.50135812642718],[100.2304651674491,6.500797507081341],[100.23016687354162,6.500251650168482],[100.2298402356351,6.499722051894997],[100.22948614902135,6.499210163906587],[100.2291055842272,6.49871738930883],[100.22869958435422,6.498245078820847],[100.22826926221991,6.497794527072281],[100.2278157973073,6.497366969054245],[100.2273404325322,6.496963576733648],[100.22684447083643,6.496585455840225],[100.2263292716165,6.496233642835169],[100.22579624699769,6.495909102069645],[100.22524685796337,6.495612723140905],[100.22468261035077,6.495345318453451],[100.22410505072335,6.495107620991655],[100.22351576213187,6.494900282310285],[100.22291635977545,6.494723870748078],[100.22230848657425,6.494578869869621],[100.22169380866647,6.494465677139544],[100.22107401084155,6.49438460283279],[100.22045079192222,6.49433586918395],[100.2198258601082,6.494319609777986],[100.21920092829419,6.49433586918395],[100.21857770937486,6.49438460283279],[100.21795791154993,6.494465677139544],[100.21734323364215,6.494578869869621],[100.21673536044094,6.494723870748078],[100.21613595808451,6.494900282310285],[100.21554666949304,6.495107620991655],[100.21496910986562,6.495345318453451],[100.21440486225302,6.495612723140905],[100.21385547321871,6.495909102069645],[100.2133224485999,6.496233642835169],[100.21280724937996,6.496585455840225],[100.21231128768419,6.496963576733648],[100.21183592290909,6.497366969054245],[100.21138245799648,6.497794527072281],[100.21095213586217,6.498245078820847],[100.2105461359892,6.49871738930883],[100.21016557119503,6.499210163906587],[100.2098114845813,6.499722051894997],[100.20948484667478,6.500251650168482],[100.2091865527673,6.500797507081341],[100.20891742046169,6.50135812642718],[100.20867818743095,6.501931971540532],[100.20846950939611,6.502517469509201],[100.20829195832924,6.503113015486015],[100.20814602088542,6.503716977088002],[100.20803209706904,6.50432769887099],[100.20795049913738,6.504943506867385],[100.2079014507447,6.505562713174617],[100.20788508632924,6.506183620581736],[100.2079014507447,6.50680452722149],[100.20795049913738,6.507423731235007],[100.20803209706904,6.508039535436479],[100.20814602088542,6.508650251964924],[100.20829195832924,6.509254206910302],[100.20846950939611,6.50984974490138],[100.20867818743095,6.510435233642673],[100.20891742046169,6.511009068388105],[100.2091865527673,6.511569676339086],[100.20948484667478,6.512115520954978],[100.2098114845813,6.512645106164132],[100.21016557119503,6.513156980463995],[100.2105461359892,6.513649740898893],[100.21095213586217,6.514122036904959],[100.21138245799648,6.51457257401118],[100.21183592290909,6.515000117386871],[100.21231128768419,6.51540349522555],[100.21280724937996,6.515781601956128],[100.2133224485999,6.516133401272612],[100.21385547321871,6.516457928973816],[100.21440486225302,6.51675429560559],[100.21496910986562,6.517021688898186],[100.21554666949304,6.517259375992061],[100.21613595808451,6.517466705446056],[100.21673536044094,6.517643109022527],[100.21734323364215,6.517788103244375],[100.21795791154993,6.517901290719908],[100.21857770937486,6.517982361231752],[100.21920092829419,6.518031092586865],[100.2198258601082,6.518047351225449],[100.22045079192222,6.518031092586865],[100.22107401084155,6.517982361231752],[100.22169380866647,6.517901290719908],[100.22230848657425,6.517788103244375],[100.22291635977545,6.517643109022527],[100.22351576213187,6.517466705446056],[100.22410505072335,6.517259375992061],[100.22468261035077,6.517021688898186],[100.22524685796337,6.51675429560559],[100.22579624699769,6.516457928973816],[100.2263292716165,6.516133401272612],[100.22684447083643,6.515781601956128],[100.2273404325322,6.51540349522555],[100.2278157973073,6.515000117386871],[100.22826926221991,6.51457257401118],[100.22869958435422,6.514122036904959],[100.2291055842272,6.513649740898893],[100.22948614902135,6.513156980463995],[100.2298402356351,6.512645106164132],[100.23016687354162,6.512115520954978],[100.2304651674491,6.511569676339086],[100.2307342997547,6.511009068388105],[100.23097353278546,6.510435233642673],[100.23118221082028,6.50984974490138],[100.23135976188716,6.509254206910302],[100.23150569933098,6.508650251964924],[100.23161962314735,6.508039535436479],[100.231701221079,6.507423731235007],[100.23175026947168,6.50680452722149],[100.23176663388715,6.506183620581736]],[[100.19023045103735,6.492175491440064],[100.19021180597174,6.491468030620823],[100.19015592187972,6.490762507912651],[100.19006295193572,6.490060857116548],[100.18993315096388,6.489365001428856],[100.18976687473965,6.488676848169722],[100.1895645790146,6.487998283554886],[100.18932681826726,6.487331167525321],[100.18905424418328,6.486677328648897],[100.18874760386933,6.486038559107722],[100.18840773780514,6.485416609785353],[100.18803557754,6.48481318546709],[100.18763214313935,6.484229940166565],[100.1871985403888,6.483668472591424],[100.18673595776335,6.483130321760574],[100.18624566316986,6.482616962785038],[100.18572900047168,6.482129802823934],[100.18518738580539,6.481670177226694],[100.18462230369913,6.481239345872083],[100.18403530300368,6.480838489714161],[100.18342799264714,6.48046870754455],[100.182802037225,6.48013101297987],[100.18215915243752,6.479826331682761],[100.18150110038727,6.479555498824037],[100.18082968474913,6.479319256792802],[100.18014674582673,6.479118253161048],[100.1794541555082,6.478953038908157],[100.1787538121354,6.47882406691028],[100.17804763530087,6.478731690698605],[100.17733756058624,6.47867616349005],[100.17662553425693,6.478657637493026],[100.17591350792763,6.47867616349005],[100.17520343321299,6.478731690698605],[100.17449725637847,6.47882406691028],[100.17379691300567,6.478953038908157],[100.17310432268714,6.479118253161048],[100.17242138376473,6.479319256792802],[100.1717499681266,6.479555498824037],[100.17109191607634,6.479826331682761],[100.17044903128888,6.48013101297987],[100.16982307586674,6.48046870754455],[100.16921576551017,6.480838489714161],[100.16862876481474,6.481239345872083],[100.16806368270848,6.481670177226694],[100.16752206804219,6.482129802823934],[100.16700540534403,6.482616962785038],[100.16651511075052,6.483130321760574],[100.16605252812508,6.483668472591424],[100.16561892537452,6.484229940166565],[100.16521549097385,6.48481318546709],[100.16484333070872,6.485416609785353],[100.16450346464454,6.486038559107722],[100.16419682433059,6.486677328648897],[100.16392425024661,6.487331167525321],[100.16368648949927,6.487998283554886],[100.16348419377422,6.488676848169722],[100.16331791754999,6.489365001428856],[100.16318811657814,6.490060857116548],[100.16309514663415,6.490762507912651],[100.16303926254213,6.491468030620823],[100.1630206174765,6.492175491440064],[100.16303926254213,6.492882951265229],[100.16309514663415,6.493588471002114],[100.16318811657814,6.494290116882237],[100.16331791754999,6.494985965763134],[100.16348419377422,6.495674110399251],[100.16368648949927,6.496352664669295],[100.16392425024661,6.497019768745623],[100.16419682433059,6.497673594191353],[100.16450346464454,6.498312348971536],[100.16484333070872,6.498934282364313],[100.16521549097385,6.499537689758921],[100.16561892537452,6.500120917327153],[100.16605252812508,6.500682366555634],[100.16651511075052,6.501220498626465],[100.16700540534403,6.501733838634179],[100.16752206804219,6.502220979627447],[100.16806368270848,6.50268058646468],[100.16862876481474,6.503111399472632],[100.16921576551017,6.503512237898248],[100.16982307586674,6.503882003144204],[100.17044903128888,6.504219681779306],[100.17109191607634,6.504524348315396],[100.1717499681266,6.504795167743439],[100.17242138376473,6.505031397821449],[100.17310432268714,6.505232391108424],[100.17379691300567,6.505397596738272],[100.17449725637847,6.505526561929354],[100.17520343321299,6.50561893322505],[100.17591350792763,6.505674457462318],[100.17662553425693,6.505692982465291],[100.17733756058624,6.505674457462318],[100.17804763530087,6.50561893322505],[100.1787538121354,6.505526561929354],[100.1794541555082,6.505397596738272],[100.18014674582673,6.505232391108424],[100.18082968474913,6.505031397821449],[100.18150110038727,6.504795167743439],[100.18215915243752,6.504524348315396],[100.182802037225,6.504219681779306],[100.18342799264714,6.503882003144204],[100.18403530300368,6.503512237898248],[100.18462230369913,6.503111399472632],[100.18518738580539,6.50268058646468],[100.18572900047168,6.502220979627447],[100.18624566316986,6.501733838634179],[100.18673595776335,6.501220498626465],[100.1871985403888,6.500682366555634],[100.18763214313935,6.500120917327153],[100.18803557754,6.499537689758921],[100.18840773780514,6.498934282364313],[100.18874760386933,6.498312348971536],[100.18905424418328,6.497673594191353],[100.18932681826726,6.497019768745623],[100.1895645790146,6.496352664669295],[100.18976687473965,6.495674110399251],[100.18993315096388,6.494985965763134],[100.19006295193572,6.494290116882237],[100.19015592187972,6.493588471002114],[100.19021180597174,6.492882951265229],[100.19023045103735,6.492175491440064]],[[100.23573601449365,6.442105190850669],[100.23571712917621,6.441388543023084],[100.23566052498721,6.44067385846954],[100.23556635707479,6.439963096103258],[100.23543488354666,6.439258204095124],[100.23526646476263,6.438561114533711],[100.23506156234687,6.437873738129193],[100.23482073792266,6.437197958975853],[100.23454465157303,6.436535629387429],[100.23423406003143,6.43588856481951],[100.23388981460774,6.435258538892839],[100.2335128588547,6.434647278531323],[100.2331042259818,6.434056459227901],[100.2326650360234,6.433487700451348],[100.23219649276865,6.43294256120662],[100.23169988046199,6.432422535760903],[100.23117656028327,6.431929049547051],[100.23062796661674,6.43146345525572],[100.23005560311945,6.431027029126855],[100.22946103860001,6.430620967450783],[100.22884590271843,6.430246383288365],[100.22821188151939,6.42990430341943],[100.22756071281093,6.429595665527653],[100.22689418140125,6.42932131562964],[100.22621411420657,6.429082005755471],[100.22552237524381,6.428878391886776],[100.22482086052139,6.428711032158206],[100.22411149284244,6.428580385327103],[100.2233962165344,6.428486809515795],[100.22267699211993,6.428430561229581],[100.22195579094317,6.428411794653492],[100.22123458976641,6.428430561229581],[100.22051536535196,6.428486809515795],[100.21980008904391,6.428580385327103],[100.21909072136495,6.428711032158206],[100.21838920664253,6.428878391886776],[100.21769746767978,6.429082005755471],[100.2170174004851,6.42932131562964],[100.21635086907541,6.429595665527653],[100.21569970036697,6.42990430341943],[100.21506567916792,6.430246383288365],[100.21445054328635,6.430620967450783],[100.2138559787669,6.431027029126855],[100.21328361526962,6.43146345525572],[100.21273502160308,6.431929049547051],[100.21221170142435,6.432422535760903],[100.2117150891177,6.43294256120662],[100.21124654586293,6.433487700451348],[100.21080735590455,6.434056459227901],[100.21039872303166,6.434647278531323],[100.21002176727862,6.435258538892839],[100.20967752185491,6.43588856481951],[100.20936693031332,6.436535629387429],[100.20909084396368,6.437197958975853],[100.20885001953947,6.437873738129193],[100.20864511712371,6.438561114533711],[100.20847669833968,6.439258204095124],[100.20834522481157,6.439963096103258],[100.20825105689914,6.44067385846954],[100.20819445271013,6.441388543023084],[100.20817556739269,6.442105190850669],[100.20819445271013,6.442821837666138],[100.20825105689914,6.443536519194439],[100.20834522481157,6.444247276555482],[100.20847669833968,6.444952161633227],[100.20864511712371,6.44564924241501],[100.20885001953947,6.446336608286881],[100.20909084396368,6.447012375269942],[100.20936693031332,6.447674691183787],[100.20967752185491,6.448321740722657],[100.21002176727862,6.448951750430472],[100.21039872303166,6.449562993561027],[100.21080735590455,6.450153794810145],[100.21124654586293,6.45072253490688],[100.2117150891177,6.451267655050926],[100.21221170142435,6.45178766118438],[100.21273502160308,6.452281128085967],[100.21328361526962,6.452746703276617],[100.2138559787669,6.453183110725664],[100.21445054328635,6.453589154347445],[100.21506567916792,6.45396372127889],[100.21569970036697,6.454305784928955],[100.21635086907541,6.454614407791707],[100.2170174004851,6.454888744015142],[100.21769746767978,6.45512804171902],[100.21838920664253,6.455331645055067],[100.21909072136495,6.455498996004021],[100.21980008904391,6.455629635904721],[100.22051536535196,6.45572320671079],[100.22123458976641,6.455779451971763],[100.22195579094317,6.455798217535735],[100.22267699211993,6.455779451971763],[100.2233962165344,6.45572320671079],[100.22411149284244,6.455629635904721],[100.22482086052139,6.455498996004021],[100.22552237524381,6.455331645055067],[100.22621411420657,6.45512804171902],[100.22689418140125,6.454888744015142],[100.22756071281093,6.454614407791707],[100.22821188151939,6.454305784928955],[100.22884590271843,6.45396372127889],[100.22946103860001,6.453589154347445],[100.23005560311945,6.453183110725664],[100.23062796661674,6.452746703276617],[100.23117656028327,6.452281128085967],[100.23169988046199,6.45178766118438],[100.23219649276865,6.451267655050926],[100.2326650360234,6.45072253490688],[100.2331042259818,6.450153794810145],[100.2335128588547,6.449562993561027],[100.23388981460774,6.448951750430472],[100.23423406003143,6.448321740722657],[100.23454465157303,6.447674691183787],[100.23482073792266,6.447012375269942],[100.23506156234687,6.446336608286881],[100.23526646476263,6.44564924241501],[100.23543488354666,6.444952161633227],[100.23556635707479,6.444247276555482],[100.23566052498721,6.443536519194439],[100.23571712917621,6.442821837666138],[100.23573601449365,6.442105190850669]],[[100.2117344723395,6.423547556520774],[100.21171682365927,6.42287781137802],[100.21166392599237,6.422209901082465],[100.21157592432759,6.421545656340699],[100.21145305987143,6.420886897819392],[100.21129566938681,6.420235431154716],[100.2111041842701,6.419593042002992],[100.21087912936869,6.418961491145983],[100.21062112154243,6.418342509664249],[100.21033086797284,6.417737794191975],[100.21000916422477,6.417149002266012],[100.20965689206584,6.416577747782129],[100.20927501704955,6.416025596570779],[100.20886458586878,6.41549406210462],[100.20842672348687,6.414984601349479],[100.20796263005415,6.414498610770142],[100.20747357761847,6.414037422502013],[100.20696090663859,6.41360230069912],[100.20642602231,6.413194438068309],[100.20587039071347,6.41281495259945],[100.2052955347966,6.412464884500329],[100.2047030301995,6.412145193344804],[100.20409450093605,6.411856755442059],[100.2034716149427,6.41160036143401],[100.20283607950665,6.411376714127631],[100.20218963658634,6.411186426568097],[100.20153405803693,6.411030020358015],[100.2008711407536,6.410907924227252],[100.20020270174656,6.410820472857587],[100.1995305731607,6.410767905964997],[100.1988565972537,6.410750367642488],[100.19818262134669,6.410767905964997],[100.19751049276083,6.410820472857587],[100.19684205375378,6.410907924227252],[100.19617913647046,6.411030020358015],[100.19552355792104,6.411186426568097],[100.19487711500074,6.411376714127631],[100.19424157956469,6.41160036143401],[100.19361869357134,6.411856755442059],[100.19301016430789,6.412145193344804],[100.19241765971078,6.412464884500329],[100.19184280379392,6.41281495259945],[100.19128717219738,6.413194438068309],[100.19075228786879,6.41360230069912],[100.19023961688892,6.414037422502013],[100.18975056445323,6.414498610770142],[100.18928647102052,6.414984601349479],[100.18884860863861,6.41549406210462],[100.18843817745784,6.416025596570779],[100.18805630244155,6.416577747782129],[100.18770403028262,6.417149002266012],[100.18738232653455,6.417737794191975],[100.18709207296496,6.418342509664249],[100.1868340651387,6.418961491145983],[100.18660901023729,6.419593042002992],[100.18641752512058,6.420235431154716],[100.18626013463596,6.420886897819392],[100.1861372701798,6.421545656340699],[100.18604926851503,6.422209901082465],[100.18599637084812,6.42287781137802],[100.18597872216787,6.423547556520774],[100.18599637084812,6.424217300782121],[100.18604926851503,6.424885208443133],[100.1861372701798,6.425549448826076],[100.18626013463596,6.426208201312038],[100.18641752512058,6.426859660330966],[100.18660901023729,6.427502040310315],[100.1868340651387,6.428133580568812],[100.18709207296496,6.428752550142015],[100.18738232653455,6.42935725252623],[100.18770403028262,6.429946030327973],[100.18805630244155,6.43051726980624],[100.18843817745784,6.431069405294976],[100.18884860863861,6.431600923493781],[100.18928647102052,6.432110367615066],[100.18975056445323,6.432596341376292],[100.19023961688892,6.433057512826297],[100.19075228786879,6.433492617995335],[100.19128717219738,6.433900464358803],[100.19184280379392,6.434279934105049],[100.19241765971078,6.434629987198554],[100.19301016430789,6.434949664229848],[100.19361869357134,6.43523808904452],[100.19424157956469,6.435494471144051],[100.19487711500074,6.435718107851931],[100.19552355792104,6.435908386239077],[100.19617913647046,6.436064784803422],[100.19684205375378,6.436186874898842],[100.19751049276083,6.436274321909683],[100.19818262134669,6.436326886167731],[100.1988565972537,6.436344423608833],[100.1995305731607,6.436326886167731],[100.20020270174656,6.436274321909683],[100.2008711407536,6.436186874898842],[100.20153405803693,6.436064784803422],[100.20218963658634,6.435908386239077],[100.20283607950665,6.435718107851931],[100.2034716149427,6.435494471144051],[100.20409450093605,6.43523808904452],[100.2047030301995,6.434949664229848],[100.2052955347966,6.434629987198554],[100.20587039071347,6.434279934105049],[100.20642602231,6.433900464358803],[100.20696090663859,6.433492617995335],[100.20747357761847,6.433057512826297],[100.20796263005415,6.432596341376292],[100.20842672348687,6.432110367615066],[100.20886458586878,6.431600923493781],[100.20927501704955,6.431069405294976],[100.20965689206584,6.43051726980624],[100.21000916422477,6.429946030327973],[100.21033086797284,6.42935725252623],[100.21062112154243,6.428752550142015],[100.21087912936869,6.428133580568812],[100.2111041842701,6.427502040310315],[100.21129566938681,6.426859660330966],[100.21145305987143,6.426208201312038],[100.21157592432759,6.425549448826076],[100.21166392599237,6.424885208443133],[100.21171682365927,6.424217300782121],[100.2117344723395,6.423547556520774]],[[100.15438420291042,6.410734149408551],[100.15436621980629,6.41005169612801],[100.15431231978431,6.409371112495],[100.15422265058069,6.40869426395325],[100.15409745797253,6.408023005716223],[100.15393708510399,6.407359177681838],[100.15374197154604,6.406704599389222],[100.15351265209131,6.406061065031077],[100.15324975528854,6.405430338535509],[100.15295400171955,6.404814148730725],[100.15262620202432,6.404214184605874],[100.15226725467907,6.403632090681068],[100.15187814353348,6.403069462499119],[100.15145993511416,6.402527842251707],[100.15101377570136,6.402008714551452],[100.15054088818694,6.401513502362072],[100.1500425687228,6.401043563097269],[100.14952018316788,6.400600184899411],[100.1489751633447,6.400184583108034],[100.14840900311471,6.399797896927941],[100.14782325428376,6.399441186305875],[100.14721952234866,6.399115429024635],[100.14659946209669,6.398821518022313],[100.1459647730699,6.398560258944162],[100.14531719490681,6.398332367933745],[100.14465850257415,6.398138469669507],[100.14399050150176,6.397979095652098],[100.14331502263423,6.397854682747088],[100.14263391741214,6.397765571987253],[100.14194905269756,6.397712007637486],[100.1412623056571,6.397694136525157],[100.1405755586166,6.397712007637486],[100.13989069390203,6.397765571987253],[100.13920958867996,6.397854682747088],[100.13853410981241,6.397979095652098],[100.13786610874004,6.398138469669507],[100.13720741640736,6.398332367933745],[100.13655983824427,6.398560258944162],[100.13592514921747,6.398821518022313],[100.13530508896551,6.399115429024635],[100.13470135703041,6.399441186305875],[100.13411560819947,6.399797896927941],[100.13354944796949,6.400184583108034],[100.1330044281463,6.400600184899411],[100.13248204259138,6.401043563097269],[100.13198372312722,6.401513502362072],[100.13151083561281,6.402008714551452],[100.1310646762,6.402527842251707],[100.13064646778068,6.403069462499119],[100.1302573566351,6.403632090681068],[100.12989840928985,6.404214184605874],[100.12957060959462,6.404814148730725],[100.12927485602565,6.405430338535509],[100.12901195922286,6.406061065031077],[100.12878263976815,6.406704599389222],[100.12858752621017,6.407359177681838],[100.12842715334165,6.408023005716223],[100.12830196073348,6.40869426395325],[100.12821229152985,6.409371112495],[100.12815839150788,6.41005169612801],[100.12814040840375,6.410734149408551],[100.12815839150788,6.411416601775763],[100.12821229152985,6.412097182678802],[100.12830196073348,6.412774026703846],[100.12842715334165,6.413445278686936],[100.12858752621017,6.414109098798635],[100.12878263976815,6.414763667586646],[100.12901195922286,6.415407190962401],[100.12927485602565,6.416037905118116],[100.12957060959462,6.41665408136076],[100.12989840928985,6.417254030849805],[100.1302573566351,6.41783610922549],[100.13064646778068,6.418398721115327],[100.1310646762,6.418940324506182],[100.13151083561281,6.419459434970094],[100.13198372312722,6.419954629732185],[100.13248204259138,6.420424551569724],[100.1330044281463,6.420867912531227],[100.13354944796949,6.421283497466046],[100.13411560819947,6.42167016735404],[100.13470135703041,6.422026862426985],[100.13530508896551,6.422352605072407],[100.13592514921747,6.422646502512602],[100.13655983824427,6.422907749250901],[100.13720741640736,6.423135629278914],[100.13786610874004,6.423329518038546],[100.13853410981241,6.423488884133283],[100.13920958867996,6.423613290784343],[100.13989069390203,6.423702397027498],[100.1405755586166,6.42375595864728],[100.1412623056571,6.423773828846281],[100.14194905269756,6.42375595864728],[100.14263391741214,6.423702397027498],[100.14331502263423,6.423613290784343],[100.14399050150176,6.423488884133283],[100.14465850257415,6.423329518038546],[100.14531719490681,6.423135629278914],[100.1459647730699,6.422907749250901],[100.14659946209669,6.422646502512602],[100.14721952234866,6.422352605072407],[100.14782325428376,6.422026862426985],[100.14840900311471,6.42167016735404],[100.1489751633447,6.421283497466046],[100.14952018316788,6.420867912531227],[100.1500425687228,6.420424551569724],[100.15054088818694,6.419954629732185],[100.15101377570136,6.419459434970094],[100.15145993511416,6.418940324506182],[100.15187814353348,6.418398721115327],[100.15226725467907,6.41783610922549],[100.15262620202432,6.417254030849805],[100.15295400171955,6.41665408136076],[100.15324975528854,6.416037905118116],[100.15351265209131,6.415407190962401],[100.15374197154604,6.414763667586646],[100.15393708510399,6.414109098798635],[100.15409745797253,6.413445278686936],[100.15422265058069,6.412774026703846],[100.15431231978431,6.412097182678802],[100.15436621980629,6.411416601775763],[100.15438420291042,6.410734149408551]],[[100.18859515251323,6.404745831320946],[100.18857805400032,6.404096940411342],[100.18852680532743,6.403449827245169],[100.1884415469636,6.402806265524852],[100.1883225125961,6.402168019225137],[100.18817002848984,6.401536837758053],[100.18798451259315,6.400914451177607],[100.18776647339222,6.400302565437428],[100.18751650851735,6.399702857714622],[100.18723530310487,6.39911697181216],[100.18692362791927,6.398546513652938],[100.1865823372406,6.397993046877393],[100.18621236652284,6.397458088557197],[100.18581472983007,6.396943105036325],[100.18539051705676,6.396449507911328],[100.18494089094068,6.395978650161529],[100.18446708387573,6.395531822439875],[100.1839703945342,6.395110249534704],[100.18345218430697,6.394715087011912],[100.18291387357232,6.394347418046977],[100.1823569378025,6.394008250455354],[100.18178290351979,6.393698513929408],[100.18119334411224,6.393419057489663],[100.1805898755212,6.39317064715704],[100.17997415181213,6.392953963852689],[100.17934786064093,6.392769601531175],[100.17871271862816,6.392618065551988],[100.17807046665392,6.392499771294058],[100.17742286508627,6.392415043016892],[100.17677168895605,6.392364112971527],[100.17611872309178,6.392347120763794],[100.1754657572275,6.392364112971527],[100.1748145810973,6.392415043016892],[100.17416697952963,6.392499771294058],[100.17352472755539,6.392618065551988],[100.17288958554262,6.392769601531175],[100.17226329437143,6.392953963852689],[100.17164757066236,6.39317064715704],[100.17104410207132,6.393419057489663],[100.17045454266378,6.393698513929408],[100.16988050838106,6.394008250455354],[100.16932357261125,6.394347418046977],[100.1687852618766,6.394715087011912],[100.16826705164935,6.395110249534704],[100.1677703623078,6.395531822439875],[100.16729655524287,6.395978650161529],[100.1668469291268,6.396449507911328],[100.1664227163535,6.396943105036325],[100.16602507966071,6.397458088557197],[100.16565510894296,6.397993046877393],[100.16531381826428,6.398546513652938],[100.1650021430787,6.39911697181216],[100.16472093766622,6.399702857714622],[100.16447097279135,6.400302565437428],[100.16425293359042,6.400914451177607],[100.16406741769373,6.401536837758053],[100.16391493358745,6.402168019225137],[100.16379589921995,6.402806265524852],[100.16371064085612,6.403449827245169],[100.16365939218323,6.404096940411342],[100.16364229367034,6.404745831320946],[100.16365939218323,6.405394721405615],[100.16371064085612,6.406041832106057],[100.16379589921995,6.406685389746855],[100.16391493358745,6.407323630397944],[100.16406741769373,6.407954804709186],[100.16425293359042,6.408577182704997],[100.16447097279135,6.409189058525776],[100.16472093766622,6.409788755103118],[100.1650021430787,6.410374628756132],[100.16531381826428,6.410945073696166],[100.16565510894296,6.41149852642759],[100.16602507966071,6.412033470032618],[100.1664227163535,6.412548438328495],[100.1668469291268,6.413042019885466],[100.16729655524287,6.413512861894787],[100.1677703623078,6.413959673875953],[100.16826705164935,6.414381231213111],[100.1687852618766,6.414776378510892],[100.16932357261125,6.41514403276066],[100.16988050838106,6.415483186308188],[100.17045454266378,6.415792909614935],[100.17104410207132,6.416072353805244],[100.17164757066236,6.416320752992388],[100.17226329437143,6.41653742637734],[100.17288958554262,6.41672178011422],[100.17352472755539,6.416873308937578],[100.17416697952963,6.416991597546869],[100.1748145810973,6.417076321744515],[100.1754657572275,6.417127249324149],[100.17611872309178,6.417144240706961],[100.17677168895605,6.417127249324149],[100.17742286508627,6.417076321744515],[100.17807046665392,6.416991597546869],[100.17871271862816,6.416873308937578],[100.17934786064093,6.41672178011422],[100.17997415181213,6.41653742637734],[100.1805898755212,6.416320752992388],[100.18119334411224,6.416072353805244],[100.18178290351979,6.415792909614935],[100.1823569378025,6.415483186308188],[100.18291387357232,6.41514403276066],[100.18345218430697,6.414776378510892],[100.1839703945342,6.414381231213111],[100.18446708387573,6.413959673875953],[100.18494089094068,6.413512861894787],[100.18539051705676,6.413042019885466],[100.18581472983007,6.412548438328495],[100.18621236652284,6.412033470032618],[100.1865823372406,6.41149852642759],[100.18692362791927,6.410945073696166],[100.18723530310487,6.410374628756132],[100.18751650851735,6.409788755103118],[100.18776647339222,6.409189058525776],[100.18798451259315,6.408577182704997],[100.18817002848984,6.407954804709186],[100.1883225125961,6.407323630397944],[100.1884415469636,6.406685389746855],[100.18852680532743,6.406041832106057],[100.18857805400032,6.405394721405615],[100.18859515251323,6.404745831320946]],[[100.32830315267815,6.448010467704192],[100.32828566905266,6.447347018136298],[100.32823326609758,6.446685386173003],[100.32814608744577,6.446027385312236],[100.32802437204782,6.445374819106335],[100.32786845351724,6.444729476218439],[100.32767875921584,6.44409312551953],[100.32745580908254,6.443467511239816],[100.32720021420813,6.442854348187478],[100.3269126751604,6.442255317048039],[100.32659398006392,6.441672059777204],[100.32624500243978,6.441106175099755],[100.32586669881138,6.44055921412698],[100.3254601060827,6.440032676104471],[100.3250263386961,6.439528004302143],[100.32456658557788,6.439046582057588],[100.32408210687937,6.438589728983705],[100.32357423052298,6.438158697351003],[100.32304434856255,6.437754668654467],[100.32249391336765,6.437378750374381],[100.32192443364292,6.437031972940172],[100.3213374702927,6.436715286905313],[100.32073463214272,6.436429560341264],[100.32011757153045,6.436175576457582],[100.31948797977616,6.435954031454503],[100.31884758254704,6.435765532614304],[100.31819813512742,6.435610596636259],[100.31754141760753,6.435489648219989],[100.31687923000443,6.435403018901066],[100.31621338732832,6.435350946142035],[100.31554571460768,6.435333572681364],[100.31487804188706,6.435350946142035],[100.31421219921094,6.435403018901066],[100.31355001160786,6.435489648219989],[100.31289329408794,6.435610596636259],[100.31224384666834,6.435765532614304],[100.31160344943922,6.435954031454503],[100.31097385768493,6.436175576457582],[100.31035679707267,6.436429560341264],[100.30975395892268,6.436715286905313],[100.30916699557245,6.437031972940172],[100.30859751584772,6.437378750374381],[100.30804708065283,6.437754668654467],[100.3075171986924,6.438158697351003],[100.307009322336,6.438589728983705],[100.30652484363749,6.439046582057588],[100.30606509051927,6.439528004302143],[100.30563132313269,6.440032676104471],[100.30522473040399,6.44055921412698],[100.30484642677558,6.441106175099755],[100.30449744915144,6.441672059777204],[100.30417875405497,6.442255317048039],[100.30389121500725,6.442854348187478],[100.30363562013284,6.443467511239816],[100.30341266999953,6.44409312551953],[100.30322297569813,6.444729476218439],[100.30306705716755,6.445374819106335],[100.30294534176961,6.446027385312236],[100.3028581631178,6.446685386173003],[100.30280576016271,6.447347018136298],[100.30278827653721,6.448010467704192],[100.30280576016271,6.448673916403845],[100.3028581631178,6.449335545771972],[100.30294534176961,6.449993542339054],[100.30306705716755,6.450646102599786],[100.30322297569813,6.45129143795618],[100.30341266999953,6.451927779619782],[100.30363562013284,6.452553383459363],[100.30389121500725,6.453166534781116],[100.30417875405497,6.45376555302805],[100.30449744915144,6.454348796385725],[100.30484642677558,6.454914666281788],[100.30522473040399,6.455461611766891],[100.30563132313269,6.455988133765129],[100.30606509051927,6.456492789182155],[100.30652484363749,6.4569741948599],[100.307009322336,6.457431031366974],[100.3075171986924,6.457862046614374],[100.30804708065283,6.458266059286652],[100.30859751584772,6.458641962079065],[100.30916699557245,6.458988724731875],[100.30975395892268,6.459305396853575],[100.31035679707267,6.459591110525118],[100.31097385768493,6.459845082678243],[100.31160344943922,6.460066617241175],[100.31224384666834,6.460255107046055],[100.31289329408794,6.460410035492609],[100.31355001160786,6.460530977963724],[100.31421219921094,6.460617602988948],[100.31487804188706,6.4606696731528],[100.31554571460768,6.460687045745256],[100.31621338732832,6.4606696731528],[100.31687923000443,6.460617602988948],[100.31754141760753,6.460530977963724],[100.31819813512742,6.460410035492609],[100.31884758254704,6.460255107046055],[100.31948797977616,6.460066617241175],[100.32011757153045,6.459845082678243],[100.32073463214272,6.459591110525118],[100.3213374702927,6.459305396853575],[100.32192443364292,6.458988724731875],[100.32249391336765,6.458641962079065],[100.32304434856255,6.458266059286652],[100.32357423052298,6.457862046614374],[100.32408210687937,6.457431031366974],[100.32456658557788,6.4569741948599],[100.3250263386961,6.456492789182155],[100.3254601060827,6.455988133765129],[100.32586669881138,6.455461611766891],[100.32624500243978,6.454914666281788],[100.32659398006392,6.454348796385725],[100.3269126751604,6.45376555302805],[100.32720021420813,6.453166534781116],[100.32745580908254,6.452553383459363],[100.32767875921584,6.451927779619782],[100.32786845351724,6.45129143795618],[100.32802437204782,6.450646102599786],[100.32814608744577,6.449993542339054],[100.32823326609758,6.449335545771972],[100.32828566905266,6.448673916403845],[100.32830315267815,6.448010467704192]],[[100.25207156610162,6.407634806357649],[100.25205440620685,6.406983589683133],[100.25200297355661,6.406334157120525],[100.25191740912425,6.405688288729616],[100.2517979474359,6.405047754807752],[100.25164491592777,6.404414311037327],[100.25145873404858,6.403789693673382],[100.2512399121099,6.403175614784267],[100.25098904988748,6.402573757558628],[100.2507068349772,6.401985771691477],[100.25039404091055,6.401413268861903],[100.2500515250343,6.400857818315081],[100.24968022616068,6.400320942560486],[100.24928116199406,6.399804113198139],[100.24885542634162,6.399308746884359],[100.24840418611517,6.398836201448191],[100.24792867813281,6.398387772168926],[100.24743020572886,6.397964688225138],[100.24691013518155,6.397568109324861],[100.24636989196809,6.397199122526228],[100.24581095685757,6.396858739257255],[100.24523486185228,6.396547892542859],[100.2446431859886,6.396267434446906],[100.24403755100892,6.396018133736169],[100.24341961691663,6.395800673772614],[100.24279107742615,6.395615650639874],[100.24215365532048,6.395463571508981],[100.24150909772936,6.395344853247794],[100.24085917134033,6.395259821278176],[100.24020565755643,6.395208708683692],[100.23955034761352,6.395191655570589],[100.23889503767062,6.395208708683692],[100.23824152388671,6.395259821278176],[100.2375915974977,6.395344853247794],[100.23694703990657,6.395463571508981],[100.23630961780091,6.395615650639874],[100.23568107831044,6.395800673772614],[100.23506314421813,6.396018133736169],[100.23445750923845,6.396267434446906],[100.23386583337476,6.396547892542859],[100.23328973836949,6.396858739257255],[100.23273080325896,6.397199122526228],[100.2321905600455,6.397568109324861],[100.23167048949819,6.397964688225138],[100.23117201709425,6.398387772168926],[100.2306965091119,6.398836201448191],[100.23024526888543,6.399308746884359],[100.22981953323298,6.399804113198139],[100.22942046906638,6.400320942560486],[100.22904917019275,6.400857818315081],[100.22870665431651,6.401413268861903],[100.22839386024987,6.401985771691477],[100.22811164533958,6.402573757558628],[100.22786078311717,6.403175614784267],[100.22764196117846,6.403789693673382],[100.22745577929929,6.404414311037327],[100.22730274779114,6.405047754807752],[100.2271832861028,6.405688288729616],[100.22709772167043,6.406334157120525],[100.22704628902021,6.406983589683133],[100.22702912912544,6.407634806357649],[100.22704628902021,6.408286022200945],[100.22709772167043,6.408935452278993],[100.2271832861028,6.409581316559201],[100.22730274779114,6.410221844789296],[100.22745577929929,6.410855281349213],[100.22764196117846,6.411479890062927],[100.22786078311717,6.412093958956869],[100.22811164533958,6.412695804951881],[100.22839386024987,6.413283778476024],[100.22870665431651,6.413856267985435],[100.22904917019275,6.41441170438085],[100.22942046906638,6.414948565307851],[100.22981953323298,6.415465379328894],[100.23024526888543,6.415960729955721],[100.2306965091119,6.41643325953115],[100.23117201709425,6.416881672949689],[100.23167048949819,6.417304741206548],[100.2321905600455,6.417701304765509],[100.23273080325896,6.418070276736549],[100.23328973836949,6.418410645854126],[100.23386583337476,6.418721479248334],[100.23445750923845,6.41900192500128],[100.23506314421813,6.419251214481402],[100.23568107831044,6.419468664449771],[100.23630961780091,6.41965367893228],[100.23694703990657,6.41980575085269],[100.2375915974977,6.419924463422096],[100.23824152388671,6.420009491281025],[100.23889503767062,6.420060601390936],[100.23955034761352,6.420077653672808],[100.24020565755643,6.420060601390936],[100.24085917134033,6.420009491281025],[100.24150909772936,6.419924463422096],[100.24215365532048,6.41980575085269],[100.24279107742615,6.41965367893228],[100.24341961691663,6.419468664449771],[100.24403755100892,6.419251214481402],[100.2446431859886,6.41900192500128],[100.24523486185228,6.418721479248334],[100.24581095685757,6.418410645854126],[100.24636989196809,6.418070276736549],[100.24691013518155,6.417701304765509],[100.24743020572886,6.417304741206548],[100.24792867813281,6.416881672949689],[100.24840418611517,6.41643325953115],[100.24885542634162,6.415960729955721],[100.24928116199406,6.415465379328894],[100.24968022616068,6.414948565307851],[100.2500515250343,6.41441170438085],[100.25039404091055,6.413856267985435],[100.2507068349772,6.413283778476024],[100.25098904988748,6.412695804951881],[100.2512399121099,6.412093958956869],[100.25145873404858,6.411479890062927],[100.25164491592777,6.410855281349213],[100.2517979474359,6.410221844789296],[100.25191740912425,6.409581316559201],[100.25200297355661,6.408935452278993],[100.25205440620685,6.408286022200945],[100.25207156610162,6.407634806357649]],[[100.2729372857731,6.377106570840819],[100.2729206146609,6.376473865673064],[100.27287064701866,6.375842893928627],[100.27278751980423,6.375215385066825],[100.27267146086348,6.374593059061798],[100.27252278830595,6.37397762168787],[100.27234190963277,6.373370759843994],[100.27212932061981,6.372774136929749],[100.27188560395876,6.372189388285642],[100.27161142766008,6.371618116710463],[100.27130754322192,6.371061888067527],[100.27097478357041,6.370522226992283],[100.27061406077664,6.370000612712828],[100.27022636355669,6.369498474994848],[100.2698127545617,6.369017190222097],[100.26937436746519,6.368558077623176],[100.26891240385568,6.368122395654949],[100.26842812994337,6.367711338552546],[100.26792287308935,6.367326033055426],[100.26739801816755,6.366967535318258],[100.26685500376884,6.366636828015572],[100.26629531825792,6.36633481764764],[100.26572049569388,6.366062332055213],[100.26513211162542,6.365820118149906],[100.26453177877238,6.365608839866465],[100.26392114260535,6.365429076342488],[100.26330187683565,6.36528132033061],[100.26267567882769,6.365165976847578],[100.26204426494671,6.365083362063781],[100.26140936585423,6.365033702436445],[100.26077272176458,6.365017134088689],[100.26013607767493,6.365033702436445],[100.25950117858245,6.365083362063781],[100.25886976470147,6.365165976847578],[100.25824356669351,6.36528132033061],[100.25762430092381,6.365429076342488],[100.25701366475678,6.365608839866465],[100.25641333190374,6.365820118149906],[100.25582494783528,6.366062332055213],[100.25525012527125,6.36633481764764],[100.25469043976032,6.366636828015572],[100.25414742536161,6.366967535318258],[100.25362257043982,6.367326033055426],[100.25311731358579,6.367711338552546],[100.25263303967348,6.368122395654949],[100.25217107606397,6.368558077623176],[100.25173268896746,6.369017190222097],[100.25131907997248,6.369498474994848],[100.25093138275253,6.370000612712828],[100.25057065995875,6.370522226992283],[100.25023790030724,6.371061888067527],[100.24993401586909,6.371618116710463],[100.2496598395704,6.372189388285642],[100.24941612290935,6.372774136929749],[100.24920353389639,6.373370759843994],[100.2490226552232,6.37397762168787],[100.24887398266569,6.374593059061798],[100.24875792372494,6.375215385066825],[100.2486747965105,6.375842893928627],[100.24862482886826,6.376473865673064],[100.24860815775607,6.377106570840819],[100.24862482886826,6.377739275227685],[100.2486747965105,6.378370244638078],[100.24875792372494,6.378997749638203],[100.24887398266569,6.37962007029626],[100.2490226552232,6.380235500896484],[100.24920353389639,6.380842354614144],[100.24941612290935,6.38143896813873],[100.2496598395704,6.382023706232543],[100.24993401586909,6.382594966212437],[100.25023790030724,6.383151182342117],[100.25057065995875,6.383690830123228],[100.25093138275253,6.384212430473342],[100.25131907997248,6.384714553779363],[100.25173268896746,6.38519582381546],[100.25217107606397,6.385654921514488],[100.25263303967348,6.386090588582808],[100.25311731358579,6.386501630948543],[100.25362257043982,6.386886922033717],[100.25414742536161,6.387245405841544],[100.25469043976032,6.387576099850097],[100.25525012527125,6.38787809770476],[100.25582494783528,6.388150571701902],[100.25641333190374,6.388392775056941],[100.25701366475678,6.388604043950697],[100.25762430092381,6.388783799348472],[100.25824356669351,6.388931548586645],[100.25886976470147,6.389046886722695],[100.25950117858245,6.389129497644827],[100.26013607767493,6.38917915493812],[100.26077272176458,6.389195722504999],[100.26140936585423,6.38917915493812],[100.26204426494671,6.389129497644827],[100.26267567882769,6.389046886722695],[100.26330187683565,6.388931548586645],[100.26392114260535,6.388783799348472],[100.26453177877238,6.388604043950697],[100.26513211162542,6.388392775056941],[100.26572049569388,6.388150571701902],[100.26629531825792,6.38787809770476],[100.26685500376884,6.387576099850097],[100.26739801816755,6.387245405841544],[100.26792287308935,6.386886922033717],[100.26842812994337,6.386501630948543],[100.26891240385568,6.386090588582808],[100.26937436746519,6.385654921514488],[100.2698127545617,6.38519582381546],[100.27022636355669,6.384714553779363],[100.27061406077664,6.384212430473342],[100.27097478357041,6.383690830123228],[100.27130754322192,6.383151182342117],[100.27161142766008,6.382594966212437],[100.27188560395876,6.382023706232543],[100.27212932061981,6.38143896813873],[100.27234190963277,6.380842354614144],[100.27252278830595,6.380235500896484],[100.27267146086348,6.37962007029626],[100.27278751980423,6.378997749638203],[100.27287064701866,6.378370244638078],[100.2729206146609,6.377739275227685],[100.2729372857731,6.377106570840819]],[[100.18704919199926,6.351955454086157],[100.18703345384105,6.351358127339053],[100.1869862825037,6.350762437132736],[100.18690780728048,6.35017001622122],[100.18679824326658,6.349582488403192],[100.18665789076931,6.349001464071127],[100.18648713448515,6.348428535797074],[100.18628644244518,6.347865273967273],[100.18605636473234,6.347313222477546],[100.18579753197363,6.34677389450112],[100.18551065361167,6.346248768340804],[100.18519651596011,6.34573928337654],[100.18485598004841,6.345246836119678],[100.18448997926184,6.344772776384684],[100.1840995167831,6.344318403588866],[100.18368566284273,6.3438849631902],[100.18324955178558,6.343473643272978],[100.18279237896175,6.343085571290771],[100.18231539745022,6.342721810975602],[100.1818199146241,6.342383359421707],[100.18130728856741,6.342071144352001],[100.18077892435252,6.341786021574696],[100.18023627018903,6.341528772637084],[100.17968081345428,6.341300102682822],[100.17911407661657,6.341100638518792],[100.17853761306218,6.340930926896596],[100.17795300283761,6.340791433013549],[100.17736184831891,6.340682539237372],[100.1767657698195,6.340604544057793],[100.17616640114909,6.340557661268234],[100.17556538513557,6.340542019379647],[100.17496436912205,6.340557661268234],[100.17436500045164,6.340604544057793],[100.17376892195223,6.340682539237372],[100.17317776743351,6.340791433013549],[100.17259315720895,6.340930926896596],[100.17201669365457,6.341100638518792],[100.17144995681686,6.341300102682822],[100.1708945000821,6.341528772637084],[100.1703518459186,6.341786021574696],[100.16982348170373,6.342071144352001],[100.16931085564703,6.342383359421707],[100.16881537282092,6.342721810975602],[100.16833839130938,6.343085571290771],[100.16788121848555,6.343473643272978],[100.16744510742842,6.3438849631902],[100.16703125348803,6.344318403588866],[100.16664079100929,6.344772776384684],[100.16627479022273,6.345246836119678],[100.16593425431103,6.34573928337654],[100.16562011665947,6.346248768340804],[100.1653332382975,6.34677389450112],[100.16507440553879,6.347313222477546],[100.16484432782595,6.347865273967273],[100.16464363578598,6.348428535797074],[100.16447287950182,6.349001464071127],[100.16433252700456,6.349582488403192],[100.16422296299065,6.35017001622122],[100.16414448776746,6.350762437132736],[100.16409731643007,6.351358127339053],[100.16408157827188,6.351955454086157],[100.16409731643007,6.352552780140053],[100.16414448776746,6.353148468274317],[100.16422296299065,6.353740885757627],[100.16433252700456,6.354328408828868],[100.16447287950182,6.354909427147586],[100.16464363578598,6.355482348207594],[100.16484432782595,6.356045601701707],[100.16507440553879,6.356597643825426],[100.1653332382975,6.357136961508127],[100.16562011665947,6.357662076559797],[100.16593425431103,6.358171549722192],[100.16627479022273,6.358663984613287],[100.16664079100929,6.359138031554067],[100.16703125348803,6.359592391267398],[100.16744510742842,6.360025818438685],[100.16788121848555,6.360437125128514],[100.16833839130938,6.360825184028246],[100.16881537282092,6.361188931549215],[100.16931085564703,6.361527370737329],[100.16982348170373,6.361839574005167],[100.1703518459186,6.362124685673826],[100.1708945000821,6.362381924317725],[100.17144995681686,6.362610584905953],[100.17201669365457,6.362810040734296],[100.17259315720895,6.36297974514246],[100.17317776743351,6.363119233012159],[100.17376892195223,6.363228122041549],[100.17436500045164,6.363306113792937],[100.17496436912205,6.363352994510439],[100.17556538513557,6.363368635705793],[100.17616640114909,6.363352994510439],[100.1767657698195,6.363306113792937],[100.17736184831891,6.363228122041549],[100.17795300283761,6.363119233012159],[100.17853761306218,6.36297974514246],[100.17911407661657,6.362810040734296],[100.17968081345428,6.362610584905953],[100.18023627018903,6.362381924317725],[100.18077892435252,6.362124685673826],[100.18130728856741,6.361839574005167],[100.1818199146241,6.361527370737329],[100.18231539745022,6.361188931549215],[100.18279237896175,6.360825184028246],[100.18324955178558,6.360437125128514],[100.18368566284273,6.360025818438685],[100.1840995167831,6.359592391267398],[100.18448997926184,6.359138031554067],[100.18485598004841,6.358663984613287],[100.18519651596011,6.358171549722192],[100.18551065361167,6.357662076559797],[100.18579753197363,6.357136961508127],[100.18605636473234,6.356597643825426],[100.18628644244518,6.356045601701707],[100.18648713448515,6.355482348207594],[100.18665789076931,6.354909427147586],[100.18679824326658,6.354328408828868],[100.18690780728048,6.353740885757627],[100.1869862825037,6.353148468274317],[100.18703345384105,6.352552780140053],[100.18704919199926,6.351955454086157]],[[100.2104571230825,6.307754950562952],[100.21044080155694,6.307135429640506],[100.21039188171638,6.306517606044499],[100.21031049764672,6.305903173195627],[100.21019687241603,6.305293815226726],[100.2100513174632,6.304691202366521],[100.20987423174421,6.304096986361406],[100.2096661006387,6.303512795947864],[100.20942749461958,6.302940232387799],[100.20915906768936,6.30238086507927],[100.20886155558759,6.301836227254357],[100.20853577377427,6.301307811776246],[100.2081826151947,6.300797067046791],[100.20780304783202,6.300305393036027],[100.20739811205397,6.29983413744437],[100.20696891776136,6.299384592007988],[100.20651664134591,6.298957988957666],[100.20604252246585,6.298555497640706],[100.2055478606481,6.298178221315156],[100.20503401172628,6.297827194125268],[100.20450238412458,6.297503378266373],[100.20395443499731,6.297207661346922],[100.20339166623492,6.296940853955118],[100.20281562034751,6.296703687436584],[100.20222787623678,6.296496811889255],[100.2016300448685,6.296320794381157],[100.2010237648569,6.296176117395657],[100.20041069797333,6.296063177508622],[100.19979252459152,6.295982284301251],[100.19917093908175,6.295933659511208],[100.19854764516666,6.295917436424724],[100.19792435125156,6.295933659511208],[100.1973027657418,6.295982284301251],[100.19668459235999,6.296063177508622],[100.19607152547641,6.296176117395657],[100.19546524546482,6.296320794381157],[100.19486741409652,6.296496811889255],[100.1942796699858,6.296703687436584],[100.19370362409839,6.296940853955118],[100.193140855336,6.297207661346922],[100.19259290620873,6.297503378266373],[100.19206127860703,6.297827194125268],[100.19154742968522,6.298178221315156],[100.19105276786746,6.298555497640706],[100.1905786489874,6.298957988957666],[100.19012637257197,6.299384592007988],[100.18969717827935,6.29983413744437],[100.1892922425013,6.300305393036027],[100.18891267513861,6.300797067046791],[100.18855951655904,6.301307811776246],[100.18823373474572,6.301836227254357],[100.18793622264396,6.30238086507927],[100.18766779571374,6.302940232387799],[100.18742918969461,6.303512795947864],[100.1872210585891,6.304096986361406],[100.18704397287011,6.304691202366521],[100.18689841791728,6.305293815226726],[100.18678479268658,6.305903173195627],[100.18670340861694,6.306517606044499],[100.18665448877637,6.307135429640506],[100.1866381672508,6.307754950562952],[100.18665448877637,6.30837447074494],[100.18670340861694,6.308992292127686],[100.18678479268658,6.309606721314748],[100.18689841791728,6.310216074213399],[100.18704397287011,6.310818680650475],[100.1872210585891,6.311412888949932],[100.18742918969461,6.311997070459741],[100.18766779571374,6.312569624015536],[100.18793622264396,6.313128980328875],[100.18823373474572,6.313673606288118],[100.18855951655904,6.314202009160126],[100.18891267513861,6.314712740681119],[100.1892922425013,6.315204401025803],[100.18969717827935,6.315675642643477],[100.19012637257197,6.316125173951072],[100.1905786489874,6.316551762872606],[100.19105276786746,6.316954240215583],[100.19154742968522,6.317331502875053],[100.19206127860703,6.31768251685648],[100.19259290620873,6.318006320109259],[100.193140855336,6.31830202516304],[100.19370362409839,6.318568821559653],[100.1942796699858,6.318805978073931],[100.19486741409652,6.319012844717526],[100.19546524546482,6.319188854519966],[100.19607152547641,6.319333525082337],[100.19668459235999,6.319446459899109],[100.1973027657418,6.319527349444669],[100.19792435125156,6.319575972021453],[100.19854764516666,6.319592194367479],[100.19917093908175,6.319575972021453],[100.19979252459152,6.319527349444669],[100.20041069797333,6.319446459899109],[100.2010237648569,6.319333525082337],[100.2016300448685,6.319188854519966],[100.20222787623678,6.319012844717526],[100.20281562034751,6.318805978073931],[100.20339166623492,6.318568821559653],[100.20395443499731,6.31830202516304],[100.20450238412458,6.318006320109259],[100.20503401172628,6.31768251685648],[100.2055478606481,6.317331502875053],[100.20604252246585,6.316954240215583],[100.20651664134591,6.316551762872606],[100.20696891776136,6.316125173951072],[100.20739811205397,6.315675642643477],[100.20780304783202,6.315204401025803],[100.2081826151947,6.314712740681119],[100.20853577377427,6.314202009160126],[100.20886155558759,6.313673606288118],[100.20915906768936,6.313128980328875],[100.20942749461958,6.312569624015536],[100.2096661006387,6.311997070459741],[100.20987423174421,6.311412888949932],[100.2100513174632,6.310818680650475],[100.21019687241603,6.310216074213399],[100.21031049764672,6.309606721314748],[100.21039188171638,6.308992292127686],[100.21044080155694,6.30837447074494],[100.2104571230825,6.307754950562952]]],"bbox":[100.12814040840375,6.295917436424724,100.32830315267815,6.660249538934938]}
