{"type":"Topology","objects":{"PLS_SE-10":{"type":"GeometryCollection","geometries":[{"type":"Polygon","arcs":[[0]],"properties":{"state":"Perlis","parlimen":"P.001 Padang Besar","code_parlimen":"P.001","dun":"N.01 Titi Tinggi","code_dun":"N.01","voters_total":6771}},{"type":"Polygon","arcs":[[1]],"properties":{"state":"Perlis","parlimen":"P.001 Padang Besar","code_parlimen":"P.001","dun":"N.02 Beseri","code_dun":"N.02","voters_total":6871}},{"type":"Polygon","arcs":[[2]],"properties":{"state":"Perlis","parlimen":"P.001 Padang Besar","code_parlimen":"P.001","dun":"N.03 Chuping","code_dun":"N.03","voters_total":7501}},{"type":"Polygon","arcs":[[3]],"properties":{"state":"Perlis","parlimen":"P.001 Padang Besar","code_parlimen":"P.001","dun":"N.04 Mata Ayer","code_dun":"N.04","voters_total":4880}},{"type":"Polygon","arcs":[[4]],"properties":{"state":"Perlis","parlimen":"P.001 Padang Besar","code_parlimen":"P.001","dun":"N.05 Santan","code_dun":"N.05","voters_total":6455}},{"type":"Polygon","arcs":[[5]],"properties":{"state":"Perlis","parlimen":"P.002 Kangar","code_parlimen":"P.002","dun":"N.06 Bintong","code_dun":"N.06","voters_total":7751}},{"type":"Polygon","arcs":[[6]],"properties":{"state":"Perlis","parlimen":"P.002 Kangar","code_parlimen":"P.002","dun":"N.07 Sena","code_dun":"N.07","voters_total":7490}},{"type":"Polygon","arcs":[[7]],"properties":{"state":"Perlis","parlimen":"P.002 Kangar","code_parlimen":"P.002","dun":"N.08 Indera Kayangan","code_dun":"N.08","voters_total":7977}},{"type":"Polygon","arcs":[[8]],"properties":{"state":"Perlis","parlimen":"P.002 Kangar","code_parlimen":"P.002","dun":"N.09 Kuala Perlis","code_dun":"N.09","voters_total":7426}},{"type":"Polygon","arcs":[[9]],"properties":{"state":"Perlis","parlimen":"P.002 Kangar","code_parlimen":"P.002","dun":"N.10 Kayang","code_dun":"N.10","voters_total":6580}},{"type":"Polygon","arcs":[[10]],"properties":{"state":"Perlis","parlimen":"P.003 Arau","code_parlimen":"P.003","dun":"N.11 Pauh","code_dun":"N.11","voters_total":7334}},{"type":"Polygon","arcs":[[11]],"properties":{"state":"Perlis","parlimen":"P.003 Arau","code_parlimen":"P.003","dun":"N.12 Tambun Tulang","code_dun":"N.12","voters_total":7467}},{"type":"Polygon","arcs":[[12]],"properties":{"state":"Perlis","parlimen":"P.003 Arau","code_parlimen":"P.003","dun":"N.13 Guar Sanji","code_dun":"N.13","voters_total":7302}},{"type":"Polygon","arcs":[[13]],"properties":{"state":"Perlis","parlimen":"P.003 Arau","code_parlimen":"P.003","dun":"N.14 Simpang Empat","code_dun":"N.14","voters_total":6258}},{"type":"Polygon","arcs":[[14]],"properties":{"state":"Perlis","parlimen":"P.003 Arau","code_parlimen":"P.003","dun":"N.15 Sanglang","code_dun":"N.15","voters_total":7670}}]}},"arcs":[[[100.28037016299909,6.64738624934517],[100.28035264041178,6.646721586803667],[100.28030012067798,6.646058745161168],[100.28021274775065,6.645399541231663],[100.2800907611129,6.644745781865659],[100.27993449512165,6.644099258997459],[100.27974437809112,6.643461744733408],[100.27952093111884,6.642834986494253],[100.27926476665745,6.642220702225196],[100.27897658683597,6.641620575686619],[100.27865718153518,6.641036251838476],[100.27830742622288,6.640469332330984],[100.27792827955403,6.639921371113939],[100.27752078074332,6.639393870176757],[100.27708604671663,6.638888275430959],[100.27662526904976,6.638405972746185],[100.27613971070221,6.637948284150956],[100.2756307025557,6.63751646420826],[100.27509963976617,6.637111696576113],[100.27454797793982,6.636735090762519],[100.27397722914336,6.636387679083597],[100.27338895775954,6.636070413833345],[100.27278477619937,6.63578416467284],[100.27216634048251,6.635529716245838],[100.27153534569827,6.635307766027601],[100.27089352135948,6.635118922412539],[100.27024262666204,6.634963703046232],[100.2695844456631,6.634842533406125],[100.268920782391,6.634755745635021],[100.26825345590066,6.634703577630386],[100.26758429528758,6.634686172392094],[100.26691513467449,6.634703577630386],[100.26624780818415,6.634755745635021],[100.26558414491204,6.634842533406125],[100.2649259639131,6.634963703046232],[100.26427506921567,6.635118922412539],[100.26363324487689,6.635307766027601],[100.26300225009264,6.635529716245838],[100.26238381437578,6.63578416467284],[100.26177963281562,6.636070413833345],[100.26119136143181,6.636387679083597],[100.26062061263535,6.636735090762519],[100.26006895080899,6.637111696576113],[100.25953788801945,6.63751646420826],[100.25902887987294,6.637948284150956],[100.25854332152541,6.638405972746185],[100.25808254385852,6.638888275430959],[100.25764780983184,6.639393870176757],[100.2572403110211,6.639921371113939],[100.25686116435227,6.640469332330984],[100.25651140903996,6.641036251838476],[100.25619200373919,6.641620575686619],[100.2559038239177,6.642220702225196],[100.25564765945632,6.642834986494253],[100.25542421248403,6.643461744733408],[100.2552340954535,6.644099258997459],[100.25507782946227,6.644745781865659],[100.25495584282451,6.645399541231663],[100.25486846989718,6.646058745161168],[100.25481595016339,6.646721586803667],[100.25479842757605,6.64738624934517],[100.25481595016339,6.648050910988103],[100.25486846989718,6.648713749944661],[100.25495584282451,6.649372949430321],[100.25507782946227,6.650026702643275],[100.2552340954535,6.650673217716609],[100.25542421248403,6.651310722629385],[100.25564765945632,6.651937470063305],[100.2559038239177,6.652551742191586],[100.25619200373919,6.653151855386821],[100.25651140903996,6.653736164835257],[100.25686116435227,6.654303069044459],[100.2572403110211,6.654851014232234],[100.25764780983184,6.655378498584781],[100.25808254385852,6.655884076372296],[100.25854332152541,6.656366361910928],[100.25902887987294,6.656824033360015],[100.25953788801945,6.657255836344427],[100.26006895080899,6.657660587391939],[100.26062061263535,6.658037177176263],[100.26119136143181,6.658384573556896],[100.26177963281562,6.658701824407442],[100.26238381437578,6.658988060224616],[100.26300225009264,6.659242496510817],[100.26363324487689,6.659464435923833],[100.26427506921567,6.659653270187619],[100.2649259639131,6.65980848175906],[100.26558414491204,6.659929645246105],[100.26624780818415,6.660016428573375],[100.26691513467449,6.660068593892083],[100.26758429528758,6.660085998231779],[100.26825345590066,6.660068593892083],[100.268920782391,6.660016428573375],[100.2695844456631,6.659929645246105],[100.27024262666204,6.65980848175906],[100.27089352135948,6.659653270187619],[100.27153534569827,6.659464435923833],[100.27216634048251,6.659242496510817],[100.27278477619937,6.658988060224616],[100.27338895775954,6.658701824407442],[100.27397722914336,6.658384573556896],[100.27454797793982,6.658037177176263],[100.27509963976617,6.657660587391939],[100.2756307025557,6.657255836344427],[100.27613971070221,6.656824033360015],[100.27662526904976,6.656366361910928],[100.27708604671663,6.655884076372296],[100.27752078074332,6.655378498584781],[100.27792827955403,6.654851014232234],[100.27830742622288,6.654303069044459],[100.27865718153518,6.653736164835257],[100.27897658683597,6.653151855386821],[100.27926476665745,6.652551742191586],[100.27952093111884,6.651937470063305],[100.27974437809112,6.651310722629385],[100.27993449512165,6.650673217716609],[100.2800907611129,6.650026702643275],[100.28021274775065,6.649372949430321],[100.28030012067798,6.648713749944661],[100.28035264041178,6.648050910988103],[100.28037016299909,6.64738624934517]],[[100.22253646816858,6.60495165852524],[100.22251881666112,6.604282048208247],[100.2224659105203,6.603614272344243],[100.22237789475818,6.602950161271699],[100.22225501061983,6.602291535291357],[100.22209759492216,6.601640199676831],[100.22190607913063,6.600997939726121],[100.2216809881767,6.600366515867923],[100.22142293901906,6.599747658835899],[100.22113263895251,6.599143064924528],[100.22081088366934,6.598554391338951],[100.22045855507842,6.59798325165224],[100.22007661888796,6.597431211381894],[100.21966612195844,6.596899783698341],[100.21922818943347,6.596390425276543],[100.21876402165564,6.595904532302755],[100.21827489087657,6.595443436646806],[100.21776213776972,6.595008402210772],[100.21722716775571,6.594600621464004],[100.21667144715019,6.594221212173755],[100.21609649914468,6.593871214340861],[100.21550389963173,6.593551587348318],[100.21489527288537,6.593263207331046],[100.21427228710925,6.593006864773824],[100.21363664986406,6.592783262343978],[100.21299010338731,6.592593012964916],[100.21233441981794,6.592436638135625],[100.21167139633906,6.592314566500858],[100.2110028502519,6.592227132675935],[100.21033061399488,6.592174576329274],[100.20965653012078,6.592157041525248],[100.20898244624671,6.592174576329274],[100.20831020998968,6.592227132675935],[100.20764166390254,6.592314566500858],[100.20697864042366,6.592436638135625],[100.20632295685428,6.592593012964916],[100.20567641037754,6.592783262343978],[100.20504077313232,6.593006864773824],[100.2044177873562,6.593263207331046],[100.20380916060985,6.593551587348318],[100.2032165610969,6.593871214340861],[100.20264161309139,6.594221212173755],[100.20208589248585,6.594600621464004],[100.20155092247185,6.595008402210772],[100.20103816936502,6.595443436646806],[100.20054903858593,6.595904532302755],[100.20008487080811,6.596390425276543],[100.19964693828315,6.596899783698341],[100.19923644135362,6.597431211381894],[100.19885450516315,6.59798325165224],[100.19850217657223,6.598554391338951],[100.19818042128908,6.599143064924528],[100.19789012122251,6.599747658835899],[100.19763207206488,6.600366515867923],[100.19740698111096,6.600997939726121],[100.19721546531942,6.601640199676831],[100.19705804962175,6.602291535291357],[100.1969351654834,6.602950161271699],[100.19684714972128,6.603614272344243],[100.19679424358044,6.604282048208247],[100.19677659207301,6.60495165852524],[100.19679424358044,6.605621267936105],[100.19684714972128,6.6062890410916],[100.1969351654834,6.606953147682959],[100.19705804962175,6.607611767458509],[100.19721546531942,6.608263095212638],[100.19740698111096,6.608905345733448],[100.19763207206488,6.609536758695601],[100.19789012122251,6.610155603484766],[100.19818042128908,6.610760183940636],[100.19850217657223,6.611348843005441],[100.19885450516315,6.611919967265279],[100.19923644135362,6.612471991371588],[100.19964693828315,6.613003402331096],[100.20008487080811,6.613512743652045],[100.20054903858593,6.613998619335549],[100.20103816936502,6.614459697701227],[100.20155092247185,6.61489471503641],[100.20208589248585,6.615302479059134],[100.20264161309139,6.615681872185347],[100.2032165610969,6.616031854591355],[100.20380916060985,6.616351467063152],[100.2044177873562,6.616639833624896],[100.20504077313232,6.616896163939272],[100.20567641037754,6.617119755473047],[100.20632295685428,6.617309995422235],[100.20697864042366,6.617466362391129],[100.20764166390254,6.617588427821118],[100.20831020998968,6.617675857164843],[100.20898244624671,6.617728410802994],[100.20965653012078,6.617745944700867],[100.21033061399488,6.617728410802994],[100.2110028502519,6.617675857164843],[100.21167139633906,6.617588427821118],[100.21233441981794,6.617466362391129],[100.21299010338731,6.617309995422235],[100.21363664986406,6.617119755473047],[100.21427228710925,6.616896163939272],[100.21489527288537,6.616639833624896],[100.21550389963173,6.616351467063152],[100.21609649914468,6.616031854591355],[100.21667144715019,6.615681872185347],[100.21722716775571,6.615302479059134],[100.21776213776972,6.61489471503641],[100.21827489087657,6.614459697701227],[100.21876402165564,6.613998619335549],[100.21922818943347,6.613512743652045],[100.21966612195844,6.613003402331096],[100.22007661888796,6.612471991371588],[100.22045855507842,6.611919967265279],[100.22081088366934,6.611348843005441],[100.22113263895251,6.610760183940636],[100.22142293901906,6.610155603484766],[100.2216809881767,6.609536758695601],[100.22190607913063,6.608905345733448],[100.22209759492216,6.608263095212638],[100.22225501061983,6.607611767458509],[100.22237789475818,6.606953147682959],[100.2224659105203,6.6062890410916],[100.22251881666112,6.605621267936105],[100.22253646816858,6.60495165852524]],[[100.32260982077528,6.531107245037351],[100.32259137778198,6.53040750584204],[100.32253609935297,6.529709683608979],[100.32244413700262,6.529015691032525],[100.32231574279334,6.528327430318058],[100.32215126864472,6.527646787967963],[100.32195116536897,6.526975629610543],[100.32171598143525,6.526315794886081],[100.32144636146641,6.525669092404108],[100.32114304447201,6.525037294785469],[100.32080686182287,6.524422133803244],[100.32043873497226,6.523825295635342],[100.32003967293026,6.523248416242087],[100.31961076949824,6.522693076881463],[100.31915320027063,6.522160799774195],[100.31866821941296,6.521653043930634],[100.31815715622398,6.521171201150849],[100.31762141149238,6.52071659220901],[100.31706245365724,6.520290463232398],[100.31648181478316,6.519893982285],[100.3158810863609,6.519528236165096],[100.31526191494531,6.51919422742571],[100.31462599764224,6.51889287162588],[100.31397507745673,6.518624994820464],[100.31331093851587,6.518391331295393],[100.31263540117827,6.518192521554369],[100.31195031704483,6.518029110562818],[100.31125756388354,6.517901546253712],[100.31055904048264,6.517810178299408],[100.30985666144626,6.51775525715294],[100.30915235194651,6.517736933361385],[100.30844804244673,6.51775525715294],[100.30774566341034,6.517810178299408],[100.30704714000946,6.517901546253712],[100.30635438684817,6.518029110562818],[100.30566930271475,6.518192521554369],[100.30499376537715,6.518391331295393],[100.30432962643627,6.518624994820464],[100.30367870625078,6.51889287162588],[100.30304278894769,6.51919422742571],[100.3024236175321,6.519528236165096],[100.30182288910984,6.519893982285],[100.30124225023577,6.520290463232398],[100.30068329240063,6.52071659220901],[100.30014754766904,6.521171201150849],[100.29963648448006,6.521653043930634],[100.29915150362237,6.522160799774195],[100.29869393439478,6.522693076881463],[100.29826503096274,6.523248416242087],[100.29786596892076,6.523825295635342],[100.29749784207014,6.524422133803244],[100.297161659421,6.525037294785469],[100.2968583424266,6.525669092404108],[100.29658872245776,6.526315794886081],[100.29635353852404,6.526975629610543],[100.2961534352483,6.527646787967963],[100.29598896109968,6.528327430318058],[100.29586056689038,6.529015691032525],[100.29576860454004,6.529709683608979],[100.29571332611103,6.53040750584204],[100.29569488311773,6.531107245037351],[100.29571332611103,6.531806983254286],[100.29576860454004,6.532504802562979],[100.29586056689038,6.533198790301098],[100.29598896109968,6.53388704431626],[100.2961534352483,6.534567678179516],[100.29635353852404,6.53523882635551],[100.29658872245776,6.535898649315507],[100.2968583424266,6.536545338578903],[100.297161659421,6.537177121669647],[100.29749784207014,6.537792266973849],[100.29786596892076,6.538389088485363],[100.29826503096274,6.538965950426369],[100.29869393439478,6.539521271730067],[100.29915150362237,6.54005353037358],[100.29963648448006,6.540561267548875],[100.30014754766904,6.541043091660383],[100.30068329240063,6.541497682138464],[100.30124225023577,6.541923793058164],[100.30182288910984,6.5423202565533],[100.3024236175321,6.542685986016816],[100.30304278894769,6.54301997907818],[100.30367870625078,6.543321320350126],[100.30432962643627,6.543589183936954],[100.30499376537715,6.543822835697573],[100.30566930271475,6.54402163525717],[100.30635438684817,6.54418503776187],[100.30704714000946,6.544312595371684],[100.30774566341034,6.544403958487652],[100.30844804244673,6.54445887670974],[100.30915235194651,6.544477199522944],[100.30985666144626,6.54445887670974],[100.31055904048264,6.544403958487652],[100.31125756388354,6.544312595371684],[100.31195031704483,6.54418503776187],[100.31263540117827,6.54402163525717],[100.31331093851587,6.543822835697573],[100.31397507745673,6.543589183936954],[100.31462599764224,6.543321320350126],[100.31526191494531,6.54301997907818],[100.3158810863609,6.542685986016816],[100.31648181478316,6.5423202565533],[100.31706245365724,6.541923793058164],[100.31762141149238,6.541497682138464],[100.31815715622398,6.541043091660383],[100.31866821941296,6.540561267548875],[100.31915320027063,6.54005353037358],[100.31961076949824,6.539521271730067],[100.32003967293026,6.538965950426369],[100.32043873497226,6.538389088485363],[100.32080686182287,6.537792266973849],[100.32114304447201,6.537177121669647],[100.32144636146641,6.536545338578903],[100.32171598143525,6.535898649315507],[100.32195116536897,6.53523882635551],[100.32215126864472,6.534567678179516],[100.32231574279334,6.53388704431626],[100.32244413700262,6.533198790301098],[100.32253609935297,6.532504802562979],[100.32259137778198,6.531806983254286],[100.32260982077528,6.531107245037351]],[[100.27014245111629,6.479099660140272],[100.2701275752681,6.478535202417866],[100.27008298849725,6.477972291205964],[100.27000881301295,6.477412469412875],[100.26990525212504,6.476857271484113],[100.26977258968674,6.476308219196397],[100.26961118931655,6.475766817486448],[100.26942149340167,6.475234550325742],[100.26920402188543,6.474712876652799],[100.26895937084213,6.474203226373939],[100.26868821084327,6.473706996443713],[100.26839128511956,6.473225547035427],[100.26806940752378,6.472760197812603],[100.26772346030003,6.472312224311379],[100.26735439166565,6.471882854443844],[100.26696321321204,6.471473265131867],[100.2665509971322,6.47108457908077],[100.26611887328174,6.470717861701436],[100.26566802608211,6.470374118189636],[100.26519969127412,6.470054290770268],[100.26471515253094,6.469759256114274],[100.2642157379396,6.469489822935249],[100.26370281636073,6.469246729772331],[100.2631777936768,6.469030642965425],[100.26264210893844,6.468842154828492],[100.2620972304203,6.468681782025516],[100.2615446515965,6.468549964154166],[100.26098588704721,6.468447062540553],[100.26042246830725,6.468373359248571],[100.25985593966816,6.468329056306632],[100.2592878539456,6.468314275153746],[100.25871976822303,6.468329056306632],[100.25815323958395,6.468373359248571],[100.25758982084399,6.468447062540553],[100.2570310562947,6.468549964154166],[100.2564784774709,6.468681782025516],[100.25593359895275,6.468842154828492],[100.25539791421438,6.469030642965425],[100.25487289153045,6.469246729772331],[100.2543599699516,6.469489822935249],[100.25386055536025,6.469759256114274],[100.25337601661708,6.470054290770268],[100.25290768180909,6.470374118189636],[100.25245683460945,6.470717861701436],[100.25202471075899,6.47108457908077],[100.25161249467915,6.471473265131867],[100.25122131622555,6.471882854443844],[100.25085224759115,6.472312224311379],[100.25050630036742,6.472760197812603],[100.25018442277162,6.473225547035427],[100.24988749704792,6.473706996443713],[100.24961633704906,6.474203226373939],[100.24937168600576,6.474712876652799],[100.24915421448952,6.475234550325742],[100.24896451857464,6.475766817486448],[100.24880311820445,6.476308219196397],[100.24867045576615,6.476857271484113],[100.24856689487825,6.477412469412875],[100.24849271939394,6.477972291205964],[100.24844813262308,6.478535202417866],[100.2484332567749,6.479099660140272],[100.24844813262308,6.479664117231173],[100.24849271939394,6.480227026555429],[100.24856689487825,6.480786845225429],[100.24867045576615,6.481342038829883],[100.24880311820445,6.481891085639425],[100.24896451857464,6.482432480777381],[100.24915421448952,6.482964740344272],[100.24937168600576,6.483486405484778],[100.24961633704906,6.483996046386053],[100.24988749704792,6.484492266196288],[100.25018442277162,6.484973704853077],[100.25050630036742,6.48543904281067],[100.25085224759115,6.485887004656369],[100.25122131622555,6.486316362605781],[100.25161249467915,6.48672593986759],[100.25202471075899,6.487114613868533],[100.25245683460945,6.48748131932973],[100.25290768180909,6.487825051185993],[100.25337601661708,6.48814486734013],[100.25386055536025,6.488439891244628],[100.2543599699516,6.488709314303674],[100.25487289153045,6.488952398089006],[100.25539791421438,6.489168476363464],[100.25593359895275,6.489356956906594],[100.2564784774709,6.489517323137576],[100.2570310562947,6.489649135530753],[100.25758982084399,6.489752032820045],[100.25815323958395,6.489825732988939],[100.25871976822303,6.489870034043244],[100.2592878539456,6.489884814564598],[100.25985593966816,6.489870034043244],[100.26042246830725,6.489825732988939],[100.26098588704721,6.489752032820045],[100.2615446515965,6.489649135530753],[100.2620972304203,6.489517323137576],[100.26264210893844,6.489356956906594],[100.2631777936768,6.489168476363464],[100.26370281636073,6.488952398089006],[100.2642157379396,6.488709314303674],[100.26471515253094,6.488439891244628],[100.26519969127412,6.48814486734013],[100.26566802608211,6.487825051185993],[100.26611887328174,6.48748131932973],[100.2665509971322,6.487114613868533],[100.26696321321204,6.48672593986759],[100.26735439166565,6.486316362605781],[100.26772346030003,6.485887004656369],[100.26806940752378,6.48543904281067],[100.26839128511956,6.484973704853077],[100.26868821084327,6.484492266196288],[100.26895937084213,6.483996046386053],[100.26920402188543,6.483486405484778],[100.26942149340167,6.482964740344272],[100.26961118931655,6.482432480777381],[100.26977258968674,6.481891085639425],[100.26990525212504,6.481342038829883],[100.27000881301295,6.480786845225429],[100.27008298849725,6.480227026555429],[100.2701275752681,6.479664117231173],[100.27014245111629,6.479099660140272]],[[100.23395330882889,6.503673237724272],[100.23393620001313,6.503024082621791],[100.23388492045991,6.502376705973393],[100.23379961072295,6.501732882203855],[100.2336805046303,6.501094376006463],[100.23352792864345,6.500462937506008],[100.23334230096262,6.499840297461434],[100.23312413038035,6.49922816252173],[100.23287401488706,6.498628210547692],[100.23259264003192,6.498042086012513],[100.23228077704385,6.497471395493988],[100.23193928071761,6.496917703270347],[100.23156908707094,6.496382527032118],[100.23117121077883,6.495867333721579],[100.23074674239258,6.495373535511329],[100.23029684535055,6.494902485932877],[100.2298227527892,6.494455476166055],[100.22932576416332,6.494033731499215],[100.22880724168422,6.493638407970105],[100.22826860658593,6.493270589196515],[100.22771133522983,6.492931283405491],[100.22713695505796,6.492621420669193],[100.22654704040646,6.492341850354943],[100.2259432081904,6.492093338796588],[100.22532711347186,6.491876567193511],[100.22470044492371,6.491692129742944],[100.2240649202008,6.491540532010897],[100.2234222812323,6.491422189546037],[100.2227742894469,6.491337426740375],[100.22212272094508,6.491286475939881],[100.22146936163077,6.491269476807418],[100.22081600231647,6.491286475939881],[100.22016443381465,6.491337426740375],[100.21951644202925,6.491422189546037],[100.21887380306075,6.491540532010897],[100.21823827833784,6.491692129742944],[100.21761160978967,6.491876567193511],[100.21699551507115,6.492093338796588],[100.21639168285508,6.492341850354943],[100.21580176820358,6.492621420669193],[100.2152273880317,6.492931283405491],[100.2146701166756,6.493270589196515],[100.21413148157733,6.493638407970105],[100.2136129590982,6.494033731499215],[100.21311597047234,6.494455476166055],[100.212641877911,6.494902485932877],[100.21219198086895,6.495373535511329],[100.21176751248271,6.495867333721579],[100.21136963619061,6.496382527032118],[100.21099944254392,6.496917703270347],[100.2106579462177,6.497471395493988],[100.21034608322962,6.498042086012513],[100.21006470837447,6.498628210547692],[100.20981459288119,6.49922816252173],[100.20959642229892,6.499840297461434],[100.20941079461808,6.500462937506008],[100.20925821863123,6.501094376006463],[100.2091391125386,6.501732882203855],[100.20905380280163,6.502376705973393],[100.20900252324842,6.503024082621791],[100.20898541443265,6.503673237724272],[100.20900252324842,6.504322391988282],[100.20905380280163,6.504969766130505],[100.2091391125386,6.505613585753592],[100.20925821863123,6.506252086209677],[100.20941079461808,6.506883517436915],[100.20959642229892,6.507506148756006],[100.20981459288119,6.508118273613568],[100.21006470837447,6.508718214259297],[100.21034608322962,6.509304326344081],[100.2106579462177,6.509875003426543],[100.21099944254392,6.510428681375664],[100.21136963619061,6.510963842657321],[100.21176751248271,6.511479020493088],[100.21219198086895,6.511972802879912],[100.212641877911,6.512443836459641],[100.21311597047234,6.51289083022775],[100.2136129590982,6.513312559071166],[100.21413148157733,6.513707867125516],[100.2146701166756,6.514075670942522],[100.2152273880317,6.514414962459027],[100.21580176820358,6.514724811759274],[100.21639168285508,6.51500436962313],[100.21699551507115,6.515252869853163],[100.21761160978967,6.51546963137411],[100.21823827833784,6.515654060099207],[100.21887380306075,6.515805650558025],[100.21951644202925,6.515923987281576],[100.22016443381465,6.516008745940788],[100.22081600231647,6.516059694235093],[100.22146936163077,6.516076692529098],[100.22212272094508,6.516059694235093],[100.2227742894469,6.516008745940788],[100.2234222812323,6.515923987281576],[100.2240649202008,6.515805650558025],[100.22470044492371,6.515654060099207],[100.22532711347186,6.51546963137411],[100.2259432081904,6.515252869853163],[100.22654704040646,6.51500436962313],[100.22713695505796,6.514724811759274],[100.22771133522983,6.514414962459027],[100.22826860658593,6.514075670942522],[100.22880724168422,6.513707867125516],[100.22932576416332,6.513312559071166],[100.2298227527892,6.51289083022775],[100.23029684535055,6.512443836459641],[100.23074674239258,6.511972802879912],[100.23117121077883,6.511479020493088],[100.23156908707094,6.510963842657321],[100.23193928071761,6.510428681375664],[100.23228077704385,6.509875003426543],[100.23259264003192,6.509304326344081],[100.23287401488706,6.508718214259297],[100.23312413038035,6.508118273613568],[100.23334230096262,6.507506148756006],[100.23352792864345,6.506883517436915],[100.2336805046303,6.506252086209677],[100.23379961072295,6.505613585753592],[100.23388492045991,6.504969766130505],[100.23393620001313,6.504322391988282],[100.23395330882889,6.503673237724272]],[[100.19029538256608,6.492087443570497],[100.19027663474955,6.491376083885118],[100.19022044268644,6.490666672986392],[100.19012696039528,6.48996115533272],[100.18999644410452,6.489261464719478],[100.18982925155024,6.488569518978353],[100.18962584099563,6.487887214720424],[100.18938676997487,6.487216422137263],[100.18911269376501,6.486558979874415],[100.18880436358991,6.485916689991249],[100.18846262456113,6.485291313021015],[100.18808841336157,6.484684563144675],[100.18768275567815,6.48409810349175],[100.18724676339039,6.483533541580988],[100.18678163152282,6.482992424913495],[100.18628863496957,6.482476236730324],[100.18576912499991,6.481986391946084],[100.18522452555459,6.481524233269984],[100.18465632934279,6.481091027524627],[100.18406609375089,6.480687962172978],[100.18345543657355,6.480316142062662],[100.18282603157971,6.479976586396918],[100.18217960392467,6.479670225940304],[100.1815179254217,6.479397900466719],[100.18084280968561,6.479160356457044],[100.1801561071617,6.478958245052431],[100.17945970005383,6.478792120269073],[100.1787554971655,6.478662437479208],[100.17804542866789,6.478569552162556],[100.17733144080934,6.478513718931679],[100.17661549058101,6.478495090833913],[100.17589954035267,6.478513718931679],[100.17518555249414,6.478569552162556],[100.17447548399652,6.478662437479208],[100.1737712811082,6.478792120269073],[100.17307487400033,6.478958245052431],[100.17238817147641,6.479160356457044],[100.17171305574033,6.479397900466719],[100.17105137723736,6.479670225940304],[100.17040494958232,6.479976586396918],[100.16977554458848,6.480316142062662],[100.16916488741114,6.480687962172978],[100.16857465181924,6.481091027524627],[100.16800645560744,6.481524233269984],[100.16746185616212,6.481986391946084],[100.16694234619246,6.482476236730324],[100.16644934963921,6.482992424913495],[100.16598421777164,6.483533541580988],[100.16554822548387,6.48409810349175],[100.16514256780046,6.484684563144675],[100.1647683566009,6.485291313021015],[100.1644266175721,6.485916689991249],[100.164118287397,6.486558979874415],[100.16384421118715,6.487216422137263],[100.1636051401664,6.487887214720424],[100.16340172961178,6.488569518978353],[100.1632345370575,6.489261464719478],[100.16310402076674,6.48996115533272],[100.16301053847558,6.490666672986392],[100.16295434641248,6.491376083885118],[100.16293559859595,6.492087443570497],[100.16295434641248,6.492798802250847],[100.16301053847558,6.493508210145489],[100.16310402076674,6.494213722828921],[100.1632345370575,6.494913406560231],[100.16340172961178,6.495605343583138],[100.1636051401664,6.49628763738208],[100.16384421118715,6.496958417880062],[100.164118287397,6.497615846563964],[100.1644266175721,6.49825812152319],[100.1647683566009,6.498883482387987],[100.16514256780046,6.499490215153859],[100.16554822548387,6.50007665687876],[100.16598421777164,6.500641200240337],[100.16644934963921,6.501182297940719],[100.16694234619246,6.501698466946685],[100.16746185616212,6.502188292553708],[100.16800645560744,6.502650432262722],[100.16857465181924,6.50308361945888],[100.16916488741114,6.503486666882506],[100.16977554458848,6.503858469882366],[100.17040494958232,6.504198009442659],[100.17105137723736,6.504504354975334],[100.17171305574033,6.504776666869973],[100.17238817147641,6.505014198794483],[100.17307487400033,6.505216299740108],[100.1737712811082,6.505382415805236],[100.17447548399652,6.505512091713181],[100.17518555249414,6.505604972059594],[100.17589954035267,6.505660802286373],[100.17661549058101,6.505679429379109],[100.17733144080934,6.505660802286373],[100.17804542866789,6.505604972059594],[100.1787554971655,6.505512091713181],[100.17945970005383,6.505382415805236],[100.1801561071617,6.505216299740108],[100.18084280968561,6.505014198794483],[100.1815179254217,6.504776666869973],[100.18217960392467,6.504504354975334],[100.18282603157971,6.504198009442659],[100.18345543657355,6.503858469882366],[100.18406609375089,6.503486666882506],[100.18465632934279,6.50308361945888],[100.18522452555459,6.502650432262722],[100.18576912499991,6.502188292553708],[100.18628863496957,6.501698466946685],[100.18678163152282,6.501182297940719],[100.18724676339039,6.500641200240337],[100.18768275567815,6.50007665687876],[100.18808841336157,6.499490215153859],[100.18846262456113,6.498883482387987],[100.18880436358991,6.49825812152319],[100.18911269376501,6.497615846563964],[100.18938676997487,6.496958417880062],[100.18962584099563,6.49628763738208],[100.18982925155024,6.495605343583138],[100.18999644410452,6.494913406560231],[100.19012696039528,6.494213722828921],[100.19022044268644,6.493508210145489],[100.19027663474955,6.492798802250847],[100.19029538256608,6.492087443570497]],[[100.23543402529211,6.442115435429244],[100.23541559582681,6.44141608601059],[100.23536035794477,6.440718652500305],[100.23526846304925,6.440025046527079],[100.23514016301768,6.439337169236379],[100.23497580951161,6.438656906079201],[100.23477585301254,6.437986121644036],[100.23454084158732,6.437326654545628],[100.23427141938596,6.436680312385133],[100.23396832487596,6.436048866795018],[100.23363238881834,6.435434048582558],[100.23326453199044,6.43483754298521],[100.2328657626623,6.43426098505073],[100.2324371738329,6.433705955154947],[100.23197994023442,6.433173974669248],[100.23149531511243,6.432666501789842],[100.23098462679063,6.43218492754009],[100.23044927503025,6.431730571957002],[100.22989072719326,6.43130468047228],[100.22931051422046,6.430908420497874],[100.22871022643524,6.430542878225318],[100.22809150918474,6.430209055647895],[100.22745605832989,6.429907867813425],[100.22680561559736,6.429640140315522],[100.22614196380545,6.42940660703003],[100.22546692197757,6.429207908102992],[100.22478234035647,6.429044588195466],[100.2240900953328,6.428917094990229],[100.22339208430203,6.42882577796438],[100.22269022046389,6.428770887431068],[100.22198642757839,6.428752573853228],[100.22128263469287,6.428770887431068],[100.22058077085474,6.42882577796438],[100.21988275982396,6.428917094990229],[100.2191905148003,6.429044588195466],[100.21850593317919,6.429207908102992],[100.21783089135133,6.42940660703003],[100.21716723955942,6.429640140315522],[100.21651679682687,6.429907867813425],[100.21588134597202,6.430209055647895],[100.21526262872152,6.430542878225318],[100.2146623409363,6.430908420497874],[100.2140821279635,6.43130468047228],[100.2135235801265,6.431730571957002],[100.21298822836613,6.43218492754009],[100.21247754004435,6.432666501789842],[100.21199291492233,6.433173974669248],[100.21153568132385,6.433705955154947],[100.21110709249446,6.43426098505073],[100.21070832316632,6.43483754298521],[100.21034046633842,6.435434048582558],[100.2100045302808,6.436048866795018],[100.2097014357708,6.436680312385133],[100.20943201356944,6.437326654545628],[100.20919700214422,6.437986121644036],[100.20899704564515,6.438656906079201],[100.20883269213908,6.439337169236379],[100.2087043921075,6.440025046527079],[100.20861249721199,6.440718652500305],[100.20855725932995,6.44141608601059],[100.20853882986465,6.442115435429244],[100.20855725932995,6.442814783884049],[100.20861249721199,6.443512214513364],[100.2087043921075,6.444205815720045],[100.20883269213908,6.44489368641089],[100.20899704564515,6.445573941207153],[100.20919700214422,6.446244715612006],[100.20943201356944,6.446904171120537],[100.2097014357708,6.447550500258619],[100.2100045302808,6.448181931536454],[100.21034046633842,6.448796734303555],[100.21070832316632,6.44939322349171],[100.21110709249446,6.449969764232939],[100.21153568132385,6.450524776339777],[100.21199291492233,6.451056738635731],[100.21247754004435,6.451564193123911],[100.21298822836613,6.452045748982423],[100.2135235801265,6.452500086375767],[100.2140821279635,6.452925960071544],[100.2146623409363,6.453322202852711],[100.21526262872152,6.45368772871606],[100.21588134597202,6.454021535848137],[100.21651679682687,6.454322709370316],[100.21716723955942,6.454590423845806],[100.21783089135133,6.454823945541445],[100.21850593317919,6.455022634438146],[100.2191905148003,6.455185945984783],[100.21988275982396,6.455313432590139],[100.22058077085474,6.455404744849457],[100.22128263469287,6.455459632501809],[100.22198642757839,6.455477945115802],[100.22269022046389,6.455459632501809],[100.22339208430203,6.455404744849457],[100.2240900953328,6.455313432590139],[100.22478234035647,6.455185945984783],[100.22546692197757,6.455022634438146],[100.22614196380545,6.454823945541445],[100.22680561559736,6.454590423845806],[100.22745605832989,6.454322709370316],[100.22809150918474,6.454021535848137],[100.22871022643524,6.45368772871606],[100.22931051422046,6.453322202852711],[100.22989072719326,6.452925960071544],[100.23044927503025,6.452500086375767],[100.23098462679063,6.452045748982423],[100.23149531511243,6.451564193123911],[100.23197994023442,6.451056738635731],[100.2324371738329,6.450524776339777],[100.2328657626623,6.449969764232939],[100.23326453199044,6.44939322349171],[100.23363238881834,6.448796734303555],[100.23396832487596,6.448181931536454],[100.23427141938596,6.447550500258619],[100.23454084158732,6.446904171120537],[100.23477585301254,6.446244715612006],[100.23497580951161,6.445573941207153],[100.23514016301768,6.44489368641089],[100.23526846304925,6.444205815720045],[100.23536035794477,6.443512214513364],[100.23541559582681,6.442814783884049],[100.23543402529211,6.442115435429244]],[[100.21217378545731,6.423524891962869],[100.2121547662846,6.422803138291278],[100.21209776089668,6.422083361877061],[100.21200292554138,6.421367535590008],[100.21187052015581,6.420657621481094],[100.21170090765392,6.419955565404453],[100.21149455293181,6.41926329168355],[100.2112520215934,6.418582697836354],[100.21097397840025,6.417915649373908],[100.21066118544941,6.417263974686554],[100.21031450008462,6.416629460031752],[100.20993487254638,6.416013844637446],[100.20952334336738,6.415418815934251],[100.2090810405205,6.414846004929411],[100.20860917632709,6.414296981735666],[100.20810904413408,6.413773251266711],[100.2075820147691,6.413276249111498],[100.20702953278297,6.412807337598553],[100.20645311249044,6.412367802060974],[100.20585433381943,6.411958847312619],[100.20523483798067,6.411581594344923],[100.20459632296921,6.411237077253524],[100.20394053891029,6.410926240403071],[100.20326928326246,6.410649935838107],[100.20258439589074,6.410408920946929],[100.20188775402389,6.41020385638507],[100.20118126710877,6.410035304263903],[100.20046687157694,6.409903726609492],[100.19974652553688,6.409809484095744],[100.19902220340705,6.409752835055619],[100.19829589050403,6.409733934772726],[100.19756957760102,6.409752835055619],[100.19684525547119,6.409809484095744],[100.19612490943113,6.409903726609492],[100.19541051389932,6.410035304263903],[100.19470402698418,6.41020385638507],[100.19400738511733,6.410408920946929],[100.19332249774563,6.410649935838107],[100.19265124209778,6.410926240403071],[100.19199545803886,6.411237077253524],[100.1913569430274,6.411581594344923],[100.19073744718864,6.411958847312619],[100.19013866851763,6.412367802060974],[100.1895622482251,6.412807337598553],[100.18900976623897,6.413276249111498],[100.188482736874,6.413773251266711],[100.18798260468098,6.414296981735666],[100.18751074048757,6.414846004929411],[100.1870684376407,6.415418815934251],[100.18665690846169,6.416013844637446],[100.18627728092345,6.416629460031752],[100.18593059555866,6.417263974686554],[100.18561780260782,6.417915649373908],[100.18533975941467,6.418582697836354],[100.18509722807626,6.41926329168355],[100.18489087335415,6.419955565404453],[100.18472126085226,6.420657621481094],[100.18458885546669,6.421367535590008],[100.18449402011139,6.422083361877061],[100.18443701472347,6.422803138291278],[100.18441799555076,6.423524891962869],[100.18443701472347,6.424246644610845],[100.18449402011139,6.424966417965482],[100.18458885546669,6.425682239190492],[100.18472126085226,6.426392146290341],[100.18489087335415,6.427094193487726],[100.18509722807626,6.42778645655643],[100.18533975941467,6.42846703809521],[100.18561780260782,6.429134072727879],[100.18593059555866,6.429785732215617],[100.18627728092345,6.430420230467472],[100.18665690846169,6.431035828435239],[100.1870684376407,6.431630838879225],[100.18751074048757,6.432203630992231],[100.18798260468098,6.432752634868508],[100.188482736874,6.433276345806008],[100.18900976623897,6.433773328429753],[100.1895622482251,6.434242220625244],[100.19013866851763,6.434681737270989],[100.19073744718864,6.435090673760123],[100.1913569430274,6.43546790930128],[100.19199545803886,6.435812409989744],[100.19265124209778,6.436123231640568],[100.19332249774563,6.436399522375756],[100.19400738511733,6.436640524958517],[100.19470402698418,6.436845578868191],[100.19541051389932,6.437014122110088],[100.19612490943113,6.43714569275546],[100.19684525547119,6.437239930207139],[100.19756957760102,6.437296576187685],[100.19829589050403,6.437315475446972],[100.19902220340705,6.437296576187685],[100.19974652553688,6.437239930207139],[100.20046687157694,6.43714569275546],[100.20118126710877,6.437014122110088],[100.20188775402389,6.436845578868191],[100.20258439589074,6.436640524958517],[100.20326928326246,6.436399522375756],[100.20394053891029,6.436123231640568],[100.20459632296921,6.435812409989744],[100.20523483798067,6.43546790930128],[100.20585433381943,6.435090673760123],[100.20645311249044,6.434681737270989],[100.20702953278297,6.434242220625244],[100.2075820147691,6.433773328429753],[100.20810904413408,6.433276345806008],[100.20860917632709,6.432752634868508],[100.2090810405205,6.432203630992231],[100.20952334336738,6.431630838879225],[100.20993487254638,6.431035828435239],[100.21031450008462,6.430420230467472],[100.21066118544941,6.429785732215617],[100.21097397840025,6.429134072727879],[100.2112520215934,6.42846703809521],[100.21149455293181,6.42778645655643],[100.21170090765392,6.427094193487726],[100.21187052015581,6.426392146290341],[100.21200292554138,6.425682239190492],[100.21209776089668,6.424966417965482],[100.2121547662846,6.424246644610845],[100.21217378545731,6.423524891962869]],[[100.15431073367071,6.410460298328506],[100.1542923831117,6.409763899864884],[100.15423738173226,6.409069409234061],[100.15414588028739,6.408378729998348],[100.1540181295761,6.407693755280947],[100.15385447975433,6.407016362576774],[100.15365537937475,6.406348408606123],[100.15342137415776,6.405691724225092],[100.15315310549533,6.405048109406967],[100.15285130869326,6.404419328308051],[100.15251681095556,6.403807104431629],[100.1521505291173,6.403213115903424],[100.15175346713157,6.402638990871196],[100.15132671331762,6.402086303041406],[100.15087143737803,6.401556567365019],[100.15038888719248,6.401051235884405],[100.1498803853975,6.400571693752474],[100.14934732576114,6.400119255435342],[100.14879116936287,6.39969516110863],[100.14821344058865,6.399300573257402],[100.14761572295293,6.39893657348911],[100.1469996547582,6.398604159568236],[100.14636692460458,6.398304242680719],[100.1457192667614,6.3980376449358],[100.1450584564138,6.397805097112073],[100.14438630479701,6.397607236653827],[100.14370465423191,6.397444605923405],[100.14301537307531,6.397317650714158],[100.14232035059896,6.397226719028169],[100.14162149181112,6.397172060122163],[100.14092071223517,6.397153823824053],[100.14021993265922,6.397172060122163],[100.13952107387139,6.397226719028169],[100.13882605139503,6.397317650714158],[100.13813677023843,6.397444605923405],[100.13745511967332,6.397607236653827],[100.13678296805654,6.397805097112073],[100.13612215770895,6.3980376449358],[100.13547449986577,6.398304242680719],[100.13484176971214,6.398604159568236],[100.13422570151741,6.39893657348911],[100.13362798388168,6.399300573257402],[100.13305025510748,6.39969516110863],[100.1324940987092,6.400119255435342],[100.13196103907285,6.400571693752474],[100.13145253727787,6.401051235884405],[100.13096998709233,6.401556567365019],[100.13051471115271,6.402086303041406],[100.13008795733877,6.402638990871196],[100.12969089535302,6.403213115903424],[100.12932461351478,6.403807104431629],[100.12899011577709,6.404419328308051],[100.12868831897501,6.405048109406967],[100.12842005031258,6.405691724225092],[100.12818604509557,6.406348408606123],[100.12798694471603,6.407016362576774],[100.12782329489423,6.407693755280947],[100.12769554418297,6.408378729998348],[100.12760404273808,6.409069409234061],[100.12754904135865,6.409763899864884],[100.12753069079963,6.410460298328506],[100.12754904135865,6.411156695841142],[100.12760404273808,6.411851183629413],[100.12769554418297,6.412541858162155],[100.12782329489423,6.413226826367688],[100.12798694471603,6.413904210822431],[100.12818604509557,6.414572154896519],[100.12842005031258,6.415228827842234],[100.12868831897501,6.415872429811593],[100.12899011577709,6.416501196789087],[100.12932461351478,6.417113405426099],[100.12969089535302,6.417707377763931],[100.13008795733877,6.418281485832162],[100.13051471115271,6.418834156110226],[100.13096998709233,6.419363873839431],[100.13145253727787,6.419869187174052],[100.13196103907285,6.420348711159988],[100.1324940987092,6.42080113152995],[100.13305025510748,6.421225208304924],[100.13362798388168,6.421619779192168],[100.13422570151741,6.421983762770062],[100.13484176971214,6.422316161451551],[100.13547449986577,6.422616064217634],[100.13612215770895,6.422882649113786],[100.13678296805654,6.423115185502197],[100.13745511967332,6.423313036063868],[100.13813677023843,6.423475658544885],[100.13882605139503,6.423602607242277],[100.13952107387139,6.423693534225281],[100.14021993265922,6.423748190288725],[100.14092071223517,6.423766425635848],[100.14162149181112,6.423748190288725],[100.14232035059896,6.423693534225281],[100.14301537307531,6.423602607242277],[100.14370465423191,6.423475658544885],[100.14438630479701,6.423313036063868],[100.1450584564138,6.423115185502197],[100.1457192667614,6.422882649113786],[100.14636692460458,6.422616064217634],[100.1469996547582,6.422316161451551],[100.14761572295293,6.421983762770062],[100.14821344058865,6.421619779192168],[100.14879116936287,6.421225208304924],[100.14934732576114,6.42080113152995],[100.1498803853975,6.420348711159988],[100.15038888719248,6.419869187174052],[100.15087143737803,6.419363873839431],[100.15132671331762,6.418834156110226],[100.15175346713157,6.418281485832162],[100.1521505291173,6.417707377763931],[100.15251681095556,6.417113405426099],[100.15285130869326,6.416501196789087],[100.15315310549533,6.415872429811593],[100.15342137415776,6.415228827842234],[100.15365537937475,6.414572154896519],[100.15385447975433,6.413904210822431],[100.1540181295761,6.413226826367688],[100.15414588028739,6.412541858162155],[100.15423738173226,6.411851183629413],[100.1542923831117,6.411156695841142],[100.15431073367071,6.410460298328506]],[[100.18826895472378,6.402591446824422],[100.18825168104765,6.401935905675326],[100.18819990736513,6.401282160480868],[100.18811377558436,6.400632003121589],[100.18799352178651,6.399987215650802],[100.1878394755789,6.399349565409882],[100.18765205919149,6.398720800183868],[100.18743178631954,6.398102643410599],[100.18717926071571,6.397496789456412],[100.18689517453511,6.396904898971612],[100.18658030643823,6.396328594338275],[100.18623551945663,6.395769455222712],[100.18586175862742,6.395229014245232],[100.18546004840313,6.394708752778643],[100.18503148984352,6.39421009688723],[100.18457725759781,6.39373441341733],[100.18409859668503,6.393283006250186],[100.18359681908144,6.392857112727365],[100.18307330012462,6.392457900258577],[100.1825294747436,6.392086463121179],[100.18196683352598,6.391743819460149],[100.18138691863219,6.391430908496695],[100.18079131956866,6.391148587953338],[100.18018166883104,6.390897631702313],[100.17955963742962,6.390678727643909],[100.17892693030922,6.390492475820416],[100.17828528167608,6.390339386771048],[100.17763645024455,6.390219880132198],[100.17698221441641,6.390134283486877],[100.17632436740664,6.3900828314666],[100.17566471232814,6.390065665108091],[100.17500505724965,6.3900828314666],[100.17434721023986,6.390134283486877],[100.17369297441174,6.390219880132198],[100.17304414298019,6.390339386771048],[100.17240249434705,6.390492475820416],[100.17176978722667,6.390678727643909],[100.17114775582525,6.390897631702313],[100.17053810508762,6.391148587953338],[100.16994250602409,6.391430908496695],[100.16936259113031,6.391743819460149],[100.16879994991268,6.392086463121179],[100.16825612453165,6.392457900258577],[100.16773260557483,6.392857112727365],[100.16723082797125,6.393283006250186],[100.16675216705846,6.39373441341733],[100.16629793481275,6.39421009688723],[100.16586937625314,6.394708752778643],[100.16546766602885,6.395229014245232],[100.16509390519965,6.395769455222712],[100.16474911821805,6.396328594338275],[100.16443425012116,6.396904898971612],[100.16415016394058,6.397496789456412],[100.16389763833675,6.398102643410599],[100.16367736546479,6.398720800183868],[100.16348994907739,6.399349565409882],[100.16333590286976,6.399987215650802],[100.16321564907193,6.400632003121589],[100.16312951729114,6.401282160480868],[100.16307774360864,6.401935905675326],[100.16306046993249,6.402591446824422],[100.16307774360864,6.403246987131881],[100.16312951729114,6.40390072981066],[100.16321564907193,6.404550883007789],[100.16333590286976,6.405195664715525],[100.16348994907739,6.40583330765566],[100.16367736546479,6.406462064123138],[100.16389763833675,6.407080210776086],[100.16415016394058,6.40768605335904],[100.16443425012116,6.408277931346257],[100.16474911821805,6.408854222492643],[100.16509390519965,6.409413347279616],[100.16546766602885,6.40995377324386],[100.16586937625314,6.410474019177053],[100.16629793481275,6.410972659185082],[100.16675216705846,6.411448326595661],[100.16723082797125,6.411899717703498],[100.16773260557483,6.412325595342946],[100.16825612453165,6.412724792278325],[100.16879994991268,6.413096214402487],[100.16936259113031,6.413438843734927],[100.16994250602409,6.41375174121143],[100.17053810508762,6.414034049257217],[100.17114775582525,6.414284994137009],[100.17176978722667,6.414503888075078],[100.17240249434705,6.414690131140036],[100.17304414298019,6.414843212888619],[100.17369297441174,6.414962713764431],[100.17434721023986,6.41504830624759],[100.17500505724965,6.415099755752188],[100.17566471232814,6.415116921269071],[100.17632436740664,6.415099755752188],[100.17698221441641,6.41504830624759],[100.17763645024455,6.414962713764431],[100.17828528167608,6.414843212888619],[100.17892693030922,6.414690131140036],[100.17955963742962,6.414503888075078],[100.18018166883104,6.414284994137009],[100.18079131956866,6.414034049257217],[100.18138691863219,6.41375174121143],[100.18196683352598,6.413438843734927],[100.1825294747436,6.413096214402487],[100.18307330012462,6.412724792278325],[100.18359681908144,6.412325595342946],[100.18409859668503,6.411899717703498],[100.18457725759781,6.411448326595661],[100.18503148984352,6.410972659185082],[100.18546004840313,6.410474019177053],[100.18586175862742,6.40995377324386],[100.18623551945663,6.409413347279616],[100.18658030643823,6.408854222492643],[100.18689517453511,6.408277931346257],[100.18717926071571,6.40768605335904],[100.18743178631954,6.407080210776086],[100.18765205919149,6.406462064123138],[100.1878394755789,6.40583330765566],[100.18799352178651,6.405195664715525],[100.18811377558436,6.404550883007789],[100.18819990736513,6.40390072981066],[100.18825168104765,6.403246987131881],[100.18826895472378,6.402591446824422]],[[100.3312021522249,6.450455794851337],[100.33118391569178,6.449763778085322],[100.33112925607759,6.449073657148173],[100.33103832320046,6.448387323625105],[100.33091136630112,6.447706658727893],[100.33074873335961,6.447033528138348],[100.3305508701415,6.44636977689441],[100.33031831897613,6.445717224332541],[100.33005171727007,6.445077659100678],[100.32975179576006,6.444452834255157],[100.32941937651015,6.443844462455108],[100.32905537065834,6.443254211267554],[100.32866077591942,6.442683698596054],[100.32823667385009,6.442134488245381],[100.32778422688472,6.441608085634568],[100.3273046751489,6.441105933669752],[100.32679933306066,6.440629408788589],[100.32626958572754,6.440179817186621],[100.32571688515014,6.439758391236372],[100.32514274624232,6.439366286108609],[100.32454874267894,6.439004576605378],[100.32393650258247,6.43867425421328],[100.32330770406047,6.438376224385115],[100.32266407060592,6.438111304057496],[100.32200736637347,6.437880219410954],[100.32133939134371,6.437683603879035],[100.3206619763898,6.437521996411576],[100.31997697825904,6.437395839997008],[100.31928627448366,6.437305480447846],[100.31859175823473,6.437251165452444],[100.31789533313301,6.43723304389605],[100.31719890803127,6.437251165452444],[100.31650439178235,6.437305480447846],[100.31581368800698,6.437395839997008],[100.31512868987619,6.437521996411576],[100.3144512749223,6.437683603879035],[100.31378329989253,6.437880219410954],[100.31312659566008,6.438111304057496],[100.31248296220555,6.438376224385115],[100.31185416368353,6.43867425421328],[100.31124192358705,6.439004576605378],[100.3106479200237,6.439366286108609],[100.31007378111588,6.439758391236372],[100.30952108053847,6.440179817186621],[100.30899133320536,6.440629408788589],[100.30848599111712,6.441105933669752],[100.3080064393813,6.441608085634568],[100.3075539924159,6.442134488245381],[100.30712989034659,6.442683698596054],[100.30673529560767,6.443254211267554],[100.30637128975586,6.443844462455108],[100.30603887050593,6.444452834255157],[100.30573894899594,6.445077659100678],[100.30547234728988,6.445717224332541],[100.30523979612451,6.44636977689441],[100.30504193290639,6.447033528138348],[100.30487929996488,6.447706658727893],[100.30475234306553,6.448387323625105],[100.30466141018842,6.449073657148173],[100.30460675057421,6.449763778085322],[100.30458851404111,6.450455794851337],[100.30460675057421,6.451147810672384],[100.30466141018842,6.451837928784985],[100.30475234306553,6.452524257634852],[100.30487929996488,6.453204916061429],[100.30504193290639,6.453878038453768],[100.30523979612451,6.454541779863799],[100.30547234728988,6.455194321062756],[100.30573894899594,6.455833873527211],[100.30603887050593,6.456458684340697],[100.30637128975586,6.457067040997845],[100.30673529560767,6.457657276097504],[100.30712989034659,6.458227771912433],[100.3075539924159,6.458776964822484],[100.3080064393813,6.459303349599749],[100.30848599111712,6.459805483533467],[100.30899133320536,6.46028199038353],[100.30952108053847,6.460731564151938],[100.31007378111588,6.46115297266159],[100.3106479200237,6.461545060932769],[100.31124192358705,6.461906754348117],[100.31185416368353,6.462237061597302],[100.31248296220555,6.462535077393433],[100.31312659566008,6.462799984953656],[100.31378329989253,6.463031058237272],[100.3144512749223,6.46322766393526],[100.31512868987619,6.463389263205539],[100.31581368800698,6.463515413149471],[100.31650439178235,6.463605768025458],[100.31719890803127,6.463660080196286],[100.31789533313301,6.463678200807711],[100.31859175823473,6.463660080196286],[100.31928627448366,6.463605768025458],[100.31997697825904,6.463515413149471],[100.3206619763898,6.463389263205539],[100.32133939134371,6.46322766393526],[100.32200736637347,6.463031058237272],[100.32266407060592,6.462799984953656],[100.32330770406047,6.462535077393433],[100.32393650258247,6.462237061597302],[100.32454874267894,6.461906754348117],[100.32514274624232,6.461545060932769],[100.32571688515014,6.46115297266159],[100.32626958572754,6.460731564151938],[100.32679933306066,6.46028199038353],[100.3273046751489,6.459805483533467],[100.32778422688472,6.459303349599749],[100.32823667385009,6.458776964822484],[100.32866077591942,6.458227771912433],[100.32905537065834,6.457657276097504],[100.32941937651015,6.457067040997845],[100.32975179576006,6.456458684340697],[100.33005171727007,6.455833873527211],[100.33031831897613,6.455194321062756],[100.3305508701415,6.454541779863799],[100.33074873335961,6.453878038453768],[100.33091136630112,6.453204916061429],[100.33103832320046,6.452524257634852],[100.33112925607759,6.451837928784985],[100.33118391569178,6.451147810672384],[100.3312021522249,6.450455794851337]],[[100.25289939406805,6.40759120185819],[100.25288099292075,6.406892879654388],[100.25282583991509,6.406196470551429],[100.25273408622168,6.405503883370069],[100.25260598333097,6.404817016463159],[100.25244188236407,6.404137752512106],[100.25224223311035,6.40346795336632],[100.25200758279453,6.40280945493963],[100.25173857457682,6.402164062177722],[100.25143594579005,6.401533544110366],[100.25110052591866,6.400919629002108],[100.25073323432522,6.400323999614484],[100.2503350777305,6.399748288593091],[100.24990714745397,6.399194073991829],[100.24945061642283,6.398662874946826],[100.24896673595688,6.39815614751178],[100.24845683233886,6.397675280666205],[100.24792230317914,6.397221592507554],[100.24736461358498,6.396796326637545],[100.24678529214479,6.396400648752723],[100.24618592673839,6.396035643448621],[100.2455681601847,6.395702311246116],[100.24493368573886,6.395401565848455],[100.24428424245129,6.395134231636036],[100.24362161040082,6.394901041406331],[100.24294760581593,6.394702634364661],[100.24226407609626,6.394539554371717],[100.2415728947493,6.394412248452426],[100.24087595625507,6.394321065570286],[100.24017517087354,6.394266255670614],[100.23947245940874,6.394247968995241],[100.23876974794395,6.394266255670614],[100.23806896256242,6.394321065570286],[100.2373720240682,6.394412248452426],[100.23668084272121,6.394539554371717],[100.23599731300158,6.394702634364661],[100.23532330841667,6.394901041406331],[100.2346606763662,6.395134231636036],[100.23401123307862,6.395401565848455],[100.2333767586328,6.395702311246116],[100.2327589920791,6.396035643448621],[100.2321596266727,6.396400648752723],[100.23158030523251,6.396796326637545],[100.23102261563837,6.397221592507554],[100.23048808647863,6.397675280666205],[100.2299781828606,6.39815614751178],[100.22949430239467,6.398662874946826],[100.22903777136354,6.399194073991829],[100.228609841087,6.399748288593091],[100.22821168449227,6.400323999614484],[100.22784439289885,6.400919629002108],[100.22750897302745,6.401533544110366],[100.22720634424067,6.402164062177722],[100.22693733602296,6.40280945493963],[100.22670268570714,6.40346795336632],[100.22650303645344,6.404137752512106],[100.22633893548654,6.404817016463159],[100.22621083259581,6.405503883370069],[100.2261190789024,6.406196470551429],[100.22606392589675,6.406892879654388],[100.22604552474945,6.40759120185819],[100.22606392589675,6.408289523106157],[100.2261190789024,6.408985929352126],[100.22621083259581,6.409678511806636],[100.22633893548654,6.410365372168613],[100.22650303645344,6.411044627828367],[100.22670268570714,6.411714417027299],[100.22693733602296,6.412372903960597],[100.22720634424067,6.413018283808498],[100.22750897302745,6.413648787682693],[100.22784439289885,6.414262687474175],[100.22821168449227,6.414858300589179],[100.228609841087,6.415433994560432],[100.22903777136354,6.415988191520824],[100.22949430239467,6.416519372527501],[100.2299781828606,6.417026081724394],[100.23048808647863,6.417506930331817],[100.23102261563837,6.417960600452142],[100.23158030523251,6.418385848681281],[100.2321596266727,6.418781509515964],[100.2327589920791,6.419146498547458],[100.2333767586328,6.419479815433175],[100.23401123307862,6.419780546637686],[100.2346606763662,6.420047867936087],[100.23532330841667,6.4202810466724],[100.23599731300158,6.420479443767229],[100.23668084272121,6.42064251546886],[100.2373720240682,6.42076981484322],[100.23806896256242,6.420860992998508],[100.23876974794395,6.42091580004119],[100.23947245940874,6.420934085760742],[100.24017517087354,6.42091580004119],[100.24087595625507,6.420860992998508],[100.2415728947493,6.42076981484322],[100.24226407609626,6.42064251546886],[100.24294760581593,6.420479443767229],[100.24362161040082,6.4202810466724],[100.24428424245129,6.420047867936087],[100.24493368573886,6.419780546637686],[100.2455681601847,6.419479815433175],[100.24618592673839,6.419146498547458],[100.24678529214479,6.418781509515964],[100.24736461358498,6.418385848681281],[100.24792230317914,6.417960600452142],[100.24845683233886,6.417506930331817],[100.24896673595688,6.417026081724394],[100.24945061642283,6.416519372527501],[100.24990714745397,6.415988191520824],[100.2503350777305,6.415433994560432],[100.25073323432522,6.414858300589179],[100.25110052591866,6.414262687474175],[100.25143594579005,6.413648787682693],[100.25173857457682,6.413018283808498],[100.25200758279453,6.412372903960597],[100.25224223311035,6.411714417027299],[100.25244188236407,6.411044627828367],[100.25260598333097,6.410365372168613],[100.25273408622168,6.409678511806636],[100.25282583991509,6.408985929352126],[100.25288099292075,6.408289523106157],[100.25289939406805,6.40759120185819]],[[100.27528021602302,6.378952996529677],[100.2752620193186,6.378262394249392],[100.27520747908126,6.377573683935277],[100.27511674480198,6.376888753305962],[100.27499006517714,6.376209479727688],[100.27482778742673,6.375537725068376],[100.27463035634283,6.37487533059408],[100.27439831307031,6.37422411192187],[100.27413229362365,6.373585854042862],[100.27383302714367,6.372962306429224],[100.27350133389896,6.372355178238421],[100.27313812303771,6.371766133627871],[100.27274439009557,6.371196787192978],[100.27232121426721,6.37064869954092],[100.27186975544815,6.370123373012363],[100.27139125105565,6.369622247562893],[100.27088701263695,6.369146696815402],[100.27035842227454,6.3686980242943],[100.26980692879783,6.368277459851839],[100.26923404381216,6.367886156296374],[100.26864133755542,6.367525186231854],[100.26803043459424,6.367195539117111],[100.26740300937121,6.366898118553112],[100.26676078161523,6.36663373980565],[100.26610551162796,6.366403127570011],[100.26543899545887,6.366206913984215],[100.26476305998247,6.36604563689574],[100.2640795578909,6.365919738386983],[100.26339036261588,6.36582956356314],[100.26269736319377,6.365775359605977],[100.2620024590878,6.365757275096189],[100.26130755498183,6.365775359605977],[100.26061455555971,6.36582956356314],[100.2599253602847,6.365919738386983],[100.25924185819312,6.36604563689574],[100.25856592271673,6.366206913984215],[100.25789940654764,6.366403127570011],[100.25724413656036,6.36663373980565],[100.25660190880438,6.366898118553112],[100.25597448358135,6.367195539117111],[100.25536358062017,6.367525186231854],[100.25477087436343,6.367886156296374],[100.25419798937776,6.368277459851839],[100.25364649590105,6.3686980242943],[100.25311790553864,6.369146696815402],[100.25261366711995,6.369622247562893],[100.25213516272744,6.370123373012363],[100.25168370390837,6.37064869954092],[100.25126052808002,6.371196787192978],[100.25086679513788,6.371766133627871],[100.25050358427661,6.372355178238421],[100.25017189103193,6.372962306429224],[100.24987262455194,6.373585854042862],[100.24960660510528,6.37422411192187],[100.24937456183277,6.37487533059408],[100.24917713074886,6.375537725068376],[100.24901485299846,6.376209479727688],[100.24888817337362,6.376888753305962],[100.24879743909433,6.377573683935277],[100.24874289885697,6.378262394249392],[100.24872470215257,6.378952996529677],[100.24874289885697,6.37964359787937],[100.24879743909433,6.380332305411911],[100.24888817337362,6.381017231439128],[100.24901485299846,6.381696498645224],[100.24917713074886,6.382368245232073],[100.24937456183277,6.383030630022076],[100.24960660510528,6.38368183750428],[100.24987262455194,6.384320082810136],[100.25017189103193,6.384943616605244],[100.25050358427661,6.385550729883557],[100.25086679513788,6.386139758651013],[100.25126052808002,6.386709088485791],[100.25168370390837,6.387257158962612],[100.25213516272744,6.387782467928973],[100.25261366711995,6.388283575621712],[100.25311790553864,6.388759108612457],[100.25364649590105,6.389207763571351],[100.25419798937776,6.389628310838575],[100.25477087436343,6.390019597793938],[100.25536358062017,6.390380552015364],[100.25597448358135,6.390710184217618],[100.25660190880438,6.391007590963087],[100.25724413656036,6.391271957137409],[100.25789940654764,6.391502558183029],[100.25856592271673,6.391698762084546],[100.25924185819312,6.391860031100555],[100.2599253602847,6.391985923237121],[100.26061455555971,6.392076093458882],[100.26130755498183,6.392130294634471],[100.2620024590878,6.392148378213667],[100.26269736319377,6.392130294634471],[100.26339036261588,6.392076093458882],[100.2640795578909,6.391985923237121],[100.26476305998247,6.391860031100555],[100.26543899545887,6.391698762084546],[100.26610551162796,6.391502558183029],[100.26676078161523,6.391271957137409],[100.26740300937121,6.391007590963087],[100.26803043459424,6.390710184217618],[100.26864133755542,6.390380552015364],[100.26923404381216,6.390019597793938],[100.26980692879783,6.389628310838575],[100.27035842227454,6.389207763571351],[100.27088701263695,6.388759108612457],[100.27139125105565,6.388283575621712],[100.27186975544815,6.387782467928973],[100.27232121426721,6.387257158962612],[100.27274439009557,6.386709088485791],[100.27313812303771,6.386139758651013],[100.27350133389896,6.385550729883557],[100.27383302714367,6.384943616605244],[100.27413229362365,6.384320082810136],[100.27439831307031,6.38368183750428],[100.27463035634283,6.383030630022076],[100.27482778742673,6.382368245232073],[100.27499006517714,6.381696498645224],[100.27511674480198,6.381017231439128],[100.27520747908126,6.380332305411911],[100.2752620193186,6.37964359787937],[100.27528021602302,6.378952996529677]],[[100.18804513171858,6.349729693378856],[100.18802828599752,6.349090327350908],[100.18797779500721,6.348452712990208],[100.18789379714,6.347818597963208],[100.18777652262821,6.347189720351302],[100.1876262929131,6.346567803886748],[100.18744351976389,6.345954553227672],[100.18722870414905,6.345351649285495],[100.18698243486328,6.344760744617269],[100.18670538691354,6.344183458895722],[100.18639831966907,6.343621374469328],[100.18606207477976,6.343076032024687],[100.18569757386953,6.342548926363076],[100.18530581601003,6.342041502302588],[100.18488787498234,6.341555150717508],[100.18444489633372,6.341091204725207],[100.1839780942379,6.340650936031581],[100.18348874816695,6.340235551444685],[100.18297819938444,6.339846189566277],[100.1824478472691,6.339483917670332],[100.1818991454792,6.339149728777014],[100.18133359796826,6.338844538930306],[100.18075275486262,6.338569184686557],[100.18015820821293,6.338324420820935],[100.17955158763016,6.338110918258192],[100.17893455581923,6.33792926223315],[100.1783088040214,6.337779950686238],[100.17767604737884,6.337663392898254],[100.17703802023358,6.337579908368282],[100.17639647137364,6.337529725937727],[100.17575315923985,6.337512983162856],[100.17510984710604,6.337529725937727],[100.17446829824611,6.337579908368282],[100.17383027110084,6.337663392898254],[100.1731975144583,6.337779950686238],[100.17257176266047,6.33792926223315],[100.17195473084952,6.338110918258192],[100.17134811026676,6.338324420820935],[100.17075356361707,6.338569184686557],[100.17017272051143,6.338844538930306],[100.16960717300047,6.339149728777014],[100.16905847121058,6.339483917670332],[100.16852811909526,6.339846189566277],[100.16801757031274,6.340235551444685],[100.16752822424179,6.340650936031581],[100.16706142214596,6.341091204725207],[100.16661844349734,6.341555150717508],[100.16620050246965,6.342041502302588],[100.16580874461015,6.342548926363076],[100.16544424369992,6.343076032024687],[100.16510799881063,6.343621374469328],[100.16480093156613,6.344183458895722],[100.16452388361641,6.344760744617269],[100.16427761433064,6.345351649285495],[100.16406279871582,6.345954553227672],[100.16388002556658,6.346567803886748],[100.16372979585148,6.347189720351302],[100.16361252133967,6.347818597963208],[100.16352852347246,6.348452712990208],[100.16347803248217,6.349090327350908],[100.1634611867611,6.349729693378856],[100.16347803248217,6.350369058612848],[100.16352852347246,6.351006670600408],[100.16361252133967,6.351640781701077],[100.16372979585148,6.352269653876448],[100.16388002556658,6.352891563453881],[100.16406279871582,6.353504805850677],[100.16427761433064,6.354107700245936],[100.16452388361641,6.354698594187206],[100.16480093156613,6.355275868119289],[100.16510799881063,6.35583793982288],[100.16544424369992,6.35638326875076],[100.16580874461015,6.35691036024977],[100.16620050246965,6.357417769656958],[100.16661844349734,6.357904106258598],[100.16706142214596,6.358368037101484],[100.16752822424179,6.358808290645708],[100.16801757031274,6.359223660249163],[100.16852811909526,6.359613007474273],[100.16905847121058,6.359975265207615],[100.16960717300047,6.360309440584186],[100.17017272051143,6.360614617708078],[100.17075356361707,6.360889960162363],[100.17134811026676,6.361134713301031],[100.17195473084952,6.361348206316856],[100.17257176266047,6.361529854079604],[100.1731975144583,6.361679158739395],[100.17383027110084,6.361795711090869],[100.17446829824611,6.361879191694498],[100.17510984710604,6.361929371751913],[100.17575315923985,6.361946113732828],[100.17639647137364,6.361929371751913],[100.17703802023358,6.361879191694498],[100.17767604737884,6.361795711090869],[100.1783088040214,6.361679158739395],[100.17893455581923,6.361529854079604],[100.17955158763016,6.361348206316856],[100.18015820821293,6.361134713301031],[100.18075275486262,6.360889960162363],[100.18133359796826,6.360614617708078],[100.1818991454792,6.360309440584186],[100.1824478472691,6.359975265207615],[100.18297819938444,6.359613007474273],[100.18348874816695,6.359223660249163],[100.1839780942379,6.358808290645708],[100.18444489633372,6.358368037101484],[100.18488787498234,6.357904106258598],[100.18530581601003,6.357417769656958],[100.18569757386953,6.35691036024977],[100.18606207477976,6.35638326875076],[100.18639831966907,6.35583793982288],[100.18670538691354,6.355275868119289],[100.18698243486328,6.354698594187206],[100.18722870414905,6.354107700245936],[100.18744351976389,6.353504805850677],[100.1876262929131,6.352891563453881],[100.18777652262821,6.352269653876448],[100.18789379714,6.351640781701077],[100.18797779500721,6.351006670600408],[100.18802828599752,6.350369058612848],[100.18804513171858,6.349729693378856]],[[100.21207063352718,6.30767958157077],[100.21205198392774,6.306971693104336],[100.2119960862467,6.306265743948308],[100.2119030936957,6.305563669072248],[100.21177326116087,6.304867392834288],[100.21160694450415,6.304178823706523],[100.21140459958795,6.303499849043572],[100.21116678102561,6.302832329909196],[100.2108941406613,6.30217809597474],[100.21058742578327,6.301538940503647],[100.21024747707573,6.300916615435624],[100.20987522631441,6.300312826584066],[100.2094716938128,6.299729228959849],[100.20903798562541,6.299167422234311],[100.20857529051625,6.298628946353865],[100.2080848767005,6.298115277318381],[100.20756808836826,6.297627823134672],[100.20702634200049,6.297167919956469],[100.20646112248629,6.296736828421251],[100.20587397905308,6.296335730194175],[100.20526652102019,6.295965724728303],[100.20464041338786,6.295627826250412],[100.2039973722736,6.295322960980276],[100.2033391602084,6.295051964591258],[100.20266758130579,6.294815579919195],[100.20198447631687,6.294614454925693],[100.20129171758488,6.294449140921625],[100.2005912039134,6.294320091055564],[100.19988485536172,6.294227659071348],[100.19917460798207,6.294172098338233],[100.19846240851321,6.294153561156165],[100.19775020904432,6.294172098338233],[100.19703996166469,6.294227659071348],[100.196333613113,6.294320091055564],[100.19563309944152,6.294449140921625],[100.19494034070954,6.294614454925693],[100.1942572357206,6.294815579919195],[100.19358565681799,6.295051964591258],[100.1929274447528,6.295322960980276],[100.19228440363854,6.295627826250412],[100.1916582960062,6.295965724728303],[100.19105083797332,6.296335730194175],[100.1904636945401,6.296736828421251],[100.18989847502593,6.297167919956469],[100.18935672865813,6.297627823134672],[100.1888399403259,6.298115277318381],[100.18834952651014,6.298628946353865],[100.18788683140099,6.299167422234311],[100.1874531232136,6.299729228959849],[100.187049590712,6.300312826584066],[100.18667733995069,6.300916615435624],[100.18633739124313,6.301538940503647],[100.18603067636509,6.30217809597474],[100.18575803600078,6.302832329909196],[100.18552021743844,6.303499849043572],[100.18531787252225,6.304178823706523],[100.18515155586553,6.304867392834288],[100.18502172333069,6.305563669072248],[100.1849287307797,6.306265743948308],[100.18487283309867,6.306971693104336],[100.18485418349924,6.30767958157077],[100.18487283309867,6.308387469070454],[100.1849287307797,6.309093415336833],[100.18502172333069,6.309795485432011],[100.18515155586553,6.310491755050205],[100.18531787252225,6.311180315791892],[100.18552021743844,6.31185928039429],[100.18575803600078,6.312526787903904],[100.18603067636509,6.313181008776713],[100.18633739124313,6.313820149892397],[100.18667733995069,6.314442459468536],[100.187049590712,6.315046231861475],[100.1874531232136,6.315629812240635],[100.18788683140099,6.316191601123642],[100.18834952651014,6.316730058759549],[100.1888399403259,6.317243709348402],[100.18935672865813,6.317731145085479],[100.18989847502593,6.318191030019155],[100.1904636945401,6.31862210371183],[100.19105083797332,6.319023184693862],[100.1916582960062,6.319393173701101],[100.19228440363854,6.319731056687108],[100.1929274447528,6.320035907601837],[100.19358565681799,6.32030689092922],[100.1942572357206,6.320543263976508],[100.19494034070954,6.320744378909458],[100.19563309944152,6.320909684527447],[100.196333613113,6.321038727773755],[100.19703996166469,6.321131154977077],[100.19775020904432,6.32118671282053],[100.19846240851321,6.321205249035862],[100.19917460798207,6.32118671282053],[100.19988485536172,6.321131154977077],[100.2005912039134,6.321038727773755],[100.20129171758488,6.320909684527447],[100.20198447631687,6.320744378909458],[100.20266758130579,6.320543263976508],[100.2033391602084,6.32030689092922],[100.2039973722736,6.320035907601837],[100.20464041338786,6.319731056687108],[100.20526652102019,6.319393173701101],[100.20587397905308,6.319023184693862],[100.20646112248629,6.31862210371183],[100.20702634200049,6.318191030019155],[100.20756808836826,6.317731145085479],[100.2080848767005,6.317243709348402],[100.20857529051625,6.316730058759549],[100.20903798562541,6.316191601123642],[100.2094716938128,6.315629812240635],[100.20987522631441,6.315046231861475],[100.21024747707573,6.314442459468536],[100.21058742578327,6.313820149892397],[100.2108941406613,6.313181008776713],[100.21116678102561,6.312526787903904],[100.21140459958795,6.31185928039429],[100.21160694450415,6.311180315791892],[100.21177326116087,6.310491755050205],[100.2119030936957,6.309795485432011],[100.2119960862467,6.309093415336833],[100.21205198392774,6.308387469070454],[100.21207063352718,6.30767958157077]]],"bbox":[100.12753069079963,6.294153561156165,100.3312021522249,6.660085998231779]}
