{"type":"Topology","objects":{"PLS_SE-01":{"type":"GeometryCollection","geometries":[{"type":"Polygon","arcs":[[0]],"properties":{"state":"Perlis","parlimen":"P.001 Perlis Utara","code_parlimen":"P.001","dun":"N.01 Kaki Bukit","code_dun":"N.01","voters_total":3844}},{"type":"Polygon","arcs":[[1]],"properties":{"state":"Perlis","parlimen":"P.001 Perlis Utara","code_parlimen":"P.001","dun":"N.02 Paya","code_dun":"N.02","voters_total":3799}},{"type":"Polygon","arcs":[[2]],"properties":{"state":"Perlis","parlimen":"P.001 Perlis Utara","code_parlimen":"P.001","dun":"N.03 Mata Ayer","code_dun":"N.03","voters_total":3218}},{"type":"Polygon","arcs":[[3]],"properties":{"state":"Perlis","parlimen":"P.001 Perlis Utara","code_parlimen":"P.001","dun":"N.04 Bandar Kangar","code_dun":"N.04","voters_total":1965}},{"type":"Polygon","arcs":[[4]],"properties":{"state":"Perlis","parlimen":"P.001 Perlis Utara","code_parlimen":"P.001","dun":"N.05 Sena","code_dun":"N.05","voters_total":3024}},{"type":"Polygon","arcs":[[5]],"properties":{"state":"Perlis","parlimen":"P.001 Perlis Utara","code_parlimen":"P.001","dun":"N.06 Bintong","code_dun":"N.06","voters_total":3710}},{"type":"Polygon","arcs":[[6]],"properties":{"state":"Perlis","parlimen":"P.002 Perlis Selatan","code_parlimen":"P.002","dun":"N.07 Kurong Anai","code_dun":"N.07","voters_total":3115}},{"type":"Polygon","arcs":[[7]],"properties":{"state":"Perlis","parlimen":"P.002 Perlis Selatan","code_parlimen":"P.002","dun":"N.08 Arau","code_dun":"N.08","voters_total":3209}},{"type":"Polygon","arcs":[[8]],"properties":{"state":"Perlis","parlimen":"P.002 Perlis Selatan","code_parlimen":"P.002","dun":"N.09 Hutan Aji","code_dun":"N.09","voters_total":3223}},{"type":"Polygon","arcs":[[9]],"properties":{"state":"Perlis","parlimen":"P.002 Perlis Selatan","code_parlimen":"P.002","dun":"N.10 Kayang","code_dun":"N.10","voters_total":3174}},{"type":"Polygon","arcs":[[10]],"properties":{"state":"Perlis","parlimen":"P.002 Perlis Selatan","code_parlimen":"P.002","dun":"N.11 Kuala Perlis","code_dun":"N.11","voters_total":2577}},{"type":"Polygon","arcs":[[11]],"properties":{"state":"Perlis","parlimen":"P.002 Perlis Selatan","code_parlimen":"P.002","dun":"N.12 Sanglang","code_dun":"N.12","voters_total":3497}}]}},"arcs":[[[100.24852599262545,6.621536577342059],[100.24850739326565,6.620831033877779],[100.24845164616586,6.620127423254797],[100.24835890412497,6.619427674033371],[100.24822942134246,6.618733704198099],[100.24806355272163,6.618047415900521],[100.2478617528969,6.61737069024515],[100.2476245749875,6.616705382133157],[100.24735266908162,6.616053315177714],[100.24704678045445,6.615416276705025],[100.24670774752543,6.614796012854813],[100.2463364995603,6.614194223793562],[100.2459340541239,6.613612559053784],[100.24550151429118,6.613052613011983],[100.24504006562378,6.612515920517755],[100.24455097292041,6.612003952686037],[100.24403557675018,6.611518112864062],[100.24349528977818,6.611059732783983],[100.24293159289341,6.610630068911812],[100.24234603114988,6.610230299002752],[100.24174020953163,6.609861518872097],[100.24111578855359,6.609524739391011],[100.24047447971024,6.609220883714908],[100.23981804078458,6.608950784752484],[100.23914827103007,6.608715182882102],[100.23846700623903,6.608514723921838],[100.23777611371092,6.608349957358798],[100.23707748713412,6.60822133484256],[100.23637304139552,6.608129208946797],[100.23566470733195,6.608073832202638],[100.2349544264378,6.608055356406243],[100.23424414554366,6.608073832202638],[100.23353581148008,6.608129208946797],[100.23283136574149,6.60822133484256],[100.23213273916468,6.608349957358798],[100.23144184663657,6.608514723921838],[100.23076058184553,6.608715182882102],[100.230090812091,6.608950784752484],[100.22943437316536,6.609220883714908],[100.22879306432202,6.609524739391011],[100.22816864334398,6.609861518872097],[100.22756282172571,6.610230299002752],[100.22697725998218,6.610630068911812],[100.22641356309742,6.611059732783983],[100.22587327612541,6.611518112864062],[100.2253578799552,6.612003952686037],[100.22486878725184,6.612515920517755],[100.22440733858441,6.613052613011983],[100.22397479875171,6.613612559053784],[100.2235723533153,6.614194223793562],[100.22320110535016,6.614796012854813],[100.22286207242115,6.615416276705025],[100.22255618379398,6.616053315177714],[100.22228427788811,6.616705382133157],[100.22204709997871,6.61737069024515],[100.22184530015396,6.618047415900521],[100.22167943153315,6.618733704198099],[100.22154994875063,6.619427674033371],[100.22145720670974,6.620127423254797],[100.22140145960994,6.620831033877779],[100.22138286025016,6.621536577342059],[100.22140145960994,6.622242119797786],[100.22145720670974,6.622945727406162],[100.22154994875063,6.62364547163993],[100.22167943153315,6.624339434569163],[100.22184530015396,6.625025714117989],[100.22204709997871,6.62570242927772],[100.22228427788811,6.626367725262208],[100.22255618379398,6.627019778591124],[100.22286207242115,6.627656802087598],[100.22320110535016,6.628277049775962],[100.2235723533153,6.628878821666797],[100.22397479875171,6.629460468415729],[100.22440733858441,6.630020395843373],[100.22486878725184,6.630557069304054],[100.2253578799552,6.631069017891381],[100.22587327612541,6.631554838468964],[100.22641356309742,6.632013199515498],[100.22697725998218,6.632442844773498],[100.22756282172571,6.632842596691725],[100.22816864334398,6.633211359651952],[100.22879306432202,6.633548122971201],[100.22943437316536,6.633851963671078],[100.230090812091,6.634122049006987],[100.23076058184553,6.634357638749864],[100.23144184663657,6.634558087214488],[100.23213273916468,6.634722845028764],[100.23283136574149,6.634851460638974],[100.23353581148008,6.634943581547081],[100.23424414554366,6.634998955276633],[100.2349544264378,6.635017430064463],[100.23566470733195,6.634998955276633],[100.23637304139552,6.634943581547081],[100.23707748713412,6.634851460638974],[100.23777611371092,6.634722845028764],[100.23846700623903,6.634558087214488],[100.23914827103007,6.634357638749864],[100.23981804078458,6.634122049006987],[100.24047447971024,6.633851963671078],[100.24111578855359,6.633548122971201],[100.24174020953163,6.633211359651952],[100.24234603114988,6.632842596691725],[100.24293159289341,6.632442844773498],[100.24349528977818,6.632013199515498],[100.24403557675018,6.631554838468964],[100.24455097292041,6.631069017891381],[100.24504006562378,6.630557069304054],[100.24550151429118,6.630020395843373],[100.2459340541239,6.629460468415729],[100.2463364995603,6.628878821666797],[100.24670774752543,6.628277049775962],[100.24704678045445,6.627656802087598],[100.24735266908162,6.627019778591124],[100.2476245749875,6.626367725262208],[100.2478617528969,6.62570242927772],[100.24806355272163,6.625025714117989],[100.24822942134246,6.624339434569163],[100.24835890412497,6.62364547163993],[100.24845164616586,6.622945727406162],[100.24850739326565,6.622242119797786],[100.24852599262545,6.621536577342059]],[[100.24058080304978,6.487012344953274],[100.24056231287771,6.486310754164672],[100.24050689304177,6.485611085414931],[100.24041469544389,6.484915256459534],[100.24028597279124,6.484225174537244],[100.24012107790372,6.483542731142185],[100.23992046274671,6.482869796839173],[100.23968467719244,6.482208216136165],[100.2394143675127,6.481559802428182],[100.23911027460755,6.480926333026392],[100.23877323197452,6.480309544286012],[100.23840416342398,6.479711126846392],[100.23800408054724,6.479132720996437],[100.23757407994363,6.478575912177961],[100.2371153402149,6.478042226639225],[100.2366291187348,6.47753312725087],[100.23611674820256,6.47705000949545],[100.23557963299022,6.476594197641599],[100.23501924529327,6.476166941113595],[100.23443712109537,6.47576941106582],[100.23383485595855,6.475402697171992],[100.23321410064965,6.475067804637615],[100.23257655661583,6.474765651444038],[100.23192397132097,6.474497065831643],[100.23125813345601,6.474262784029056],[100.23058086803624,6.474063448234555],[100.22989403139914,6.473899604855386],[100.22919950611613,6.473771703009596],[100.22849919583278,6.473680093294678],[100.22779502005089,6.473625026826312],[100.22708890886732,6.473606654549809],[100.22638279768374,6.473625026826312],[100.22567862190185,6.473680093294678],[100.2249783116185,6.473771703009596],[100.22428378633549,6.473899604855386],[100.22359694969838,6.474063448234555],[100.22291968427864,6.474262784029056],[100.22225384641366,6.474497065831643],[100.2216012611188,6.474765651444038],[100.220963717085,6.475067804637615],[100.22034296177608,6.475402697171992],[100.21974069663926,6.47576941106582],[100.21915857244136,6.476166941113595],[100.21859818474441,6.476594197641599],[100.21806106953208,6.47705000949545],[100.21754869899983,6.47753312725087],[100.21706247751973,6.478042226639225],[100.216603737791,6.478575912177961],[100.2161737371874,6.479132720996437],[100.21577365431065,6.479711126846392],[100.21540458576013,6.480309544286012],[100.21506754312708,6.480926333026392],[100.21476345022194,6.481559802428182],[100.21449314054219,6.482208216136165],[100.21425735498792,6.482869796839173],[100.21405673983091,6.483542731142185],[100.21389184494339,6.484225174537244],[100.21376312229076,6.484915256459534],[100.21367092469286,6.485611085414931],[100.21361550485692,6.486310754164672],[100.21359701468485,6.487012344953274],[100.21361550485692,6.487713934765014],[100.21367092469286,6.488413600594904],[100.21376312229076,6.489109424719445],[100.21389184494339,6.4897994999528],[100.21405673983091,6.490481934874136],[100.21425735498792,6.491154859011472],[100.21449314054219,6.49181642796822],[100.21476345022194,6.49246482847806],[100.21506754312708,6.493098283374422],[100.21540458576013,6.493715056461039],[100.21577365431065,6.494313457270035],[100.2161737371874,6.494891845694712],[100.216603737791,6.495448636484199],[100.21706247751973,6.495982303587741],[100.21754869899983,6.496491384336684],[100.21806106953208,6.496974483452705],[100.21859818474441,6.497430276871362],[100.21915857244136,6.497857515370378],[100.21974069663926,6.498255027992874],[100.22034296177608,6.498621725256078],[100.220963717085,6.498956602136681],[100.2216012611188,6.499258740824842],[100.22225384641366,6.499527313239093],[100.22291968427864,6.499761583295434],[100.22359694969838,6.499960908924246],[100.22428378633549,6.500124743829692],[100.2249783116185,6.500252638986546],[100.22567862190185,6.500344243870609],[100.22638279768374,6.500399307419136],[100.22708890886732,6.500417678718777],[100.22779502005089,6.500399307419136],[100.22849919583278,6.500344243870609],[100.22919950611613,6.500252638986546],[100.22989403139914,6.500124743829692],[100.23058086803624,6.499960908924246],[100.23125813345601,6.499761583295434],[100.23192397132097,6.499527313239093],[100.23257655661583,6.499258740824842],[100.23321410064965,6.498956602136681],[100.23383485595855,6.498621725256078],[100.23443712109537,6.498255027992874],[100.23501924529327,6.497857515370378],[100.23557963299022,6.497430276871362],[100.23611674820256,6.496974483452705],[100.2366291187348,6.496491384336684],[100.2371153402149,6.495982303587741],[100.23757407994363,6.495448636484199],[100.23800408054724,6.494891845694712],[100.23840416342398,6.494313457270035],[100.23877323197452,6.493715056461039],[100.23911027460755,6.493098283374422],[100.2394143675127,6.49246482847806],[100.23968467719244,6.49181642796822],[100.23992046274671,6.491154859011472],[100.24012107790372,6.490481934874136],[100.24028597279124,6.4897994999528],[100.24041469544389,6.489109424719445],[100.24050689304177,6.488413600594904],[100.24056231287771,6.487713934765014],[100.24058080304978,6.487012344953274]],[[100.30144554243199,6.537175213681979],[100.30142852479224,6.536529561197147],[100.30137751851714,6.535885677570664],[100.30129266341137,6.5352453276531],[100.30117419205683,6.534610266616088],[100.3010224291753,6.533982235141317],[100.3008377907383,6.533362954649149],[100.30062078282694,6.532754122580078],[100.30037200024482,6.532157407741696],[100.30009212488767,6.531574445734209],[100.29978192387445,6.531006834466837],[100.29944224744455,6.53045612977748],[100.29907402662744,6.529923841167723],[100.2986782706908,6.52941142766471],[100.29825606437416,6.528920293821428],[100.29780856491566,6.528451785866165],[100.2973369988802,6.528007188011998],[100.29684265879753,6.527587718935979],[100.29632689961944,6.527194528438282],[100.29579113500601,6.526828694289862],[100.29523683345079,6.526491219277688],[100.29466551425581,6.526183028455555],[100.2940787433673,6.525904966607857],[100.29347812908343,6.525657795933596],[100.29286531764623,6.525442193956579],[100.29224198872926,6.525258751667972],[100.29160985083374,6.525107971905914],[100.29097063660572,6.524990267976909],[100.29032609808695,6.524905962522632],[100.28967800191272,6.52485528663538],[100.2890281244696,6.524838379224491],[100.28837824702644,6.52485528663538],[100.28773015085223,6.524905962522632],[100.28708561233344,6.524990267976909],[100.28644639810544,6.525107971905914],[100.28581426020992,6.525258751667972],[100.28519093129295,6.525442193956579],[100.28457811985575,6.525657795933596],[100.28397750557188,6.525904966607857],[100.28339073468337,6.526183028455555],[100.28281941548839,6.526491219277688],[100.28226511393315,6.526828694289862],[100.28172934931972,6.527194528438282],[100.28121359014165,6.527587718935979],[100.28071925005898,6.528007188011998],[100.28024768402354,6.528451785866165],[100.27980018456502,6.528920293821428],[100.27937797824838,6.52941142766471],[100.27898222231174,6.529923841167723],[100.27861400149463,6.53045612977748],[100.27827432506473,6.531006834466837],[100.2779641240515,6.531574445734209],[100.27768424869436,6.532157407741696],[100.27743546611224,6.532754122580078],[100.27721845820088,6.533362954649149],[100.27703381976387,6.533982235141317],[100.27688205688233,6.534610266616088],[100.27676358552782,6.5352453276531],[100.27667873042203,6.535885677570664],[100.27662772414692,6.536529561197147],[100.27661070650717,6.537175213681979],[100.27662772414692,6.537820865333048],[100.27667873042203,6.538464746467439],[100.27676358552782,6.53910509226186],[100.27688205688233,6.539740147589852],[100.27703381976387,6.540368171832296],[100.27721845820088,6.540987443648038],[100.27743546611224,6.541596265691656],[100.27768424869436,6.542192969265405],[100.2779641240515,6.542775918892482],[100.27827432506473,6.543343516799348],[100.27861400149463,6.543894207294436],[100.27898222231174,6.544426481031703],[100.27937797824838,6.544938879146938],[100.27980018456502,6.545429997255749],[100.28024768402354,6.545898489302246],[100.28071925005898,6.546343071247661],[100.28121359014165,6.546762524589209],[100.28172934931972,6.547155699699127],[100.28226511393315,6.547521518975058],[100.28281941548839,6.547858979792964],[100.28339073468337,6.548167157254591],[100.28397750557188,6.548445206721878],[100.28457811985575,6.548692366131505],[100.28519093129295,6.54890795808307],[100.28581426020992,6.549091391695251],[100.28644639810544,6.549242164224969],[100.28708561233344,6.54935986244498],[100.28773015085223,6.549444163776114],[100.28837824702644,6.549494837171249],[100.2890281244696,6.549511743748413],[100.28967800191272,6.549494837171249],[100.29032609808695,6.549444163776114],[100.29097063660572,6.54935986244498],[100.29160985083374,6.549242164224969],[100.29224198872926,6.549091391695251],[100.29286531764623,6.54890795808307],[100.29347812908343,6.548692366131505],[100.2940787433673,6.548445206721878],[100.29466551425581,6.548167157254591],[100.29523683345079,6.547858979792964],[100.29579113500601,6.547521518975058],[100.29632689961944,6.547155699699127],[100.29684265879753,6.546762524589209],[100.2973369988802,6.546343071247661],[100.29780856491566,6.545898489302246],[100.29825606437416,6.545429997255749],[100.2986782706908,6.544938879146938],[100.29907402662744,6.544426481031703],[100.29944224744455,6.543894207294436],[100.29978192387445,6.543343516799348],[100.30009212488767,6.542775918892482],[100.30037200024482,6.542192969265405],[100.30062078282694,6.541596265691656],[100.3008377907383,6.540987443648038],[100.3010224291753,6.540368171832296],[100.30117419205683,6.539740147589852],[100.30129266341137,6.53910509226186],[100.30137751851714,6.538464746467439],[100.30142852479224,6.537820865333048],[100.30144554243199,6.537175213681979]],[[100.20246829042107,6.440217745015265],[100.20245499238264,6.439713117871984],[100.20241513471639,6.439209873377042],[100.20234882666938,6.438709390894805],[100.20225624998737,6.438213042223214],[100.2021376584166,6.437722187833605],[100.20199337700834,6.437238173141663],[100.2018238012279,6.43676232481948],[100.2016293958707,6.436295947159019],[100.2014106937883,6.435840318496899],[100.20116829442793,6.435396687710215],[100.20090286218938,6.434966270793151],[100.20061512460394,6.434550247523636],[100.20030587034037,6.434149758229288],[100.1999759470431,6.433765900661431],[100.19962625900892,6.433399726985859],[100.19925776470848,6.43305224089847],[100.198871474159,6.432724394873741],[100.19846844615604,6.432417087553708],[100.19804978537137,6.432131161284387],[100.19761663932506,6.431867399806497],[100.19717019524033,6.431626526106998],[100.19671167678938,6.431409200436921],[100.19624234073942,6.431216018501394],[100.19576347350794,6.431047509826465],[100.19527638763672,6.430904136307461],[100.19478241819431,6.430786290942624],[100.19428291911657,6.430694296755806],[100.1937792594958,6.430628405910718],[100.19327281982798,6.430588799019791],[100.19276498822904,6.430575584648904],[100.1922571566301,6.430588799019791],[100.19175071696229,6.430628405910718],[100.19124705734151,6.430694296755806],[100.19074755826377,6.430786290942624],[100.19025358882136,6.430904136307461],[100.18976650295015,6.431047509826465],[100.18928763571867,6.431216018501394],[100.18881829966871,6.431409200436921],[100.18835978121777,6.431626526106998],[100.18791333713303,6.431867399806497],[100.18748019108672,6.432131161284387],[100.18706153030203,6.432417087553708],[100.18665850229908,6.432724394873741],[100.18627221174961,6.43305224089847],[100.18590371744916,6.433399726985859],[100.185554029415,6.433765900661431],[100.18522410611772,6.434149758229288],[100.18491485185413,6.434550247523636],[100.18462711426872,6.434966270793151],[100.18436168203016,6.435396687710215],[100.18411928266978,6.435840318496899],[100.18390058058739,6.436295947159019],[100.1837061752302,6.43676232481948],[100.18353659944974,6.437238173141663],[100.18339231804148,6.437722187833605],[100.18327372647072,6.438213042223214],[100.18318114978871,6.438709390894805],[100.1831148417417,6.439209873377042],[100.18307498407545,6.439713117871984],[100.18306168603702,6.440217745015265],[100.18307498407545,6.440722371656872],[100.1831148417417,6.441225614652272],[100.18318114978871,6.44172609465351],[100.18327372647072,6.442222439889835],[100.18339231804148,6.442713289927554],[100.18353659944974,6.44319729939868],[100.1837061752302,6.443673141688305],[100.18390058058739,6.444139512570545],[100.18411928266978,6.444595133783056],[100.18436168203016,6.445038756530379],[100.18462711426872,6.445469164906394],[100.18491485185413,6.445885179226757],[100.18522410611772,6.446285659261886],[100.185554029415,6.44666950736192],[100.18590371744916,6.447035671464786],[100.18627221174961,6.447383147979481],[100.18665850229908,6.447710984536373],[100.18706153030203,6.448018282597188],[100.18748019108672,6.448304199917357],[100.18791333713303,6.448567952854185],[100.18835978121777,6.448808818514323],[100.18881829966871,6.449026136734803],[100.18928763571867,6.449219311892122],[100.18976650295015,6.449387814534481],[100.19025358882136,6.449531182832668],[100.19074755826377,6.449649023845615],[100.19124705734151,6.449741014597181],[100.19175071696229,6.449806902961257],[100.1922571566301,6.449846508352629],[100.19276498822904,6.449859722221829],[100.19327281982798,6.449846508352629],[100.1937792594958,6.449806902961257],[100.19428291911657,6.449741014597181],[100.19478241819431,6.449649023845615],[100.19527638763672,6.449531182832668],[100.19576347350794,6.449387814534481],[100.19624234073942,6.449219311892122],[100.19671167678938,6.449026136734803],[100.19717019524033,6.448808818514323],[100.19761663932506,6.448567952854185],[100.19804978537137,6.448304199917357],[100.19846844615604,6.448018282597188],[100.198871474159,6.447710984536373],[100.19925776470848,6.447383147979481],[100.19962625900892,6.447035671464786],[100.1999759470431,6.44666950736192],[100.20030587034037,6.446285659261886],[100.20061512460394,6.445885179226757],[100.20090286218938,6.445469164906394],[100.20116829442793,6.445038756530379],[100.2014106937883,6.444595133783056],[100.2016293958707,6.444139512570545],[100.2018238012279,6.443673141688305],[100.20199337700834,6.44319729939868],[100.2021376584166,6.442713289927554],[100.20225624998737,6.442222439889835],[100.20234882666938,6.44172609465351],[100.20241513471639,6.441225614652272],[100.20245499238264,6.440722371656872],[100.20246829042107,6.440217745015265]],[[100.2452032541694,6.437779709868423],[100.24518675746474,6.437153698297672],[100.24513731256705,6.436529401812612],[100.2450550550014,6.435908531576024],[100.24494021023004,6.435292789365853],[100.24479309303452,6.434683862910451],[100.24461410665282,6.434083421262452],[100.24440374167416,6.433493110223741],[100.24416257469439,6.432914547833982],[100.24389126673536,6.432349319935336],[100.24359056143338,6.431798975825261],[100.24326128300078,6.431265024009546],[100.24290433396679,6.430748928066938],[100.24252069270399,6.430252102637096],[100.24211141074638,6.429775909542467],[100.24167760990733,6.429321654055009],[100.24122047920484,6.428890581317875],[100.24074127160233,6.428483872931922],[100.24024130057458,6.428102643716312],[100.2397219365074,6.427747938652273],[100.23918460294159,6.427420730018222],[100.23863077267113,6.427121914724178],[100.23806196370627,6.426852311852803],[100.23747973511286,6.426612660413829],[100.23688568273901,6.426403617317963],[100.23628143484096,6.426225755575869],[100.23566864762022,6.426079562727142],[100.23504900068394,6.42596543950367],[100.23442419244135,6.425883698730956],[100.23379593544837,6.425834564470403],[100.23316595171379,6.42581817140509],[100.23253596797919,6.425834564470403],[100.23190771098622,6.425883698730956],[100.23128290274362,6.42596543950367],[100.23066325580734,6.426079562727142],[100.23005046858661,6.426225755575869],[100.22944622068856,6.426403617317963],[100.22885216831472,6.426612660413829],[100.2282699397213,6.426852311852803],[100.22770113075644,6.427121914724178],[100.22714730048597,6.427420730018222],[100.22660996692018,6.427747938652273],[100.22609060285299,6.428102643716312],[100.22559063182523,6.428483872931922],[100.22511142422273,6.428890581317875],[100.22465429352023,6.429321654055009],[100.2242204926812,6.429775909542467],[100.22381121072357,6.430252102637096],[100.22342756946077,6.430748928066938],[100.2230706204268,6.431265024009546],[100.22274134199418,6.431798975825261],[100.2224406366922,6.432349319935336],[100.22216932873317,6.432914547833982],[100.2219281617534,6.433493110223741],[100.22171779677475,6.434083421262452],[100.22153881039306,6.434683862910451],[100.22139169319752,6.435292789365853],[100.22127684842616,6.435908531576024],[100.2211945908605,6.436529401812612],[100.22114514596282,6.437153698297672],[100.22112864925816,6.437779709868423],[100.22114514596282,6.438405720667392],[100.2211945908605,6.439030014845608],[100.22127684842616,6.439650881265518],[100.22139169319752,6.440266618191032],[100.22153881039306,6.440875537951684],[100.22171779677475,6.441475971568186],[100.2219281617534,6.442066273326649],[100.22216932873317,6.442644825289072],[100.2224406366922,6.44321004172757],[100.22274134199418,6.44376037347021],[100.2230706204268,6.444294312146736],[100.22342756946077,6.444810394322325],[100.22381121072357,6.445307205508181],[100.2242204926812,6.445783384037893],[100.22465429352023,6.446237624799102],[100.22511142422273,6.446668682809976],[100.22559063182523,6.447075376631036],[100.22609060285299,6.447456591602646],[100.22660996692018,6.447811282899667],[100.22714730048597,6.448138478394516],[100.22770113075644,6.448437281321151],[100.2282699397213,6.448706872732377],[100.22885216831472,6.448946513744017],[100.22944622068856,6.449155547559636],[100.23005046858661,6.449333401270231],[100.23066325580734,6.449479587424196],[100.23128290274362,6.449593705363011],[100.23190771098622,6.449675442319071],[100.23253596797919,6.449724574272756],[100.23316595171379,6.449740966566301],[100.23379593544837,6.449724574272756],[100.23442419244135,6.449675442319071],[100.23504900068394,6.449593705363011],[100.23566864762022,6.449479587424196],[100.23628143484096,6.449333401270231],[100.23688568273901,6.449155547559636],[100.23747973511286,6.448946513744017],[100.23806196370627,6.448706872732377],[100.23863077267113,6.448437281321151],[100.23918460294159,6.448138478394516],[100.2397219365074,6.447811282899667],[100.24024130057458,6.447456591602646],[100.24074127160233,6.447075376631036],[100.24122047920484,6.446668682809976],[100.24167760990733,6.446237624799102],[100.24211141074638,6.445783384037893],[100.24252069270399,6.445307205508181],[100.24290433396679,6.444810394322325],[100.24326128300078,6.444294312146736],[100.24359056143338,6.44376037347021],[100.24389126673536,6.44321004172757],[100.24416257469439,6.442644825289072],[100.24440374167416,6.442066273326649],[100.24461410665282,6.441475971568186],[100.24479309303452,6.440875537951684],[100.24494021023004,6.440266618191032],[100.2450550550014,6.439650881265518],[100.24513731256705,6.439030014845608],[100.24518675746474,6.438405720667392],[100.2452032541694,6.437779709868423]],[[100.18564307366529,6.49523024883274],[100.18562480136345,6.494536936228064],[100.18557003454102,6.493845522993902],[100.18547892331009,6.493157904257719],[100.18535171740018,6.492475964754147],[100.18518876547384,6.491801573658939],[100.18499051417099,6.4911365794653],[100.18475750688467,6.490482804916994],[100.18449038227166,6.489842042011847],[100.18418987250195,6.489216047089494],[100.18385680125192,6.488606536016782],[100.18349208144674,6.488015179484074],[100.18309671275802,6.487443598425302],[100.18267177886386,6.486893359574387],[100.18221844447854,6.486365971170166],[100.1817379521601,6.48586287882156],[100.18123161890458,6.485385461544538],[100.18070083253623,6.48493502798144],[100.18014704790357,6.484512812813351],[100.17957178289186,6.484119973374989],[100.17897661426244,6.483757586481828],[100.17836317333118,6.483426645477888],[100.17773314149701,6.483128057512182],[100.17708824563344,6.482862641051773],[100.17643025335516,6.482631123637626],[100.17576096817331,6.482434139889977],[100.175082224552,6.482272229768339],[100.17439588288036,6.482145837091064],[100.17370382437319,6.482055308318518],[100.17300794591478,6.482000891603137],[100.17231015485957,6.481982736109055],[100.17161236380437,6.482000891603137],[100.17091648534594,6.482055308318518],[100.17022442683876,6.482145837091064],[100.16953808516713,6.482272229768339],[100.16885934154583,6.482434139889977],[100.16819005636397,6.482631123637626],[100.1675320640857,6.482862641051773],[100.16688716822213,6.483128057512182],[100.16625713638796,6.483426645477888],[100.16564369545671,6.483757586481828],[100.16504852682728,6.484119973374989],[100.16447326181556,6.484512812813351],[100.16391947718292,6.48493502798144],[100.16338869081456,6.485385461544538],[100.16288235755903,6.48586287882156],[100.16240186524058,6.486365971170166],[100.16194853085527,6.486893359574387],[100.16152359696112,6.487443598425302],[100.16112822827239,6.488015179484074],[100.1607635084672,6.488606536016782],[100.16043043721719,6.489216047089494],[100.16012992744747,6.489842042011847],[100.15986280283445,6.490482804916994],[100.15962979554814,6.4911365794653],[100.15943154424531,6.491801573658939],[100.15926859231895,6.492475964754147],[100.15914138640905,6.493157904257719],[100.1590502751781,6.493845522993902],[100.15899550835567,6.494536936228064],[100.15897723605386,6.49523024883274],[100.15899550835567,6.495923560482271],[100.1590502751781,6.496614970861439],[100.15914138640905,6.497302584874079],[100.15926859231895,6.497984517837273],[100.15943154424531,6.498658900646971],[100.15962979554814,6.499323884900727],[100.15986280283445,6.499977647963669],[100.16012992744747,6.500618397963817],[100.16043043721719,6.501244378702944],[100.1607635084672,6.501853874469568],[100.16112822827239,6.502445214741054],[100.16152359696112,6.503016778761582],[100.16194853085527,6.503566999983942],[100.16240186524058,6.504094370362458],[100.16288235755903,6.504597444485658],[100.16338869081456,6.505074843537288],[100.16391947718292,6.505525259074643],[100.16447326181556,6.505947456614202],[100.16504852682728,6.506340279014333],[100.16564369545671,6.506702649646247],[100.16625713638796,6.507033575344112],[100.16688716822213,6.507332149126578],[100.1675320640857,6.507597552682001],[100.16819005636397,6.507829058610784],[100.16885934154583,6.50802603241855],[100.16953808516713,6.508187934254678],[100.17022442683876,6.508314320391587],[100.17091648534594,6.508404844440578],[100.17161236380437,6.508459258300966],[100.17231015485957,6.508477412839901],[100.17300794591478,6.508459258300966],[100.17370382437319,6.508404844440578],[100.17439588288036,6.508314320391587],[100.175082224552,6.508187934254678],[100.17576096817331,6.50802603241855],[100.17643025335516,6.507829058610784],[100.17708824563344,6.507597552682001],[100.17773314149701,6.507332149126578],[100.17836317333118,6.507033575344112],[100.17897661426244,6.506702649646247],[100.17957178289186,6.506340279014333],[100.18014704790357,6.505947456614202],[100.18070083253623,6.505525259074643],[100.18123161890458,6.505074843537288],[100.1817379521601,6.504597444485658],[100.18221844447854,6.504094370362458],[100.18267177886386,6.503566999983942],[100.18309671275802,6.503016778761582],[100.18349208144674,6.502445214741054],[100.18385680125192,6.501853874469568],[100.18418987250195,6.501244378702944],[100.18449038227166,6.500618397963817],[100.18475750688467,6.499977647963669],[100.18499051417099,6.499323884900727],[100.18518876547384,6.498658900646971],[100.18535171740018,6.497984517837273],[100.18547892331009,6.497302584874079],[100.18557003454102,6.496614970861439],[100.18562480136345,6.495923560482271],[100.18564307366529,6.49523024883274]],[[100.3368132981626,6.474109858770392],[100.3367965550834,6.473474543436978],[100.33674637173743,6.472840968662686],[100.33666288567375,6.472210871041822],[100.33654632572184,6.471585977644483],[100.33639701136445,6.470968001282594],[100.33621535186185,6.470358635814923],[100.3360018451301,6.469759551504104],[100.33575707637631,6.469172390438112],[100.33548171649463,6.468598762029015],[100.33517652022732,6.468040238601169],[100.33484232409621,6.467498351081111],[100.33448004410961,6.466974584800764],[100.3340906732518,6.466470375425655],[100.33367527876122,6.465987105019195],[100.3332349992053,6.46552609825391],[100.3327710413597,6.465088618779912],[100.33228467690064,6.46467586576064],[100.3317772389193,6.464288970585307],[100.33125011826789,6.463928993767239],[100.33070475974748,6.463596922036378],[100.33014265814788,6.463293665634077],[100.32956535415047,6.463020055817602],[100.32897443010543,6.462776842581136],[100.32837150569446,6.462564692599525],[100.32775823349148,6.462384187400564],[100.32713629443298,6.462235821770549],[100.32650739321063,6.462120002397824],[100.32587325359903,6.462037046757659],[100.32523561373074,6.461987182241902],[100.32459622133234,6.461970545535541],[100.32395682893393,6.461987182241902],[100.32331918906564,6.462037046757659],[100.32268504945404,6.462120002397824],[100.32205614823172,6.462235821770549],[100.32143420917319,6.462384187400564],[100.32082093697021,6.462564692599525],[100.32021801255924,6.462776842581136],[100.31962708851421,6.463020055817602],[100.3190497845168,6.463293665634077],[100.31848768291721,6.463596922036378],[100.3179423243968,6.463928993767239],[100.31741520374538,6.464288970585307],[100.31690776576404,6.46467586576064],[100.31642140130498,6.465088618779912],[100.31595744345938,6.46552609825391],[100.31551716390346,6.465987105019195],[100.31510176941288,6.466470375425655],[100.31471239855507,6.466974584800764],[100.31435011856847,6.467498351081111],[100.31401592243735,6.468040238601169],[100.31371072617007,6.468598762029015],[100.31343536628837,6.469172390438112],[100.31319059753457,6.469759551504104],[100.31297709080283,6.470358635814923],[100.31279543130023,6.470968001282594],[100.31264611694284,6.471585977644483],[100.31252955699092,6.472210871041822],[100.31244607092725,6.472840968662686],[100.31239588758127,6.473474543436978],[100.31237914450207,6.474109858770392],[100.31239588758127,6.474745173304418],[100.31244607092725,6.475378745689248],[100.31252955699092,6.476008839356785],[100.31264611694284,6.476633727280237],[100.31279543130023,6.477251696707665],[100.31297709080283,6.47786105385625],[100.31319059753457,6.478460128554517],[100.31343536628837,6.479047278819817],[100.31371072617007,6.479620895358409],[100.31401592243735,6.480179405975986],[100.31435011856847,6.480721279886387],[100.31471239855507,6.481245031906768],[100.31510176941288,6.481749226527869],[100.31551716390346,6.482232481847889],[100.31595744345938,6.482693473359616],[100.31642140130498,6.483130937580055],[100.31690776576404,6.483543675512901],[100.31741520374538,6.483930555934226],[100.3179423243968,6.484290518492327],[100.31848768291721,6.484622576613519],[100.3190497845168,6.484925820205563],[100.31962708851421,6.48519941815152],[100.32021801255924,6.485442620587306],[100.32082093697021,6.485654760956366],[100.32143420917319,6.485835257836243],[100.32205614823172,6.485983616531783],[100.32268504945404,6.486099430430634],[100.32331918906564,6.486182382117471],[100.32395682893393,6.486232244243766],[100.32459622133234,6.486248880150714],[100.32523561373074,6.486232244243766],[100.32587325359903,6.486182382117471],[100.32650739321063,6.486099430430634],[100.32713629443298,6.485983616531783],[100.32775823349148,6.485835257836243],[100.32837150569446,6.485654760956366],[100.32897443010543,6.485442620587306],[100.32956535415047,6.48519941815152],[100.33014265814788,6.484925820205563],[100.33070475974748,6.484622576613519],[100.33125011826789,6.484290518492327],[100.3317772389193,6.483930555934226],[100.33228467690064,6.483543675512901],[100.3327710413597,6.483130937580055],[100.3332349992053,6.482693473359616],[100.33367527876122,6.482232481847889],[100.3340906732518,6.481749226527869],[100.33448004410961,6.481245031906768],[100.33484232409621,6.480721279886387],[100.33517652022732,6.480179405975986],[100.33548171649463,6.479620895358409],[100.33575707637631,6.479047278819817],[100.3360018451301,6.478460128554517],[100.33621535186185,6.47786105385625],[100.33639701136445,6.477251696707665],[100.33654632572184,6.476633727280237],[100.33666288567375,6.476008839356785],[100.33674637173743,6.475378745689248],[100.3367965550834,6.474745173304418],[100.3368132981626,6.474109858770392]],[[100.27759394028966,6.414428114750938],[100.27757694646377,6.413783208972498],[100.27752601156497,6.413140070023328],[100.27744127520229,6.412500460712705],[100.27732296963222,6.411866134181923],[100.2771714191221,6.411238829098934],[100.27698703906131,6.410620264892514],[100.27677033482283,6.410012137039089],[100.27652190037789,6.409416112415193],[100.27624241666804,6.408833824728197],[100.2759326497387,6.408266870037981],[100.27559344863948,6.407716802381668],[100.27522574309702,6.407185129513519],[100.27483054096669,6.406673308771705],[100.27440892547001,6.406182743083105],[100.2739620522258,6.405714777117439],[100.2734911460825,6.405270693600768],[100.27299749776115,6.404851709799062],[100.27248246031748,6.404458974180963],[100.27194744543334,6.404093563269323],[100.27139391954732,6.403756478689765],[100.27082339983538,6.403448644424656],[100.27023745005246,6.403170904279989],[100.26963767624612,6.402924019571867],[100.26902572235468,6.402708667039342],[100.26840326570125,6.40252543698897],[100.26777201239625,6.402374831676406],[100.26713369266109,6.402257263929376],[100.26649005608581,6.402173056015803],[100.26584286683351,6.402122438760269],[100.26519389880497,6.402105550911178],[100.26454493077641,6.402122438760269],[100.2638977415241,6.402173056015803],[100.26325410494883,6.402257263929376],[100.26261578521367,6.402374831676406],[100.26198453190867,6.40252543698897],[100.26136207525524,6.402708667039342],[100.26075012136381,6.402924019571867],[100.26015034755746,6.403170904279989],[100.25956439777454,6.403448644424656],[100.2589938780626,6.403756478689765],[100.25844035217659,6.404093563269323],[100.25790533729244,6.404458974180963],[100.25739029984878,6.404851709799062],[100.25689665152741,6.405270693600768],[100.25642574538413,6.405714777117439],[100.2559788721399,6.406182743083105],[100.25555725664323,6.406673308771705],[100.2551620545129,6.407185129513519],[100.25479434897044,6.407716802381668],[100.25445514787121,6.408266870037981],[100.25414538094188,6.408833824728197],[100.25386589723203,6.409416112415193],[100.25361746278709,6.410012137039089],[100.25340075854861,6.410620264892514],[100.25321637848782,6.411238829098934],[100.2530648279777,6.411866134181923],[100.25294652240763,6.412500460712705],[100.25286178604495,6.413140070023328],[100.25281085114615,6.413783208972498],[100.25279385732026,6.414428114750938],[100.25281085114615,6.415073019713324],[100.25286178604495,6.415716156223238],[100.25294652240763,6.416355761498156],[100.2530648279777,6.416990082440984],[100.25321637848782,6.417617380444974],[100.25340075854861,6.418235936158944],[100.25361746278709,6.418844054199493],[100.25386589723203,6.419440067797627],[100.25414538094188,6.420022343366735],[100.25445514787121,6.420589284979718],[100.25479434897044,6.421139338742745],[100.2551620545129,6.42167099705375],[100.25555725664323,6.422182802734087],[100.2559788721399,6.422673353021843],[100.25642574538413,6.423141303416085],[100.25689665152741,6.423585371361308],[100.25739029984878,6.424004339762194],[100.25790533729244,6.424397060318789],[100.25844035217659,6.424762456673298],[100.2589938780626,6.425099527359571],[100.25956439777454,6.425407348547447],[100.26015034755746,6.425685076574239],[100.26075012136381,6.425931950256586],[100.26136207525524,6.426147292976236],[100.26198453190867,6.426330514534169],[100.26261578521367,6.426481112767735],[100.26325410494883,6.426598674926811],[100.2638977415241,6.426682878804667],[100.26454493077641,6.426733493620944],[100.26519389880497,6.426750380653968],[100.26584286683351,6.426733493620944],[100.26649005608581,6.426682878804667],[100.26713369266109,6.426598674926811],[100.26777201239625,6.426481112767735],[100.26840326570125,6.426330514534169],[100.26902572235468,6.426147292976236],[100.26963767624612,6.425931950256586],[100.27023745005246,6.425685076574239],[100.27082339983538,6.425407348547447],[100.27139391954732,6.425099527359571],[100.27194744543334,6.424762456673298],[100.27248246031748,6.424397060318789],[100.27299749776115,6.424004339762194],[100.2734911460825,6.423585371361308],[100.2739620522258,6.423141303416085],[100.27440892547001,6.422673353021843],[100.27483054096669,6.422182802734087],[100.27522574309702,6.42167099705375],[100.27559344863948,6.421139338742745],[100.2759326497387,6.420589284979718],[100.27624241666804,6.420022343366735],[100.27652190037789,6.419440067797627],[100.27677033482283,6.418844054199493],[100.27698703906131,6.418235936158944],[100.2771714191221,6.417617380444974],[100.27732296963222,6.416990082440984],[100.27744127520229,6.416355761498156],[100.27752601156497,6.415716156223238],[100.27757694646377,6.415073019713324],[100.27759394028966,6.414428114750938]],[[100.2328505333974,6.376144654865781],[100.23283350254214,6.375498295439786],[100.23278245665665,6.374853706828663],[100.23269753565421,6.37421265581507],[100.23257897229736,6.373576899491922],[100.23242709156006,6.372948180446074],[100.2322423097368,6.372328221981819],[100.23202513330176,6.371718723397122],[100.23177615752041,6.371121355325516],[100.23149606481812,6.370537755156614],[100.23118562290944,6.369969522547631],[100.23084568269411,6.369418215038294],[100.23047717592462,6.368885343781134],[100.23008111265244,6.368372369398919],[100.22965857845942,6.36788069798051],[100.22921073148245,6.367411677226211],[100.22873879923895,6.36696659275313],[100.22824407526241,6.366546664570659],[100.22772791555683,6.366153043735861],[100.22719173488012,6.36578680919778],[100.22663700286621,6.365448964839445],[100.22606523999704,6.36514043672567],[100.22547801343484,6.364862070564129],[100.22487693272684,6.364614629386721],[100.22426364539344,6.364398791457671],[100.22363983241262,6.364215148413916],[100.2230072036124,6.364064203643053],[100.22236749298433,6.363946370903162],[100.22172245393081,6.363861973188499],[100.22107385445901,6.363811241843836],[100.22042347233503,6.363794315930248],[100.21977309021104,6.363811241843836],[100.21912449073923,6.363861973188499],[100.21847945168571,6.363946370903162],[100.21783974105765,6.364064203643053],[100.21720711225743,6.364215148413916],[100.2165832992766,6.364398791457671],[100.21597001194321,6.364614629386721],[100.2153689312352,6.364862070564129],[100.214781704673,6.36514043672567],[100.21420994180383,6.365448964839445],[100.21365520978992,6.36578680919778],[100.21311902911322,6.366153043735861],[100.21260286940763,6.366546664570659],[100.21210814543109,6.36696659275313],[100.21163621318759,6.367411677226211],[100.21118836621062,6.36788069798051],[100.2107658320176,6.368372369398919],[100.21036976874542,6.368885343781134],[100.21000126197593,6.369418215038294],[100.2096613217606,6.369969522547631],[100.20935087985193,6.370537755156614],[100.20907078714963,6.371121355325516],[100.20882181136828,6.371718723397122],[100.20860463493324,6.372328221981819],[100.20841985310999,6.372948180446074],[100.20826797237268,6.373576899491922],[100.20814940901583,6.37421265581507],[100.2080644880134,6.374853706828663],[100.2080134421279,6.375498295439786],[100.20799641127265,6.376144654865781],[100.2080134421279,6.376791013476957],[100.2080644880134,6.377435599652564],[100.20814940901583,6.378076646636623],[100.20826797237268,6.378712397380379],[100.20841985310999,6.379341109358093],[100.20860463493324,6.3799610593429],[100.20882181136828,6.380570548129758],[100.20907078714963,6.381167905192472],[100.20935087985193,6.381751493262061],[100.2096613217606,6.382319712813849],[100.21000126197593,6.382871006451184],[100.21036976874542,6.383403863173514],[100.2107658320176,6.383916822517303],[100.21118836621062,6.38440847855848],[100.21163621318759,6.384877483765198],[100.21210814543109,6.38532255269071],[100.21260286940763,6.385742465495937],[100.21311902911322,6.386136071292322],[100.21365520978992,6.386502291295561],[100.21420994180383,6.386840121781895],[100.214781704673,6.387148636838474],[100.2153689312352,6.387426990900702],[100.21597001194321,6.387674421069231],[100.2165832992766,6.387890249200441],[100.21720711225743,6.388073883764749],[100.21783974105765,6.388224821467477],[100.21847945168571,6.388342648627964],[100.21912449073923,6.388427042313106],[100.21977309021104,6.388477771222253],[100.22042347233503,6.388494696321021],[100.22107385445901,6.388477771222253],[100.22172245393081,6.388427042313106],[100.22236749298433,6.388342648627964],[100.2230072036124,6.388224821467477],[100.22363983241262,6.388073883764749],[100.22426364539344,6.387890249200441],[100.22487693272684,6.387674421069231],[100.22547801343484,6.387426990900702],[100.22606523999704,6.387148636838474],[100.22663700286621,6.386840121781895],[100.22719173488012,6.386502291295561],[100.22772791555683,6.386136071292322],[100.22824407526241,6.385742465495937],[100.22873879923895,6.38532255269071],[100.22921073148245,6.384877483765198],[100.22965857845942,6.38440847855848],[100.23008111265244,6.383916822517303],[100.23047717592462,6.383403863173514],[100.23084568269411,6.382871006451184],[100.23118562290944,6.382319712813849],[100.23149606481812,6.381751493262061],[100.23177615752041,6.381167905192472],[100.23202513330176,6.380570548129758],[100.2322423097368,6.3799610593429],[100.23242709156006,6.379341109358093],[100.23257897229736,6.378712397380379],[100.23269753565421,6.378076646636623],[100.23278245665665,6.377435599652564],[100.23283350254214,6.376791013476957],[100.2328505333974,6.376144654865781]],[[100.18908651242069,6.368664987512632],[100.18906961152324,6.368023550931158],[100.18901895515498,6.367383871684641],[100.18893468216157,6.366747703099344],[100.1888170235294,6.366116788885493],[100.18866630175258,6.365492858357726],[100.18848292994906,6.364877621694839],[100.18826741072817,6.3642727652521],[100.18802033481315,6.363679946938586],[100.18774237942189,6.363100791672609],[100.18743430641081,6.362536886927393],[100.18709696018661,6.361989778379439],[100.18673126539181,6.361460965671268],[100.1863382243705,6.360951898300463],[100.18591891442074,6.360463971646044],[100.18547448484196,6.359998523143147],[100.18500615378477,6.359556828616526],[100.18451520491202,6.35914009878296],[100.18400298388046,6.358749475931996],[100.18347089465232,6.358386030794414],[100.1829203956472,6.35805075960672],[100.18235299574461,6.357744581379923],[100.18177025014823,6.357468335379924],[100.18117375612326,6.357222778826617],[100.18056514861833,6.357008584817864],[100.17994609578432,6.356826340484071],[100.17931829440202,6.356676545378487],[100.17868346523139,6.356559610107592],[100.17804334829503,6.356475855205359],[100.17739969810899,6.356425510254375],[100.17675427887372,6.35640871325648],[100.17610885963842,6.356425510254375],[100.17546520945238,6.356475855205359],[100.17482509251603,6.356559610107592],[100.1741902633454,6.356676545378487],[100.1735624619631,6.356826340484071],[100.17294340912909,6.357008584817864],[100.17233480162416,6.357222778826617],[100.17173830759918,6.357468335379924],[100.1711555620028,6.357744581379923],[100.17058816210022,6.35805075960672],[100.1700376630951,6.358386030794414],[100.16950557386697,6.358749475931996],[100.1689933528354,6.35914009878296],[100.16850240396265,6.359556828616526],[100.16803407290547,6.359998523143147],[100.16758964332668,6.360463971646044],[100.16717033337692,6.360951898300463],[100.1667772923556,6.361460965671268],[100.16641159756082,6.361989778379439],[100.16607425133661,6.362536886927393],[100.16576617832553,6.363100791672609],[100.16548822293427,6.363679946938586],[100.16524114701924,6.3642727652521],[100.16502562779837,6.364877621694839],[100.16484225599483,6.365492858357726],[100.16469153421802,6.366116788885493],[100.16457387558584,6.366747703099344],[100.16448960259243,6.367383871684641],[100.16443894622418,6.368023550931158],[100.16442204532672,6.368664987512632],[100.16443894622418,6.36930642329262],[100.16448960259243,6.369946100143417],[100.16457387558584,6.370582264765017],[100.16469153421802,6.37121317349063],[100.16484225599483,6.371837097065756],[100.16502562779837,6.37245232538774],[100.16524114701924,6.373057172192737],[100.16548822293427,6.373649979677251],[100.16576617832553,6.374229123041605],[100.16607425133661,6.374793014942965],[100.16641159756082,6.375340109845577],[100.1667772923556,6.375868908256416],[100.16717033337692,6.376377960834511],[100.16758964332668,6.376865872362951],[100.16803407290547,6.377331305572303],[100.16850240396265,6.377772984805379],[100.1689933528354,6.378189699512978],[100.16950557386697,6.378580307571234],[100.1700376630951,6.378943738411471],[100.17058816210022,6.379278995953809],[100.1711555620028,6.379585161336776],[100.17173830759918,6.379861395435152],[100.17233480162416,6.380106941159447],[100.17294340912909,6.380321125530445],[100.1735624619631,6.38050336152336],[100.1741902633454,6.38065314967629],[100.17482509251603,6.380770079458947],[100.17546520945238,6.380853830397497],[100.17610885963842,6.380904172952759],[100.17675427887372,6.380920969149154],[100.17739969810899,6.380904172952759],[100.17804334829503,6.380853830397497],[100.17868346523139,6.380770079458947],[100.17931829440202,6.38065314967629],[100.17994609578432,6.38050336152336],[100.18056514861833,6.380321125530445],[100.18117375612326,6.380106941159447],[100.18177025014823,6.379861395435152],[100.18235299574461,6.379585161336776],[100.1829203956472,6.379278995953809],[100.18347089465232,6.378943738411471],[100.18400298388046,6.378580307571234],[100.18451520491202,6.378189699512978],[100.18500615378477,6.377772984805379],[100.18547448484196,6.377331305572303],[100.18591891442074,6.376865872362951],[100.1863382243705,6.376377960834511],[100.18673126539181,6.375868908256416],[100.18709696018661,6.375340109845577],[100.18743430641081,6.374793014942965],[100.18774237942189,6.374229123041605],[100.18802033481315,6.373649979677251],[100.18826741072817,6.373057172192737],[100.18848292994906,6.37245232538774],[100.18866630175258,6.371837097065756],[100.1888170235294,6.37121317349063],[100.18893468216157,6.370582264765017],[100.18901895515498,6.369946100143417],[100.18906961152324,6.36930642329262],[100.18908651242069,6.368664987512632]],[[100.1538137887884,6.401551025339679],[100.15379856006442,6.400973089600069],[100.15375291563333,6.400396737290854],[100.15367698060338,6.399823548161725],[100.15357096310717,6.399255093297592],[100.15343515373132,6.398692930812141],[100.15326992471988,6.398138601577072],[100.15307572895408,6.397593624998226],[100.15285309871099,6.397059494850908],[100.15260264420469,6.396537675185023],[100.15232505191354,6.396029596311912],[100.1520210826987,6.395536650883497],[100.1516915697187,6.395060190074685],[100.15133741614565,6.394601519879343],[100.15095959268993,6.394161897530153],[100.15055913493937,6.393742528052084],[100.15013714052081,6.393344560958959],[100.14969476609163,6.39296908710213],[100.14923322416938,6.392617135679996],[100.14875377980839,6.392289671416469],[100.14825774713233,6.391987591916204],[100.14774648573228,6.391711725203801],[100.14722139694021,6.391462827453719],[100.146683919988,6.39124158091725],[100.14613552806262,6.391048592052003],[100.1455777242682,6.390884389859308],[100.14501203750619,6.390749424433872],[100.14444001828467,6.3906440657298],[100.14386323446855,6.390568602546368],[100.14328326698224,6.390523241736154],[100.14270170547626,6.390508107638019],[100.14212014397026,6.390523241736154],[100.14154017648393,6.390568602546368],[100.14096339266783,6.3906440657298],[100.1403913734463,6.390749424433872],[100.1398256866843,6.390884389859308],[100.13926788288988,6.391048592052003],[100.13871949096449,6.39124158091725],[100.1381820140123,6.391462827453719],[100.13765692522021,6.391711725203801],[100.13714566382018,6.391987591916204],[100.13664963114412,6.392289671416469],[100.13617018678312,6.392617135679996],[100.13570864486087,6.39296908710213],[100.13526627043169,6.393344560958959],[100.13484427601313,6.393742528052084],[100.13444381826255,6.394161897530153],[100.13406599480685,6.394601519879343],[100.1337118412338,6.395060190074685],[100.1333823282538,6.395536650883497],[100.13307835903896,6.396029596311912],[100.13280076674779,6.396537675185023],[100.13255031224149,6.397059494850908],[100.13232768199842,6.397593624998226],[100.13213348623262,6.398138601577072],[100.13196825722116,6.398692930812141],[100.13183244784533,6.399255093297592],[100.13172643034912,6.399823548161725],[100.13165049531916,6.400396737290854],[100.13160485088808,6.400973089600069],[100.1315896221641,6.401551025339679],[100.13160485088808,6.402128960425228],[100.13165049531916,6.402705310779471],[100.13172643034912,6.403278496674102],[100.13183244784533,6.403846947059659],[100.13196825722116,6.404409103871509],[100.13213348623262,6.404963426300166],[100.13232768199842,6.405508395014288],[100.13255031224149,6.406042516324804],[100.13280076674779,6.406564326278573],[100.13307835903896,6.4070723946707],[100.1333823282538,6.407565328964069],[100.1337118412338,6.408041778105793],[100.13406599480685,6.408500436229823],[100.13444381826255,6.408940046235739],[100.13484427601313,6.409359403233782],[100.13526627043169,6.409757357846893],[100.13570864486087,6.410132819360435],[100.13617018678312,6.410484758711257],[100.13664963114412,6.410812211307695],[100.13714566382018,6.411114279672915],[100.13765692522021,6.411390135904346],[100.1381820140123,6.411639023942313],[100.13871949096449,6.411860261641967],[100.13926788288988,6.412053242642503],[100.1398256866843,6.412217438028773],[100.1403913734463,6.412352397780621],[100.14096339266783,6.412457752006116],[100.14154017648393,6.412533211955051],[100.14212014397026,6.41257857081028],[100.14270170547626,6.412593704254365],[100.14328326698224,6.41257857081028],[100.14386323446855,6.412533211955051],[100.14444001828467,6.412457752006116],[100.14501203750619,6.412352397780621],[100.1455777242682,6.412217438028773],[100.14613552806262,6.412053242642503],[100.146683919988,6.411860261641967],[100.14722139694021,6.411639023942313],[100.14774648573228,6.411390135904346],[100.14825774713233,6.411114279672915],[100.14875377980839,6.410812211307695],[100.14923322416938,6.410484758711257],[100.14969476609163,6.410132819360435],[100.15013714052081,6.409757357846893],[100.15055913493937,6.409359403233782],[100.15095959268993,6.408940046235739],[100.15133741614565,6.408500436229823],[100.1516915697187,6.408041778105793],[100.1520210826987,6.407565328964069],[100.15232505191354,6.4070723946707],[100.15260264420469,6.406564326278573],[100.15285309871099,6.406042516324804],[100.15307572895408,6.405508395014288],[100.15326992471988,6.404963426300166],[100.15343515373132,6.404409103871509],[100.15357096310717,6.403846947059659],[100.15367698060338,6.403278496674102],[100.15375291563333,6.402705310779471],[100.15379856006442,6.402128960425228],[100.1538137887884,6.401551025339679]],[[100.20522100531616,6.305439584182524],[100.20520326529547,6.304766217983532],[100.20515009385754,6.304094696563734],[100.20506163674162,6.30342686052749],[100.20493813640248,6.30276454038478],[100.20477993134595,6.302109551533787],[100.20458745520116,6.301463689284631],[100.20436123553178,6.300828723938284],[100.20410189239024,6.300206395933858],[100.20381013661805,6.299598411077727],[100.20348676789749,6.299006435867492],[100.20313267255976,6.298432092923592],[100.20274882115557,6.297876956541288],[100.20233626579494,6.297342548374854],[100.20189613726342,6.296830333266178],[100.20142964192272,6.296341715229028],[100.20093805840416,6.295878033599941],[100.20042273410401,6.295440559366518],[100.19988508149032,6.295030491682909],[100.19932657423155,6.294648954582355],[100.19874874315728,6.294296993895507],[100.1981531720623,6.29397557438321],[100.19754149336562,6.293685577091463],[100.19691538363598,6.29342779693593],[100.19627655899669,6.293202940522568],[100.19562677042163,6.293011624210256],[100.19496779893612,6.292854372421049],[100.19430145073522,6.29273161620223],[100.19362955223306,6.29264369204465],[100.19295394505667,6.292590840960034],[100.19227648099839,6.292573207820215],[100.19159901694009,6.292590840960034],[100.19092340976371,6.29264369204465],[100.19025151126154,6.29273161620223],[100.18958516306064,6.292854372421049],[100.18892619157515,6.293011624210256],[100.18827640300009,6.293202940522568],[100.18763757836079,6.29342779693593],[100.18701146863114,6.293685577091463],[100.18639978993446,6.29397557438321],[100.18580421883951,6.294296993895507],[100.18522638776523,6.294648954582355],[100.18466788050645,6.295030491682909],[100.18413022789277,6.295440559366518],[100.1836149035926,6.295878033599941],[100.18312332007405,6.296341715229028],[100.18265682473336,6.296830333266178],[100.18221669620183,6.297342548374854],[100.1818041408412,6.297876956541288],[100.18142028943701,6.298432092923592],[100.18106619409929,6.299006435867492],[100.18074282537873,6.299598411077727],[100.18045106960653,6.300206395933858],[100.18019172646498,6.300828723938284],[100.17996550679561,6.301463689284631],[100.17977303065081,6.302109551533787],[100.1796148255943,6.30276454038478],[100.17949132525516,6.30342686052749],[100.17940286813922,6.304094696563734],[100.17934969670131,6.304766217983532],[100.1793319566806,6.305439584182524],[100.17934969670131,6.306112949507067],[100.17940286813922,6.306784468313123],[100.17949132525516,6.307452300024957],[100.1796148255943,6.308114614179968],[100.17977303065081,6.308769595445592],[100.17996550679561,6.3094154485948],[100.18019172646498,6.310050403426323],[100.18045106960653,6.310672719616259],[100.18074282537873,6.311280691487649],[100.18106619409929,6.3118726526852],[100.18142028943701,6.312446980741953],[100.1818041408412,6.313002101525801],[100.18221669620183,6.313536493553337],[100.18265682473336,6.314048692159488],[100.18312332007405,6.314537293511309],[100.1836149035926,6.315000958455066],[100.18413022789277,6.31543841618599],[100.18466788050645,6.315848467730688],[100.18522638776523,6.316229989232772],[100.18580421883951,6.316581935032486],[100.18639978993446,6.316903340532099],[100.18701146863114,6.317193324839117],[100.18763757836079,6.317451093180137],[100.18827640300009,6.317675939078686],[100.18892619157515,6.31786724629105],[100.18958516306064,6.318024490494901],[100.19025151126154,6.318147240726009],[100.19092340976371,6.318235160559178],[100.19159901694009,6.318288009030065],[100.19227648099839,6.318305641295435],[100.19295394505667,6.318288009030065],[100.19362955223306,6.318235160559178],[100.19430145073522,6.318147240726009],[100.19496779893612,6.318024490494901],[100.19562677042163,6.31786724629105],[100.19627655899669,6.317675939078686],[100.19691538363598,6.317451093180137],[100.19754149336562,6.317193324839117],[100.1981531720623,6.316903340532099],[100.19874874315728,6.316581935032486],[100.19932657423155,6.316229989232772],[100.19988508149032,6.315848467730688],[100.20042273410401,6.31543841618599],[100.20093805840416,6.315000958455066],[100.20142964192272,6.314537293511309],[100.20189613726342,6.314048692159488],[100.20233626579494,6.313536493553337],[100.20274882115557,6.313002101525801],[100.20313267255976,6.312446980741953],[100.20348676789749,6.3118726526852],[100.20381013661805,6.311280691487649],[100.20410189239024,6.310672719616259],[100.20436123553178,6.310050403426323],[100.20458745520116,6.3094154485948],[100.20477993134595,6.308769595445592],[100.20493813640248,6.308114614179968],[100.20506163674162,6.307452300024957],[100.20515009385754,6.306784468313123],[100.20520326529547,6.306112949507067],[100.20522100531616,6.305439584182524]]],"bbox":[100.1315896221641,6.292573207820215,100.3368132981626,6.635017430064463]}
