{"type":"Topology","objects":{"PLS_SE-03":{"type":"GeometryCollection","geometries":[{"type":"Polygon","arcs":[[0]],"properties":{"state":"Perlis","parlimen":"P.001 Perlis Utara","code_parlimen":"P.001","dun":"N.01 Kaki Bukit","code_dun":"N.01","voters_total":6376}},{"type":"Polygon","arcs":[[1]],"properties":{"state":"Perlis","parlimen":"P.001 Perlis Utara","code_parlimen":"P.001","dun":"N.02 Paya","code_dun":"N.02","voters_total":4887}},{"type":"Polygon","arcs":[[2]],"properties":{"state":"Perlis","parlimen":"P.001 Perlis Utara","code_parlimen":"P.001","dun":"N.03 Mata Ayer","code_dun":"N.03","voters_total":4425}},{"type":"Polygon","arcs":[[3]],"properties":{"state":"Perlis","parlimen":"P.001 Perlis Utara","code_parlimen":"P.001","dun":"N.04 Bandar Kangar","code_dun":"N.04","voters_total":3269}},{"type":"Polygon","arcs":[[4]],"properties":{"state":"Perlis","parlimen":"P.001 Perlis Utara","code_parlimen":"P.001","dun":"N.05 Sena","code_dun":"N.05","voters_total":3827}},{"type":"Polygon","arcs":[[5]],"properties":{"state":"Perlis","parlimen":"P.001 Perlis Utara","code_parlimen":"P.001","dun":"N.06 Bintong","code_dun":"N.06","voters_total":5148}},{"type":"Polygon","arcs":[[6]],"properties":{"state":"Perlis","parlimen":"P.002 Perlis Selatan","code_parlimen":"P.002","dun":"N.07 Kurong Anai","code_dun":"N.07","voters_total":4900}},{"type":"Polygon","arcs":[[7]],"properties":{"state":"Perlis","parlimen":"P.002 Perlis Selatan","code_parlimen":"P.002","dun":"N.08 Arau","code_dun":"N.08","voters_total":4967}},{"type":"Polygon","arcs":[[8]],"properties":{"state":"Perlis","parlimen":"P.002 Perlis Selatan","code_parlimen":"P.002","dun":"N.09 Hutan Aji","code_dun":"N.09","voters_total":4839}},{"type":"Polygon","arcs":[[9]],"properties":{"state":"Perlis","parlimen":"P.002 Perlis Selatan","code_parlimen":"P.002","dun":"N.10 Kayang","code_dun":"N.10","voters_total":4625}},{"type":"Polygon","arcs":[[10]],"properties":{"state":"Perlis","parlimen":"P.002 Perlis Selatan","code_parlimen":"P.002","dun":"N.11 Kuala Perlis","code_dun":"N.11","voters_total":4020}},{"type":"Polygon","arcs":[[11]],"properties":{"state":"Perlis","parlimen":"P.002 Perlis Selatan","code_parlimen":"P.002","dun":"N.12 Sanglang","code_dun":"N.12","voters_total":4777}}]}},"arcs":[[[100.24852599262545,6.621536577342059],[100.24850739326565,6.620831033877779],[100.24845164616586,6.620127423254797],[100.24835890412497,6.619427674033371],[100.24822942134246,6.618733704198099],[100.24806355272163,6.618047415900521],[100.2478617528969,6.61737069024515],[100.2476245749875,6.616705382133157],[100.24735266908162,6.616053315177714],[100.24704678045445,6.615416276705025],[100.24670774752543,6.614796012854813],[100.2463364995603,6.614194223793562],[100.2459340541239,6.613612559053784],[100.24550151429118,6.613052613011983],[100.24504006562378,6.612515920517755],[100.24455097292041,6.612003952686037],[100.24403557675018,6.611518112864062],[100.24349528977818,6.611059732783983],[100.24293159289341,6.610630068911812],[100.24234603114988,6.610230299002752],[100.24174020953163,6.609861518872097],[100.24111578855359,6.609524739391011],[100.24047447971024,6.609220883714908],[100.23981804078458,6.608950784752484],[100.23914827103007,6.608715182882102],[100.23846700623903,6.608514723921838],[100.23777611371092,6.608349957358798],[100.23707748713412,6.60822133484256],[100.23637304139552,6.608129208946797],[100.23566470733195,6.608073832202638],[100.2349544264378,6.608055356406243],[100.23424414554366,6.608073832202638],[100.23353581148008,6.608129208946797],[100.23283136574149,6.60822133484256],[100.23213273916468,6.608349957358798],[100.23144184663657,6.608514723921838],[100.23076058184553,6.608715182882102],[100.230090812091,6.608950784752484],[100.22943437316536,6.609220883714908],[100.22879306432202,6.609524739391011],[100.22816864334398,6.609861518872097],[100.22756282172571,6.610230299002752],[100.22697725998218,6.610630068911812],[100.22641356309742,6.611059732783983],[100.22587327612541,6.611518112864062],[100.2253578799552,6.612003952686037],[100.22486878725184,6.612515920517755],[100.22440733858441,6.613052613011983],[100.22397479875171,6.613612559053784],[100.2235723533153,6.614194223793562],[100.22320110535016,6.614796012854813],[100.22286207242115,6.615416276705025],[100.22255618379398,6.616053315177714],[100.22228427788811,6.616705382133157],[100.22204709997871,6.61737069024515],[100.22184530015396,6.618047415900521],[100.22167943153315,6.618733704198099],[100.22154994875063,6.619427674033371],[100.22145720670974,6.620127423254797],[100.22140145960994,6.620831033877779],[100.22138286025016,6.621536577342059],[100.22140145960994,6.622242119797786],[100.22145720670974,6.622945727406162],[100.22154994875063,6.62364547163993],[100.22167943153315,6.624339434569163],[100.22184530015396,6.625025714117989],[100.22204709997871,6.62570242927772],[100.22228427788811,6.626367725262208],[100.22255618379398,6.627019778591124],[100.22286207242115,6.627656802087598],[100.22320110535016,6.628277049775962],[100.2235723533153,6.628878821666797],[100.22397479875171,6.629460468415729],[100.22440733858441,6.630020395843373],[100.22486878725184,6.630557069304054],[100.2253578799552,6.631069017891381],[100.22587327612541,6.631554838468964],[100.22641356309742,6.632013199515498],[100.22697725998218,6.632442844773498],[100.22756282172571,6.632842596691725],[100.22816864334398,6.633211359651952],[100.22879306432202,6.633548122971201],[100.22943437316536,6.633851963671078],[100.230090812091,6.634122049006987],[100.23076058184553,6.634357638749864],[100.23144184663657,6.634558087214488],[100.23213273916468,6.634722845028764],[100.23283136574149,6.634851460638974],[100.23353581148008,6.634943581547081],[100.23424414554366,6.634998955276633],[100.2349544264378,6.635017430064463],[100.23566470733195,6.634998955276633],[100.23637304139552,6.634943581547081],[100.23707748713412,6.634851460638974],[100.23777611371092,6.634722845028764],[100.23846700623903,6.634558087214488],[100.23914827103007,6.634357638749864],[100.23981804078458,6.634122049006987],[100.24047447971024,6.633851963671078],[100.24111578855359,6.633548122971201],[100.24174020953163,6.633211359651952],[100.24234603114988,6.632842596691725],[100.24293159289341,6.632442844773498],[100.24349528977818,6.632013199515498],[100.24403557675018,6.631554838468964],[100.24455097292041,6.631069017891381],[100.24504006562378,6.630557069304054],[100.24550151429118,6.630020395843373],[100.2459340541239,6.629460468415729],[100.2463364995603,6.628878821666797],[100.24670774752543,6.628277049775962],[100.24704678045445,6.627656802087598],[100.24735266908162,6.627019778591124],[100.2476245749875,6.626367725262208],[100.2478617528969,6.62570242927772],[100.24806355272163,6.625025714117989],[100.24822942134246,6.624339434569163],[100.24835890412497,6.62364547163993],[100.24845164616586,6.622945727406162],[100.24850739326565,6.622242119797786],[100.24852599262545,6.621536577342059]],[[100.23897056513913,6.487012344953274],[100.23895428174215,6.486394488054291],[100.23890547618286,6.485778323903708],[100.23882428223395,6.485165541374],[100.23871092244234,6.484557820074965],[100.23856570751936,6.483956825749777],[100.238389035489,6.483364205709178],[100.23818139059706,6.482781584315942],[100.2379433419837,6.482210558532248],[100.23767554212367,6.481652693542145],[100.23737872503774,6.481109518461048],[100.23705370428094,6.480582522143955],[100.23670137071254,6.480073149104111],[100.23632269005438,6.479582795553115],[100.23591870024383,6.479112805573362],[100.23549050858885,6.478664467433413],[100.23503928873302,6.47823901005629],[100.23456627743862,6.477837599650419],[100.2340727711967,6.477461336512471],[100.23356012267358,6.477111252010925],[100.23302973700322,6.476788305758515],[100.23248306793587,6.47649338298137],[100.2319216138535,6.476227292092139],[100.23134691366265,6.475990762473585],[100.23076054257663,6.47578444247892],[100.23016410779783,6.475608897654275],[100.22955924411251,6.475464609188146],[100.22894760941,6.475351972592139],[100.22833088013849,6.475271296616603],[100.22771074671006,6.475222802404143],[100.22708890886732,6.475206622883307],[100.22646707102457,6.475222802404143],[100.22584693759615,6.475271296616603],[100.22523020832463,6.475351972592139],[100.22461857362212,6.475464609188146],[100.2240137099368,6.475608897654275],[100.223417275158,6.47578444247892],[100.22283090407198,6.475990762473585],[100.22225620388113,6.476227292092139],[100.22169474979874,6.47649338298137],[100.22114808073141,6.476788305758515],[100.22061769506105,6.477111252010925],[100.22010504653794,6.477461336512471],[100.21961154029601,6.477837599650419],[100.21913852900161,6.47823901005629],[100.21868730914578,6.478664467433413],[100.2182591174908,6.479112805573362],[100.21785512768025,6.479582795553115],[100.21747644702211,6.480073149104111],[100.21712411345369,6.480582522143955],[100.21679909269689,6.481109518461048],[100.21650227561098,6.481652693542145],[100.21623447575094,6.482210558532248],[100.21599642713758,6.482781584315942],[100.21578878224562,6.483364205709178],[100.21561211021528,6.483956825749777],[100.21546689529228,6.484557820074965],[100.21535353550068,6.485165541374],[100.21527234155175,6.485778323903708],[100.2152235359925,6.486394488054291],[100.21520725259549,6.487012344953274],[100.2152235359925,6.48763020109465],[100.21527234155175,6.488246362980754],[100.21535353550068,6.488859141763895],[100.21546689529228,6.489466857875357],[100.21561211021528,6.490067845628769],[100.21578878224562,6.490660457785395],[100.21599642713758,6.491243070068874],[100.21623447575094,6.491814085616793],[100.21650227561098,6.492371939357247],[100.21679909269689,6.492915102298117],[100.21712411345369,6.493442085717374],[100.21747644702211,6.493951445243105],[100.21785512768025,6.494441784811772],[100.2182591174908,6.494911760494168],[100.21868730914578,6.495360084178368],[100.21913852900161,6.495785527099756],[100.21961154029601,6.496186923208283],[100.22010504653794,6.496563172363902],[100.22061769506105,6.496913243351335],[100.22114808073141,6.497236176705909],[100.22169474979874,6.497531087342801],[100.22225620388113,6.49779716698241],[100.22283090407198,6.498033686365187],[100.223417275158,6.498239997250082],[100.2240137099368,6.498415534190756],[100.22461857362212,6.498559816085108],[100.22523020832463,6.498672447493528],[100.22584693759615,6.498753119722512],[100.22646707102457,6.498801611670506],[100.22708890886732,6.498817790433747],[100.22771074671006,6.498801611670506],[100.22833088013849,6.498753119722512],[100.22894760941,6.498672447493528],[100.22955924411251,6.498559816085108],[100.23016410779783,6.498415534190756],[100.23076054257663,6.498239997250082],[100.23134691366265,6.498033686365187],[100.2319216138535,6.49779716698241],[100.23248306793587,6.497531087342801],[100.23302973700322,6.497236176705909],[100.23356012267358,6.496913243351335],[100.2340727711967,6.496563172363902],[100.23456627743862,6.496186923208283],[100.23503928873302,6.495785527099756],[100.23549050858885,6.495360084178368],[100.23591870024383,6.494911760494168],[100.23632269005438,6.494441784811772],[100.23670137071254,6.493951445243105],[100.23705370428094,6.493442085717374],[100.23737872503774,6.492915102298117],[100.23767554212367,6.492371939357247],[100.2379433419837,6.491814085616793],[100.23818139059706,6.491243070068874],[100.238389035489,6.490660457785395],[100.23856570751936,6.490067845628769],[100.23871092244234,6.489466857875357],[100.23882428223395,6.488859141763895],[100.23890547618286,6.488246362980754],[100.23895428174215,6.48763020109465],[100.23897056513913,6.487012344953274]],[[100.30033421483733,6.537175213681979],[100.30031872023342,6.536587345500363],[100.30027227889131,6.536001087936296],[100.30019501810352,6.535418047889547],[100.30008714963647,6.534839823446447],[100.29994896915014,6.534267999499503],[100.29978085538765,6.533704143403084],[100.29958326913712,6.533149800677132],[100.29935675196874,6.532606490770706],[100.2991019247503,6.532075702896885],[100.29881948594553,6.531558891950497],[100.29851020969954,6.531057474519912],[100.29817494371704,6.530572825003823],[100.29781460693876,6.530106271843459],[100.29743018702275,6.529659093881007],[100.29702273763732,6.529232516853702],[100.29659337557291,6.528827710033688],[100.29614327768105,6.528445783022421],[100.29567367764882,6.528087782708828],[100.29518586261727,6.527754690399239],[100.29468116965346,6.527447419127117],[100.29416098208574,6.527166811149904],[100.29362672571207,6.526913635640006],[100.29307986489206,6.52668858657602],[100.29252189853317,6.526492280840062],[100.29195435598241,6.526325256526606],[100.29137879283448,6.526187971467198],[100.29079678666795,6.526080801975219],[100.2902099327213,6.526004041814207],[100.28961983952036,6.525957901392447],[100.2890281244696,6.525942507186095],[100.28843640941882,6.525957901392447],[100.28784631621788,6.526004041814207],[100.28725946227122,6.526080801975219],[100.2866774561047,6.526187971467198],[100.28610189295676,6.526325256526606],[100.28553435040602,6.526492280840062],[100.28497638404713,6.52668858657602],[100.2844295232271,6.526913635640006],[100.28389526685343,6.527166811149904],[100.28337507928572,6.527447419127117],[100.2828703863219,6.527754690399239],[100.28238257129036,6.528087782708828],[100.28191297125812,6.528445783022421],[100.28146287336627,6.528827710033688],[100.28103351130186,6.529232516853702],[100.28062606191641,6.529659093881007],[100.28024164200043,6.530106271843459],[100.27988130522215,6.530572825003823],[100.27954603923963,6.531057474519912],[100.27923676299365,6.531558891950497],[100.27895432418886,6.532075702896885],[100.27869949697043,6.532606490770706],[100.27847297980206,6.533149800677132],[100.27827539355151,6.533704143403084],[100.27810727978904,6.534267999499503],[100.2779690993027,6.534839823446447],[100.27786123083565,6.535418047889547],[100.27778397004785,6.536001087936296],[100.27773752870576,6.536587345500363],[100.27772203410184,6.537175213681979],[100.27773752870576,6.537763081172396],[100.27778397004785,6.538349336670477],[100.27786123083565,6.538932373299083],[100.2779690993027,6.539510593009328],[100.27810727978904,6.540082410960546],[100.27827539355151,6.540646259864088],[100.27847297980206,6.54120059427878],[100.27869949697043,6.541743894846665],[100.27895432418886,6.542274672456951],[100.27923676299365,6.542791472327274],[100.27954603923963,6.543292877990595],[100.27988130522215,6.543777515177175],[100.28024164200043,6.54424405558083],[100.28062606191641,6.544691220499192],[100.28103351130186,6.54511778433788],[100.28146287336627,6.545522577969305],[100.28191297125812,6.545904491936469],[100.28238257129036,6.546262479493353],[100.2828703863219,6.546595559473432],[100.28337507928572,6.546902818978303],[100.28389526685343,6.547183415879438],[100.2844295232271,6.547436581125801],[100.28497638404713,6.547661620851246],[100.28553435040602,6.547857918275956],[100.28610189295676,6.548024935396525],[100.2866774561047,6.548162214460219],[100.28725946227122,6.548269379219341],[100.28784631621788,6.548346135962211],[100.28843640941882,6.548392274317984],[100.2890281244696,6.548407667833151],[100.28961983952036,6.548392274317984],[100.2902099327213,6.548346135962211],[100.29079678666795,6.548269379219341],[100.29137879283448,6.548162214460219],[100.29195435598241,6.548024935396525],[100.29252189853317,6.547857918275956],[100.29307986489206,6.547661620851246],[100.29362672571207,6.547436581125801],[100.29416098208574,6.547183415879438],[100.29468116965346,6.546902818978303],[100.29518586261727,6.546595559473432],[100.29567367764882,6.546262479493353],[100.29614327768105,6.545904491936469],[100.29659337557291,6.545522577969305],[100.29702273763732,6.54511778433788],[100.29743018702275,6.544691220499192],[100.29781460693876,6.54424405558083],[100.29817494371704,6.543777515177175],[100.29851020969954,6.543292877990595],[100.29881948594553,6.542791472327274],[100.2991019247503,6.542274672456951],[100.29935675196874,6.541743894846665],[100.29958326913712,6.54120059427878],[100.29978085538765,6.540646259864088],[100.29994896915014,6.540082410960546],[100.30008714963647,6.539510593009328],[100.30019501810352,6.538932373299083],[100.30027227889131,6.538349336670477],[100.30031872023342,6.537763081172396],[100.30033421483733,6.537175213681979]],[[100.2024826834752,6.440217745015265],[100.20246936571161,6.439712369350576],[100.20242944892385,6.439208378384387],[100.20236304252113,6.438707153527113],[100.20227032851874,6.438210068611526],[100.2021515610393,6.437718486126986],[100.20200706561629,6.437233753484886],[100.20183723830152,6.436757199325243],[100.20164254457993,6.436290129874751],[100.20142351809345,6.435833825366248],[100.20118075917846,6.43538953652939],[100.20091493322026,6.434958481162091],[100.20062676882934,6.434541840792363],[100.20031705584425,6.434140757439343],[100.1999866431668,6.433756330482759],[100.19963643643511,6.433389613649157],[100.19926739554153,6.433041612123316],[100.19888053200145,6.432713279792629],[100.198476906181,6.432405516632166],[100.19805762439049,6.432119166237455],[100.19762383585213,6.431855013511875],[100.19717672955016,6.431613782514831],[100.1967175309719,6.431396134476784],[100.19624749874872,6.431202665986549],[100.19576792120627,6.431033907355696],[100.19528011283325,6.430890321164717],[100.19478541067853,6.430772300994865],[100.19428517068631,6.430680170349134],[100.19378076397963,6.430614181765321],[100.19327357310223,6.430574516123786],[100.19276498822904,6.430561282151458],[100.19225640335586,6.430574516123786],[100.19174921247847,6.430614181765321],[100.19124480577179,6.430680170349134],[100.19074456577957,6.430772300994865],[100.19024986362484,6.430890321164717],[100.18976205525182,6.431033907355696],[100.18928247770937,6.431202665986549],[100.18881244548618,6.431396134476784],[100.18835324690791,6.431613782514831],[100.18790614060595,6.431855013511875],[100.18747235206762,6.432119166237455],[100.18705307027709,6.432405516632166],[100.18664944445662,6.432713279792629],[100.18626258091656,6.433041612123316],[100.18589354002297,6.433389613649157],[100.18554333329129,6.433756330482759],[100.18521292061384,6.434140757439343],[100.18490320762875,6.434541840792363],[100.18461504323781,6.434958481162091],[100.18434921727963,6.43538953652939],[100.18410645836464,6.435833825366248],[100.18388743187818,6.436290129874751],[100.18369273815657,6.436757199325243],[100.1835229108418,6.437233753484886],[100.18337841541877,6.437718486126986],[100.18325964793934,6.438210068611526],[100.18316693393696,6.438707153527113],[100.18310052753422,6.439208378384387],[100.18306061074648,6.439712369350576],[100.18304729298289,6.440217745015265],[100.18306061074648,6.44072312017679],[100.18310052753422,6.441227109638972],[100.18316693393696,6.441728332007882],[100.18325964793934,6.442225413478025],[100.18337841541877,6.442716991597763],[100.1835229108418,6.443201719003524],[100.18369273815657,6.443678267112697],[100.18388743187818,6.444145329764843],[100.18410645836464,6.444601626801637],[100.18434921727963,6.445045907575267],[100.18461504323781,6.445476954376148],[100.18490320762875,6.44589358577016],[100.18521292061384,6.446294659836471],[100.18554333329129,6.446679077297127],[100.18589354002297,6.447045784529601],[100.18626258091656,6.447393776454314],[100.18664944445662,6.447722099289061],[100.18705307027709,6.448029853162838],[100.18747235206762,6.448316194581808],[100.18790614060595,6.448580338740983],[100.18835324690791,6.4488215616748],[100.18881244548618,6.449039202241126],[100.18928247770937,6.449232663933026],[100.18976205525182,6.449401416513409],[100.19024986362484,6.449544997468063],[100.19074456577957,6.449663013273113],[100.19124480577179,6.449755140473387],[100.19174921247847,6.449821126568835],[100.19225640335586,6.449860790706364],[100.19276498822904,6.449874024175514],[100.19327357310223,6.449860790706364],[100.19378076397963,6.449821126568835],[100.19428517068631,6.449755140473387],[100.19478541067853,6.449663013273113],[100.19528011283325,6.449544997468063],[100.19576792120627,6.449401416513409],[100.19624749874872,6.449232663933026],[100.1967175309719,6.449039202241126],[100.19717672955016,6.4488215616748],[100.19762383585213,6.448580338740983],[100.19805762439049,6.448316194581808],[100.198476906181,6.448029853162838],[100.19888053200145,6.447722099289061],[100.19926739554153,6.447393776454314],[100.19963643643511,6.447045784529601],[100.1999866431668,6.446679077297127],[100.20031705584425,6.446294659836471],[100.20062676882934,6.44589358577016],[100.20091493322026,6.445476954376148],[100.20118075917846,6.445045907575267],[100.20142351809345,6.444601626801637],[100.20164254457993,6.444145329764843],[100.20183723830152,6.443678267112697],[100.20200706561629,6.443201719003524],[100.2021515610393,6.442716991597763],[100.20227032851874,6.442225413478025],[100.20236304252113,6.441728332007882],[100.20242944892385,6.441227109638972],[100.20246936571161,6.44072312017679],[100.2024826834752,6.440217745015265]],[[100.24368036505581,6.437779709868423],[100.24366595541775,6.437232897663383],[100.24362276599938,6.436687583646222],[100.24355091517991,6.436145262492023],[100.24345059989741,6.435607420677377],[100.24332209510912,6.435075532405921],[100.24316575303776,6.434551055567458],[100.242982002206,6.434035427741751],[100.24277134626217,6.433530062257941],[100.24253436259954,6.433036344320376],[100.24227170077387,6.432555627211549],[100.24198408072296,6.432089228582392],[100.24167229079337,6.431638426840319],[100.24133718557962,6.431204457644692],[100.24097968358184,6.430788510519527],[100.24060076468812,6.430391725592624],[100.24020146748884,6.430015190470001],[100.23978288642984,6.429659937254359],[100.23934616881273,6.429326939715683],[100.23889251165014,6.42901711062169],[100.23842315838479,6.428731299235454],[100.23793939548139,6.428470288987286],[100.23744254890043,6.428234795326828],[100.23693398046385,6.4280254637617],[100.23641508412234,6.427842868087807],[100.23588728213478,6.427687508816254],[100.23535202116969,6.427559811801112],[100.23481076834015,6.427460127072004],[100.23426500718259,6.427388727874363],[100.23371623359039,6.427345809920367],[100.23316595171379,6.427331490852371],[100.23261566983719,6.427345809920367],[100.23206689624499,6.427388727874363],[100.23152113508742,6.427460127072004],[100.23097988225788,6.427559811801112],[100.23044462129278,6.427687508816254],[100.22991681930522,6.427842868087807],[100.22939792296371,6.4280254637617],[100.22888935452714,6.428234795326828],[100.22839250794617,6.428470288987286],[100.22790874504277,6.428731299235454],[100.22743939177744,6.42901711062169],[100.22698573461483,6.429326939715683],[100.22654901699772,6.429659937254359],[100.22613043593873,6.430015190470001],[100.22573113873943,6.430391725592624],[100.22535221984572,6.430788510519527],[100.22499471784793,6.431204457644692],[100.2246596126342,6.431638426840319],[100.22434782270462,6.432089228582392],[100.22406020265369,6.432555627211549],[100.22379754082802,6.433036344320376],[100.22356055716538,6.433530062257941],[100.22334990122157,6.434035427741751],[100.22316615038982,6.434551055567458],[100.22300980831845,6.435075532405921],[100.22288130353016,6.435607420677377],[100.22278098824765,6.436145262492023],[100.22270913742818,6.436687583646222],[100.22266594800982,6.437232897663383],[100.22265153837175,6.437779709868423],[100.22266594800982,6.438326521484614],[100.22270913742818,6.438871833741694],[100.22278098824765,6.439414151983867],[100.22288130353016,6.439951989766445],[100.22300980831845,6.440483872929944],[100.22316615038982,6.441008343640547],[100.22334990122157,6.441523964385627],[100.22356055716538,6.442029321913635],[100.22379754082802,6.442523031107347],[100.22406020265369,6.443003738780117],[100.22434782270462,6.443470127384357],[100.2246596126342,6.443920918622521],[100.22499471784793,6.444354876950293],[100.22535221984572,6.444770812962766],[100.22573113873943,6.445167586653863],[100.22613043593873,6.445544110540694],[100.22654901699772,6.44589935264363],[100.22698573461483,6.446232339314453],[100.22743939177744,6.446542157904537],[100.22790874504277,6.446827959265843],[100.22839250794617,6.447088960077954],[100.22888935452714,6.447324444994583],[100.22939792296371,6.447533768603897],[100.22991681930522,6.44771635719715],[100.23044462129278,6.447871710340869],[100.23097988225788,6.447999402248053],[100.23152113508742,6.448099082945083],[100.23206689624499,6.448170479230696],[100.23261566983719,6.448213395424612],[100.23316595171379,6.448227713903759],[100.23371623359039,6.448213395424612],[100.23426500718259,6.448170479230696],[100.23481076834015,6.448099082945083],[100.23535202116969,6.447999402248053],[100.23588728213478,6.447871710340869],[100.23641508412234,6.44771635719715],[100.23693398046385,6.447533768603897],[100.23744254890043,6.447324444994583],[100.23793939548139,6.447088960077954],[100.23842315838479,6.446827959265843],[100.23889251165014,6.446542157904537],[100.23934616881273,6.446232339314453],[100.23978288642984,6.44589935264363],[100.24020146748884,6.445544110540694],[100.24060076468812,6.445167586653863],[100.24097968358184,6.444770812962766],[100.24133718557962,6.444354876950293],[100.24167229079337,6.443920918622521],[100.24198408072296,6.443470127384357],[100.24227170077387,6.443003738780117],[100.24253436259954,6.442523031107347],[100.24277134626217,6.442029321913635],[100.242982002206,6.441523964385627],[100.24316575303776,6.441008343640547],[100.24332209510912,6.440483872929944],[100.24345059989741,6.439951989766445],[100.24355091517991,6.439414151983867],[100.24362276599938,6.438871833741694],[100.24366595541775,6.438326521484614],[100.24368036505581,6.437779709868423]],[[100.18450496614453,6.49523024883274],[100.18448825357947,6.494596117926999],[100.18443816169233,6.493963724334294],[100.18435482778148,6.493334801411405],[100.18423848025935,6.492711073008651],[100.18408943802642,6.492094248744758],[100.18390810959711,6.491486019320688],[100.18369499198002,6.490888051885231],[100.18345066931576,6.49030198546507],[100.18317581127572,6.489729426471901],[100.1828711712267,6.489171944298868],[100.18253758416591,6.48863106701847],[100.18217596443229,6.488108277193613],[100.18178730320041,6.487605007813388],[100.18137266576365,6.487122638364738],[100.18093318861445,6.486662491050708],[100.18047007632909,6.486225827165661],[100.17998459826619,6.485813843637524],[100.17947808508734,6.485427669746397],[100.17895192510998,6.485068364028572],[100.17840756050204,6.484736911374537],[100.17784648332905,6.484434220328757],[100.17727023146455,6.48416112059888],[100.17668038437485,6.48391836078094],[100.17607855878981,6.483706606307016],[100.17546640427155,6.483526437620791],[100.17484559869303,6.4833783485862],[100.17421784363918,6.483262745133431],[100.17358485974302,6.483179944145944],[100.17294838196936,6.483130172591694],[100.17231015485957,6.48311356690083],[100.17167192774977,6.483130172591694],[100.17103544997612,6.483179944145944],[100.17040246607995,6.483262745133431],[100.16977471102612,6.4833783485862],[100.1691539054476,6.483526437620791],[100.16854175092932,6.483706606307016],[100.16793992534429,6.48391836078094],[100.16735007825459,6.48416112059888],[100.16677382639008,6.484434220328757],[100.1662127492171,6.484736911374537],[100.16566838460915,6.485068364028572],[100.16514222463178,6.485427669746397],[100.16463571145295,6.485813843637524],[100.16415023339005,6.486225827165661],[100.16368712110469,6.486662491050708],[100.16324764395549,6.487122638364738],[100.16283300651874,6.487605007813388],[100.16244434528686,6.488108277193613],[100.16208272555323,6.48863106701847],[100.16174913849244,6.489171944298868],[100.16144449844343,6.489729426471901],[100.16116964040339,6.49030198546507],[100.16092531773911,6.490888051885231],[100.16071220012202,6.491486019320688],[100.16053087169271,6.492094248744758],[100.1603818294598,6.492711073008651],[100.16026548193766,6.493334801411405],[100.1601821480268,6.493963724334294],[100.16013205613966,6.494596117926999],[100.16011534357462,6.49523024883274],[100.16013205613966,6.495864378939436],[100.1601821480268,6.496496770143763],[100.16026548193766,6.497125689115079],[100.1603818294598,6.497749412046401],[100.16053087169271,6.498366229378924],[100.16071220012202,6.498974450487625],[100.16092531773911,6.499572408314842],[100.16116964040339,6.500158463939131],[100.16144449844343,6.500731011067101],[100.16174913849244,6.501288480435602],[100.16208272555323,6.501829344112412],[100.16244434528686,6.50235211968369],[100.16283300651874,6.502855374316485],[100.16324764395549,6.50333772868545],[100.16368712110469,6.503797860752754],[100.16415023339005,6.504234509391062],[100.16463571145295,6.504646477839515],[100.16514222463178,6.505032636983212],[100.16566838460915,6.505391928447456],[100.1662127492171,6.505723367497914],[100.16677382639008,6.506026045739151],[100.16735007825459,6.50629913360383],[100.16793992534429,6.506541882625897],[100.16854175092932,6.506753627491582],[100.1691539054476,6.506933787862451],[100.16977471102612,6.507081869965671],[100.17040246607995,6.507197467946995],[100.17103544997612,6.507280264982923],[100.17167192774977,6.507330034148793],[100.17231015485957,6.5073466390406],[100.17294838196936,6.507330034148793],[100.17358485974302,6.507280264982923],[100.17421784363918,6.507197467946995],[100.17484559869303,6.507081869965671],[100.17546640427155,6.506933787862451],[100.17607855878981,6.506753627491582],[100.17668038437485,6.506541882625897],[100.17727023146455,6.50629913360383],[100.17784648332905,6.506026045739151],[100.17840756050204,6.505723367497914],[100.17895192510998,6.505391928447456],[100.17947808508734,6.505032636983212],[100.17998459826619,6.504646477839515],[100.18047007632909,6.504234509391062],[100.18093318861445,6.503797860752754],[100.18137266576365,6.50333772868545],[100.18178730320041,6.502855374316485],[100.18217596443229,6.50235211968369],[100.18253758416591,6.501829344112412],[100.1828711712267,6.501288480435602],[100.18317581127572,6.500731011067101],[100.18345066931576,6.500158463939131],[100.18369499198002,6.499572408314842],[100.18390810959711,6.498974450487625],[100.18408943802642,6.498366229378924],[100.18423848025935,6.497749412046401],[100.18435482778148,6.497125689115079],[100.18443816169233,6.496496770143763],[100.18448825357947,6.495864378939436],[100.18450496614453,6.49523024883274]],[[100.33649367041636,6.474109858770392],[100.33647736537588,6.473491164805203],[100.33642849494542,6.472874165882218],[100.33634719307544,6.472260553161991],[100.33623368260872,6.4716520085298],[100.33608827466954,6.471050199985565],[100.33591136781098,6.470456777071747],[100.33570344692244,6.469873366351732],[100.33546508190057,6.469301566951264],[100.3351969260874,6.468742946174858],[100.33489971447932,6.468199035209474],[100.33457426171273,6.467671324927165],[100.33422145983103,6.467161261798161],[100.33384227583961,6.466670243925573],[100.33343774905549,6.466199617212705],[100.33300898825847,6.465750671673399],[100.33255716865204,6.465324637895547],[100.3320835286424,6.464922683667482],[100.33158936644382,6.464545910776514],[100.3310760365206,6.464195351988363],[100.33054494587435,6.463871968215773],[100.32999755018763,6.463576645884155],[100.32943534983394,6.46331019450129],[100.32885988576541,6.463073344438087],[100.328272735289,6.462866744926111],[100.32767550774342,6.462690962277652],[100.32706984008782,6.462546478333093],[100.32645739241514,6.462433689139836],[100.32583984340188,6.46235290386651],[100.325218885707,6.462304343955304],[100.32459622133234,6.46228814251486],[100.32397355695768,6.462304343955304],[100.32335259926279,6.46235290386651],[100.32273505024953,6.462433689139836],[100.32212260257685,6.462546478333093],[100.32151693492126,6.462690962277652],[100.32091970737567,6.462866744926111],[100.32033255689927,6.463073344438087],[100.31975709283074,6.46331019450129],[100.31919489247707,6.463576645884155],[100.31864749679032,6.463871968215773],[100.31811640614409,6.464195351988363],[100.31760307622086,6.464545910776514],[100.31710891402228,6.464922683667482],[100.31663527401263,6.465324637895547],[100.31618345440621,6.465750671673399],[100.31575469360918,6.466199617212705],[100.31535016682506,6.466670243925573],[100.31497098283366,6.467161261798161],[100.31461818095195,6.467671324927165],[100.31429272818535,6.468199035209474],[100.31399551657726,6.468742946174858],[100.3137273607641,6.469301566951264],[100.31348899574225,6.469873366351732],[100.3132810748537,6.470456777071747],[100.31310416799514,6.471050199985565],[100.31295876005595,6.4716520085298],[100.31284524958924,6.472260553161991],[100.31276394771926,6.472874165882218],[100.3127150772888,6.473491164805203],[100.31269877224832,6.474109858770392],[100.3127150772888,6.474728551977464],[100.31276394771926,6.475345548634392],[100.31284524958924,6.475959157605433],[100.31295876005595,6.476567697046424],[100.31310416799514,6.477169499014278],[100.3132810748537,6.477762914038628],[100.31348899574225,6.478346315642474],[100.3137273607641,6.478918104800003],[100.31399551657726,6.479476714318912],[100.31429272818535,6.480020613135557],[100.31461818095195,6.48054831051101],[100.31497098283366,6.481058360116435],[100.31535016682506,6.481549363996898],[100.31575469360918,6.482019976402397],[100.31618345440621,6.482468907475853],[100.31663527401263,6.482894926787856],[100.31710891402228,6.483296866708551],[100.31760307622086,6.483673625607395],[100.31811640614409,6.484024170871979],[100.31864749679032,6.484347541737701],[100.31919489247707,6.484642851920604],[100.31975709283074,6.484909292045948],[100.32033255689927,6.485146131866212],[100.32091970737567,6.485352722262032],[100.32151693492126,6.485528497021011],[100.32212260257685,6.4856729743892],[100.32273505024953,6.485785758391245],[100.32335259926279,6.485866539915397],[100.32397355695768,6.485915097560533],[100.32459622133234,6.48593129824286],[100.325218885707,6.485915097560533],[100.32583984340188,6.485866539915397],[100.32645739241514,6.485785758391245],[100.32706984008782,6.4856729743892],[100.32767550774342,6.485528497021011],[100.328272735289,6.485352722262032],[100.32885988576541,6.485146131866212],[100.32943534983394,6.484909292045948],[100.32999755018763,6.484642851920604],[100.33054494587435,6.484347541737701],[100.3310760365206,6.484024170871979],[100.33158936644382,6.483673625607395],[100.3320835286424,6.483296866708551],[100.33255716865204,6.482894926787856],[100.33300898825847,6.482468907475853],[100.33343774905549,6.482019976402397],[100.33384227583961,6.481549363996898],[100.33422145983103,6.481058360116435],[100.33457426171273,6.48054831051101],[100.33489971447932,6.480020613135557],[100.3351969260874,6.479476714318912],[100.33546508190057,6.478918104800003],[100.33570344692244,6.478346315642474],[100.33591136781098,6.477762914038628],[100.33608827466954,6.477169499014278],[100.33623368260872,6.476567697046424],[100.33634719307544,6.475959157605433],[100.33642849494542,6.475345548634392],[100.33647736537588,6.474728551977464],[100.33649367041636,6.474109858770392]],[[100.27717241142777,6.414428114750938],[100.27715599529253,6.41380513200923],[100.27710679188229,6.413183856061583],[100.27702493606017,6.412565989791617],[100.27691065218733,6.411953226743367],[100.27676425350786,6.411347246479226],[100.27658614129041,6.410749709976169],[100.27637680372817,6.410162255072827],[100.27613681460085,6.409586491979902],[100.27586683170198,6.409023998866302],[100.27556759503587,6.408476317533018],[100.27523992478946,6.407944949186644],[100.27488471908414,6.407431350324145],[100.27450295151404,6.406936928740063],[100.27409566847751,6.40646303966731],[100.27366398630907,6.4060109820619],[100.27320908821955,6.405581995041942],[100.27273222105293,6.405177254490667],[100.27223469186904,6.404797869832758],[100.27171786436075,6.404444880992857],[100.27118315511636,6.40411925554459],[100.27063202973672,6.403821886057831],[100.2700659988182,6.403553587651738],[100.2694866138122,6.403315095759975],[100.26889546277275,6.40310706411444],[100.26829416600376,6.402930062952952],[100.26768437161785,6.402784577455897],[100.26706775101908,6.402671006415991],[100.26644599432167,6.402589661144959],[100.26582080571744,6.402540764619952],[100.26519389880497,6.402524450872291],[100.2645669918925,6.402540764619952],[100.26394180328826,6.402589661144959],[100.26332004659085,6.402671006415991],[100.26270342599207,6.402784577455897],[100.26209363160618,6.402930062952952],[100.26149233483717,6.40310706411444],[100.26090118379771,6.403315095759975],[100.26032179879172,6.403553587651738],[100.2597557678732,6.403821886057831],[100.25920464249356,6.40411925554459],[100.25866993324917,6.404444880992857],[100.25815310574087,6.404797869832758],[100.25765557655699,6.405177254490667],[100.25717870939037,6.405581995041942],[100.25672381130084,6.4060109820619],[100.2562921291324,6.40646303966731],[100.25588484609588,6.406936928740063],[100.25550307852578,6.407431350324145],[100.25514787282046,6.407944949186644],[100.25482020257405,6.408476317533018],[100.25452096590797,6.409023998866302],[100.25425098300907,6.409586491979902],[100.25401099388175,6.410162255072827],[100.25380165631951,6.410749709976169],[100.25362354410206,6.411347246479226],[100.2534771454226,6.411953226743367],[100.25336286154975,6.412565989791617],[100.25328100572763,6.413183856061583],[100.25323180231739,6.41380513200923],[100.25321538618215,6.414428114750938],[100.25323180231739,6.415051096731132],[100.25328100572763,6.415672370402545],[100.25336286154975,6.416290232906505],[100.2534771454226,6.416902990740262],[100.25362354410206,6.41750896439853],[100.25380165631951,6.418106492976701],[100.25401099388175,6.418693938722997],[100.25425098300907,6.419269691527031],[100.25452096590797,6.419832173332614],[100.25482020257405,6.42037984246267],[100.25514787282046,6.420911197844276],[100.25550307852578,6.421424783122538],[100.25588484609588,6.421919190651723],[100.2562921291324,6.422393065352909],[100.25672381130084,6.422845108427575],[100.25717870939037,6.423274080916774],[100.25765557655699,6.423678807096509],[100.25815310574087,6.424058177699521],[100.25866993324917,6.424411152955171],[100.25920464249356,6.424736765438683],[100.2597557678732,6.425034122722201],[100.26032179879172,6.425302409820265],[100.26090118379771,6.425540891423137],[100.26149233483717,6.425748913911626],[100.26209363160618,6.42592590714824],[100.26270342599207,6.426071386039423],[100.26332004659085,6.426184951864823],[100.26394180328826,6.426266293369861],[100.2645669918925,6.426315187618634],[100.26519389880497,6.426331500604769],[100.26582080571744,6.426315187618634],[100.26644599432167,6.426266293369861],[100.26706775101908,6.426184951864823],[100.26768437161785,6.426071386039423],[100.26829416600376,6.42592590714824],[100.26889546277275,6.425748913911626],[100.2694866138122,6.425540891423137],[100.2700659988182,6.425302409820265],[100.27063202973672,6.425034122722201],[100.27118315511636,6.424736765438683],[100.27171786436075,6.424411152955171],[100.27223469186904,6.424058177699521],[100.27273222105293,6.423678807096509],[100.27320908821955,6.423274080916774],[100.27366398630907,6.422845108427575],[100.27409566847751,6.422393065352909],[100.27450295151404,6.421919190651723],[100.27488471908414,6.421424783122538],[100.27523992478946,6.420911197844276],[100.27556759503587,6.42037984246267],[100.27586683170198,6.419832173332614],[100.27613681460085,6.419269691527031],[100.27637680372817,6.418693938722997],[100.27658614129041,6.418106492976701],[100.27676425350786,6.41750896439853],[100.27691065218733,6.416902990740262],[100.27702493606017,6.416290232906505],[100.27710679188229,6.415672370402545],[100.27715599529253,6.415051096731132],[100.27717241142777,6.414428114750938]],[[100.23224663394373,6.376144654865781],[100.23223043071164,6.375529705628921],[100.23218186542738,6.374916441190716],[100.23210107120492,6.37430654247551],[100.23198826949567,6.373701681188316],[100.23184376948127,6.3731035152327],[100.2316679672262,6.372513684166292],[100.23146134459222,6.371933804706614],[100.23122446791764,6.371365466299431],[100.23095798646492,6.370810226761775],[100.2306626306412,6.370269608011619],[100.2303392099963,6.36974509189594],[100.2299886110037,6.369238116128515],[100.22961179463088,6.368750070348709],[100.22920979370532,6.368282292311982],[100.22878371008362,6.367836064222552],[100.22833471163133,6.367412609218348],[100.22786402902207,6.367013088017876],[100.2273729523641,6.366638595738069],[100.22686282766442,6.366290158892087],[100.22633505313937,6.365968732575095],[100.22579107538226,6.365675197845777],[100.2252323853983,6.365410359310918],[100.22466051451788,6.365174942919441],[100.22407703019937,6.36496959397219],[100.22348353173268,6.364794875352715],[100.2228816458559,6.364651265984081],[100.22227302229636,6.364539159515817],[100.22165932924894,6.364458863244682],[100.22104224880363,6.364410597272121],[100.22042347233503,6.364394493900862],[100.21980469586642,6.364410597272121],[100.2191876154211,6.364458863244682],[100.21857392237368,6.364539159515817],[100.21796529881414,6.364651265984081],[100.21736341293736,6.364794875352715],[100.21676991447069,6.36496959397219],[100.21618643015216,6.365174942919441],[100.21561455927174,6.365410359310918],[100.21505586928778,6.365675197845777],[100.21451189153068,6.365968732575095],[100.21398411700562,6.366290158892087],[100.21347399230594,6.366638595738069],[100.21298291564797,6.367013088017876],[100.21251223303871,6.367412609218348],[100.21206323458644,6.367836064222552],[100.21163715096472,6.368282292311982],[100.21123515003916,6.368750070348709],[100.21085833366634,6.369238116128515],[100.21050773467374,6.36974509189594],[100.21018431402884,6.370269608011619],[100.20988895820513,6.370810226761775],[100.2096224767524,6.371365466299431],[100.20938560007782,6.371933804706614],[100.20917897744386,6.372513684166292],[100.20900317518877,6.3731035152327],[100.20885867517437,6.373701681188316],[100.20874587346512,6.37430654247551],[100.20866507924266,6.374916441190716],[100.2086165139584,6.375529705628921],[100.20860031072631,6.376144654865781],[100.2086165139584,6.376759603365097],[100.20866507924266,6.377372865598733],[100.20874587346512,6.377982760666529],[100.20885867517437,6.37858761690341],[100.20900317518877,6.379185776461162],[100.20917897744386,6.37977559985223],[100.20938560007782,6.380355470443198],[100.2096224767524,6.380923798885461],[100.20988895820513,6.381479027471169],[100.21018431402884,6.382019634402346],[100.21050773467374,6.382544137961501],[100.21085833366634,6.383051100572422],[100.21123515003916,6.383539132739886],[100.21163715096472,6.384006896857591],[100.21206323458644,6.384453110873816],[100.21251223303871,6.384876551804803],[100.21298291564797,6.385276059086266],[100.21347399230594,6.385650537753743],[100.21398411700562,6.38599896144322],[100.21451189153068,6.386320375203675],[100.21505586928778,6.386613898114002],[100.21561455927174,6.386878725696926],[100.21618643015216,6.387114132123471],[100.21676991447069,6.387319472202024],[100.21736341293736,6.387494183146159],[100.21796529881414,6.38763778611693],[100.21857392237368,6.38774988753488],[100.2191876154211,6.387830180158593],[100.21980469586642,6.387878443926597],[100.22042347233503,6.387894546560323],[100.22104224880363,6.387878443926597],[100.22165932924894,6.387830180158593],[100.22227302229636,6.38774988753488],[100.2228816458559,6.38763778611693],[100.22348353173268,6.387494183146159],[100.22407703019937,6.387319472202024],[100.22466051451788,6.387114132123471],[100.2252323853983,6.386878725696926],[100.22579107538226,6.386613898114002],[100.22633505313937,6.386320375203675],[100.22686282766442,6.38599896144322],[100.2273729523641,6.385650537753743],[100.22786402902207,6.385276059086266],[100.22833471163133,6.384876551804803],[100.22878371008362,6.384453110873816],[100.22920979370532,6.384006896857591],[100.22961179463088,6.383539132739886],[100.2299886110037,6.383051100572422],[100.2303392099963,6.382544137961501],[100.2306626306412,6.382019634402346],[100.23095798646492,6.381479027471169],[100.23122446791764,6.380923798885461],[100.23146134459222,6.380355470443198],[100.2316679672262,6.37977559985223],[100.23184376948127,6.379185776461162],[100.23198826949567,6.37858761690341],[100.23210107120492,6.377982760666529],[100.23218186542738,6.377372865598733],[100.23223043071164,6.376759603365097],[100.23224663394373,6.376144654865781]],[[100.18831305050553,6.368664987512632],[100.18829720961072,6.368063781036712],[100.1882497303451,6.367464221724796],[100.18817074284605,6.36686795293599],[100.18806046361279,6.36627660901595],[100.18791919491305,6.365691810817147],[100.18774732395451,6.365115161255899],[100.18754532182352,6.36454824091874],[100.18731374219388,6.363992603729704],[100.18705321980926,6.363449772690809],[100.1867644687434,6.362921235707176],[100.18644828044292,6.362408441508282],[100.18610552155795,6.361912795676606],[100.18573713156678,6.361435656794515],[100.18534412020075,6.360978332719871],[100.18492756467676,6.360542077000725],[100.18448860674447,6.360128085438804],[100.18402844955709,6.359737492811365],[100.18354835437351,6.359371369760173],[100.18304963710123,6.359030719856384],[100.18253366468963,6.358716476849213],[100.1820018513832,6.358429502106097],[100.18145565484532,6.358170582251145],[100.18089657216268,6.357940427008545],[100.18032613574204,6.357739667256864],[100.17974590911001,6.357568853299324],[100.17915748262746,6.357428453355165],[100.17856246913045,6.357318852275927],[100.17796249950963,6.357240350490321],[100.17735921824004,6.357193163180552],[100.17675427887372,6.357177419692403],[100.17614933950738,6.357193163180552],[100.17554605823779,6.357240350490321],[100.17494608861696,6.357318852275927],[100.17435107511996,6.357428453355165],[100.1737626486374,6.357568853299324],[100.17318242200538,6.357739667256864],[100.17261198558475,6.357940427008545],[100.1720529029021,6.358170582251145],[100.1715067063642,6.358429502106097],[100.1709748930578,6.358716476849213],[100.17045892064618,6.359030719856384],[100.16996020337392,6.359371369760173],[100.16948010819031,6.359737492811365],[100.16901995100295,6.360128085438804],[100.16858099307066,6.360542077000725],[100.16816443754666,6.360978332719871],[100.16777142618065,6.361435656794515],[100.16740303618947,6.361912795676606],[100.1670602773045,6.362408441508282],[100.16674408900401,6.362921235707176],[100.16645533793816,6.363449772690809],[100.16619481555355,6.363992603729704],[100.1659632359239,6.36454824091874],[100.16576123379292,6.365115161255899],[100.16558936283437,6.365691810817147],[100.16544809413463,6.36627660901595],[100.16533781490135,6.36686795293599],[100.1652588274023,6.367464221724796],[100.1652113481367,6.368063781036712],[100.16519550724189,6.368664987512632],[100.1652113481367,6.369266193284455],[100.1652588274023,6.369865750491734],[100.16533781490135,6.370462015798457],[100.16544809413463,6.371053354897094],[100.16558936283437,6.371638146988023],[100.16576123379292,6.37221478922182],[100.1659632359239,6.372781701092266],[100.16619481555355,6.373337328768059],[100.16645533793816,6.373880149351415],[100.16674408900401,6.374408675051789],[100.1670602773045,6.3749214572633],[100.16740303618947,6.375417090534812],[100.16777142618065,6.375894216421565],[100.16816443754666,6.376351527208104],[100.16858099307066,6.37678776949194],[100.16901995100295,6.377201747618523],[100.16948010819031,6.377592326957846],[100.16996020337392,6.377958437013711],[100.17045892064618,6.378299074357337],[100.1709748930578,6.378613305377125],[100.1715067063642,6.378900268836968],[100.1720529029021,6.379159178236394],[100.17261198558475,6.379389323965752],[100.17318242200538,6.379590075250707],[100.1737626486374,6.379760881880808],[100.17435107511996,6.379901275717082],[100.17494608861696,6.380010871974929],[100.17554605823779,6.380089370278451],[100.17614933950738,6.380136555483584],[100.17675427887372,6.380152298267622],[100.17735921824004,6.380136555483584],[100.17796249950963,6.380089370278451],[100.17856246913045,6.380010871974929],[100.17915748262746,6.379901275717082],[100.17974590911001,6.379760881880808],[100.18032613574204,6.379590075250707],[100.18089657216268,6.379389323965752],[100.18145565484532,6.379159178236394],[100.1820018513832,6.378900268836968],[100.18253366468963,6.378613305377125],[100.18304963710123,6.378299074357337],[100.18354835437351,6.377958437013711],[100.18402844955709,6.377592326957846],[100.18448860674447,6.377201747618523],[100.18492756467676,6.37678776949194],[100.18534412020075,6.376351527208104],[100.18573713156678,6.375894216421565],[100.18610552155795,6.375417090534812],[100.18644828044292,6.3749214572633],[100.1867644687434,6.374408675051789],[100.18705321980926,6.373880149351415],[100.18731374219388,6.373337328768059],[100.18754532182352,6.372781701092266],[100.18774732395451,6.37221478922182],[100.18791919491305,6.371638146988023],[100.18806046361279,6.371053354897094],[100.18817074284605,6.370462015798457],[100.1882497303451,6.369865750491734],[100.18829720961072,6.369266193284455],[100.18831305050553,6.368664987512632]],[[100.15347798483796,6.401551025339679],[100.15346321632161,6.400990554660905],[100.15341895125208,6.400431619580762],[100.15334531095681,6.399875752109046],[100.15324249727875,6.399324475852437],[100.15311079202304,6.398779301838166],[100.15295055618463,6.398241724372258],[100.1527622289588,6.397713216943522],[100.15254632653743,6.397195228184493],[100.15230344069401,6.396689177900505],[100.15203423716179,6.396196453177752],[100.15173945380889,6.39571840458093],[100.15141989861601,6.395256342451039],[100.15107644746173,6.394811533313322],[100.15071004172182,6.394385196405302],[100.15032168568888,6.393978500334483],[100.14991244381986,6.393592559874696],[100.14948343781822,6.393228432910082],[100.14903584355964,6.392887117534994],[100.14857088786886,6.392569549317724],[100.1480898451571,6.392276598735693],[100.14759403392901,6.392009068789076],[100.14708481316868,6.391767692799259],[100.14656357861485,6.391553132398558],[100.14603175893515,6.391365975716177],[100.1454908118104,6.391206735765928],[100.14494221993907,6.391075849039694],[100.14438748697333,6.390973674310774],[100.14382813339766,6.390900491650276],[100.14326569236138,6.390856501659257],[100.14270170547626,6.390841824918765],[100.14213771859113,6.390856501659257],[100.14157527755484,6.390900491650276],[100.14101592397917,6.390973674310774],[100.14046119101343,6.391075849039694],[100.1399125991421,6.391206735765928],[100.13937165201735,6.391365975716177],[100.13883983233765,6.391553132398558],[100.13831859778381,6.391767692799259],[100.13780937702349,6.392009068789076],[100.1373135657954,6.392276598735693],[100.13683252308364,6.392569549317724],[100.13636756739284,6.392887117534994],[100.13591997313428,6.393228432910082],[100.13549096713264,6.393592559874696],[100.13508172526362,6.393978500334483],[100.13469336923069,6.394385196405302],[100.13432696349076,6.394811533313322],[100.13398351233648,6.395256342451039],[100.13366395714361,6.39571840458093],[100.13336917379071,6.396196453177752],[100.13309997025848,6.396689177900505],[100.13285708441506,6.397195228184493],[100.13264118199368,6.397713216943522],[100.13245285476786,6.398241724372258],[100.13229261892947,6.398779301838166],[100.13216091367374,6.399324475852437],[100.13205809999569,6.399875752109046],[100.13198445970042,6.400431619580762],[100.13194019463089,6.400990554660905],[100.13192542611452,6.401551025339679],[100.13194019463089,6.402111495403335],[100.13198445970042,6.402670428644875],[100.13205809999569,6.403226293074607],[100.13216091367374,6.403777565119245],[100.13229261892947,6.404322733797652],[100.13245285476786,6.404860304862288],[100.13264118199368,6.405388804894478],[100.13285708441506,6.405906785342718],[100.13309997025848,6.406412826492725],[100.13336917379071,6.406905541358393],[100.13366395714361,6.407383579482984],[100.13398351233648,6.407845630640292],[100.13432696349076,6.40829042842526],[100.13469336923069,6.408716753724726],[100.13508172526362,6.409123438058421],[100.13549096713264,6.409509366781083],[100.13591997313428,6.409873482137157],[100.13636756739284,6.410214786159496],[100.13683252308364,6.410532343404171],[100.1373135657954,6.410825283513984],[100.13780937702349,6.411092803603514],[100.13831859778381,6.411334170459338],[100.13883983233765,6.411548722549262],[100.13937165201735,6.411735871835086],[100.1399125991421,6.411895105384062],[100.14046119101343,6.412025986774443],[100.14101592397917,6.412128157291381],[100.14157527755484,6.41220133690992],[100.14213771859113,6.412245325062324],[100.14270170547626,6.412260001187696],[100.14326569236138,6.412245325062324],[100.14382813339766,6.41220133690992],[100.14438748697333,6.412128157291381],[100.14494221993907,6.412025986774443],[100.1454908118104,6.411895105384062],[100.14603175893515,6.411735871835086],[100.14656357861485,6.411548722549262],[100.14708481316868,6.411334170459338],[100.14759403392901,6.411092803603514],[100.1480898451571,6.410825283513984],[100.14857088786886,6.410532343404171],[100.14903584355964,6.410214786159496],[100.14948343781822,6.409873482137157],[100.14991244381986,6.409509366781083],[100.15032168568888,6.409123438058421],[100.15071004172182,6.408716753724726],[100.15107644746173,6.40829042842526],[100.15141989861601,6.407845630640292],[100.15173945380889,6.407383579482984],[100.15203423716179,6.406905541358393],[100.15230344069401,6.406412826492725],[100.15254632653743,6.405906785342718],[100.1527622289588,6.405388804894478],[100.15295055618463,6.404860304862288],[100.15311079202304,6.404322733797652],[100.15324249727875,6.403777565119245],[100.15334531095681,6.403226293074607],[100.15341895125208,6.402670428644875],[100.15346321632161,6.402111495403335],[100.15347798483796,6.401551025339679]],[[100.2040236559155,6.305439584182524],[100.20400755682056,6.304828503400126],[100.20395930366217,6.304219096830568],[100.20387902869895,6.30361303482378],[100.20376695195897,6.303011978568307],[100.20362338063676,6.30241757553785],[100.20344870825137,6.301831454975539],[100.20324341356763,6.301255223427926],[100.20300805928406,6.300690460341216],[100.20274329049032,6.300138713731776],[100.20244983289932,6.29960149594266],[100.20212849085789,6.299080279497887],[100.20178014514224,6.298576493065841],[100.20140575054376,6.298091517542909],[100.20100633325201,6.297626682267825],[100.20058298804207,6.297183261377572],[100.20013687527369,6.296762470314382],[100.19966921771096,6.296365462493698],[100.19918129717075,6.295993326142141],[100.1986744510094,6.295647081314116],[100.19815006845695,6.295327677095321],[100.19760958680953,6.29503598900082],[100.19705448748981,6.294772816574723],[100.19648629198639,6.294538881198242],[100.19590655768367,6.294334824111872],[100.19531687359307,6.294161204657415],[100.19471885599773,6.294018498744459],[100.19411414402228,6.293907097545621],[100.19350439514021,6.293827306424048],[100.19289128063082,6.293779344096269],[100.19227648099839,6.293763342032497],[100.19166168136594,6.293779344096269],[100.19104856685655,6.293827306424048],[100.19043881797448,6.293907097545621],[100.18983410599904,6.294018498744459],[100.18923608840369,6.294161204657415],[100.18864640431309,6.294334824111872],[100.1880666700104,6.294538881198242],[100.18749847450697,6.294772816574723],[100.18694337518723,6.29503598900082],[100.18640289353982,6.295327677095321],[100.18587851098737,6.295647081314116],[100.18537166482601,6.295993326142141],[100.18488374428581,6.296365462493698],[100.1844160867231,6.296762470314382],[100.18396997395469,6.297183261377572],[100.18354662874475,6.297626682267825],[100.183147211453,6.298091517542909],[100.18277281685454,6.298576493065841],[100.18242447113887,6.299080279497887],[100.18210312909747,6.29960149594266],[100.18180967150644,6.300138713731776],[100.18154490271272,6.300690460341216],[100.18130954842913,6.301255223427926],[100.18110425374539,6.301831454975539],[100.18092958136,6.30241757553785],[100.1807860100378,6.303011978568307],[100.18067393329781,6.30361303482378],[100.18059365833459,6.304219096830568],[100.18054540517622,6.304828503400126],[100.18052930608125,6.305439584182524],[100.18054540517622,6.306050664244755],[100.18059365833459,6.306660068661739],[100.18067393329781,6.307266127107133],[100.1807860100378,6.307867178431385],[100.18092958136,6.308461575214839],[100.18110425374539,6.309047688282796],[100.18130954842913,6.309623911170839],[100.18154490271272,6.310188664527622],[100.18180967150644,6.310740400443362],[100.18210312909747,6.311277606692205],[100.18242447113887,6.31179881087655],[100.18277281685454,6.312302584462324],[100.183147211453,6.312787546693933],[100.18354662874475,6.313252368378215],[100.18396997395469,6.313695775527123],[100.1844160867231,6.314116552848969],[100.18488374428581,6.31451354707885],[100.18537166482601,6.314885670139073],[100.18587851098737,6.31523190212085],[100.18640289353982,6.315551294079205],[100.18694337518723,6.315842970633431],[100.18749847450697,6.31610613236583],[100.1880666700104,6.316340058012384],[100.18864640431309,6.316544106439171],[100.18923608840369,6.316717718399287],[100.18983410599904,6.316860418065239],[100.19043881797448,6.316971814332868],[100.19104856685655,6.317051601893035],[100.19166168136594,6.317099562068253],[100.19227648099839,6.317115563411859],[100.19289128063082,6.317099562068253],[100.19350439514021,6.317051601893035],[100.19411414402228,6.316971814332868],[100.19471885599773,6.316860418065239],[100.19531687359307,6.316717718399287],[100.19590655768367,6.316544106439171],[100.19648629198639,6.316340058012384],[100.19705448748981,6.31610613236583],[100.19760958680953,6.315842970633431],[100.19815006845695,6.315551294079205],[100.1986744510094,6.31523190212085],[100.19918129717075,6.314885670139073],[100.19966921771096,6.31451354707885],[100.20013687527369,6.314116552848969],[100.20058298804207,6.313695775527123],[100.20100633325201,6.313252368378215],[100.20140575054376,6.312787546693933],[100.20178014514224,6.312302584462324],[100.20212849085789,6.31179881087655],[100.20244983289932,6.311277606692205],[100.20274329049032,6.310740400443362],[100.20300805928406,6.310188664527622],[100.20324341356763,6.309623911170839],[100.20344870825137,6.309047688282796],[100.20362338063676,6.308461575214839],[100.20376695195897,6.307867178431385],[100.20387902869895,6.307266127107133],[100.20395930366217,6.306660068661739],[100.20400755682056,6.306050664244755],[100.2040236559155,6.305439584182524]]],"bbox":[100.13192542611452,6.293763342032497,100.33649367041636,6.635017430064463]}
