{"type":"Topology","objects":{"PLS_SE-14":{"type":"GeometryCollection","geometries":[{"type":"Polygon","arcs":[[0]],"properties":{"state":"Perlis","parlimen":"P.001 Padang Besar","code_parlimen":"P.001","dun":"N.01 Titi Tinggi","code_dun":"N.01","voters_total":10111}},{"type":"Polygon","arcs":[[1]],"properties":{"state":"Perlis","parlimen":"P.001 Padang Besar","code_parlimen":"P.001","dun":"N.02 Beseri","code_dun":"N.02","voters_total":8914}},{"type":"Polygon","arcs":[[2]],"properties":{"state":"Perlis","parlimen":"P.001 Padang Besar","code_parlimen":"P.001","dun":"N.03 Chuping","code_dun":"N.03","voters_total":10542}},{"type":"Polygon","arcs":[[3]],"properties":{"state":"Perlis","parlimen":"P.001 Padang Besar","code_parlimen":"P.001","dun":"N.04 Mata Ayer","code_dun":"N.04","voters_total":7617}},{"type":"Polygon","arcs":[[4]],"properties":{"state":"Perlis","parlimen":"P.001 Padang Besar","code_parlimen":"P.001","dun":"N.05 Santan","code_dun":"N.05","voters_total":8912}},{"type":"Polygon","arcs":[[5]],"properties":{"state":"Perlis","parlimen":"P.002 Kangar","code_parlimen":"P.002","dun":"N.06 Bintong","code_dun":"N.06","voters_total":12136}},{"type":"Polygon","arcs":[[6]],"properties":{"state":"Perlis","parlimen":"P.002 Kangar","code_parlimen":"P.002","dun":"N.07 Sena","code_dun":"N.07","voters_total":12303}},{"type":"Polygon","arcs":[[7]],"properties":{"state":"Perlis","parlimen":"P.002 Kangar","code_parlimen":"P.002","dun":"N.08 Indera Kayangan","code_dun":"N.08","voters_total":11018}},{"type":"Polygon","arcs":[[8]],"properties":{"state":"Perlis","parlimen":"P.002 Kangar","code_parlimen":"P.002","dun":"N.09 Kuala Perlis","code_dun":"N.09","voters_total":10654}},{"type":"Polygon","arcs":[[9]],"properties":{"state":"Perlis","parlimen":"P.002 Kangar","code_parlimen":"P.002","dun":"N.10 Kayang","code_dun":"N.10","voters_total":9827}},{"type":"Polygon","arcs":[[10]],"properties":{"state":"Perlis","parlimen":"P.003 Arau","code_parlimen":"P.003","dun":"N.11 Pauh","code_dun":"N.11","voters_total":11200}},{"type":"Polygon","arcs":[[11]],"properties":{"state":"Perlis","parlimen":"P.003 Arau","code_parlimen":"P.003","dun":"N.12 Tambun Tulang","code_dun":"N.12","voters_total":10535}},{"type":"Polygon","arcs":[[12]],"properties":{"state":"Perlis","parlimen":"P.003 Arau","code_parlimen":"P.003","dun":"N.13 Guar Sanji","code_dun":"N.13","voters_total":9233}},{"type":"Polygon","arcs":[[13]],"properties":{"state":"Perlis","parlimen":"P.003 Arau","code_parlimen":"P.003","dun":"N.14 Simpang Empat","code_dun":"N.14","voters_total":8547}},{"type":"Polygon","arcs":[[14]],"properties":{"state":"Perlis","parlimen":"P.003 Arau","code_parlimen":"P.003","dun":"N.15 Sanglang","code_dun":"N.15","voters_total":8672}}]}},"arcs":[[[100.27721862449091,6.648323790822317],[100.27720149200229,6.647673926659406],[100.27715014149535,6.647025842873477],[100.27706471371829,6.646381315827741],[100.27694544282271,6.64574211214356],[100.2767926557218,6.645109983858045],[100.27660677119445,6.644486663621587],[100.27638829873719,6.643873859948365],[100.27613783716784,6.643273252533151],[100.27585607298415,6.642686487646833],[100.27554377848219,6.642115173623591],[100.27520180963946,6.641560876452036],[100.27483110376876,6.64102511548224],[100.27443267694916,6.640509359260708],[100.27400762124088,6.640015021504522],[100.27355710169205,6.639543457225645],[100.27308235314541,6.639095959016283],[100.27258467685378,6.638673753505185],[100.27206543691328,6.638277997994869],[100.27152605652446,6.637909777288706],[100.2709680140915,6.63757010071695],[100.27039283916989,6.637259899369463],[100.26980210827413,6.63698002354305],[100.26919744055655,6.636731240410222],[100.26858049336934,6.636514231915846],[100.26795295772183,6.636329592907498],[100.26731655364564,6.636177829504543],[100.26667302548009,6.636059357710455],[100.26602413709114,6.635974502272308],[100.26537166703677,6.635923495790403],[100.26471740369206,6.635906478080473],[100.26406314034735,6.635923495790403],[100.26341067029298,6.635974502272308],[100.26276178190405,6.636059357710455],[100.26211825373848,6.636177829504543],[100.2614818496623,6.636329592907498],[100.2608543140148,6.636514231915846],[100.26023736682758,6.636731240410222],[100.25963269911,6.63698002354305],[100.25904196821425,6.637259899369463],[100.25846679329264,6.63757010071695],[100.25790875085967,6.637909777288706],[100.25736937047085,6.638277997994869],[100.25685013053034,6.638673753505185],[100.25635245423872,6.639095959016283],[100.25587770569209,6.639543457225645],[100.25542718614325,6.640015021504522],[100.25500213043497,6.640509359260708],[100.25460370361536,6.64102511548224],[100.2542329977447,6.641560876452036],[100.25389102890195,6.642115173623591],[100.25357873439997,6.642686487646833],[100.25329697021628,6.643273252533151],[100.25304650864695,6.643873859948365],[100.25282803618968,6.644486663621587],[100.25264215166231,6.645109983858045],[100.25248936456143,6.64574211214356],[100.25237009366585,6.646381315827741],[100.25228466588878,6.647025842873477],[100.25223331538186,6.647673926659406],[100.2522161828932,6.648323790822317],[100.25223331538186,6.648973654126072],[100.25228466588878,6.649621735343984],[100.25237009366585,6.650266258140957],[100.25248936456143,6.650905455942167],[100.25264215166231,6.651537576774981],[100.25282803618968,6.652160888070672],[100.25304650864695,6.652773681412993],[100.25329697021628,6.653374277220354],[100.25357873439997,6.653961029349071],[100.25389102890195,6.654532329604711],[100.2542329977447,6.65508661214953],[100.25460370361536,6.655622357793697],[100.25500213043497,6.656138098158611],[100.25542718614325,6.656632419700941],[100.25587770569209,6.657103967586336],[100.25635245423872,6.657551449402228],[100.25685013053034,6.657973638699455],[100.25736937047085,6.658369378353169],[100.25790875085967,6.658737583733688],[100.25846679329264,6.659077245678723],[100.25904196821425,6.659387433258606],[100.25963269911,6.659667296327419],[100.26023736682758,6.659916067852405],[100.2608543140148,6.66013306601587],[100.2614818496623,6.660317696083424],[100.26211825373848,6.660469452033703],[100.26276178190405,6.660587917944834],[100.26341067029298,6.660672769134204],[100.26406314034735,6.660723773048091],[100.26471740369206,6.660740789898878],[100.26537166703677,6.660723773048091],[100.26602413709114,6.660672769134204],[100.26667302548009,6.660587917944834],[100.26731655364564,6.660469452033703],[100.26795295772183,6.660317696083424],[100.26858049336934,6.66013306601587],[100.26919744055655,6.659916067852405],[100.26980210827413,6.659667296327419],[100.27039283916989,6.659387433258606],[100.2709680140915,6.659077245678723],[100.27152605652446,6.658737583733688],[100.27206543691328,6.658369378353169],[100.27258467685378,6.657973638699455],[100.27308235314541,6.657551449402228],[100.27355710169205,6.657103967586336],[100.27400762124088,6.656632419700941],[100.27443267694916,6.656138098158611],[100.27483110376876,6.655622357793697],[100.27520180963946,6.65508661214953],[100.27554377848219,6.654532329604711],[100.27585607298415,6.653961029349071],[100.27613783716784,6.653374277220354],[100.27638829873719,6.652773681412993],[100.27660677119445,6.652160888070672],[100.2767926557218,6.651537576774981],[100.27694544282271,6.650905455942167],[100.27706471371829,6.650266258140957],[100.27715014149535,6.649621735343984],[100.27720149200229,6.648973654126072],[100.27721862449091,6.648323790822317]],[[100.22062381864976,6.603003941643862],[100.22060773221833,6.602393700155011],[100.22055951701586,6.601785130546471],[100.22047930519682,6.601179900874521],[100.22036731661626,6.60057967004698],[100.22022385822711,6.599986083276049],[100.22004932323884,6.599400767568646],[100.2198441900397,6.598825327266667],[100.2196090208855,6.59826133964916],[100.21934446035861,6.597710350608789],[100.21905123360104,6.597173870414093],[100.2187301443269,6.596653369569532],[100.2183820726196,6.596150274784367],[100.21800797251952,6.59566596506154],[100.21760886940899,6.595201767917336],[100.21718585720191,6.59475895574216],[100.21674009534536,6.594338742312316],[100.21627280564154,6.593942279462553],[100.21578526889913,6.593570653928204],[100.2152788214224,6.593224884366051],[100.21475485134869,6.592905918561452],[100.21421479484356,6.592614630830086],[100.21366013216435,6.592351819620805],[100.2130923836029,6.5921182053267],[100.21251310531855,6.591914428310003],[100.21192388507284,6.591741047146467],[100.21132633787747,6.5915985370939],[100.21072210156778,6.591487288789237],[100.21011283231351,6.591407607177457],[100.20950020007933,6.59135971067557],[100.20888588404762,6.591343730573795],[100.20827156801589,6.59135971067557],[100.20765893578174,6.591407607177457],[100.20704966652747,6.591487288789237],[100.20644543021778,6.5915985370939],[100.20584788302241,6.591741047146467],[100.2052586627767,6.591914428310003],[100.20467938449235,6.5921182053267],[100.2041116359309,6.592351819620805],[100.20355697325168,6.592614630830086],[100.20301691674656,6.592905918561452],[100.20249294667283,6.593224884366051],[100.20198649919611,6.593570653928204],[100.2014989624537,6.593942279462553],[100.20103167274989,6.594338742312316],[100.20058591089332,6.59475895574216],[100.20016289868626,6.595201767917336],[100.19976379557573,6.59566596506154],[100.19938969547563,6.596150274784367],[100.19904162376835,6.596653369569532],[100.19872053449421,6.597173870414093],[100.19842730773664,6.597710350608789],[100.19816274720975,6.59826133964916],[100.19792757805556,6.598825327266667],[100.19772244485641,6.599400767568646],[100.19754790986812,6.599986083276049],[100.19740445147897,6.60057967004698],[100.19729246289843,6.601179900874521],[100.19721225107939,6.601785130546471],[100.19716403587692,6.602393700155011],[100.19714794944548,6.603003941643862],[100.19716403587692,6.603614182380346],[100.19721225107939,6.604222749740043],[100.19729246289843,6.604827975691291],[100.19740445147897,6.605428201367058],[100.19754790986812,6.606021781611593],[100.19772244485641,6.60660708948945],[100.19792757805556,6.607182520744532],[100.19816274720975,6.607746498196909],[100.19842730773664,6.608297476065302],[100.19872053449421,6.608833944203545],[100.19904162376835,6.609354432239301],[100.19938969547563,6.609857513603631],[100.19976379557573,6.610341809440653],[100.20016289868626,6.610805992386187],[100.20058591089332,6.611248790205408],[100.20103167274989,6.611668989279284],[100.2014989624537,6.612065437930402],[100.20198649919611,6.61243704957892],[100.20249294667283,6.612782805720252],[100.20301691674656,6.613101758716033],[100.20355697325168,6.613393034390971],[100.2041116359309,6.613655834428261],[100.20467938449235,6.61388943855725],[100.2052586627767,6.614093206527051],[100.20584788302241,6.61426657986104],[100.20644543021778,6.614409083387197],[100.20704966652747,6.614520326540087],[100.20765893578174,6.614600004431178],[100.20827156801589,6.61464789868421],[100.20888588404762,6.614663878033618],[100.20950020007933,6.61464789868421],[100.21011283231351,6.614600004431178],[100.21072210156778,6.614520326540087],[100.21132633787747,6.614409083387197],[100.21192388507284,6.61426657986104],[100.21251310531855,6.614093206527051],[100.2130923836029,6.61388943855725],[100.21366013216435,6.613655834428261],[100.21421479484356,6.613393034390971],[100.21475485134869,6.613101758716033],[100.21527882142239,6.612782805720252],[100.21578526889913,6.61243704957892],[100.21627280564154,6.612065437930402],[100.21674009534536,6.611668989279284],[100.21718585720191,6.611248790205408],[100.21760886940899,6.610805992386187],[100.21800797251952,6.610341809440653],[100.2183820726196,6.609857513603631],[100.2187301443269,6.609354432239301],[100.21905123360104,6.608833944203545],[100.21934446035861,6.608297476065302],[100.2196090208855,6.607746498196909],[100.2198441900397,6.607182520744532],[100.22004932323884,6.60660708948945],[100.22022385822711,6.606021781611593],[100.22036731661626,6.605428201367058],[100.22047930519682,6.604827975691291],[100.22055951701586,6.604222749740043],[100.22060773221833,6.603614182380346],[100.22062381864976,6.603003941643862]],[[100.32221913600587,6.53111485917287],[100.32220164217584,6.530451131885227],[100.32214920863507,6.529789222951393],[100.32206197910025,6.529130946628651],[100.32194019266153,6.52847810722459],[100.32178418312701,6.527832494151474],[100.32159437810803,6.527195877021303],[100.32137129784691,6.526570000795063],[100.32111555379113,6.525956580999509],[100.32082784691744,6.525357299024531],[100.32050896581033,6.524773797514106],[100.32015978450076,6.524207675863247],[100.31978126007041,6.523660485833616],[100.31937443002847,6.523133727299498],[100.31894040946779,6.522628844136144],[100.31848038800855,6.522147220261393],[100.31799562653761,6.521690175841754],[100.31748745375243,6.521258963673122],[100.31695726251935,6.520854765746256],[100.31640650605563,6.52047869000622],[100.3158366939465,6.520131767314896],[100.3152493880073,6.519814948624737],[100.31464619800283,6.519529102371594],[100.31402877723492,6.519275012093802],[100.31339881801102,6.519053374283907],[100.31275804700557,6.518864796479147],[100.31210822052734,6.518709795595753],[100.31145111970552,6.518588796511656],[100.31078854560782,6.518502130901664],[100.3101223143038,6.51845003632802],[100.3094542518871,6.518432655589146],[100.30878618947041,6.51845003632802],[100.30811995816637,6.518502130901664],[100.30745738406867,6.518588796511656],[100.30680028324689,6.518709795595753],[100.30615045676865,6.518864796479147],[100.30550968576318,6.519053374283907],[100.30487972653928,6.519275012093802],[100.30426230577137,6.519529102371594],[100.30365911576689,6.519814948624737],[100.30307180982771,6.520131767314896],[100.30250199771857,6.52047869000622],[100.30195124125486,6.520854765746256],[100.30142105002177,6.521258963673122],[100.3009128772366,6.521690175841754],[100.30042811576565,6.522147220261393],[100.29996809430642,6.522628844136144],[100.29953407374572,6.523133727299498],[100.2991272437038,6.523660485833616],[100.29874871927345,6.524207675863247],[100.29839953796386,6.524773797514106],[100.29808065685677,6.525357299024531],[100.29779294998306,6.525956580999509],[100.2975372059273,6.526570000795063],[100.29731412566618,6.527195877021303],[100.2971243206472,6.527832494151474],[100.29696831111268,6.52847810722459],[100.29684652467395,6.529130946628651],[100.29675929513913,6.529789222951393],[100.29670686159837,6.530451131885227],[100.29668936776832,6.53111485917287],[100.29670686159837,6.531778585580264],[100.29675929513913,6.532440491882977],[100.29684652467395,6.53309876385257],[100.29696831111268,6.533751597229149],[100.2971243206472,6.534397202666466],[100.29731412566618,6.535033810636194],[100.2975372059273,6.535659676277727],[100.29779294998306,6.536273084180259],[100.29808065685677,6.536872353084187],[100.29839953796386,6.537455840488788],[100.29874871927345,6.538021947153548],[100.2991272437038,6.538569121481048],[100.29953407374572,6.539095863768969],[100.29996809430642,6.53960073032012],[100.30042811576565,6.540082337398641],[100.3009128772366,6.540539365022065],[100.30142105002177,6.540970560578481],[100.30195124125486,6.541374742259176],[100.30250199771857,6.541750802297055],[100.30307180982771,6.542097710002292],[100.30365911576689,6.542414514586614],[100.30426230577137,6.542700347768721],[100.30487972653928,6.54295442615349],[100.30550968576318,6.543176053378678],[100.30615045676865,6.543364622022994],[100.30680028324689,6.543519615270602],[100.30745738406867,6.543640608327205],[100.30811995816637,6.543727269584048],[100.30878618947041,6.543779361526571],[100.3094542518871,6.543796741385195],[100.3101223143038,6.543779361526571],[100.31078854560782,6.543727269584048],[100.31145111970552,6.543640608327205],[100.31210822052734,6.543519615270602],[100.31275804700557,6.543364622022994],[100.31339881801102,6.543176053378678],[100.31402877723492,6.54295442615349],[100.31464619800283,6.542700347768721],[100.3152493880073,6.542414514586614],[100.3158366939465,6.542097710002292],[100.31640650605563,6.541750802297055],[100.31695726251935,6.541374742259176],[100.31748745375243,6.540970560578481],[100.31799562653761,6.540539365022065],[100.31848038800855,6.540082337398641],[100.31894040946779,6.53960073032012],[100.31937443002847,6.539095863768969],[100.31978126007041,6.538569121481048],[100.32015978450076,6.538021947153548],[100.32050896581033,6.537455840488788],[100.32082784691744,6.536872353084187],[100.32111555379113,6.536273084180259],[100.32137129784691,6.535659676277727],[100.32159437810803,6.535033810636194],[100.32178418312701,6.534397202666466],[100.32194019266153,6.533751597229149],[100.32206197910025,6.53309876385257],[100.32214920863507,6.532440491882977],[100.32220164217584,6.531778585580264],[100.32221913600587,6.53111485917287]],[[100.26746370860822,6.478206232570106],[100.26744883845734,6.477641990030493],[100.26740426876277,6.477079293412142],[100.26733012168697,6.476519685035188],[100.26722660046185,6.475964698760166],[100.26709398883195,6.475415855783647],[100.26693265027652,6.474874660468618],[100.2667430270133,6.474342596220837],[100.26652563878653,6.473821121422597],[100.26628108144217,6.473311665435121],[100.26601002529492,6.472815624680344],[100.26571321329085,6.472334358813052],[100.26539145897101,6.471869186993629],[100.26504564424168,6.471421384271945],[100.26467671695694,6.470992178091924],[100.26428568832083,6.470582744926761],[100.2638736301157,6.470194207053724],[100.26344167176445,6.469827629477528],[100.26299099723484,6.469484017010701],[100.26252284179448,6.469164311518901],[100.26203848862488,6.468869389338834],[100.2615392653044,6.468600058875785],[100.26102654016948,6.468357058387296],[100.26050171856406,6.46814105395925],[100.2599662389877,6.467952637679749],[100.25942156915266,6.467792326015826],[100.25886920196113,6.467660558397531],[100.25831065141318,6.467557696013212],[100.25774744845704,6.467484020819216],[100.25718113679285,6.467439734766926],[100.25661326864154,6.46742495924908],[100.25604540049024,6.467439734766926],[100.25547908882605,6.467484020819216],[100.25491588586992,6.467557696013212],[100.25435733532197,6.467660558397531],[100.25380496813044,6.467792326015826],[100.2532602982954,6.467952637679749],[100.25272481871903,6.46814105395925],[100.2521999971136,6.468357058387296],[100.25168727197868,6.468600058875785],[100.25118804865821,6.468869389338834],[100.25070369548861,6.469164311518901],[100.25023554004825,6.469484017010701],[100.24978486551865,6.469827629477528],[100.24935290716739,6.470194207053724],[100.24894084896226,6.470582744926761],[100.24854982032616,6.470992178091924],[100.24818089304142,6.471421384271945],[100.24783507831208,6.471869186993629],[100.24751332399224,6.472334358813052],[100.24721651198817,6.472815624680344],[100.24694545584093,6.473311665435121],[100.24670089849656,6.473821121422597],[100.24648351026978,6.474342596220837],[100.24629388700657,6.474874660468618],[100.24613254845114,6.475415855783647],[100.24599993682124,6.475964698760166],[100.24589641559614,6.476519685035188],[100.24582226852031,6.477079293412142],[100.24577769882575,6.477641990030493],[100.24576282867488,6.478206232570106],[100.24577769882575,6.478770474478774],[100.24582226852031,6.479333169211158],[100.24589641559614,6.479892774467848],[100.24599993682124,6.480447756422455],[100.24613254845114,6.480996593925736],[100.24629388700657,6.4815377826747],[100.24648351026978,6.48206983933551],[100.24670089849656,6.482591305608998],[100.24694545584093,6.483100752227349],[100.24721651198817,6.483596782871257],[100.24751332399224,6.484078037996747],[100.24783507831208,6.484543198561091],[100.24818089304142,6.484990989637747],[100.24854982032616,6.485420183910382],[100.24894084896226,6.485829605036242],[100.24935290716739,6.486218130869976],[100.24978486551865,6.486584696538773],[100.25023554004825,6.486928297360585],[100.25070369548861,6.487247991597317],[100.25118804865821,6.487542903035557],[100.25168727197868,6.48781222338775],[100.2521999971136,6.4880552145071],[100.25272481871903,6.488271210410395],[100.2532602982954,6.488459619102924],[100.25380496813044,6.488619924200784],[100.25435733532197,6.488751686345852],[100.25491588586992,6.488854544409757],[100.25547908882605,6.488928216483476],[100.25604540049024,6.488972500649812],[100.25661326864154,6.488987275536712],[100.25718113679285,6.488972500649812],[100.25774744845704,6.488928216483476],[100.25831065141318,6.488854544409757],[100.25886920196113,6.488751686345852],[100.25942156915266,6.488619924200784],[100.2599662389877,6.488459619102924],[100.26050171856406,6.488271210410395],[100.26102654016948,6.4880552145071],[100.2615392653044,6.48781222338775],[100.26203848862488,6.487542903035557],[100.26252284179448,6.487247991597317],[100.26299099723484,6.486928297360585],[100.26344167176445,6.486584696538773],[100.2638736301157,6.486218130869976],[100.26428568832083,6.485829605036242],[100.26467671695694,6.485420183910382],[100.26504564424168,6.484990989637747],[100.26539145897101,6.484543198561091],[100.26571321329085,6.484078037996747],[100.26601002529492,6.483596782871257],[100.26628108144217,6.483100752227349],[100.26652563878653,6.482591305608998],[100.2667430270133,6.48206983933551],[100.26693265027652,6.4815377826747],[100.26709398883195,6.480996593925736],[100.26722660046185,6.480447756422455],[100.26733012168697,6.479892774467848],[100.26740426876277,6.479333169211158],[100.26744883845734,6.478770474478774],[100.26746370860822,6.478206232570106]],[[100.23111365237813,6.503003466900536],[100.23109756775142,6.502393171533013],[100.23104935795816,6.50178454820479],[100.23096915513806,6.501179265119266],[100.23085717912144,6.500578981330413],[100.2307137368268,6.499985342195274],[100.23053922141948,6.499399974863907],[100.2303341112341,6.498824483819207],[100.2300989684634,6.498260446478753],[100.2298344376174,6.497709408870853],[100.22954124375673,6.497172881396475],[100.22922019050542,6.496652334688938],[100.22887215784806,6.496149195582401],[100.22849809971802,6.495664843200434],[100.22809904138263,6.495200605175429],[100.22767607663303,6.49475775400893],[100.2272303647862,6.494337503583242],[100.22676312750735,6.49394100583361],[100.22627564546137,6.493569347590181],[100.22576925480267,6.493223547598466],[100.22524534351284,6.492904553726451],[100.22470534759631,6.492613240365921],[100.22415074714435,6.492350406035254],[100.22358306227825,6.492116771190187],[100.22300384898278,6.491912976248684],[100.22241469484132,6.491739579835039],[100.22181721468439,6.491597057248402],[100.22121304616361,6.491485799159626],[100.22060384526289,6.491406110540207],[100.21999128175953,6.491358209826146],[100.21937703464754,6.491342228319049],[100.21876278753557,6.491358209826146],[100.21815022403221,6.491406110540207],[100.21754102313149,6.491485799159626],[100.2169368546107,6.491597057248402],[100.21633937445378,6.491739579835039],[100.21575022031232,6.491912976248684],[100.21517100701685,6.492116771190187],[100.21460332215075,6.492350406035254],[100.21404872169879,6.492613240365921],[100.21350872578226,6.492904553726451],[100.21298481449243,6.493223547598466],[100.21247842383372,6.493569347590181],[100.21199094178775,6.49394100583361],[100.21152370450888,6.494337503583242],[100.21107799266207,6.49475775400893],[100.21065502791247,6.495200605175429],[100.21025596957706,6.495664843200434],[100.20988191144703,6.496149195582401],[100.20953387878968,6.496652334688938],[100.20921282553837,6.497172881396475],[100.2089196316777,6.497709408870853],[100.2086551008317,6.498260446478753],[100.208419958061,6.498824483819207],[100.20821484787561,6.499399974863907],[100.2080403324683,6.499985342195274],[100.20789689017366,6.500578981330413],[100.20778491415703,6.501179265119266],[100.20770471133693,6.50178454820479],[100.20765650154367,6.502393171533013],[100.20764041691697,6.503003466900536],[100.20765650154367,6.503613761527041],[100.20770471133693,6.504222382640377],[100.20778491415703,6.504827662061405],[100.20789689017366,6.505427940776293],[100.2080403324683,6.506021573483582],[100.20821484787561,6.506606933103656],[100.208419958061,6.507182415238084],[100.2086551008317,6.50774644256694],[100.2089196316777,6.508297469171584],[100.20921282553837,6.508833984771603],[100.20953387878968,6.509354518863775],[100.20988191144703,6.509857644752182],[100.21025596957706,6.510341983458042],[100.21065502791247,6.510806207498823],[100.21107799266207,6.511249044526179],[100.21152370450888,6.511669280812711],[100.21199094178775,6.51206576457812],[100.21247842383372,6.512437409145455],[100.21298481449243,6.512783195919015],[100.21350872578226,6.513102177175677],[100.21404872169879,6.513393478661848],[100.21460332215075,6.513656301989271],[100.21517100701685,6.513889926822716],[100.21575022031232,6.514093712853971],[100.21633937445378,6.514267101556311],[100.2169368546107,6.51440961771511],[100.21754102313149,6.514520870729921],[100.21815022403221,6.514600555684833],[100.21876278753557,6.514648454184007],[100.21937703464754,6.514664434950098],[100.21999128175953,6.514648454184007],[100.22060384526289,6.514600555684833],[100.22121304616361,6.514520870729921],[100.22181721468439,6.51440961771511],[100.22241469484132,6.514267101556311],[100.22300384898278,6.514093712853971],[100.22358306227825,6.513889926822716],[100.22415074714435,6.513656301989271],[100.22470534759631,6.513393478661848],[100.22524534351284,6.513102177175677],[100.22576925480267,6.512783195919015],[100.22627564546137,6.512437409145455],[100.22676312750735,6.51206576457812],[100.2272303647862,6.511669280812711],[100.22767607663303,6.511249044526179],[100.22809904138263,6.510806207498823],[100.22849809971802,6.510341983458042],[100.22887215784806,6.509857644752182],[100.22922019050542,6.509354518863775],[100.22954124375673,6.508833984771603],[100.2298344376174,6.508297469171584],[100.2300989684634,6.50774644256694],[100.2303341112341,6.507182415238084],[100.23053922141948,6.506606933103656],[100.2307137368268,6.506021573483582],[100.23085717912144,6.505427940776293],[100.23096915513806,6.504827662061405],[100.23104935795816,6.504222382640377],[100.23109756775142,6.503613761527041],[100.23111365237813,6.503003466900536]],[[100.18990424399473,6.491103624089916],[100.18988547412835,6.490391426361635],[100.1898292159761,6.489681179714814],[100.18973562373769,6.488974830898606],[100.18960495394292,6.488274315986605],[100.18943756474859,6.4875815550699],[100.1892339149569,6.486898446993999],[100.18899456275773,6.486226864153759],[100.18872016419886,6.485568647360886],[100.18841147138762,6.484925600797797],[100.1880693304296,6.48429948707188],[100.18769467910933,6.48369202238366],[100.18728854432008,6.483104871822047],[100.18685203924905,6.482539644799695],[100.18638636032632,6.481997890640906],[100.18589278394545,6.481481094334191],[100.18537266296497,6.48099067246119],[100.18482742300033,6.480527969313021],[100.1842585585164,6.480094253204856],[100.18366762873119,6.479690712998645],[100.18305625334213,6.479318454843764],[100.1824261080867,6.478978499144238],[100.18177892014926,6.47867177776123],[100.18111646342687,6.478399131458059],[100.18044055366748,6.478161307595079],[100.1797530434927,6.477958958080633],[100.1790558173201,6.477792637583661],[100.17835078619821,6.477662802012875],[100.17763988256831,6.47756980726686],[100.17692505496782,6.477513908258143],[100.17620826268954,6.477495258214359],[100.17549147041125,6.477513908258143],[100.17477664281076,6.47756980726686],[100.17406573918086,6.477662802012875],[100.17336070805895,6.477792637583661],[100.17266348188637,6.477958958080633],[100.17197597171159,6.478161307595079],[100.17130006195218,6.478399131458059],[100.17063760522983,6.47867177776123],[100.16999041729238,6.478978499144238],[100.16936027203694,6.479318454843764],[100.1687488966479,6.479690712998645],[100.16815796686267,6.480094253204856],[100.16758910237874,6.480527969313021],[100.1670438624141,6.48099067246119],[100.16652374143362,6.481481094334191],[100.16603016505275,6.481997890640906],[100.16556448613002,6.482539644799695],[100.165127981059,6.483104871822047],[100.16472184626973,6.48369202238366],[100.16434719494949,6.48429948707188],[100.16400505399145,6.484925600797797],[100.16369636118021,6.485568647360886],[100.16342196262134,6.486226864153759],[100.16318261042217,6.486898446993999],[100.16297896063048,6.4875815550699],[100.16281157143617,6.488274315986605],[100.1626809016414,6.488974830898606],[100.16258730940298,6.489681179714814],[100.16253105125074,6.490391426361635],[100.16251228138434,6.491103624089916],[100.16253105125074,6.491815820810954],[100.16258730940298,6.492526064447063],[100.1626809016414,6.493232408282064],[100.16281157143617,6.493932916296981],[100.16297896063048,6.494625668476232],[100.16318261042217,6.495308766070092],[100.16342196262134,6.495980336798525],[100.16369636118021,6.49663853998253],[100.16400505399145,6.497281571588768],[100.16434719494949,6.497907669173753],[100.16472184626973,6.498515116713783],[100.165127981059,6.499102249307844],[100.16556448613002,6.499667457740121],[100.16603016505275,6.500209192890008],[100.16652374143362,6.500725969977228],[100.1670438624141,6.50121637263076],[100.16758910237874,6.501679056770014],[100.16815796686267,6.502112754288104],[100.1687488966479,6.502516276526764],[100.16936027203694,6.502888517533456],[100.16999041729238,6.503228457092048],[100.17063760522983,6.503535163518218],[100.17130006195218,6.503807796212508],[100.17197597171159,6.504045607963668],[100.17266348188637,6.504247946996075],[100.17336070805895,6.504414258755618],[100.17406573918086,6.504544087429294],[100.17477664281076,6.504637077194128],[100.17549147041125,6.504692973192133],[100.17620826268954,6.504711622228659],[100.17692505496782,6.504692973192133],[100.17763988256831,6.504637077194128],[100.17835078619821,6.504544087429294],[100.1790558173201,6.504414258755618],[100.1797530434927,6.504247946996075],[100.18044055366748,6.504045607963668],[100.18111646342687,6.503807796212508],[100.18177892014926,6.503535163518218],[100.1824261080867,6.503228457092048],[100.18305625334213,6.502888517533456],[100.18366762873119,6.502516276526764],[100.1842585585164,6.502112754288104],[100.18482742300033,6.501679056770014],[100.18537266296497,6.50121637263076],[100.18589278394545,6.500725969977228],[100.18638636032632,6.500209192890008],[100.18685203924905,6.499667457740121],[100.18728854432008,6.499102249307844],[100.18769467910933,6.498515116713783],[100.1880693304296,6.497907669173753],[100.18841147138762,6.497281571588768],[100.18872016419886,6.49663853998253],[100.18899456275773,6.495980336798525],[100.1892339149569,6.495308766070092],[100.18943756474859,6.494625668476232],[100.18960495394292,6.493932916296981],[100.18973562373769,6.493232408282064],[100.1898292159761,6.492526064447063],[100.18988547412835,6.491815820810954],[100.18990424399473,6.491103624089916]],[[100.23244962984488,6.443811438448852],[100.23243073127638,6.443094290190325],[100.23237408737056,6.442379106575806],[100.2322798533844,6.441667847886409],[100.23214828760673,6.440962463653482],[100.2319797506502,6.440264887314778],[100.23177470446286,6.439577030914751],[100.23153371106211,6.438900779863416],[100.23125743099408,6.438237987767993],[100.23094662152324,6.437590471351887],[100.23060213455672,6.436960005474431],[100.23022491430939,6.436348318265505],[100.22981599471571,6.435757086388137],[100.22937649659586,6.43518793044207],[100.22890762458364,6.434642410520977],[100.22841066382465,6.434122021935594],[100.22788697645376,6.43362819111424],[100.22733799786168,6.433162271692259],[100.22676523276058,6.432725540800901],[100.22617025105977,6.432319195565899],[100.22555468356275,6.431944349825529],[100.22492021749721,6.431602031076646],[100.22426859189058,6.431293177657801],[100.22360159280332,6.431018636176468],[100.22292104843359,6.430779159187928],[100.22222882410617,6.430575403131925],[100.22152681715984,6.430407926532919],[100.22081695174687,6.430277188468649],[100.22010117355899,6.43018354731156],[100.21938144449445,6.430127259746067],[100.21865973728062,6.430108480064923],[100.21793803006678,6.430127259746067],[100.21721830100225,6.43018354731156],[100.21650252281437,6.430277188468649],[100.21579265740138,6.430407926532919],[100.21509065045507,6.430575403131925],[100.21439842612763,6.430779159187928],[100.2137178817579,6.431018636176468],[100.21305088267064,6.431293177657801],[100.212399257064,6.431602031076646],[100.21176479099847,6.431944349825529],[100.21114922350145,6.432319195565899],[100.21055424180064,6.432725540800901],[100.20998147669954,6.433162271692259],[100.20943249810746,6.43362819111424],[100.20890881073657,6.434122021935594],[100.20841184997758,6.434642410520977],[100.20794297796537,6.43518793044207],[100.20750347984551,6.435757086388137],[100.20709456025183,6.436348318265505],[100.2067173400045,6.436960005474431],[100.20637285303799,6.437590471351887],[100.20606204356714,6.438237987767993],[100.20578576349911,6.438900779863416],[100.20554477009836,6.439577030914751],[100.20533972391104,6.440264887314778],[100.2051711869545,6.440962463653482],[100.20503962117682,6.441667847886409],[100.20494538719066,6.442379106575806],[100.20488874328484,6.443094290190325],[100.20486984471634,6.443811438448852],[100.20488874328484,6.444528585693583],[100.20494538719066,6.445243766277834],[100.20503962117682,6.445955019953646],[100.2051711869545,6.446660397244644],[100.20533972391104,6.447357964789114],[100.20554477009836,6.448045810638949],[100.20578576349911,6.448722049499752],[100.20606204356714,6.449384827897837],[100.20637285303799,6.450032329259881],[100.2067173400045,6.450662778891484],[100.20709456025183,6.451274448840747],[100.20750347984551,6.451865662633774],[100.20794297796537,6.452434799868943],[100.20841184997758,6.452980300657562],[100.20890881073657,6.453500669898531],[100.20943249810746,6.45399448137546],[100.20998147669954,6.454460381664966],[100.21055424180064,6.454897093845426],[100.21114922350145,6.455303420996062],[100.21176479099847,6.455678249476795],[100.212399257064,6.456020551979813],[100.21305088267064,6.456329390344597],[100.2137178817579,6.45660391812859],[100.21439842612763,6.456843382926599],[100.21509065045507,6.457047128432409],[100.21579265740138,6.457214596237194],[100.21650252281437,6.457345327359523],[100.21721830100225,6.457438963503052],[100.21793803006678,6.457495248038252],[100.21865973728062,6.457514026705601],[100.21938144449445,6.457495248038252],[100.22010117355899,6.457438963503052],[100.22081695174687,6.457345327359523],[100.22152681715984,6.457214596237194],[100.22222882410617,6.457047128432409],[100.22292104843359,6.456843382926599],[100.22360159280332,6.45660391812859],[100.22426859189058,6.456329390344597],[100.22492021749721,6.456020551979813],[100.22555468356275,6.455678249476795],[100.22617025105977,6.455303420996062],[100.22676523276058,6.454897093845426],[100.22733799786168,6.454460381664966],[100.22788697645376,6.45399448137546],[100.22841066382465,6.453500669898531],[100.22890762458364,6.452980300657562],[100.22937649659586,6.452434799868943],[100.22981599471571,6.451865662633774],[100.23022491430939,6.451274448840747],[100.23060213455672,6.450662778891484],[100.23094662152324,6.450032329259881],[100.23125743099408,6.449384827897837],[100.23153371106211,6.448722049499752],[100.23177470446286,6.448045810638962],[100.2319797506502,6.447357964789114],[100.23214828760673,6.446660397244644],[100.2322798533844,6.445955019953646],[100.23237408737056,6.445243766277834],[100.23243073127638,6.444528585693583],[100.23244962984488,6.443811438448852]],[[100.20766035930333,6.425631457291789],[100.2076424748866,6.424952769019925],[100.20758887065634,6.424275940083853],[100.20749969353801,6.423602825635865],[100.20737518795991,6.422935270654336],[100.20721569518314,6.422275104886623],[100.20702165236636,6.42162413783354],[100.20679359136744,6.42098415378929],[100.20653213728569,6.420356906950425],[100.2062380067486,6.419744116607227],[100.20591200594754,6.419147462430673],[100.205555028428,6.418568579867974],[100.20516805264059,6.418009055659323],[100.20475213925903,6.417470423487997],[100.204308428273,6.41695415977594],[100.20383813586346,6.416461679636238],[100.2033425510692,6.415994332993625],[100.2028230322537,6.415553400883658],[100.20228100338197,6.415140091940716],[100.2017179501174,6.414755539084407],[100.2011354157499,6.414400796413655],[100.20053499696564,6.414076836316681],[100.19991833947083,6.413784546805092],[100.19928713348074,6.413524729079248],[100.19864310908716,6.413298095331652],[100.19798803151615,6.413105266794286],[100.19732369628981,6.412946772035404],[100.19665192430486,6.412823045510303],[100.19597455684155,6.412734426370229],[100.19529345051706,6.412681157532427],[100.19461047219646,6.412663385014163],[100.19392749387585,6.412681157532427],[100.19324638755137,6.412734426370229],[100.19256902008804,6.412823045510303],[100.19189724810309,6.412946772035404],[100.19123291287674,6.413105266794286],[100.19057783530575,6.413298095331652],[100.18993381091217,6.413524729079248],[100.18930260492209,6.413784546805092],[100.18868594742726,6.414076836316681],[100.18808552864301,6.414400796413655],[100.1875029942755,6.414755539084407],[100.18693994101093,6.415140091940716],[100.1863979121392,6.415553400883658],[100.18587839332372,6.415994332993625],[100.18538280852945,6.416461679636238],[100.18491251611991,6.41695415977594],[100.18446880513386,6.417470423487997],[100.18405289175232,6.418009055659323],[100.18366591596491,6.418568579867974],[100.18330893844538,6.419147462430673],[100.1829829376443,6.419744116607227],[100.18268880710721,6.420356906950425],[100.18242735302547,6.42098415378929],[100.18219929202654,6.42162413783354],[100.18200524920977,6.422275104886623],[100.181845756433,6.422935270654336],[100.1817212508549,6.423602825635865],[100.18163207373657,6.424275940083853],[100.18157846950632,6.424952769019925],[100.18156058508957,6.425631457291789],[100.18157846950632,6.426310144658265],[100.18163207373657,6.42698697088808],[100.1817212508549,6.427660080858597],[100.181845756433,6.4283276296405],[100.18200524920977,6.428987787554342],[100.18219929202654,6.429638745185375],[100.18242735302547,6.430278718342625],[100.18268880710721,6.43090595294881],[100.1829829376443,6.431518729847676],[100.18330893844538,6.432115369515556],[100.18366591596491,6.432694236664169],[100.18405289175232,6.433253744722229],[100.18446880513386,6.433792360183418],[100.18491251611991,6.434308606808836],[100.18538280852945,6.434801069672629],[100.18587839332372,6.435268399039321],[100.1863979121392,6.435709314062649],[100.18693994101093,6.436122606295453],[100.1875029942755,6.436507143001172],[100.18808552864301,6.436861870257837],[100.18868594742726,6.437185815846138],[100.18930260492209,6.437478091913396],[100.18993381091217,6.437737897406559],[100.19057783530575,6.437964520267142],[100.19123291287674,6.43815733938247],[100.19189724810309,6.438315826287494],[100.19256902008804,6.438439546612956],[100.19324638755137,6.43852816127556],[100.19392749387585,6.438581427407117],[100.19461047219646,6.438599199019966],[100.19529345051706,6.438581427407117],[100.19597455684155,6.43852816127556],[100.19665192430486,6.438439546612956],[100.19732369628981,6.438315826287494],[100.19798803151615,6.43815733938247],[100.19864310908716,6.437964520267142],[100.19928713348074,6.437737897406559],[100.19991833947083,6.437478091913396],[100.20053499696564,6.437185815846138],[100.2011354157499,6.436861870257837],[100.2017179501174,6.436507143001172],[100.20228100338197,6.436122606295453],[100.2028230322537,6.435709314062649],[100.2033425510692,6.435268399039321],[100.20383813586346,6.434801069672629],[100.204308428273,6.434308606808836],[100.20475213925903,6.433792360183418],[100.20516805264059,6.433253744722229],[100.205555028428,6.432694236664169],[100.20591200594754,6.432115369515556],[100.2062380067486,6.431518729847676],[100.20653213728569,6.43090595294881],[100.20679359136744,6.430278718342625],[100.20702165236636,6.429638745185375],[100.20721569518314,6.428987787554342],[100.20737518795991,6.4283276296405],[100.20749969353801,6.427660080858597],[100.20758887065634,6.42698697088808],[100.2076424748866,6.426310144658265],[100.20766035930333,6.425631457291789]],[[100.15373510008526,6.41086848752161],[100.153717513572,6.410201084929667],[100.1536648022357,6.409535510771995],[100.15357711055442,6.40887358935194],[100.15345467888501,6.4082171349679],[100.15329784280414,6.407567946940394],[100.15310703218859,6.406927804679846],[100.15288277003702,6.40629846280909],[100.15262567103639,6.405681646353663],[100.15233643987719,6.405079046013087],[100.15201586932193,6.404492313526317],[100.1516648380322,6.40392305714383],[100.15128430816038,6.403372837218855],[100.15087532271241,6.402843161929969],[100.15043900268894,6.402335483146502],[100.14997654401287,6.401851192448366],[100.14948921425125,6.401391617311123],[100.14897834914112,6.400958017466671],[100.14844534892816,6.400551581449681],[100.14789167452899,6.400173423339175],[100.14731884352663,6.39982457970413],[100.14672842601102,6.399506006761747],[100.14612204027553,6.399218577755692],[100.14550134838134,6.398963080562094],[100.14486805160178,6.398740215529399],[100.14422388575929,6.398550593558245],[100.14357061646766,6.398394734426519],[100.14291003429263,6.398273065364368],[100.14224394984403,6.39818591988273],[100.141574188813,6.398133536859049],[100.14090258696801,6.398116059882226],[100.14023098512303,6.398133536859049],[100.13956122409199,6.39818591988273],[100.1388951396434,6.398273065364368],[100.13823455746837,6.398394734426519],[100.13758128817675,6.398550593558245],[100.13693712233425,6.398740215529399],[100.13630382555468,6.398963080562094],[100.13568313366049,6.399218577755692],[100.135076747925,6.399506006761747],[100.13448633040939,6.39982457970413],[100.13391349940703,6.400173423339175],[100.13335982500786,6.400551581449681],[100.13282682479492,6.400958017466671],[100.13231595968477,6.401391617311123],[100.13182862992315,6.401851192448366],[100.13136617124708,6.402335483146502],[100.13092985122361,6.402843161929969],[100.13052086577564,6.403372837218855],[100.13014033590382,6.40392305714383],[100.12978930461409,6.404492313526317],[100.12946873405885,6.405079046013087],[100.12917950289963,6.405681646353663],[100.128922403899,6.40629846280909],[100.12869814174744,6.406927804679846],[100.12850733113189,6.407567946940394],[100.12835049505101,6.4082171349679],[100.1282280633816,6.40887358935194],[100.12814037170033,6.409535510771995],[100.12808766036402,6.410201084929667],[100.12807007385076,6.41086848752161],[100.12808766036402,6.411535889240046],[100.12814037170033,6.412201460786775],[100.1282280633816,6.412863377887064],[100.12835049505101,6.413519826289829],[100.12850733113189,6.414169006740096],[100.12869814174744,6.414809139910454],[100.128922403899,6.415438471277656],[100.12917950289963,6.416055275931255],[100.12946873405885,6.416657863301018],[100.12978930461409,6.417244581790129],[100.13014033590382,6.41781382330145],[100.13052086577564,6.418364027644671],[100.13092985122361,6.418893686811962],[100.13136617124708,6.419401349110601],[100.13182862992315,6.419885623141307],[100.13231595968477,6.420345181611108],[100.13282682479492,6.420778764970746],[100.13335982500786,6.421185184866126],[100.13391349940703,6.421563327394905],[100.13448633040939,6.421912156158758],[100.135076747925,6.422230715103481],[100.13568313366049,6.422518131138737],[100.13630382555468,6.422773616530494],[100.13693712233425,6.422996471059649],[100.13758128817675,6.423186083940611],[100.13823455746837,6.423341935495085],[100.1388951396434,6.423463598575975],[100.13956122409199,6.423550739737834],[100.14023098512303,6.423603120150585],[100.14090258696801,6.4236205962539],[100.141574188813,6.423603120150585],[100.14224394984403,6.423550739737834],[100.14291003429263,6.423463598575975],[100.14357061646766,6.423341935495085],[100.14422388575929,6.423186083940611],[100.14486805160178,6.422996471059649],[100.14550134838134,6.422773616530494],[100.14612204027553,6.422518131138737],[100.14672842601102,6.422230715103481],[100.14731884352663,6.421912156158758],[100.14789167452899,6.421563327394905],[100.14844534892816,6.421185184866126],[100.14897834914112,6.420778764970746],[100.14948921425125,6.420345181611108],[100.14997654401287,6.419885623141307],[100.15043900268894,6.419401349110601],[100.15087532271241,6.418893686811962],[100.15128430816038,6.418364027644671],[100.1516648380322,6.41781382330145],[100.15201586932193,6.417244581790129],[100.15233643987719,6.416657863301018],[100.15262567103639,6.416055275931255],[100.15288277003702,6.415438471277656],[100.15310703218859,6.414809139910454],[100.15329784280414,6.414169006740096],[100.15345467888501,6.413519826289829],[100.15357711055442,6.412863377887064],[100.1536648022357,6.412201460786775],[100.153717513572,6.411535889240046],[100.15373510008526,6.41086848752161]],[[100.18594556785291,6.403779647119284],[100.18592867768858,6.403138661858442],[100.18587805349034,6.402499432692218],[100.18579383401561,6.401863711713265],[100.18567625010412,6.401233241405028],[100.18552562404517,6.400609749865497],[100.18534236869436,6.39999494607039],[100.18512698634183,6.399390515188628],[100.18488006733565,6.398798113963029],[100.18460228846367,6.398219366168892],[100.18429441109846,6.397655858162772],[100.18395727911044,6.397109134533954],[100.18359181655502,6.396580693870163],[100.18319902513963,6.396071984649484],[100.18277998147823,6.395584401269519],[100.18233583414037,6.395119280224777],[100.18186780050306,6.394677896442713],[100.18137716341393,6.394261459788644],[100.18086526767514,6.393871111748787],[100.18033351635738,6.393507922300958],[100.17978336695397,6.393172886981075],[100.17921632738624,6.392866924153831],[100.17863395187022,6.392590872495024],[100.17803783665671,6.392345488692043],[100.17742961565608,6.392131445369421],[100.17681095595981,6.39194932924473],[100.17618355327114,6.391799639519943],[100.17554912725723,6.391682786512821],[100.17490941683565,6.391599090531928],[100.17426617540823,6.391548780998457],[100.17362116605503,6.3915319958172],[100.17297615670182,6.391548780998457],[100.17233291527441,6.391599090531928],[100.17169320485284,6.391682786512821],[100.17105877883891,6.391799639519943],[100.17043137615023,6.39194932924473],[100.16981271645399,6.392131445369421],[100.16920449545334,6.392345488692043],[100.16860838023983,6.392590872495024],[100.16802600472381,6.392866924153831],[100.16745896515607,6.393172886981075],[100.16690881575269,6.393507922300958],[100.16637706443491,6.393871111748787],[100.16586516869613,6.394261459788644],[100.16537453160699,6.394677896442713],[100.16490649796968,6.395119280224777],[100.16446235063182,6.395584401269519],[100.16404330697041,6.396071984649484],[100.16365051555503,6.396580693870163],[100.16328505299961,6.397109134533954],[100.16294792101161,6.397655858162772],[100.16264004364638,6.398219366168892],[100.16236226477442,6.398798113963029],[100.16211534576823,6.399390515188628],[100.1618999634157,6.39999494607039],[100.16171670806489,6.400609749865497],[100.16156608200595,6.401233241405028],[100.16144849809444,6.401863711713265],[100.16136427861971,6.402499432692218],[100.16131365442148,6.403138661858442],[100.16129676425716,6.403779647119284],[100.16131365442148,6.404420631575293],[100.16136427861971,6.405059858335872],[100.16144849809444,6.405695575334705],[100.16156608200595,6.406326040131956],[100.16171670806489,6.406949524690018],[100.1618999634157,6.407564320109656],[100.16211534576823,6.408168741313714],[100.16236226477442,6.408761131665416],[100.16264004364638,6.409339867508607],[100.16294792101161,6.409903362617628],[100.16328505299961,6.41045007254454],[100.16365051555503,6.410978498851728],[100.16404330697041,6.411487193218389],[100.16446235063182,6.411974761409666],[100.16490649796968,6.412439867097482],[100.16537453160699,6.412881235522606],[100.16586516869613,6.413297656988],[100.16637706443491,6.413687990173828],[100.16690881575269,6.414051165265052],[100.16745896515607,6.414386186883042],[100.16802600472381,6.414692136813175],[100.16860838023983,6.414968176521035],[100.16920449545334,6.415213549450132],[100.16981271645399,6.415427583095051],[100.17043137615023,6.415609690844274],[100.17105877883891,6.415759373587591],[100.17169320485284,6.415876221083726],[100.17233291527441,6.415959913084499],[100.17297615670182,6.416010220212313],[100.17362116605503,6.416027004588762],[100.17426617540823,6.416010220212313],[100.17490941683565,6.415959913084499],[100.17554912725723,6.415876221083726],[100.17618355327114,6.415759373587591],[100.17681095595981,6.415609690844274],[100.17742961565608,6.415427583095051],[100.17803783665671,6.415213549450132],[100.17863395187022,6.414968176521035],[100.17921632738624,6.414692136813175],[100.17978336695397,6.414386186883042],[100.18033351635738,6.414051165265052],[100.18086526767514,6.413687990173828],[100.18137716341393,6.413297656988],[100.18186780050306,6.412881235522606],[100.18233583414037,6.412439867097482],[100.18277998147823,6.411974761409666],[100.18319902513963,6.411487193218389],[100.18359181655502,6.410978498851728],[100.18395727911044,6.41045007254454],[100.18429441109846,6.409903362617628],[100.18460228846367,6.409339867508607],[100.18488006733565,6.408761131665416],[100.18512698634183,6.408168741313714],[100.18534236869436,6.407564320109656],[100.18552562404517,6.406949524690018],[100.18567625010412,6.406326040131956],[100.18579383401561,6.405695575334705],[100.18587805349034,6.405059858335872],[100.18592867768858,6.404420631575293],[100.18594556785291,6.403779647119284]],[[100.32720620424631,6.446178284223305],[100.32718817272337,6.445494041154368],[100.32713412757775,6.44481167262879],[100.32704421694339,6.444133048982667],[100.32691868725912,6.443460030295087],[100.3267578825931,6.442794461289559],[100.32656224369968,6.442138166277426],[100.32633230681152,6.441492944157227],[100.32606870216964,6.440860563483591],[100.32577215229603,6.440242757619266],[100.32544347001325,6.439641219983509],[100.32508355621664,6.439057599409962],[100.32469339740489,6.438493495626601],[100.32427406297616,6.437950454870315],[100.32382670229701,6.437429965648022],[100.32335254155191,6.436933454656009],[100.32285288038257,6.43646228286871],[100.32232908832549,6.436017741807532],[100.32178260105825,6.435601050000105],[100.32121491646454,6.435213349639607],[100.32062759052833,6.434855703453348],[100.32002223306917,6.434529091789118],[100.31940050332982,6.434234409927475],[100.31876410542826,6.433972465627125],[100.31811478368691,6.433743976910346],[100.31745431785151,6.433549570094345],[100.31678451821303,6.433389778074076],[100.31610722064569,6.433265038861204],[100.31542428157508,6.433175694383168],[100.31473757288971,6.433121989545681],[100.31404897681034,6.433104071561263],[100.31336038073097,6.433121989545681],[100.31267367204559,6.433175694383168],[100.31199073297499,6.433265038861204],[100.31131343540765,6.433389778074076],[100.31064363576917,6.433549570094345],[100.30998316993376,6.433743976910346],[100.30933384819241,6.433972465627125],[100.30869745029085,6.434234409927475],[100.3080757205515,6.434529091789118],[100.30747036309235,6.434855703453348],[100.30688303715614,6.435213349639607],[100.30631535256242,6.435601050000105],[100.30576886529519,6.436017741807532],[100.30524507323811,6.43646228286871],[100.30474541206877,6.436933454656009],[100.30427125132367,6.437429965648022],[100.30382389064451,6.437950454870315],[100.3034045562158,6.438493495626601],[100.30301439740403,6.439057599409962],[100.30265448360743,6.439641219983509],[100.30232580132466,6.440242757619266],[100.30202925145103,6.440860563483591],[100.30176564680916,6.441492944157227],[100.301535709921,6.442138166277426],[100.30134007102758,6.442794461289559],[100.30117926636154,6.443460030295087],[100.30105373667728,6.444133048982667],[100.30096382604292,6.44481167262879],[100.3009097808973,6.445494041154368],[100.30089174937436,6.446178284223305],[100.3009097808973,6.44686252636899],[100.30096382604292,6.447544892134967],[100.30105373667728,6.448223511215352],[100.30117926636154,6.448896523581071],[100.30134007102758,6.4495620845779],[100.301535709921,6.45021836998225],[100.30176564680916,6.450863581000825],[100.30202925145103,6.451495949200618],[100.30232580132466,6.452113741355582],[100.30265448360743,6.452715264196633],[100.30301439740403,6.453298869052222],[100.3034045562158,6.453862956366607],[100.30382389064451,6.454405980083326],[100.30427125132367,6.454926451882134],[100.30474541206877,6.455422945257665],[100.30524507323811,6.455894099428469],[100.30576886529519,6.456338623066174],[100.30631535256242,6.456755297834022],[100.30688303715614,6.457142981725531],[100.30747036309235,6.457500612193858],[100.3080757205515,6.457827209063382],[100.30869745029085,6.458121877215651],[100.30933384819241,6.458383809042158],[100.30998316993376,6.458612286657313],[100.31064363576917,6.458806683865519],[100.31131343540765,6.458966467877088],[100.31199073297499,6.459091200768111],[100.31267367204559,6.459180540680411],[100.31336038073097,6.459234242758296],[100.31404897681034,6.459252159819475],[100.31473757288971,6.459234242758296],[100.31542428157508,6.459180540680411],[100.31610722064569,6.459091200768111],[100.31678451821303,6.458966467877088],[100.31745431785151,6.458806683865519],[100.31811478368691,6.458612286657313],[100.31876410542826,6.458383809042158],[100.31940050332982,6.458121877215651],[100.32002223306917,6.457827209063382],[100.32062759052833,6.457500612193858],[100.32121491646454,6.457142981725531],[100.32178260105825,6.456755297834022],[100.32232908832549,6.456338623066174],[100.32285288038257,6.455894099428469],[100.32335254155191,6.455422945257665],[100.32382670229701,6.454926451882134],[100.32427406297616,6.454405980083326],[100.32469339740489,6.453862956366607],[100.32508355621664,6.453298869052222],[100.32544347001325,6.452715264196633],[100.32577215229603,6.452113741355582],[100.32606870216964,6.451495949200618],[100.32633230681152,6.450863581000825],[100.32656224369968,6.45021836998225],[100.3267578825931,6.4495620845779],[100.32691868725912,6.448896523581071],[100.32704421694339,6.448223511215352],[100.32713412757775,6.447544892134967],[100.32718817272337,6.44686252636899],[100.32720620424631,6.446178284223305]],[[100.24798018030434,6.408701050060378],[100.2479626922833,6.408037382398338],[100.24791027615363,6.407375532943409],[100.24782307558431,6.40671731578962],[100.24770132958602,6.406064535082072],[100.24754537185612,6.405418980071661],[100.24735562986385,6.404782420210622],[100.24713262367887,6.404156600302271],[100.2468769645456,6.40354323571817],[100.24658935320797,6.402944007695946],[100.24627057798867,6.402360558730664],[100.24592151262839,6.401794488072213],[100.24554311389105,6.401247347341319],[100.24513641894126,6.400720636275898],[100.24470254250163,6.400215798619845],[100.24424267379733,6.399734218164933],[100.24375807329648,6.399277214957356],[100.24325006925541,6.398846041678753],[100.24272005407784,6.398441880211958],[100.24216948049857,6.398065838400846],[100.2415998576015,6.397718947013063],[100.24101274668337,6.39740215691408],[100.24040975697444,6.397116336460313],[100.23979254122756,6.396862269118301],[100.23916279118819,6.39664065131683],[100.23852223295744,6.396452090537466],[100.23787262226087,6.396297103649033],[100.23721573963627,6.396176115490536],[100.23655338555322,6.396089457706337],[100.23588737547823,6.396037367836925],[100.23521953489865,6.396019988667579],[100.23455169431908,6.396037367836925],[100.23388568424409,6.396089457706337],[100.23322333016104,6.396176115490536],[100.23256644753643,6.396297103649033],[100.23191683683986,6.396452090537466],[100.2312762786091,6.39664065131683],[100.23064652856974,6.396862269118301],[100.23002931282285,6.397116336460313],[100.22942632311393,6.39740215691408],[100.22883921219581,6.397718947013063],[100.22826958929872,6.398065838400846],[100.22771901571946,6.398441880211958],[100.2271890005419,6.398846041678753],[100.2266809965008,6.399277214957356],[100.22619639599996,6.399734218164933],[100.22573652729565,6.400215798619845],[100.22530265085604,6.400720636275898],[100.22489595590626,6.401247347341319],[100.22451755716892,6.401794488072213],[100.22416849180864,6.402360558730664],[100.22384971658931,6.402944007695946],[100.22356210525169,6.40354323571817],[100.22330644611843,6.404156600302271],[100.22308343993345,6.404782420210622],[100.22289369794117,6.405418980071661],[100.22273774021126,6.406064535082072],[100.22261599421299,6.40671731578962],[100.22252879364366,6.407375532943409],[100.222476377514,6.408037382398338],[100.22245888949296,6.408701050060378],[100.222476377514,6.409364716858947],[100.22252879364366,6.410026563732958],[100.22261599421299,6.410684776616637],[100.22273774021126,6.411337551411699],[100.22289369794117,6.411983098931993],[100.22308343993345,6.412619649807354],[100.22330644611843,6.413245459332924],[100.22356210525169,6.413858812250903],[100.22384971658931,6.414458027451459],[100.22416849180864,6.415041462580017],[100.22451755716892,6.415607518538276],[100.22489595590626,6.416154643866608],[100.22530265085604,6.416681338995783],[100.22573652729565,6.41718616035657],[100.22619639599996,6.417667724335688],[100.2266809965008,6.418124711067483],[100.2271890005419,6.418555868050807],[100.22771901571946,6.418960013581367],[100.22826958929872,6.419336039989906],[100.22883921219581,6.419682916677509],[100.22942632311393,6.419999692939755],[100.23002931282285,6.420285500571881],[100.23064652856974,6.420539556247757],[100.2312762786091,6.420761163666447],[100.23191683683986,6.420949715460134],[100.23256644753643,6.421104694858462],[100.23322333016104,6.421225677104461],[100.23388568424409,6.42131233061855],[100.23455169431908,6.421364417907055],[100.23521953489865,6.421381796212945],[100.23588737547823,6.421364417907055],[100.23655338555322,6.42131233061855],[100.23721573963627,6.421225677104461],[100.23787262226087,6.421104694858462],[100.23852223295744,6.420949715460134],[100.23916279118819,6.420761163666447],[100.23979254122756,6.420539556247757],[100.24040975697444,6.420285500571881],[100.24101274668337,6.419999692939755],[100.2415998576015,6.419682916677509],[100.24216948049857,6.419336039989906],[100.24272005407784,6.418960013581367],[100.24325006925541,6.418555868050807],[100.24375807329648,6.418124711067483],[100.24424267379733,6.417667724335688],[100.24470254250163,6.41718616035657],[100.24513641894126,6.416681338995783],[100.24554311389105,6.416154643866608],[100.24592151262839,6.415607518538276],[100.24627057798867,6.415041462580017],[100.24658935320797,6.414458027451459],[100.2468769645456,6.413858812250903],[100.24713262367887,6.413245459332924],[100.24735562986385,6.412619649807354],[100.24754537185612,6.411983098931993],[100.24770132958602,6.411337551411699],[100.24782307558431,6.410684776616637],[100.24791027615363,6.410026563732958],[100.2479626922833,6.409364716858947],[100.24798018030434,6.408701050060378]],[[100.26758871261733,6.371258577408734],[100.26757234087825,6.370637227027813],[100.26752327053478,6.370017578975848],[100.26744163608532,6.369401331674395],[100.26732766128423,6.368790174229841],[100.26718165852853,6.368185781803467],[100.2670040280016,6.36758981101976],[100.26679525657639,6.367003895425432],[100.26655591648084,6.366429641011611],[100.26628666372955,6.365868621811502],[100.26598823632557,6.365322375585646],[100.26566145223767,6.364792399606509],[100.26530720715833,6.364280146554033],[100.26492647204867,6.363787020533329],[100.26452029047721,6.363314373225559],[100.26408977575936,6.362863500182435],[100.26363610790604,6.362435637274557],[100.26316053038933,6.362031957303324],[100.26266434673411,6.36165356678573],[100.26214891694529,6.361301502920886],[100.26161565378014,6.360976730746398],[100.26106601887588,6.3606801404928],[100.26050151874361,6.360412545142797],[100.25992370063895,6.36017467820246],[100.25933414832112,6.359967191690245],[100.25873447771211,6.359790654349364],[100.25812633246733,6.359645550088478],[100.25751137947064,6.359532276655071],[100.25689130426545,6.359451144544866],[100.25626780643482,6.35940237615059],[100.25564259494294,6.359386105152243],[100.25501738345108,6.35940237615059],[100.25439388562043,6.359451144544866],[100.25377381041524,6.359532276655071],[100.25315885741855,6.359645550088478],[100.25255071217379,6.359790654349364],[100.25195104156477,6.359967191690245],[100.25136148924693,6.36017467820246],[100.25078367114229,6.360412545142797],[100.25021917101,6.3606801404928],[100.24966953610574,6.360976730746398],[100.2491362729406,6.361301502920886],[100.24862084315178,6.36165356678573],[100.24812465949657,6.362031957303324],[100.24764908197984,6.362435637274557],[100.24719541412652,6.362863500182435],[100.24676489940869,6.363314373225559],[100.24635871783721,6.363787020533329],[100.24597798272755,6.364280146554033],[100.24562373764822,6.364792399606509],[100.24529695356031,6.365322375585646],[100.24499852615634,6.365868621811502],[100.24472927340504,6.366429641011611],[100.2444899333095,6.367003895425432],[100.24428116188429,6.36758981101976],[100.24410353135737,6.368185781803467],[100.24395752860167,6.368790174229841],[100.24384355380056,6.369401331674395],[100.24376191935112,6.370017578975848],[100.24371284900765,6.370637227027813],[100.24369647726856,6.371258577408734],[100.24371284900765,6.371879927037276],[100.24376191935112,6.372499572840283],[100.24384355380056,6.373115816420868],[100.24395752860167,6.37372696871342],[100.24410353135737,6.374331354613081],[100.24428116188429,6.374927317566873],[100.2444899333095,6.375513224113896],[100.24472927340504,6.376087468362117],[100.24499852615634,6.37664847638974],[100.24529695356031,6.377194710558596],[100.24562373764822,6.377724673728341],[100.24597798272755,6.378236913359373],[100.24635871783721,6.378730025493623],[100.24676489940869,6.37920265860206],[100.24719541412652,6.379653517288568],[100.24764908197984,6.380081365839842],[100.24812465949657,6.380485031611756],[100.24862084315178,6.380863408242883],[100.2491362729406,6.381215458686294],[100.24966953610574,6.381540218051379],[100.25021917101,6.38183679624799],[100.25078367114229,6.382104380425493],[100.25136148924693,6.38234223720023],[100.25195104156477,6.382549714665141],[100.25255071217379,6.382726244176119],[100.25315885741855,6.382871341910291],[100.25377381041524,6.382984610191683],[100.25439388562043,6.383065738581034],[100.25501738345108,6.383114504726352],[100.25564259494294,6.383130774972307],[100.25626780643482,6.383114504726352],[100.25689130426545,6.383065738581034],[100.25751137947064,6.382984610191683],[100.25812633246733,6.382871341910291],[100.25873447771211,6.382726244176119],[100.25933414832112,6.382549714665141],[100.25992370063895,6.38234223720023],[100.26050151874361,6.382104380425493],[100.26106601887588,6.38183679624799],[100.26161565378014,6.381540218051379],[100.26214891694529,6.381215458686294],[100.26266434673411,6.380863408242883],[100.26316053038933,6.380485031611756],[100.26363610790604,6.380081365839842],[100.26408977575936,6.379653517288568],[100.26452029047721,6.37920265860206],[100.26492647204867,6.378730025493623],[100.26530720715833,6.378236913359373],[100.26566145223767,6.377724673728341],[100.26598823632557,6.377194710558596],[100.26628666372955,6.37664847638974],[100.26655591648084,6.376087468362117],[100.26679525657639,6.375513224113896],[100.2670040280016,6.374927317566873],[100.26718165852853,6.374331354613081],[100.26732766128423,6.37372696871342],[100.26744163608532,6.373115816420868],[100.26752327053478,6.372499572840283],[100.26757234087825,6.371879927037276],[100.26758871261733,6.371258577408734]],[[100.18661947861993,6.352070252543335],[100.18660372681775,6.351472408084725],[100.1865565145858,6.350876201584703],[100.18647797132955,6.350283267212443],[100.18636831233056,6.349695230173984],[100.18622783815657,6.349113702257585],[100.18605693383749,6.348540277415628],[100.1858560678102,6.347976527395479],[100.18562579063452,6.347423997431083],[100.18536673348417,6.346884202007238],[100.1850796064168,6.346358620708032],[100.18476519642775,6.345848694161027],[100.18442436529293,6.345355820087963],[100.18405804720682,6.344881349473305],[100.1836672462218,6.344426582860647],[100.1832530334962,6.343992766787457],[100.18281654435833,6.343581090367827],[100.18235897519456,6.343192682032575],[100.1818815801702,6.342828606435762],[100.18138566779179,6.342489861535848],[100.1808725973207,6.342177375859881],[100.18034377504743,6.341892005957879],[100.17980065043709,6.341634534054568],[100.17924471215645,6.341405665904829],[100.17867748399371,6.341206028858812],[100.17810052068184,6.341036170142055],[100.17751540363717,6.340896555355107],[100.17692373662486,6.340787567197115],[100.17632714136306,6.34070950441655],[100.17572725307788,6.340662580992111],[100.17512571602147,6.340646925546193],[100.17452417896506,6.340662580992111],[100.17392429067988,6.34070950441655],[100.17332769541808,6.340787567197115],[100.17273602840577,6.340896555355107],[100.1721509113611,6.341036170142055],[100.17157394804923,6.341206028858812],[100.17100671988649,6.341405665904829],[100.17045078160585,6.341634534054568],[100.1699076569955,6.341892005957879],[100.16937883472224,6.342177375859881],[100.16886576425115,6.342489861535848],[100.16836985187274,6.342828606435762],[100.16789245684838,6.343192682032575],[100.16743488768462,6.343581090367827],[100.16699839854674,6.343992766787457],[100.16658418582114,6.344426582860647],[100.16619338483612,6.344881349473305],[100.16582706675001,6.345355820087963],[100.16548623561519,6.345848694161027],[100.16517182562613,6.346358620708032],[100.16488469855877,6.346884202007238],[100.16462564140842,6.347423997431083],[100.16439536423273,6.347976527395479],[100.16419449820545,6.348540277415628],[100.16402359388637,6.349113702257585],[100.16388311971238,6.349695230173984],[100.1637734607134,6.350283267212443],[100.16369491745714,6.350876201584703],[100.16364770522519,6.351472408084725],[100.163631953423,6.352070252543335],[100.16364770522519,6.352668096307516],[100.16369491745714,6.353264300731857],[100.1637734607134,6.353857231669919],[100.16388311971238,6.354445263953272],[100.16402359388637,6.35502678584579],[100.16419449820545,6.355600203461055],[100.16439536423273,6.356163945130912],[100.16462564140842,6.356716465712875],[100.16488469855877,6.357256250824968],[100.16517182562613,6.357781820996049],[100.16548623561519,6.358291735720512],[100.16582706675001,6.35878459740613],[100.16619338483612,6.359259055204145],[100.16658418582114,6.359713808711416],[100.16699839854674,6.360147611534035],[100.16743488768462,6.360559274703091],[100.16789245684838,6.360947669932945],[100.16836985187274,6.361311732713126],[100.16886576425115,6.361650465225607],[100.16937883472224,6.361962939079019],[100.1699076569955,6.362248297852897],[100.17045078160585,6.362505759444443],[100.17100671988649,6.362734618211762],[100.17157394804923,6.362934246907475],[100.1721509113611,6.363104098397553],[100.17273602840577,6.363243707160607],[100.17332769541808,6.363352690563504],[100.17392429067988,6.363430749909871],[100.17452417896506,6.363477671258604],[100.17512571602147,6.363493326010105],[100.17572725307788,6.363477671258604],[100.17632714136306,6.363430749909871],[100.17692373662486,6.363352690563504],[100.17751540363717,6.363243707160607],[100.17810052068184,6.363104098397553],[100.17867748399371,6.362934246907475],[100.17924471215645,6.362734618211762],[100.17980065043709,6.362505759444443],[100.18034377504743,6.362248297852897],[100.1808725973207,6.361962939079019],[100.18138566779179,6.361650465225607],[100.1818815801702,6.361311732713126],[100.18235897519456,6.360947669932945],[100.18281654435833,6.360559274703091],[100.1832530334962,6.360147611534035],[100.1836672462218,6.359713808711416],[100.18405804720682,6.359259055204145],[100.18442436529293,6.35878459740613],[100.18476519642775,6.358291735720512],[100.1850796064168,6.357781820996049],[100.18536673348417,6.357256250824968],[100.18562579063452,6.356716465712875],[100.1858560678102,6.356163945130912],[100.18605693383749,6.355600203461055],[100.18622783815657,6.35502678584579],[100.18636831233056,6.354445263953272],[100.18647797132955,6.353857231669919],[100.1865565145858,6.353264300731857],[100.18660372681775,6.352668096307516],[100.18661947861993,6.352070252543335]],[[100.2069048708873,6.305495448192812],[100.20688900431806,6.30489319356586],[100.20684144809945,6.30429258898041],[100.20676233257979,6.303695280660549],[100.20665187460922,6.3031029058011],[100.20651037694536,6.30251708808015],[100.20633822742343,6.3019394332083],[100.20613589789338,6.301371524527337],[100.20590394292633,6.300814918670094],[100.20564299829473,6.300271141293361],[100.20535377922971,6.299741682895823],[100.20503707846058,6.299227994732178],[100.20469376404215,6.298731484834924],[100.20432477697538,6.298253514154377],[100.2039311286282,6.297795392827979],[100.20351389796332,6.297358376588629],[100.20307422858103,6.296943663322249],[100.2026133255845,6.296552389783828],[100.20213245227684,6.296185628481148],[100.20163292669838,6.295844384734392],[100.20111611801396,6.295529593920135],[100.20058344276029,6.295242118906976],[100.2000363609632,6.294982747689942],[100.19947637213589,6.294752191230089],[100.1989050111688,6.294551081505425],[100.19832384412264,6.294379969778198],[100.19773446393586,6.294239325083637],[100.19713848605858,6.29412953294394],[100.19653754402476,6.294050894311368],[100.19593328497476,6.294003624743155],[100.1953273651406,6.293987853810444],[100.19472144530643,6.294003624743155],[100.19411718625642,6.294050894311368],[100.19351624422262,6.29412953294394],[100.19292026634534,6.294239325083637],[100.19233088615857,6.294379969778198],[100.1917497191124,6.294551081505425],[100.1911783581453,6.294752191230089],[100.190618369318,6.294982747689942],[100.19007128752091,6.295242118906976],[100.18953861226724,6.295529593920135],[100.18902180358282,6.295844384734392],[100.18852227800436,6.296185628481148],[100.1880414046967,6.296552389783828],[100.18758050170017,6.296943663322249],[100.18714083231787,6.297358376588629],[100.186723601653,6.297795392827979],[100.1863299533058,6.298253514154377],[100.18596096623904,6.298731484834924],[100.18561765182062,6.299227994732178],[100.18530095105149,6.299741682895823],[100.18501173198646,6.300271141293361],[100.18475078735487,6.300814918670094],[100.18451883238782,6.301371524527337],[100.18431650285775,6.3019394332083],[100.18414435333584,6.30251708808015],[100.18400285567196,6.3031029058011],[100.1838923977014,6.303695280660549],[100.18381328218175,6.30429258898041],[100.18376572596316,6.30489319356586],[100.1837498593939,6.305495448192812],[100.18376572596316,6.306097702120246],[100.18381328218175,6.306698304614825],[100.1838923977014,6.3072956094754],[100.18400285567196,6.30788797954501],[100.18414435333584,6.308473791198059],[100.18431650285775,6.309051438790434],[100.18451883238782,6.309619339060077],[100.18475078735487,6.31017593546634],[100.18501173198646,6.310719702455978],[100.18530095105149,6.311249149644084],[100.18561765182062,6.311762825898791],[100.18596096623904,6.312259323318093],[100.1863299533058,6.312737281088362],[100.186723601653,6.3131953892136],[100.18714083231787,6.313632392105561],[100.18758050170017,6.314047092024565],[100.1880414046967,6.314438352361828],[100.18852227800436,6.314805100754229],[100.18902180358282,6.315146332023033],[100.18953861226724,6.315461110928363],[100.19007128752091,6.315748574732091],[100.190618369318,6.316007935562031],[100.1911783581453,6.316238482570904],[100.1917497191124,6.316439583884261],[100.19233088615857,6.316610688331999],[100.19292026634534,6.316751326958659],[100.19351624422262,6.316861114308518],[100.19411718625642,6.316939749481779],[100.19472144530643,6.316987016959146],[100.1953273651406,6.317002787192352],[100.19593328497476,6.316987016959146],[100.19653754402476,6.316939749481779],[100.19713848605858,6.316861114308518],[100.19773446393586,6.316751326958659],[100.19832384412264,6.316610688331999],[100.1989050111688,6.316439583884261],[100.19947637213589,6.316238482570904],[100.2000363609632,6.316007935562031],[100.20058344276029,6.315748574732091],[100.20111611801396,6.315461110928363],[100.20163292669838,6.315146332023033],[100.20213245227684,6.314805100754229],[100.2026133255845,6.314438352361828],[100.20307422858103,6.314047092024565],[100.20351389796332,6.313632392105561],[100.2039311286282,6.3131953892136],[100.20432477697538,6.312737281088362],[100.20469376404215,6.312259323318093],[100.20503707846058,6.311762825898791],[100.20535377922971,6.311249149644084],[100.20564299829473,6.310719702455978],[100.20590394292633,6.31017593546634],[100.20613589789338,6.309619339060077],[100.20633822742343,6.309051438790434],[100.20651037694536,6.308473791198059],[100.20665187460922,6.30788797954501],[100.20676233257979,6.3072956094754],[100.20684144809945,6.306698304614837],[100.20688900431806,6.306097702120246],[100.2069048708873,6.305495448192812]]],"bbox":[100.12807007385076,6.293987853810444,100.32720620424631,6.660740789898878]}
