{"type":"Topology","objects":{"PLS_SE-11":{"type":"GeometryCollection","geometries":[{"type":"Polygon","arcs":[[0]],"properties":{"state":"Perlis","parlimen":"P.001 Padang Besar","code_parlimen":"P.001","dun":"N.01 Titi Tinggi","code_dun":"N.01","voters_total":6887}},{"type":"Polygon","arcs":[[1]],"properties":{"state":"Perlis","parlimen":"P.001 Padang Besar","code_parlimen":"P.001","dun":"N.02 Beseri","code_dun":"N.02","voters_total":6645}},{"type":"Polygon","arcs":[[2]],"properties":{"state":"Perlis","parlimen":"P.001 Padang Besar","code_parlimen":"P.001","dun":"N.03 Chuping","code_dun":"N.03","voters_total":7802}},{"type":"Polygon","arcs":[[3]],"properties":{"state":"Perlis","parlimen":"P.001 Padang Besar","code_parlimen":"P.001","dun":"N.04 Mata Ayer","code_dun":"N.04","voters_total":5557}},{"type":"Polygon","arcs":[[4]],"properties":{"state":"Perlis","parlimen":"P.001 Padang Besar","code_parlimen":"P.001","dun":"N.05 Santan","code_dun":"N.05","voters_total":7008}},{"type":"Polygon","arcs":[[5]],"properties":{"state":"Perlis","parlimen":"P.002 Kangar","code_parlimen":"P.002","dun":"N.06 Bintong","code_dun":"N.06","voters_total":7850}},{"type":"Polygon","arcs":[[6]],"properties":{"state":"Perlis","parlimen":"P.002 Kangar","code_parlimen":"P.002","dun":"N.07 Sena","code_dun":"N.07","voters_total":7979}},{"type":"Polygon","arcs":[[7]],"properties":{"state":"Perlis","parlimen":"P.002 Kangar","code_parlimen":"P.002","dun":"N.08 Indera Kayangan","code_dun":"N.08","voters_total":9314}},{"type":"Polygon","arcs":[[8]],"properties":{"state":"Perlis","parlimen":"P.002 Kangar","code_parlimen":"P.002","dun":"N.09 Kuala Perlis","code_dun":"N.09","voters_total":8024}},{"type":"Polygon","arcs":[[9]],"properties":{"state":"Perlis","parlimen":"P.002 Kangar","code_parlimen":"P.002","dun":"N.10 Kayang","code_dun":"N.10","voters_total":7349}},{"type":"Polygon","arcs":[[10]],"properties":{"state":"Perlis","parlimen":"P.003 Arau","code_parlimen":"P.003","dun":"N.11 Pauh","code_dun":"N.11","voters_total":7601}},{"type":"Polygon","arcs":[[11]],"properties":{"state":"Perlis","parlimen":"P.003 Arau","code_parlimen":"P.003","dun":"N.12 Tambun Tulang","code_dun":"N.12","voters_total":8447}},{"type":"Polygon","arcs":[[12]],"properties":{"state":"Perlis","parlimen":"P.003 Arau","code_parlimen":"P.003","dun":"N.13 Guar Sanji","code_dun":"N.13","voters_total":7765}},{"type":"Polygon","arcs":[[13]],"properties":{"state":"Perlis","parlimen":"P.003 Arau","code_parlimen":"P.003","dun":"N.14 Simpang Empat","code_dun":"N.14","voters_total":6554}},{"type":"Polygon","arcs":[[14]],"properties":{"state":"Perlis","parlimen":"P.003 Arau","code_parlimen":"P.003","dun":"N.15 Sanglang","code_dun":"N.15","voters_total":7700}}]}},"arcs":[[[100.27903732225616,6.647868637029593],[100.27902108280999,6.647252646922729],[100.27897240898264,6.646638344433291],[100.27889143418572,6.646027413331282],[100.27877838036552,6.645421528152101],[100.2786335573947,6.644822349606713],[100.27845736222292,6.644231520029399],[100.27825027778896,6.643650658875985],[100.27801287169679,6.643081358284715],[100.27774579466008,6.642525178711771],[100.27744977871835,6.641983644653828],[100.27712563523079,6.641458240468886],[100.27677425265212,6.640950406307271],[100.27639659409758,6.640461534163673],[100.27599369470302,6.639992964061124],[100.27556665878767,6.639545980377522],[100.27511665682728,6.639121808324529],[100.27464492224597,6.63872161058869],[100.27415274803543,6.638346484143951],[100.27364148321094,6.637997457244301],[100.27311252911387,6.637675486604675],[100.27256733557063,6.637381454778132],[100.27200739691882,6.637116167736197],[100.27143424791134,6.636880352659239],[100.27084945950983,6.636674655942762],[100.27025463457862,6.636499641425229],[100.2696514034915,6.636355788842199],[100.26904141966297,6.636243492511079],[100.26842635501629,6.636163060249973],[100.26780789540086,6.636114712533759],[100.26718773597158,6.636098581889652],[100.26656757654231,6.636114712533759],[100.26594911692689,6.636163060249973],[100.26533405228021,6.636243492511079],[100.26472406845167,6.636355788842199],[100.26412083736456,6.636499641425229],[100.26352601243335,6.636674655942762],[100.26294122403182,6.636880352659239],[100.26236807502436,6.637116167736197],[100.26180813637255,6.637381454778132],[100.2612629428293,6.637675486604675],[100.26073398873224,6.637997457244301],[100.26022272390775,6.638346484143951],[100.2597305496972,6.63872161058869],[100.25925881511588,6.639121808324529],[100.25880881315551,6.639545980377522],[100.25838177724016,6.639992964061124],[100.25797887784559,6.640461534163673],[100.25760121929105,6.640950406307271],[100.25724983671239,6.641458240468886],[100.25692569322482,6.641983644653828],[100.2566296772831,6.642525178711771],[100.25636260024636,6.643081358284715],[100.25612519415421,6.643650658875985],[100.25591810972024,6.644231520029399],[100.25574191454848,6.644822349606713],[100.25559709157766,6.645421528152101],[100.25548403775744,6.646027413331282],[100.25540306296053,6.646638344433291],[100.25535438913317,6.647252646922729],[100.255338149687,6.647868637029593],[100.25535438913317,6.648484626364614],[100.25540306296053,6.649098926546928],[100.25548403775744,6.649709853831825],[100.25559709157766,6.650315733725714],[100.25574191454848,6.650914905575577],[100.25591810972024,6.651505727120438],[100.25612519415421,6.65208657899251],[100.25636260024636,6.652655869155224],[100.2566296772831,6.653212037266671],[100.25692569322482,6.653753558955742],[100.25724983671239,6.654278949999942],[100.25760121929105,6.654786770392924],[100.25797887784559,6.655275628290868],[100.25838177724016,6.655744183826783],[100.25880881315551,6.656191152782392],[100.25925881511588,6.656615310107407],[100.2597305496972,6.657015493276623],[100.26022272390775,6.657390605475684],[100.26073398873224,6.657739618606724],[100.2612629428293,6.658061576105609],[100.26180813637255,6.658355595563281],[100.26236807502436,6.658620871143706],[100.26294122403182,6.658856675792108],[100.26352601243335,6.659062363227257],[100.26412083736456,6.659237369712336],[100.26472406845167,6.659381215599828],[100.26533405228021,6.659493506645667],[100.26594911692689,6.659573935089663],[100.26656757654231,6.65962228049874],[100.26718773597158,6.659638410370991],[100.26780789540086,6.65962228049874],[100.26842635501629,6.659573935089663],[100.26904141966297,6.659493506645667],[100.2696514034915,6.659381215599828],[100.27025463457862,6.659237369712336],[100.27084945950983,6.659062363227257],[100.27143424791134,6.658856675792108],[100.27200739691882,6.658620871143706],[100.27256733557063,6.658355595563281],[100.27311252911387,6.658061576105609],[100.27364148321094,6.657739618606724],[100.27415274803543,6.657390605475684],[100.27464492224597,6.657015493276623],[100.27511665682728,6.656615310107407],[100.27556665878767,6.656191152782392],[100.27599369470302,6.655744183826783],[100.27639659409758,6.655275628290868],[100.27677425265212,6.654786770392924],[100.27712563523079,6.654278949999942],[100.27744977871835,6.653753558955742],[100.27774579466008,6.653212037266671],[100.27801287169679,6.652655869155224],[100.27825027778896,6.65208657899251],[100.27845736222292,6.651505727120438],[100.2786335573947,6.650914905575577],[100.27877838036552,6.650315733725714],[100.27889143418572,6.649709853831825],[100.27897240898264,6.649098926546928],[100.27902108280999,6.648484626364614],[100.27903732225616,6.647868637029593]],[[100.22135972192699,6.605646649213683],[100.22134377034848,6.605041526628018],[100.22129595933518,6.604438061904332],[100.22121641993371,6.603837909106599],[100.22110537015605,6.603242713227038],[100.22096311438193,6.602654105677066],[100.22079004252454,6.602073699815462],[100.22058662896181,6.601503086526047],[100.22035343123615,6.60094382985675],[100.22009108852637,6.600397462732363],[100.21980031989555,6.599865482752334],[100.21948192232033,6.599349348085533],[100.21913676850632,6.598850473472958],[100.2187658044961,6.598370226349442],[100.2183700470763,6.597909923095081],[100.21795058099049,6.597470825426424],[100.21750855596599,6.597054136937626],[100.21704518356273,6.596660999800821],[100.21656173385223,6.59629249163488],[100.21605953193655,6.595949622551147],[100.21553995431624,6.595633332384089],[100.21500442511744,6.595344488114761],[100.21445441218846,6.595083881493879],[100.2138914230765,6.594852226871176],[100.21331700089559,6.594650159236849],[100.21273272009697,6.594478232480743],[100.21214018215375,6.594336917873749],[100.2115410111712,6.594226602775711],[100.21093684943536,6.594147589573399],[100.21032935291157,6.594100094851545],[100.20972018670552,6.594084248798942],[100.20911102049948,6.594100094851545],[100.20850352397566,6.594147589573399],[100.20789936223984,6.594226602775711],[100.2073001912573,6.594336917873749],[100.20670765331407,6.594478232480743],[100.20612337251545,6.594650159236849],[100.20554895033455,6.594852226871176],[100.20498596122258,6.595083881493879],[100.2044359482936,6.595344488114761],[100.20390041909478,6.595633332384089],[100.20338084147447,6.595949622551147],[100.2028786395588,6.59629249163488],[100.2023951898483,6.596660999800821],[100.20193181744504,6.597054136937626],[100.20148979242056,6.597470825426424],[100.20107032633472,6.597909923095081],[100.20067456891492,6.598370226349442],[100.20030360490472,6.598850473472958],[100.19995845109072,6.599349348085533],[100.19964005351548,6.599865482752334],[100.19934928488468,6.600397462732363],[100.19908694217487,6.60094382985675],[100.19885374444922,6.601503086526047],[100.1986503308865,6.602073699815462],[100.1984772590291,6.602654105677066],[100.19833500325498,6.603242713227038],[100.19822395347732,6.603837909106599],[100.19814441407586,6.604438061904332],[100.19809660306255,6.605041526628018],[100.19808065148405,6.605646649213683],[100.19809660306255,6.606251771059244],[100.19814441407586,6.606855233570766],[100.19822395347732,6.607455382708483],[100.19833500325498,6.608050573520287],[100.1984772590291,6.608639174650297],[100.1986503308865,6.609219572810048],[100.19885374444922,6.609790177200131],[100.19908694217487,6.610349423870069],[100.19934928488468,6.610895780004686],[100.19964005351548,6.61142774812491],[100.19995845109072,6.611943870191804],[100.20030360490472,6.612442731602442],[100.20067456891492,6.612922965066596],[100.20107032633472,6.613383254353857],[100.20148979242056,6.613822337900698],[100.20193181744504,6.614239012267682],[100.2023951898483,6.614632135437385],[100.2028786395588,6.615000629943964],[100.20338084147447,6.615343485825761],[100.20390041909478,6.615659763392924],[100.2044359482936,6.615948595802434],[100.20498596122258,6.616209191433533],[100.20554895033455,6.616440836056904],[100.20612337251545,6.616642894791886],[100.20670765331407,6.616814813846139],[100.2073001912573,6.616956122033158],[100.20789936223984,6.617066432063453],[100.20850352397566,6.617145441605747],[100.20911102049948,6.617192934115423],[100.20972018670552,6.617208779427937],[100.21032935291157,6.617192934115423],[100.21093684943536,6.617145441605747],[100.2115410111712,6.617066432063453],[100.21214018215375,6.616956122033158],[100.21273272009697,6.616814813846139],[100.21331700089559,6.616642894791886],[100.2138914230765,6.616440836056904],[100.21445441218846,6.616209191433533],[100.21500442511744,6.615948595802434],[100.21553995431624,6.615659763392924],[100.21605953193655,6.615343485825761],[100.21656173385223,6.615000629943964],[100.21704518356273,6.614632135437385],[100.21750855596599,6.614239012267682],[100.21795058099049,6.613822337900698],[100.2183700470763,6.613383254353857],[100.2187658044961,6.612922965066596],[100.21913676850632,6.612442731602442],[100.21948192232033,6.611943870191804],[100.21980031989555,6.61142774812491],[100.22009108852637,6.610895780004686],[100.22035343123615,6.610349423870069],[100.22058662896181,6.609790177200131],[100.22079004252454,6.609219572810048],[100.22096311438193,6.608639174650297],[100.22110537015605,6.608050573520287],[100.22121641993371,6.607455382708483],[100.22129595933518,6.606855233570766],[100.22134377034848,6.606251771059244],[100.22135972192699,6.605646649213683]],[[100.32255329823988,6.530273568202772],[100.32253601364737,6.529617778425874],[100.32248420724567,6.528963785267549],[100.32239802103254,6.528313381288251],[100.32227769123841,6.527668349217593],[100.32212354767887,6.527030457067883],[100.32193601285071,6.526401453287851],[100.32171560077384,6.525783061969933],[100.32146291558249,6.52517697812421],[100.32117864986913,6.524584863032098],[100.32086358278636,6.524008339692347],[100.32051857791119,6.523448988371893],[100.32014458087795,6.522908342273928],[100.31974261678654,6.522387883334752],[100.31931378739257,6.521889038161265],[100.31885926808762,6.521413174119953],[100.3183803046775,6.520961595588377],[100.31787820996766,6.520535540379171],[100.31735436016476,6.52013617634661],[100.31681019110468,6.519764598184778],[100.31624719431704,6.519421824426467],[100.31566691293689,6.519108794650746],[100.31507093747514,6.518826366906921],[100.31446090145913,6.518575315362152],[100.31383847695513,6.518356328178858],[100.31320536998547,6.518170005628073],[100.31256331585237,6.51801685844361],[100.31191407438153,6.517897306421808],[100.31125942509875,6.517811677270606],[100.31060116235217,6.517760205710935],[100.30994109039423,6.517743032833319],[100.30928101843631,6.517760205710935],[100.30862275568971,6.517811677270606],[100.30796810640692,6.517897306421808],[100.3073188649361,6.51801685844361],[100.30667681080298,6.518170005628073],[100.30604370383334,6.518356328178858],[100.30542127932935,6.518575315362152],[100.30481124331332,6.518826366906921],[100.30421526785156,6.519108794650746],[100.30363498647141,6.519421824426467],[100.30307198968377,6.519764598184778],[100.30252782062371,6.52013617634661],[100.3020039708208,6.520535540379171],[100.30150187611095,6.520961595588377],[100.30102291270084,6.521413174119953],[100.30056839339589,6.521889038161265],[100.30013956400194,6.522387883334752],[100.29973759991051,6.522908342273928],[100.29936360287726,6.523448988371893],[100.29901859800209,6.524008339692347],[100.29870353091934,6.524584863032098],[100.298419265206,6.52517697812421],[100.29816658001462,6.525783061969933],[100.29794616793774,6.526401453287851],[100.2977586331096,6.527030457067883],[100.29760448955005,6.527668349217593],[100.29748415975591,6.528313381288251],[100.2973979735428,6.528963785267549],[100.29734616714111,6.529617778425874],[100.29732888254858,6.530273568202772],[100.29734616714111,6.530929357120476],[100.2973979735428,6.531583347710579],[100.29748415975591,6.53223374744077],[100.29760448955005,6.532878773628013],[100.2977586331096,6.533516658324424],[100.29794616793774,6.534145653162962],[100.29816658001462,6.534764034149166],[100.298419265206,6.53537010638612],[100.29870353091934,6.535962208719627],[100.29901859800209,6.536538718290707],[100.29936360287726,6.537098054983255],[100.29973759991051,6.537638685754382],[100.30013956400194,6.538159128835694],[100.30056839339589,6.538657957794038],[100.30102291270084,6.539133805440583],[100.30150187611095,6.539585367577392],[100.3020039708208,6.540011406571443],[100.30252782062371,6.540410754746141],[100.30307198968377,6.540782317581134],[100.30363498647141,6.541125076711553],[100.30421526785156,6.541438092718588],[100.30481124331332,6.541720507703796],[100.30542127932935,6.541971547639821],[100.30604370383334,6.542190524491389],[100.30667681080298,6.54237683810068],[100.3073188649361,6.542529977831869],[100.30796810640692,6.542649523970244],[100.30862275568971,6.54273514887235],[100.30928101843631,6.542786617863787],[100.30994109039423,6.542803789882183],[100.31060116235217,6.542786617863787],[100.31125942509875,6.54273514887235],[100.31191407438153,6.542649523970244],[100.31256331585237,6.542529977831869],[100.31320536998547,6.54237683810068],[100.31383847695513,6.542190524491389],[100.31446090145913,6.541971547639821],[100.31507093747514,6.541720507703796],[100.31566691293689,6.541438092718588],[100.31624719431704,6.541125076711553],[100.31681019110468,6.540782317581134],[100.31735436016476,6.540410754746141],[100.31787820996766,6.540011406571443],[100.3183803046775,6.539585367577392],[100.31885926808762,6.539133805440583],[100.31931378739257,6.538657957794038],[100.31974261678654,6.538159128835694],[100.32014458087795,6.537638685754382],[100.32051857791119,6.537098054983255],[100.32086358278636,6.536538718290707],[100.32117864986913,6.535962208719627],[100.32146291558249,6.53537010638612],[100.32171560077384,6.534764034149166],[100.32193601285071,6.534145653162962],[100.32212354767887,6.533516658324424],[100.32227769123841,6.532878773628013],[100.32239802103254,6.53223374744077],[100.32248420724567,6.531583347710579],[100.32253601364737,6.530929357120476],[100.32255329823988,6.530273568202772]],[[100.26976970952968,6.47938176260573],[100.26975512218078,6.478828252180291],[100.26971140011695,6.478276258283717],[100.26963866317732,6.477727293900388],[100.26953711072879,6.47718286371594],[100.26940702111959,6.476644459992762],[100.26924875091626,6.476113558479732],[100.26906273392648,6.475591614366973],[100.2688494800098,6.475080058297063],[100.26860957368046,6.474580292443324],[100.26834367250503,6.474093686666304],[100.2680525053001,6.473621574758567],[100.26773687013478,6.473165250788531],[100.2673976321431,6.472725965552934],[100.26703572115285,6.472304923148114],[100.26665212913683,6.471903277669075],[100.26624790749416,6.471522130045724],[100.26582416416822,6.471162525024778],[100.26538206061004,6.470825448305617],[100.26492280859473,6.470511823838089],[100.26444766690014,6.470222511289538],[100.26395793785665,6.469958303687927],[100.26345496377749,6.469719925247886],[100.26294012327969,6.469508029385138],[100.26241482750522,6.469323196925137],[100.26188051625336,6.469165934510803],[100.26133865403403,6.469036673213363],[100.26079072605394,6.468935767350691],[100.26023823414562,6.46886349351578],[100.25968269265097,6.468820049818512],[100.2591256242706,6.468805555342467],[100.25856855589022,6.468820049818512],[100.25801301439559,6.46886349351578],[100.25746052248725,6.468935767350691],[100.25691259450717,6.469036673213363],[100.25637073228785,6.469165934510803],[100.25583642103597,6.469323196925137],[100.25531112526151,6.469508029385138],[100.25479628476369,6.469719925247886],[100.25429331068456,6.469958303687927],[100.25380358164107,6.470222511289538],[100.25332843994647,6.470511823838089],[100.25286918793115,6.470825448305617],[100.25242708437297,6.471162525024778],[100.25200334104704,6.471522130045724],[100.25159911940436,6.471903277669075],[100.25121552738835,6.472304923148114],[100.25085361639809,6.472725965552934],[100.25051437840642,6.473165250788531],[100.2501987432411,6.473621574758567],[100.24990757603618,6.474093686666304],[100.24964167486073,6.474580292443324],[100.2494017685314,6.475080058297063],[100.24918851461473,6.475591614366973],[100.24900249762494,6.476113558479732],[100.24884422742161,6.476644459992762],[100.2487141378124,6.47718286371594],[100.24861258536389,6.477727293900388],[100.24853984842426,6.478276258283717],[100.24849612636042,6.478828252180291],[100.24848153901151,6.47938176260573],[100.24849612636042,6.479935272423886],[100.24853984842426,6.480487264505241],[100.24861258536389,6.481036225885313],[100.2487141378124,6.481580651911377],[100.24884422742161,6.482119050366576],[100.24900249762494,6.482649945559793],[100.24918851461473,6.4831718823701],[100.2494017685314,6.483683430234967],[100.24964167486073,6.484183187070944],[100.24990757603618,6.484669783116294],[100.2501987432411,6.485141884685064],[100.25051437840642,6.485598197822132],[100.25085361639809,6.486037471849416],[100.25121552738835,6.486458502793412],[100.25159911940436,6.48686013668466],[100.25200334104704,6.487241272720221],[100.25242708437297,6.487600866280342],[100.25286918793115,6.48793793179119],[100.25332843994647,6.488251545425736],[100.25380358164107,6.488540847635335],[100.25429331068456,6.488805045505263],[100.25479628476369,6.489043414927541],[100.25531112526151,6.489255302585247],[100.25583642103597,6.489440127742796],[100.25637073228785,6.489597383837329],[100.25691259450717,6.489726639866778],[100.25746052248725,6.489827541571066],[100.25801301439559,6.489899812402732],[100.25856855589022,6.489943254284781],[100.2591256242706,6.489957748153531],[100.25968269265097,6.489943254284781],[100.26023823414562,6.489899812402732],[100.26079072605394,6.489827541571066],[100.26133865403403,6.489726639866778],[100.26188051625336,6.489597383837329],[100.26241482750522,6.489440127742796],[100.26294012327969,6.489255302585247],[100.26345496377749,6.489043414927541],[100.26395793785665,6.488805045505263],[100.26444766690014,6.488540847635335],[100.26492280859473,6.488251545425736],[100.26538206061004,6.48793793179119],[100.26582416416822,6.487600866280342],[100.26624790749416,6.487241272720221],[100.26665212913683,6.48686013668466],[100.26703572115285,6.486458502793412],[100.2673976321431,6.486037471849416],[100.26773687013478,6.485598197822132],[100.2680525053001,6.485141884685064],[100.26834367250503,6.484669783116294],[100.26860957368046,6.484183187070944],[100.2688494800098,6.483683430234967],[100.26906273392648,6.4831718823701],[100.26924875091626,6.482649945559793],[100.26940702111959,6.482119050366576],[100.26953711072879,6.481580651911377],[100.26963866317732,6.481036225885313],[100.26971140011695,6.480487264505241],[100.26975512218078,6.479935272423886],[100.26976970952968,6.47938176260573]],[[100.23177908781403,6.506183620581736],[100.23176270633088,6.505562065583392],[100.23171360678197,6.504942213458363],[100.23163192374574,6.504325763187727],[100.2315178811097,6.503714404434531],[100.23137179145677,6.503109812912291],[100.23119405520859,6.502513645791836],[100.23098515952782,6.501927537158691],[100.23074567698303,6.501353093533901],[100.2304762639792,6.500791889470234],[100.23017765895868,6.500245463235924],[100.22985068037703,6.499715312597937],[100.22949622445984,6.499202890716071],[100.22911526274615,6.498709602159431],[100.22870883942555,6.49823679905593],[100.22827806847606,6.497785777385575],[100.22782413061095,6.497357773427629],[100.22734827004233,6.496953960371441],[100.22685179107097,6.49657544510005],[100.22633605451122,6.496223265155736],[100.22580247396112,6.495898385895546],[100.22525251192786,6.495601697844625],[100.2246876758192,6.495334014254865],[100.22410951381157,6.495096068875193],[100.22351961060694,6.494888513939972],[100.22291958308892,6.494711918380781],[100.22231107589124,6.494566766266592],[100.22169575688986,6.494453455476603],[100.22107531263137,6.494372296609396],[100.22045144371037,6.494323512131399],[100.2198258601082,6.494307235766883],[100.21920027650602,6.494323512131399],[100.218576407585,6.494372296609396],[100.21795596332653,6.494453455476603],[100.21734064432515,6.494566766266592],[100.21673213712748,6.494711918380781],[100.21613210960946,6.494888513939972],[100.2155422064048,6.495096068875193],[100.2149640443972,6.495334014254865],[100.21439920828853,6.495601697844625],[100.21384924625528,6.495898385895546],[100.21331566570518,6.496223265155736],[100.21279992914542,6.49657544510005],[100.21230345017406,6.496953960371441],[100.21182758960545,6.497357773427629],[100.21137365174033,6.497785777385575],[100.21094288079085,6.49823679905593],[100.21053645747023,6.498709602159431],[100.21015549575655,6.499202890716071],[100.20980103983938,6.499715312597937],[100.20947406125772,6.500245463235924],[100.20917545623719,6.500791889470234],[100.20890604323337,6.501353093533901],[100.20866656068858,6.501927537158691],[100.20845766500781,6.502513645791836],[100.20827992875961,6.503109812912291],[100.20813383910671,6.503714404434531],[100.20801979647067,6.504325763187727],[100.20793811343442,6.504942213458363],[100.2078890138855,6.505562065583392],[100.20787263240237,6.506183620581736],[100.2078890138855,6.506805174811099],[100.20793811343442,6.507425024637643],[100.20801979647067,6.508041471105443],[100.20813383910671,6.508652824593116],[100.20827992875961,6.509257409444842],[100.20845766500781,6.509853568562908],[100.20866656068858,6.510439667949416],[100.20890604323337,6.511014101184657],[100.20917545623719,6.511575293829688],[100.20947406125772,6.512121707741371],[100.20980103983938,6.512651845287762],[100.21015549575655,6.513164253452481],[100.21053645747023,6.513657527816735],[100.21094288079085,6.514130316408091],[100.21137365174033,6.514581323405542],[100.21182758960545,6.515009312690559],[100.21230345017406,6.515413111234614],[100.21279992914542,6.515791612313619],[100.21331566570518,6.516143778540785],[100.21384924625528,6.51646864470938],[100.21439920828853,6.516765320437674],[100.2149640443972,6.517032992608798],[100.2155422064048,6.517270927598921],[100.21613210960946,6.517478473287494],[100.21673213712748,6.517655060844282],[100.21734064432515,6.517800206287983],[100.21795596332653,6.517913511812461],[100.218576407585,6.517994666876819],[100.21920027650602,6.518043449056319],[100.2198258601082,6.518059724651852],[100.22045144371037,6.518043449056319],[100.22107531263137,6.517994666876819],[100.22169575688986,6.517913511812461],[100.22231107589124,6.517800206287983],[100.22291958308892,6.517655060844282],[100.22351961060694,6.517478473287494],[100.22410951381157,6.517270927598921],[100.2246876758192,6.517032992608798],[100.22525251192786,6.516765320437674],[100.22580247396112,6.51646864470938],[100.22633605451122,6.516143778540785],[100.22685179107097,6.515791612313619],[100.22734827004233,6.515413111234614],[100.22782413061095,6.515009312690559],[100.22827806847606,6.514581323405542],[100.22870883942555,6.514130316408091],[100.22911526274615,6.513657527816735],[100.22949622445984,6.513164253452481],[100.22985068037703,6.512651845287762],[100.23017765895868,6.512121707741371],[100.2304762639792,6.511575293829688],[100.23074567698303,6.511014101184657],[100.23098515952782,6.510439667949416],[100.23119405520859,6.509853568562908],[100.23137179145677,6.509257409444842],[100.2315178811097,6.508652824593116],[100.23163192374574,6.508041471105443],[100.23171360678197,6.507425024637643],[100.23176270633088,6.506805174811099],[100.23177908781403,6.506183620581736]],[[100.18927647945874,6.492175491440064],[100.18925914177804,6.491517637536203],[100.18920717625724,6.490861585908233],[100.18912072533028,6.490209134758718],[100.1890000259531,6.489562072428432],[100.18884540895435,6.488922172494498],[100.18865729812842,6.488291188908856],[100.18843620907404,6.48767085119044],[100.18818274778096,6.487062859684315],[100.18789760896891,6.486468880900693],[100.1875815741836,6.48589054294656],[100.1872355096544,6.485329431062643],[100.1868603639201,6.484787083277724],[100.18645716522914,6.484264986192333],[100.18602701872106,6.48376457090341],[100.18557110339756,6.483287209081102],[100.18509066889084,6.482834209208263],[100.1845870320385,6.482406812993377],[100.18406157327414,6.482006191966306],[100.18351573284367,6.481633444266556],[100.18295100685783,6.481289591632519],[100.18236894319129,6.480975576600409],[100.18177113724006,6.480692259920099],[100.18115922754873,6.480440418195246],[100.18053489131921,6.480220741754151],[100.17989983981371,6.480033832757044],[100.17925581366428,6.479880203545182],[100.17860457810184,6.479760275236115],[100.17794791811775,6.47967437656915],[100.17728763357144,6.479622743003957],[100.17662553425693,6.479605516075118],[100.17596343494242,6.479622743003957],[100.1753031503961,6.47967437656915],[100.17464649041203,6.479760275236115],[100.17399525484957,6.479880203545182],[100.17335122870014,6.480033832757044],[100.17271617719467,6.480220741754151],[100.17209184096515,6.480440418195246],[100.17147993127381,6.480692259920099],[100.17088212532259,6.480975576600409],[100.17030006165604,6.481289591632519],[100.1697353356702,6.481633444266556],[100.16918949523975,6.482006191966306],[100.16866403647538,6.482406812993377],[100.16816039962303,6.482834209208263],[100.16767996511632,6.483287209081102],[100.16722404979281,6.48376457090341],[100.16679390328474,6.484264986192333],[100.16639070459377,6.484787083277724],[100.16601555885948,6.485329431062643],[100.16566949433027,6.48589054294656],[100.16535345954497,6.486468880900693],[100.16506832073293,6.487062859684315],[100.16481485943983,6.48767085119044],[100.16459377038545,6.488291188908856],[100.16440565955953,6.488922172494498],[100.16425104256078,6.489562072428432],[100.16413034318359,6.490209134758718],[100.16404389225664,6.490861585908233],[100.16399192673585,6.491517637536203],[100.16397458905513,6.492175491440064],[100.16399192673585,6.492833344484374],[100.16404389225664,6.49348939354313],[100.16413034318359,6.49414184044191],[100.16425104256078,6.494788896886515],[100.16440565955953,6.495428789364301],[100.16459377038545,6.496059764005039],[100.16481485943983,6.496680091387786],[100.16506832073293,6.497288071280687],[100.16535345954497,6.497882037300807],[100.16566949433027,6.498460361480976],[100.16601555885948,6.499021458731389],[100.16639070459377,6.499563791183592],[100.16679390328474,6.500085872405038],[100.16722404979281,6.500586271472598],[100.16767996511632,6.501063616893854],[100.16816039962303,6.501516600365629],[100.16866403647538,6.501943980359164],[100.16918949523975,6.502344585522277],[100.1697353356702,6.502717317889324],[100.17030006165604,6.503061155889857],[100.17088212532259,6.503375157148003],[100.17147993127381,6.503658461064811],[100.17209184096515,6.503910291176441],[100.17271617719467,6.504129957281853],[100.17335122870014,6.504316857334043],[100.17399525484957,6.504470479089769],[100.17464649041203,6.504590401513156],[100.1753031503961,6.504676295929399],[100.17596343494242,6.504727926925365],[100.17662553425693,6.504745152994666],[100.17728763357144,6.504727926925365],[100.17794791811775,6.504676295929399],[100.17860457810184,6.504590401513156],[100.17925581366428,6.504470479089769],[100.17989983981371,6.504316857334043],[100.18053489131921,6.504129957281853],[100.18115922754873,6.503910291176441],[100.18177113724006,6.503658461064811],[100.18236894319129,6.503375157148003],[100.18295100685783,6.503061155889857],[100.18351573284367,6.502717317889324],[100.18406157327414,6.502344585522277],[100.1845870320385,6.501943980359164],[100.18509066889084,6.501516600365629],[100.18557110339756,6.501063616893854],[100.18602701872106,6.500586271472598],[100.18645716522914,6.500085872405038],[100.1868603639201,6.499563791183592],[100.1872355096544,6.499021458731389],[100.1875815741836,6.498460361480976],[100.18789760896891,6.497882037300807],[100.18818274778096,6.497288071280687],[100.18843620907404,6.496680091387786],[100.18865729812842,6.496059764005039],[100.18884540895435,6.495428789364301],[100.1890000259531,6.494788896886515],[100.18912072533028,6.49414184044191],[100.18920717625724,6.49348939354313],[100.18925914177804,6.492833344484374],[100.18927647945874,6.492175491440064]],[[100.23471025983049,6.442105190850669],[100.23469278027416,6.441441887972744],[100.23464038951539,6.440780402298488],[100.23455323115365,6.440122546924919],[100.23443154408393,6.439470125005554],[100.23427566184202,6.438824924808014],[100.23408601169034,6.438188714812125],[100.23386311344673,6.437563238862419],[100.23360757805983,6.436950211387827],[100.23332010593433,6.436351312702231],[100.23300148501139,6.435768184398207],[100.23265258860874,6.43520242484696],[100.23227437302724,6.434655584816722],[100.23186787492949,6.434129163221535],[100.2314342084985,6.433624603012086],[100.23097456238384,6.43314328722002],[100.23049019644353,6.432686535166344],[100.22998243829097,6.432255598844598],[100.22945267965596,6.431851659488405],[100.22890237257009,6.431475824333147],[100.22833302538683,6.43112912358028],[100.22774619864725,6.430812507573016],[100.22714350080263,6.430526844190814],[100.22652658380586,6.43027291646995],[100.22589713858359,6.430051420456701],[100.2252568904014,6.429862963298981],[100.22460759413502,6.429708061581757],[100.22395102946044,6.42958713991072],[100.22328899597576,6.429500529748101],[100.22262330826877,6.429448468503898],[100.22195579094317,6.429431098885006],[100.22128827361759,6.429448468503898],[100.22062258591059,6.429500529748101],[100.2199605524259,6.42958713991072],[100.21930398775132,6.429708061581757],[100.21865469148496,6.429862963298981],[100.21801444330276,6.430051420456701],[100.21738499808048,6.43027291646995],[100.21676808108373,6.430526844190814],[100.2161653832391,6.430812507573016],[100.21557855649951,6.43112912358028],[100.21500920931626,6.431475824333147],[100.21445890223039,6.431851659488405],[100.21392914359537,6.432255598844598],[100.21342138544281,6.432686535166344],[100.2129370195025,6.43314328722002],[100.21247737338786,6.433624603012086],[100.21204370695686,6.434129163221535],[100.2116372088591,6.434655584816722],[100.21125899327761,6.43520242484696],[100.21091009687497,6.435768184398207],[100.21059147595201,6.436351312702231],[100.21030400382652,6.436950211387827],[100.21004846843961,6.437563238862419],[100.209825570196,6.438188714812125],[100.20963592004432,6.438824924808014],[100.20948003780242,6.439470125005554],[100.2093583507327,6.440122546924919],[100.20927119237095,6.440780402298488],[100.20921880161218,6.441441887972744],[100.20920132205585,6.442105190850669],[100.20921880161218,6.442768492861562],[100.20927119237095,6.443429975944174],[100.2093583507327,6.444087827029923],[100.20948003780242,6.444740243012236],[100.20963592004432,6.445385435688578],[100.209825570196,6.446021636661476],[100.21004846843961,6.44664710218531],[100.21030400382652,6.447260117945322],[100.21059147595201,6.447859003756032],[100.21091009687497,6.448442118165891],[100.21125899327761,6.449007862955931],[100.2116372088591,6.449554687519639],[100.21204370695686,6.450081093112439],[100.21247737338786,6.450585636958952],[100.2129370195025,6.45106693620684],[100.21342138544281,6.451523671716314],[100.21392914359537,6.45195459167515],[100.21445890223039,6.452358515028942],[100.21500920931626,6.452734334717671],[100.21557855649951,6.453081020709329],[100.2161653832391,6.453397622822429],[100.21676808108373,6.453683273329734],[100.21738499808048,6.453937189336029],[100.21801444330276,6.454158674923394],[100.21865469148496,6.454347123058148],[100.21930398775132,6.454502017254149],[100.2199605524259,6.454622932988146],[100.22062258591059,6.454709538862945],[100.22128827361759,6.454761597515505],[100.22195579094317,6.454778966267365],[100.22262330826877,6.454761597515505],[100.22328899597576,6.454709538862945],[100.22395102946044,6.454622932988146],[100.22460759413502,6.454502017254149],[100.2252568904014,6.454347123058148],[100.22589713858359,6.454158674923394],[100.22652658380586,6.453937189336029],[100.22714350080263,6.453683273329734],[100.22774619864725,6.453397622822429],[100.22833302538683,6.453081020709329],[100.22890237257009,6.452734334717671],[100.22945267965596,6.452358515028942],[100.22998243829097,6.45195459167515],[100.23049019644353,6.451523671716314],[100.23097456238384,6.45106693620684],[100.2314342084985,6.450585636958952],[100.23186787492949,6.450081093112439],[100.23227437302724,6.449554687519639],[100.23265258860874,6.449007862955931],[100.23300148501139,6.448442118165891],[100.23332010593433,6.447859003756032],[100.23360757805983,6.447260117945322],[100.23386311344673,6.44664710218531],[100.23408601169034,6.446021636661476],[100.23427566184202,6.445385435688578],[100.23443154408393,6.444740243012236],[100.23455323115365,6.444087827029923],[100.23464038951539,6.443429975944174],[100.23469278027416,6.442768492861562],[100.23471025983049,6.442105190850669]],[[100.21263682080419,6.423547556520774],[100.21261793548673,6.422830882523471],[100.21256133129772,6.422116171874799],[100.21246716338531,6.42140538355944],[100.2123356898572,6.420700465819397],[100.21216727107314,6.420003350813649],[100.2119623686574,6.419315949322034],[100.2117215442332,6.418640145507462],[100.21144545788354,6.417977791751136],[100.21113486634196,6.417330703574697],[100.21079062091825,6.416700654663442],[100.2104136651652,6.416089372004114],[100.21000503229232,6.415498531150538],[100.20956584233394,6.414929751630344],[100.20909729907916,6.414384592505153],[100.20860068677251,6.413864548096395],[100.20807736659378,6.413371043888682],[100.20752877292725,6.412905432621777],[100.20695640942996,6.41246899058192],[100.20636184491052,6.412062914102822],[100.20574670902894,6.411688316285735],[100.2051126878299,6.411346223947702],[100.20446151912145,6.411037574806367],[100.20379498771177,6.410763214909021],[100.2031149205171,6.410523896312982],[100.20242318155434,6.410320275023659],[100.20172166683193,6.410152909195879],[100.20101229915295,6.410022257603651],[100.20029702284491,6.409928678382229],[100.19957779843047,6.409872428046236],[100.1988565972537,6.409853660786277],[100.19813539607694,6.409872428046236],[100.19741617166247,6.409928678382229],[100.19670089535443,6.410022257603651],[100.19599152767546,6.410152909195879],[100.19529001295305,6.410320275023659],[100.1945982739903,6.410523896312982],[100.19391820679562,6.410763214909021],[100.19325167538594,6.411037574806367],[100.1926005066775,6.411346223947702],[100.19196648547845,6.411688316285735],[100.19135134959686,6.412062914102822],[100.19075678507743,6.41246899058192],[100.19018442158014,6.412905432621777],[100.18963582791359,6.413371043888682],[100.18911250773489,6.413864548096395],[100.18861589542823,6.414384592505153],[100.18814735217346,6.414929751630344],[100.18770816221507,6.415498531150538],[100.18729952934218,6.416089372004114],[100.18692257358914,6.416700654663442],[100.18657832816544,6.417330703574697],[100.18626773662385,6.417977791751136],[100.18599165027419,6.418640145507462],[100.18575082585,6.419315949322034],[100.18554592343423,6.420003350813649],[100.1853775046502,6.420700465819397],[100.18524603112208,6.42140538355944],[100.18515186320967,6.422116171874799],[100.18509525902066,6.422830882523471],[100.18507637370321,6.423547556520774],[100.18509525902066,6.424264229508823],[100.18515186320967,6.424978937140816],[100.18524603112208,6.425689720465095],[100.1853775046502,6.426394631294391],[100.18554592343423,6.42709173754537],[100.18575082585,6.427779128534183],[100.18599165027419,6.428454920212928],[100.18626773662385,6.429117260333415],[100.18657832816544,6.429764333523374],[100.18692257358914,6.430394366261698],[100.18729952934218,6.431005631738856],[100.18770816221507,6.431596454589271],[100.18814735217346,6.432165215482547],[100.18861589542823,6.432710355561165],[100.18911250773489,6.433230380712337],[100.18963582791359,6.433723865662479],[100.19018442158014,6.434189457882811],[100.19075678507743,6.434625881295762],[100.19135134959686,6.435031939771687],[100.19196648547845,6.435406520406603],[100.1926005066775,6.435748596571718],[100.19325167538594,6.436057230726572],[100.19391820679562,6.436331576988066],[100.1945982739903,6.436570883448291],[100.19529001295305,6.4367744942348],[100.19599152767546,6.436941851307823],[100.19670089535443,6.437072495989291],[100.19741617166247,6.437166070219634],[100.19813539607694,6.437222317538961],[100.1988565972537,6.437241083789678],[100.19957779843047,6.437222317538961],[100.20029702284491,6.437166070219634],[100.20101229915295,6.437072495989291],[100.20172166683193,6.436941851307823],[100.20242318155434,6.4367744942348],[100.2031149205171,6.436570883448291],[100.20379498771177,6.436331576988066],[100.20446151912145,6.436057230726572],[100.2051126878299,6.435748596571718],[100.20574670902894,6.435406520406603],[100.20636184491052,6.435031939771687],[100.20695640942996,6.434625881295762],[100.20752877292725,6.434189457882811],[100.20807736659378,6.433723865662479],[100.20860068677251,6.433230380712337],[100.20909729907916,6.432710355561165],[100.20956584233394,6.432165215482547],[100.21000503229232,6.431596454589271],[100.2104136651652,6.431005631738856],[100.21079062091825,6.430394366261698],[100.21113486634196,6.429764333523374],[100.21144545788354,6.429117260333415],[100.2117215442332,6.428454920212928],[100.2119623686574,6.427779128534183],[100.21216727107314,6.42709173754537],[100.2123356898572,6.426394631294391],[100.21246716338531,6.425689720465095],[100.21256133129772,6.424978937140816],[100.21261793548673,6.424264229508823],[100.21263682080419,6.423547556520774]],[[100.15405269033151,6.410734149408551],[100.15403516155385,6.410068937689208],[100.153982623266,6.409405548404847],[100.15389521947176,6.408745799870122],[100.15377318973886,6.408091500427613],[100.1536168685423,6.407444443491116],[100.15342668434762,6.406806402629661],[100.15320315843651,6.406179126706086],[100.15294690347791,6.405564335083],[100.15265862184889,6.404963712909681],[100.15233910370932,6.404378906502719],[100.15198922483624,6.403811518832971],[100.15160994422331,6.403263105131249],[100.15120230145232,6.402735168624965],[100.15076741384375,6.402229156417141],[100.15030647339438,6.401746455519275],[100.14982074350986,6.401288389048948],[100.14931155554208,6.400856212602457],[100.14878030513987,6.400451110812584],[100.14822844842364,6.400074194100903],[100.1476574979943,6.399726495633413],[100.1470690187873,6.399408968488019],[100.14646462378323,6.399122483041613],[100.14584596958676,6.398867824583719],[100.14521475188607,6.398645691163546],[100.14457270080501,6.398456691676153],[100.14392157616095,6.398301344193021],[100.14326316264129,6.398180074541669],[100.14259926491171,6.398093215138126],[100.14193170266974,6.398041004075586],[100.1412623056571,6.398023584471581],[100.14059290864444,6.398041004075586],[100.13992534640245,6.398093215138126],[100.13926144867287,6.398180074541669],[100.13860303515322,6.398301344193021],[100.13795191050916,6.398456691676153],[100.1373098594281,6.398645691163546],[100.13667864172741,6.398867824583719],[100.13605998753096,6.399122483041613],[100.13545559252687,6.399408968488019],[100.13486711331987,6.399726495633413],[100.13429616289052,6.400074194100903],[100.13374430617432,6.400451110812584],[100.13321305577209,6.400856212602457],[100.13270386780431,6.401288389048948],[100.1322181379198,6.401746455519275],[100.13175719747042,6.402229156417141],[100.13132230986186,6.402735168624965],[100.13091466709086,6.403263105131249],[100.13053538647793,6.403811518832971],[100.13018550760486,6.404378906502719],[100.12986598946529,6.404963712909681],[100.12957770783626,6.405564335083],[100.12932145287766,6.406179126706086],[100.12909792696655,6.406806402629661],[100.12890774277187,6.407444443491116],[100.12875142157533,6.408091500427613],[100.12862939184242,6.408745799870122],[100.12854198804818,6.409405548404847],[100.12848944976032,6.410068937689208],[100.12847192098265,6.410734149408551],[100.12848944976032,6.411399360260124],[100.12854198804818,6.412062746950716],[100.12862939184242,6.412722491194072],[100.12875142157533,6.413376784694631],[100.12890774277187,6.414023834103735],[100.12909792696655,6.414661865934768],[100.12932145287766,6.415289131423858],[100.12957770783626,6.415903911322721],[100.12986598946529,6.416504520610519],[100.13018550760486,6.417089313111841],[100.13053538647793,6.417656686008217],[100.13091466709086,6.418205084230651],[100.13132230986186,6.418733004721354],[100.13175719747042,6.419239000552744],[100.1322181379198,6.419721684892782],[100.13270386780431,6.420179734805268],[100.13321305577209,6.420611894875337],[100.13374430617432,6.421016980649603],[100.13429616289052,6.421393881882008],[100.13486711331987,6.421741565576115],[100.13545559252687,6.422059078815869],[100.13605998753096,6.422345551376766],[100.13667864172741,6.422600198110437],[100.1373098594281,6.422822321096125],[100.13795191050916,6.423011311553097],[100.13860303515322,6.423166651508823],[100.13926144867287,6.423287915218237],[100.13992534640245,6.42337477033041],[100.14059290864444,6.42342697879917],[100.1412623056571,6.423444397535418],[100.14193170266974,6.42342697879917],[100.14259926491171,6.42337477033041],[100.14326316264129,6.423287915218237],[100.14392157616095,6.423166651508823],[100.14457270080501,6.423011311553097],[100.14521475188607,6.422822321096125],[100.14584596958676,6.422600198110437],[100.14646462378323,6.422345551376766],[100.1470690187873,6.422059078815869],[100.1476574979943,6.421741565576115],[100.14822844842364,6.421393881882008],[100.14878030513987,6.421016980649603],[100.14931155554208,6.420611894875337],[100.14982074350986,6.420179734805268],[100.15030647339438,6.419721684892782],[100.15076741384375,6.419239000552744],[100.15120230145232,6.418733004721354],[100.15160994422331,6.418205084230651],[100.15198922483624,6.417656686008217],[100.15233910370932,6.417089313111841],[100.15265862184889,6.416504520610519],[100.15294690347791,6.415903911322721],[100.15320315843651,6.415289131423858],[100.15342668434762,6.414661865934768],[100.1536168685423,6.414023834103735],[100.15377318973886,6.413376784694631],[100.15389521947176,6.412722491194072],[100.153982623266,6.412062746950716],[100.15403516155385,6.411399360260124],[100.15405269033151,6.410734149408551]],[[100.1883593107934,6.404745831320946],[100.18834253549338,6.404109206392132],[100.1882922555732,6.403474325617306],[100.1882086088467,6.402842929170362],[100.18809182458368,6.402216747681276],[100.18794222288173,6.401597497492389],[100.18776021378868,6.400986875953768],[100.18754629617882,6.400386556770609],[100.18730105638546,6.399798185415319],[100.18702516659383,6.399223374616979],[100.18671938299863,6.398663699940485],[100.18638454373149,6.398120695467509],[100.18602156656353,6.397595849591068],[100.18563144638993,6.397090600935405],[100.18521525250304,6.396606334412118],[100.18477412566129,6.396144377423616],[100.18430927496274,6.395705996224073],[100.18382197453084,6.395292392448063],[100.18331356002219,6.394904699816275],[100.1827854249656,6.394543981027381],[100.18223901694259,6.394211224844613],[100.18167583361955,6.393907343384999],[100.1810974186428,6.393633169618674],[100.18050535740764,6.393389455085252],[100.17990127271271,6.393176867833299],[100.1792868203122,6.392995990588878],[100.17866368437743,6.392847319157792],[100.17803357288065,6.392731261066372],[100.17739821291373,6.392648134444054],[100.17675934595411,6.392598167151243],[100.17611872309178,6.392581496154545],[100.17547810022944,6.392598167151243],[100.17483923326984,6.392648134444054],[100.1742038733029,6.392731261066372],[100.17357376180614,6.392847319157792],[100.17295062587135,6.392995990588878],[100.17233617347084,6.393176867833299],[100.17173208877593,6.393389455085252],[100.17114002754074,6.393633169618674],[100.17056161256401,6.393907343384999],[100.16999842924098,6.394211224844613],[100.16945202121795,6.394543981027381],[100.16892388616137,6.394904699816275],[100.16841547165272,6.395292392448063],[100.16792817122081,6.395705996224073],[100.16746332052226,6.396144377423616],[100.16702219368052,6.396606334412118],[100.16660599979362,6.397090600935405],[100.16621587962004,6.397595849591068],[100.16585290245207,6.398120695467509],[100.16551806318493,6.398663699940485],[100.16521227958974,6.399223374616979],[100.16493638979809,6.399798185415319],[100.16469115000473,6.400386556770609],[100.16447723239487,6.400986875953768],[100.16429522330182,6.401597497492389],[100.16414562159989,6.402216747681276],[100.16402883733686,6.402842929170362],[100.16394519061033,6.403474325617306],[100.16389491069019,6.404109206392132],[100.16387813539015,6.404745831320946],[100.16389491069019,6.405382455455729],[100.16394519061033,6.406017333857161],[100.16402883733686,6.406648726377341],[100.16414562159989,6.407274902429345],[100.16429522330182,6.407894145730371],[100.16447723239487,6.408504759005822],[100.16469115000473,6.409105068641058],[100.16493638979809,6.40969342926826],[100.16521227958974,6.410268228275877],[100.16551806318493,6.410827890228231],[100.16585290245207,6.411370881183023],[100.16621587962004,6.411895712895361],[100.16660599979362,6.412400946896173],[100.16702219368052,6.412885198434441],[100.16746332052226,6.413347140271926],[100.16792817122081,6.413785506320451],[100.16841547165272,6.414199095111431],[100.16892388616137,6.414586773088381],[100.16945202121795,6.414947477713183],[100.16999842924098,6.415280220377754],[100.17056161256401,6.415584089113215],[100.17114002754074,6.41585825108883],[100.17173208877593,6.416101954894164],[100.17233617347084,6.416314532598181],[100.17295062587135,6.416495401579446],[100.17357376180614,6.416644066122671],[100.1742038733029,6.416760118777009],[100.17483923326984,6.416843241472564],[100.17547810022944,6.416893206391994],[100.17611872309178,6.41690987659466],[100.17675934595411,6.416893206391994],[100.17739821291373,6.416843241472564],[100.17803357288065,6.416760118777009],[100.17866368437743,6.416644066122671],[100.1792868203122,6.416495401579446],[100.17990127271271,6.416314532598181],[100.18050535740764,6.416101954894164],[100.1810974186428,6.41585825108883],[100.18167583361955,6.415584089113215],[100.18223901694259,6.415280220377754],[100.1827854249656,6.414947477713183],[100.18331356002219,6.414586773088381],[100.18382197453084,6.414199095111431],[100.18430927496274,6.413785506320451],[100.18477412566129,6.413347140271926],[100.18521525250304,6.412885198434441],[100.18563144638993,6.412400946896173],[100.18602156656353,6.411895712895361],[100.18638454373149,6.411370881183023],[100.18671938299863,6.410827890228231],[100.18702516659383,6.410268228275877],[100.18730105638546,6.40969342926826],[100.18754629617882,6.409105068641058],[100.18776021378868,6.408504759005822],[100.18794222288173,6.407894145730371],[100.18809182458368,6.407274902429345],[100.1882086088467,6.406648726377341],[100.1882922555732,6.406017333857161],[100.18834253549338,6.405382455455729],[100.1883593107934,6.404745831320946]],[[100.3279944006029,6.448010467704192],[100.3279773401114,6.44736307477405],[100.3279262053985,6.446717455479706],[100.3278411366209,6.446075379428973],[100.32772236694619,6.445438606524572],[100.32757022191383,6.444808882140082],[100.32738511854275,6.444187932335774],[100.32716756418844,6.44357745912732],[100.32691815515224,6.442979135820198],[100.326637575047,6.442394602422941],[100.32632659292328,6.441825461151393],[100.32598606116147,6.441273272036648],[100.32561691313545,6.440739548648484],[100.32522016065433,6.44022575394618],[100.32479689118902,6.439733296267924],[100.32434826489177,6.439263525470055],[100.32387551141605,6.438817729226392],[100.32337992654625,6.438397129498209],[100.3228628686461,6.438002879184122],[100.32232575493533,6.437636058959454],[100.32177005760529,6.437297674313436],[100.32119729978376,6.436988652792582],[100.3206090513601,6.436709841457746],[100.32000692468233,6.436462004561779],[100.31939257013785,6.436245821454166],[100.31876767162974,6.436061884718551],[100.31813394196142,6.435910698548028],[100.3174931181418,6.435792677362764],[100.31684695662447,6.43570814467386],[100.31619722849322,6.435657332196287],[100.31554571460768,6.435640379213647],[100.31489420072215,6.435657332196287],[100.3142444725909,6.43570814467386],[100.31359831107358,6.435792677362764],[100.31295748725397,6.435910698548028],[100.31232375758563,6.436061884718551],[100.31169885907752,6.436245821454166],[100.31108450453304,6.436462004561779],[100.31048237785528,6.436709841457746],[100.30989412943161,6.436988652792582],[100.30932137161007,6.437297674313436],[100.30876567428004,6.437636058959454],[100.30822856056928,6.438002879184122],[100.30771150266912,6.438397129498209],[100.30721591779933,6.438817729226392],[100.3067431643236,6.439263525470055],[100.30629453802634,6.439733296267924],[100.30587126856106,6.44022575394618],[100.30547451607991,6.440739548648484],[100.3051053680539,6.441273272036648],[100.30476483629208,6.441825461151393],[100.30445385416837,6.442394602422941],[100.30417327406313,6.442979135820198],[100.30392386502693,6.44357745912732],[100.30370631067262,6.444187932335774],[100.30352120730154,6.444808882140082],[100.30336906226917,6.445438606524572],[100.30325029259447,6.446075379428973],[100.30316522381688,6.446717455479706],[100.30311408910397,6.44736307477405],[100.30309702861247,6.448010467704192],[100.30311408910397,6.448657859807605],[100.30316522381688,6.449303476630875],[100.30325029259447,6.449945548593234],[100.30336906226917,6.450582315836756],[100.30352120730154,6.451212033049896],[100.30370631067262,6.451832974250931],[100.30392386502693,6.452443437518485],[100.30417327406313,6.453041749655944],[100.30445385416837,6.45362627077719],[100.30476483629208,6.454195398800874],[100.3051053680539,6.454747573841042],[100.30547451607991,6.455281282482119],[100.30587126856106,6.455795061926412],[100.30629453802634,6.456287504002863],[100.3067431643236,6.456757259026123],[100.30721591779933,6.45720303949515],[100.30771150266912,6.457623623621555],[100.30822856056928,6.458017858677605],[100.30876567428004,6.458384664155187],[100.30932137161007,6.458723034726638],[100.30989412943161,6.459032042999618],[100.31048237785528,6.459310842058442],[100.31108450453304,6.459558667784771],[100.31169885907752,6.459774840951458],[100.31232375758563,6.459958769083813],[100.31295748725397,6.460109948082986],[100.31359831107358,6.460227963607371],[100.3142444725909,6.46031249220789],[100.31489420072215,6.460363302214388],[100.31554571460768,6.460380254370312],[100.31619722849322,6.460363302214388],[100.31684695662447,6.46031249220789],[100.3174931181418,6.460227963607371],[100.31813394196142,6.460109948082986],[100.31876767162974,6.459958769083813],[100.31939257013785,6.459774840951458],[100.32000692468233,6.459558667784771],[100.3206090513601,6.459310842058442],[100.32119729978376,6.459032042999618],[100.32177005760529,6.458723034726638],[100.32232575493533,6.458384664155187],[100.3228628686461,6.458017858677605],[100.32337992654625,6.457623623621555],[100.32387551141605,6.45720303949515],[100.32434826489177,6.456757259026123],[100.32479689118902,6.456287504002863],[100.32522016065433,6.455795061926412],[100.32561691313545,6.455281282482119],[100.32598606116147,6.454747573841042],[100.32632659292328,6.454195398800874],[100.326637575047,6.45362627077719],[100.32691815515224,6.453041749655944],[100.32716756418844,6.452443437518485],[100.32738511854275,6.451832974250931],[100.32757022191383,6.451212033049896],[100.32772236694619,6.450582315836756],[100.3278411366209,6.449945548593234],[100.3279262053985,6.449303476630875],[100.3279773401114,6.448657859807605],[100.3279944006029,6.448010467704192]],[[100.252673536907,6.407634806357649],[100.25265555203217,6.406952281732661],[100.25260164670296,6.406271626950999],[100.25251196867013,6.405594707651411],[100.25238676373492,6.404923379241296],[100.25222637507538,6.404259481810911],[100.25203124230568,6.403604835089564],[100.25180190027113,6.402961233457535],[100.25153897758237,6.402330441027288],[100.2512431948922,6.40171418680776],[100.25091536292037,6.401114159964623],[100.25055638023154,6.400532005189865],[100.25016723077235,6.399969318193098],[100.24974898117439,6.399427641327168],[100.24930277783074,6.398908459359871],[100.24882984375375,6.398413195403655],[100.24833147522284,6.397943207014065],[100.24780903823152,6.397499782468122],[100.24726396474328,6.39708413723239],[100.24669774876665,6.396697410630692],[100.24611194226027,6.396340662720579],[100.24550815087906,6.39601487138701],[100.2448880295732,6.395720929661433],[100.24425327805214,6.395459643273245],[100.24360563612561,6.395231728440881],[100.24294687893517,6.395037809908075],[100.24227881208846,6.394878419230984],[100.24160326671027,6.394753993320877],[100.24092209442355,6.394664873246138],[100.24023716227416,6.394611303297197],[100.23955034761352,6.394593430316775],[100.23886353295289,6.394611303297197],[100.23817860080351,6.394664873246138],[100.23749742851678,6.394753993320877],[100.2368218831386,6.394878419230984],[100.23615381629187,6.395037809908075],[100.23549505910145,6.395231728440881],[100.23484741717492,6.395459643273245],[100.23421266565384,6.395720929661433],[100.233592544348,6.39601487138701],[100.23298875296679,6.396340662720579],[100.23240294646041,6.396697410630692],[100.23183673048376,6.39708413723239],[100.23129165699552,6.397499782468122],[100.2307692200042,6.397943207014065],[100.2302708514733,6.398413195403655],[100.22979791739631,6.398908459359871],[100.22935171405265,6.399427641327168],[100.22893346445471,6.399969318193098],[100.22854431499552,6.400532005189865],[100.2281853323067,6.401114159964623],[100.22785750033486,6.40171418680776],[100.22756171764469,6.402330441027288],[100.22729879495591,6.402961233457535],[100.22706945292138,6.403604835089564],[100.22687432015168,6.404259481810911],[100.22671393149211,6.404923379241296],[100.22658872655693,6.405594707651411],[100.22649904852409,6.406271626950999],[100.22644514319487,6.406952281732661],[100.22642715832005,6.407634806357649],[100.22644514319487,6.408317330069575],[100.22649904852409,6.408997982122029],[100.22658872655693,6.409674896906171],[100.22671393149211,6.410346219064078],[100.22687432015168,6.411010108574004],[100.22706945292138,6.41166474579338],[100.22729879495591,6.412308336446071],[100.22756171764469,6.412939116539889],[100.22785750033486,6.413555357201081],[100.2281853323067,6.414155369412483],[100.22854431499552,6.414737508642445],[100.22893346445471,6.415300179351642],[100.22935171405265,6.415841839365721],[100.22979791739631,6.416361004101461],[100.2302708514733,6.416856250635272],[100.2307692200042,6.417326221602419],[100.23129165699552,6.417769628916817],[100.23183673048376,6.418185257300685],[100.23240294646041,6.418571967614827],[100.23298875296679,6.418928699980144],[100.233592544348,6.419254476681979],[100.23421266565384,6.419548404849206],[100.23484741717492,6.419809678900977],[100.23549505910145,6.420037582753991],[100.23615381629187,6.42023149178485],[100.2368218831386,6.42039087454147],[100.23749742851678,6.42051529419937],[100.23817860080351,6.420604409758663],[100.23886353295289,6.420657976978396],[100.23955034761352,6.420675849045744],[100.24023716227416,6.420657976978396],[100.24092209442355,6.420604409758663],[100.24160326671027,6.42051529419937],[100.24227881208846,6.42039087454147],[100.24294687893517,6.42023149178485],[100.24360563612561,6.420037582753991],[100.24425327805214,6.419809678900977],[100.2448880295732,6.419548404849206],[100.24550815087906,6.419254476681979],[100.24611194226027,6.418928699980144],[100.24669774876665,6.418571967614827],[100.24726396474328,6.418185257300685],[100.24780903823152,6.417769628916817],[100.24833147522284,6.417326221602419],[100.24882984375375,6.416856250635272],[100.24930277783074,6.416361004101461],[100.24974898117439,6.415841839365721],[100.25016723077235,6.415300179351642],[100.25055638023154,6.414737508642445],[100.25091536292037,6.414155369412483],[100.2512431948922,6.413555357201081],[100.25153897758237,6.412939116539889],[100.25180190027113,6.412308336446071],[100.25203124230568,6.41166474579338],[100.25222637507538,6.411010108574004],[100.25238676373492,6.410346219064078],[100.25251196867013,6.409674896906171],[100.25260164670296,6.408997982122029],[100.25265555203217,6.408317330069575],[100.252673536907,6.407634806357649]],[[100.27335498816797,6.377106570840819],[100.27333774460915,6.376452140058221],[100.27328606119609,6.375799502192996],[100.27320007958946,6.375150446090547],[100.27308003545883,6.374506750785534],[100.27292625783686,6.373870180625629],[100.27273916821729,6.373242480435246],[100.27251927939976,6.372625370732727],[100.27226719408424,6.372020543014175],[100.27198360321907,6.371429655116723],[100.2716692841071,6.370854326674012],[100.27132509827514,6.370296134676286],[100.27095198911266,6.369756609147453],[100.27055097928596,6.369237228950673],[100.27012316793501,6.368739417734255],[100.2696697276611,6.368264540028877],[100.26919190131245,6.367813897506733],[100.26869099857785,6.367388725413051],[100.26816839239689,6.366990189179715],[100.26762551519681,6.366619381230064],[100.26706385496627,6.366277317984043],[100.2664849511769,6.365964937071603],[100.26589039056377,6.365683094761982],[100.2652818027762,6.365432563616262],[100.26466085591098,6.365214030369162],[100.26402925194033,6.365028094046338],[100.26338872204683,6.364875264321957],[100.26274102187838,6.364755960121392],[100.26208792673616,6.364670508472609],[100.26143122670851,6.364619143609581],[100.26077272176458,6.364602006330069],[100.26011421682065,6.364619143609581],[100.259457516793,6.364670508472609],[100.25880442165078,6.364755960121392],[100.25815672148234,6.364875264321957],[100.25751619158883,6.365028094046338],[100.25688458761819,6.365214030369162],[100.25626364075296,6.365432563616262],[100.2556550529654,6.365683094761982],[100.25506049235224,6.365964937071603],[100.2544815885629,6.366277317984043],[100.25391992833235,6.366619381230064],[100.25337705113228,6.366990189179715],[100.25285444495131,6.367388725413051],[100.25235354221671,6.367813897506733],[100.25187571586805,6.368264540028877],[100.25142227559415,6.368739417734255],[100.2509944642432,6.369237228950673],[100.2505934544165,6.369756609147453],[100.25022034525402,6.370296134676286],[100.24987615942206,6.370854326674012],[100.2495618403101,6.371429655116723],[100.24927824944493,6.372020543014175],[100.2490261641294,6.372625370732727],[100.24880627531188,6.373242480435246],[100.2486191856923,6.373870180625629],[100.24846540807033,6.374506750785534],[100.2483453639397,6.375150446090547],[100.24825938233307,6.375799502192996],[100.24820769892001,6.376452140058221],[100.2481904553612,6.377106570840819],[100.24820769892001,6.377761000787988],[100.24825938233307,6.378413636156095],[100.2483453639397,6.379062688127143],[100.24846540807033,6.379706377711662],[100.2486191856923,6.380342940624698],[100.24880627531188,6.380970632121227],[100.2490261641294,6.381587731778154],[100.24927824944493,6.382192548209451],[100.2495618403101,6.382783423701621],[100.24987615942206,6.383358738756971],[100.25022034525402,6.383916916531905],[100.2505934544165,6.384456427158375],[100.2509944642432,6.384975791936463],[100.25142227559415,6.385473587386808],[100.25187571586805,6.385948449151462],[100.25235354221671,6.386399075732882],[100.25285444495131,6.386824232060479],[100.25337705113228,6.387222752875133],[100.25391992833235,6.387593545922411],[100.2544815885629,6.38793559494564],[100.25506049235224,6.38824796247073],[100.2556550529654,6.388529792375068],[100.25626364075296,6.388780312233534],[100.25688458761819,6.38899883543503],[100.25751619158883,6.389184763064],[100.25815672148234,6.389337585541525],[100.25880442165078,6.389456884021596],[100.259457516793,6.389542331538964],[100.26011421682065,6.389593693904888],[100.26077272176458,6.389610830348983],[100.26143122670851,6.389593693904888],[100.26208792673616,6.389542331538964],[100.26274102187838,6.389456884021596],[100.26338872204683,6.389337585541525],[100.26402925194033,6.389184763064],[100.26466085591098,6.38899883543503],[100.2652818027762,6.388780312233534],[100.26589039056377,6.388529792375068],[100.2664849511769,6.38824796247073],[100.26706385496627,6.38793559494564],[100.26762551519681,6.387593545922411],[100.26816839239689,6.387222752875133],[100.26869099857785,6.386824232060479],[100.26919190131245,6.386399075732882],[100.2696697276611,6.385948449151462],[100.27012316793501,6.385473587386808],[100.27055097928596,6.384975791936463],[100.27095198911266,6.384456427158375],[100.27132509827514,6.383916916531905],[100.2716692841071,6.383358738756971],[100.27198360321907,6.382783423701621],[100.27226719408424,6.382192548209451],[100.27251927939976,6.381587731778154],[100.27273916821729,6.380970632121227],[100.27292625783686,6.380342940624698],[100.27308003545883,6.379706377711662],[100.27320007958946,6.379062688127143],[100.27328606119609,6.378413636156095],[100.27333774460915,6.377761000787988],[100.27335498816797,6.377106570840819]],[[100.1871249467643,6.351955454086157],[100.18710910478683,6.351354186975519],[100.18706162227619,6.35075456719678],[100.18698262937865,6.350158238274791],[100.18687234260824,6.349566834719974],[100.18673106425334,6.348981977548204],[100.18655918154808,6.348405269837397],[100.18635716561104,6.347838292333368],[100.18612557015383,6.347282599116788],[100.18586502996352,6.346739713343143],[100.18557625916267,6.346211123067446],[100.18526004925192,6.345698277165137],[100.18491726694074,6.345202581360318],[100.18454885177155,6.344725394372172],[100.18415581354473,6.344268024190312],[100.18373922955078,6.343831724489005],[100.18330024161743,6.343417691190421],[100.18284005298013,6.343027059186074],[100.18235992498388,6.342660899225499],[100.18186117362623,6.342320214980905],[100.18134516594993,6.342005940295537],[100.18081331629617,6.341718936623495],[100.18026708242786,6.341459990668072],[100.17970796153409,6.341229812224928],[100.17913748612636,6.341029032236077],[100.17855721983811,6.340858201060147],[100.17796875313891,6.340717786963511],[100.17737369897506,6.340608174836426],[100.17677368834866,6.340529665137828],[100.17617036584717,6.340482473071591],[100.17556538513557,6.34046672799651],[100.17496040442397,6.340482473071591],[100.17435708192248,6.340529665137828],[100.1737570712961,6.340608174836426],[100.17316201713223,6.340717786963511],[100.17257355043301,6.340858201060147],[100.17199328414476,6.341029032236077],[100.17142280873703,6.341229812224928],[100.1708636878433,6.341459990668072],[100.17031745397499,6.341718936623495],[100.1697856043212,6.342005940295537],[100.16926959664491,6.342320214980905],[100.16877084528724,6.342660899225499],[100.168290717291,6.343027059186074],[100.16783052865371,6.343417691190421],[100.16739154072036,6.343831724489005],[100.1669749567264,6.344268024190312],[100.1665819184996,6.344725394372172],[100.1662135033304,6.345202581360318],[100.16587072101922,6.345698277165137],[100.16555451110848,6.346211123067446],[100.16526574030762,6.346739713343143],[100.1650052001173,6.347282599116788],[100.16477360466011,6.347838292333368],[100.16457158872306,6.348405269837397],[100.1643997060178,6.348981977548204],[100.1642584276629,6.349566834719974],[100.16414814089248,6.350158238274791],[100.16406914799494,6.35075456719678],[100.1640216654843,6.351354186975519],[100.16400582350684,6.351955454086157],[100.1640216654843,6.352556720494415],[100.16406914799494,6.353156338173657],[100.16414814089248,6.353752663622074],[100.1642584276629,6.354344062367268],[100.1643997060178,6.3549289134461],[100.16457158872306,6.35550561384737],[100.16477360466011,6.35607258290536],[100.1650052001173,6.356628266631954],[100.16526574030762,6.357171141975644],[100.16555451110848,6.35769972099565],[100.16587072101922,6.358212554939863],[100.1662135033304,6.358708238215217],[100.1665819184996,6.359185412239792],[100.1669749567264,6.359642769166014],[100.16739154072036,6.360079055464847],[100.16783052865371,6.360493075360942],[100.168290717291,6.360883694109665],[100.16877084528724,6.361249841106669],[100.16926959664491,6.361590512821786],[100.1697856043212,6.361904775549083],[100.17031745397499,6.362191767965421],[100.1708636878433,6.362450703490877],[100.17142280873703,6.362680872444034],[100.17199328414476,6.362881643986858],[100.17257355043301,6.363052467853251],[100.17316201713223,6.363192875856937],[100.1737570712961,6.363302483174412],[100.17435708192248,6.363380989399436],[100.17496040442397,6.363428179366177],[100.17556538513557,6.363443923738877],[100.17617036584717,6.363428179366177],[100.17677368834866,6.363380989399436],[100.17737369897506,6.363302483174412],[100.17796875313891,6.363192875856937],[100.17855721983811,6.363052467853251],[100.17913748612636,6.362881643986858],[100.17970796153409,6.362680872444034],[100.18026708242786,6.362450703490877],[100.18081331629617,6.362191767965421],[100.18134516594993,6.361904775549083],[100.18186117362623,6.361590512821786],[100.18235992498388,6.361249841106669],[100.18284005298013,6.360883694109665],[100.18330024161743,6.360493075360942],[100.18373922955078,6.360079055464847],[100.18415581354473,6.359642769166014],[100.18454885177155,6.359185412239792],[100.18491726694074,6.358708238215217],[100.18526004925192,6.358212554939863],[100.18557625916267,6.35769972099565],[100.18586502996352,6.357171141975644],[100.18612557015383,6.356628266631954],[100.18635716561104,6.35607258290536],[100.18655918154808,6.35550561384737],[100.18673106425334,6.3549289134461],[100.18687234260824,6.354344062367268],[100.18698262937865,6.353752663622074],[100.18706162227619,6.353156338173657],[100.18710910478683,6.352556720494415],[100.1871249467643,6.351955454086157]],[[100.21107713848272,6.307754950562952],[100.21105996724758,6.307103176945895],[100.21100850060735,6.306453188978913],[100.2109228796285,6.305806768243972],[100.21080333899218,6.305165686552109],[100.21065020635095,6.304531701086798],[100.21046390143077,6.303906549587396],[100.21024493488046,6.303291945585802],[100.20999390687211,6.302689573709394],[100.20971150545604,6.30210108506311],[100.20939850467492,6.30152809270345],[100.20905576244212,6.300972167216598],[100.20868421819026,6.300434832412965],[100.20828489029634,6.299917561149949],[100.20785887329035,6.299421771294208],[100.20740733485528,6.298948821834774],[100.2069315126266,6.298500009157415],[100.20643271079997,6.29807656349067],[100.20591229655653,6.297679645533124],[100.20537169631555,6.297310343271379],[100.20481239182469,6.296969668997225],[100.2042359160987,6.296658556532408],[100.20364384921747,6.29637785866842],[100.20303781399518,6.29612834482851],[100.20241947153222,6.295910698958176],[100.20179051666234,6.295725517650039],[100.20115267330709,6.295573308508146],[100.20050768975078,6.295454488756338],[100.19985733384851,6.295369384094291],[100.19920338818058,6.295318227804596],[100.19854764516666,6.295301160113127],[100.19789190215273,6.295318227804596],[100.1972379564848,6.295369384094291],[100.19658760058253,6.295454488756338],[100.19594261702622,6.295573308508146],[100.19530477367098,6.295725517650039],[100.19467581880109,6.295910698958176],[100.19405747633814,6.29612834482851],[100.19345144111584,6.29637785866842],[100.1928593742346,6.296658556532408],[100.19228289850862,6.296969668997225],[100.19172359401777,6.297310343271379],[100.19118299377678,6.297679645533124],[100.19066257953332,6.29807656349067],[100.19016377770672,6.298500009157415],[100.18968795547804,6.298948821834774],[100.18923641704296,6.299421771294208],[100.18881040003697,6.299917561149949],[100.18841107214305,6.300434832412965],[100.18803952789119,6.300972167216598],[100.18769678565839,6.30152809270345],[100.18738378487727,6.30210108506311],[100.1871013834612,6.302689573709394],[100.18685035545285,6.303291945585802],[100.18663138890254,6.303906549587396],[100.18644508398236,6.304531701086798],[100.18629195134112,6.305165686552109],[100.18617241070481,6.305806768243972],[100.18608678972595,6.306453188978913],[100.18603532308573,6.307103176945895],[100.18601815185058,6.307754950562952],[100.18603532308573,6.308406723360443],[100.18608678972595,6.309056708877725],[100.18617241070481,6.309703125559646],[100.18629195134112,6.310344201639598],[100.18644508398236,6.310978179995581],[100.18663138890254,6.311603322966122],[100.18685035545285,6.312217917112792],[100.1871013834612,6.312820277916163],[100.18738378487727,6.313408754392602],[100.18769678565839,6.313981733618975],[100.18803952789119,6.314537645152989],[100.18841107214305,6.315074965337087],[100.18881040003697,6.315592221474047],[100.18923641704296,6.316087995862929],[100.18968795547804,6.316560929684186],[100.19016377770672,6.317009726723356],[100.19066257953332,6.317433156923253],[100.19118299377678,6.317830059754743],[100.19172359401777,6.318199347396955],[100.19228289850862,6.318540007718257],[100.1928593742346,6.318851107049786],[100.19345144111584,6.319131792743942],[100.19405747633814,6.319381295510815],[100.19467581880109,6.319598931526214],[100.19530477367098,6.319784104305501],[100.19594261702622,6.319936306338065],[100.19658760058253,6.320055120477964],[100.1972379564848,6.320140221086992],[100.19789190215273,6.320191374926972],[100.19854764516666,6.320208441798889],[100.19920338818058,6.320191374926972],[100.19985733384851,6.320140221086992],[100.20050768975078,6.320055120477964],[100.20115267330709,6.319936306338065],[100.20179051666234,6.319784104305501],[100.20241947153222,6.319598931526214],[100.20303781399518,6.319381295510815],[100.20364384921747,6.319131792743942],[100.2042359160987,6.318851107049786],[100.20481239182469,6.318540007718257],[100.20537169631555,6.318199347396955],[100.20591229655653,6.317830059754743],[100.20643271079997,6.317433156923253],[100.2069315126266,6.317009726723356],[100.20740733485528,6.316560929684186],[100.20785887329035,6.316087995862929],[100.20828489029634,6.315592221474047],[100.20868421819026,6.315074965337087],[100.20905576244212,6.314537645152989],[100.20939850467492,6.313981733618975],[100.20971150545604,6.313408754392602],[100.20999390687211,6.312820277916163],[100.21024493488046,6.312217917112792],[100.21046390143077,6.311603322966122],[100.21065020635095,6.310978179995581],[100.21080333899218,6.310344201639598],[100.2109228796285,6.309703125559646],[100.21100850060735,6.309056708877725],[100.21105996724758,6.308406723360443],[100.21107713848272,6.307754950562952]]],"bbox":[100.12847192098265,6.295301160113127,100.3279944006029,6.659638410370991]}
