{"type":"Topology","objects":{"PLS_SE-06":{"type":"GeometryCollection","geometries":[{"type":"Polygon","arcs":[[0]],"properties":{"state":"Perlis","parlimen":"P.001 Kangar","code_parlimen":"P.001","dun":"N.01 Titi Tinggi","code_dun":"N.01","voters_total":6234}},{"type":"Polygon","arcs":[[1]],"properties":{"state":"Perlis","parlimen":"P.001 Kangar","code_parlimen":"P.001","dun":"N.02 Chuping","code_dun":"N.02","voters_total":7779}},{"type":"Polygon","arcs":[[2]],"properties":{"state":"Perlis","parlimen":"P.001 Kangar","code_parlimen":"P.001","dun":"N.03 Bintong","code_dun":"N.03","voters_total":6498}},{"type":"Polygon","arcs":[[3]],"properties":{"state":"Perlis","parlimen":"P.001 Kangar","code_parlimen":"P.001","dun":"N.04 Bandar Kangar","code_dun":"N.04","voters_total":8912}},{"type":"Polygon","arcs":[[4]],"properties":{"state":"Perlis","parlimen":"P.001 Kangar","code_parlimen":"P.001","dun":"N.05 Paya","code_dun":"N.05","voters_total":7354}},{"type":"Polygon","arcs":[[5]],"properties":{"state":"Perlis","parlimen":"P.001 Kangar","code_parlimen":"P.001","dun":"N.06 Oran","code_dun":"N.06","voters_total":5206}},{"type":"Polygon","arcs":[[6]],"properties":{"state":"Perlis","parlimen":"P.002 Arau","code_parlimen":"P.002","dun":"N.07 Kuala Perlis","code_dun":"N.07","voters_total":6118}},{"type":"Polygon","arcs":[[7]],"properties":{"state":"Perlis","parlimen":"P.002 Arau","code_parlimen":"P.002","dun":"N.08 Kayang","code_dun":"N.08","voters_total":6096}},{"type":"Polygon","arcs":[[8]],"properties":{"state":"Perlis","parlimen":"P.002 Arau","code_parlimen":"P.002","dun":"N.09 Utan Aji","code_dun":"N.09","voters_total":5947}},{"type":"Polygon","arcs":[[9]],"properties":{"state":"Perlis","parlimen":"P.002 Arau","code_parlimen":"P.002","dun":"N.10 Bandar Arau","code_dun":"N.10","voters_total":6417}},{"type":"Polygon","arcs":[[10]],"properties":{"state":"Perlis","parlimen":"P.002 Arau","code_parlimen":"P.002","dun":"N.11 Kurong Anai","code_dun":"N.11","voters_total":6575}},{"type":"Polygon","arcs":[[11]],"properties":{"state":"Perlis","parlimen":"P.002 Arau","code_parlimen":"P.002","dun":"N.12 Sanglang","code_dun":"N.12","voters_total":5882}}]}},"arcs":[[[100.25131616420686,6.645646978201428],[100.25130059934634,6.64505657363619],[100.25125394742702,6.644467786622988],[100.25117633631857,6.643882230994819],[100.2510679787476,6.643301511733443],[100.25092917171472,6.642727220569967],[100.25076029568034,6.642160931621867],[100.25056181352194,6.641604197078123],[100.25033426926531,6.641058542944454],[100.25007828659345,6.640525464860302],[100.2497945671371,6.640006423998859],[100.2494838885515,6.639502843061726],[100.24914710238511,6.63901610237882],[100.24878513174538,6.638547536124436],[100.2483989687687,6.638098428659822],[100.24798967190091,6.637670011012243],[100.24755836299633,6.637263457500207],[100.2471062242426,6.636879882514125],[100.24663449492068,6.636520337461304],[100.24614446800787,6.636185807883392],[100.24563748663383,6.635877210754585],[100.24511494039929,6.63559539196771],[100.24457826156713,6.635341124015024],[100.24402892113676,6.635115103870508],[100.24346842481208,6.634917951078948],[100.24289830887459,6.634750206057412],[100.24232013597242,6.634612328613573],[100.24173549083733,6.634504696685153],[100.241145975941,6.634427605303682],[100.24055320710276,6.634381265785675],[100.2399588090608,6.634365805153184],[100.23936441101884,6.634381265785675],[100.2387716421806,6.634427605303682],[100.23818212728426,6.634504696685153],[100.23759748214917,6.634612328613573],[100.237019309247,6.634750206057412],[100.23644919330951,6.634917951078948],[100.23588869698484,6.635115103870508],[100.23533935655448,6.635341124015024],[100.23480267772231,6.63559539196771],[100.23428013148776,6.635877210754585],[100.23377315011372,6.636185807883392],[100.2332831232009,6.636520337461304],[100.23281139387899,6.636879882514125],[100.23235925512529,6.637263457500207],[100.2319279462207,6.637670011012243],[100.23151864935289,6.638098428659822],[100.23113248637623,6.638547536124436],[100.2307705157365,6.63901610237882],[100.23043372957011,6.639502843061726],[100.23012305098452,6.640006423998859],[100.22983933152814,6.640525464860302],[100.22958334885628,6.641058542944454],[100.22935580459966,6.641604197078123],[100.22915732244127,6.642160931621867],[100.22898844640687,6.642727220569967],[100.22884963937399,6.643301511733443],[100.22874128180304,6.643882230994819],[100.22866367069457,6.644467786622988],[100.22861701877525,6.64505657363619],[100.22860145391473,6.645646978201428],[100.22861701877525,6.646237382057834],[100.22866367069457,6.646826166952303],[100.22874128180304,6.647411719075041],[100.22884963937399,6.647992433482713],[100.22898844640687,6.648566718497376],[100.22915732244127,6.64913300006893],[100.22935580459966,6.649689726089208],[100.22958334885628,6.65023537064587],[100.22983933152814,6.650768438204435],[100.23012305098452,6.651287467706984],[100.23043372957011,6.651791036576393],[100.2307705157365,6.652277764614952],[100.23113248637623,6.652746317786914],[100.23151864935289,6.653195411874357],[100.2319279462207,6.653623815996577],[100.23235925512529,6.654030355983251],[100.23281139387899,6.654413917592151],[100.2332831232009,6.654773449562561],[100.23377315011372,6.655107966496139],[100.23428013148776,6.65541655155721],[100.23480267772231,6.655698358985217],[100.23533935655448,6.655952616412277],[100.23588869698484,6.6561786269798],[100.23644919330951,6.656375771247893],[100.237019309247,6.656543508892884],[100.23759748214917,6.656681380187921],[100.23818212728426,6.656789007262624],[100.2387716421806,6.656866095138665],[100.23936441101884,6.656912432537952],[100.2399588090608,6.656927892461587],[100.24055320710276,6.656912432537952],[100.241145975941,6.656866095138665],[100.24173549083733,6.656789007262624],[100.24232013597242,6.656681380187921],[100.24289830887459,6.656543508892884],[100.24346842481208,6.656375771247893],[100.24402892113676,6.6561786269798],[100.24457826156713,6.655952616412277],[100.24511494039929,6.655698358985217],[100.24563748663383,6.65541655155721],[100.24614446800787,6.655107966496139],[100.24663449492068,6.654773449562561],[100.2471062242426,6.654413917592151],[100.24755836299633,6.654030355983251],[100.24798967190091,6.653623815996577],[100.2483989687687,6.653195411874357],[100.24878513174538,6.652746317786914],[100.24914710238511,6.652277764614952],[100.2494838885515,6.651791036576393],[100.2497945671371,6.651287467706984],[100.25007828659345,6.650768438204435],[100.25033426926531,6.65023537064587],[100.25056181352194,6.649689726089208],[100.25076029568034,6.64913300006893],[100.25092917171472,6.648566718497376],[100.2510679787476,6.647992433482713],[100.25117633631857,6.647411719075041],[100.25125394742702,6.646826166952303],[100.25130059934634,6.646237382057834],[100.25131616420686,6.645646978201428]],[[100.27702111657945,6.547663390266854],[100.27700372961685,6.547003739442216],[100.27695161638556,6.546345895806597],[100.27686491972426,6.545691662474475],[100.27674387726253,6.545042832671736],[100.2765888207693,6.544401184820338],[100.27640017524368,6.543768477663566],[100.27617845774991,6.543146445445102],[100.27592427600023,6.542536793155101],[100.27563832668918,6.54194119185652],[100.27532139358391,6.541361274104324],[100.27497434537605,6.540798629470142],[100.27459813330061,6.540254800184747],[100.27419378852875,6.539731276910278],[100.27376241934137,6.539229494653672],[100.27330520809143,6.538750828832773],[100.27282340796319,6.538296591505571],[100.2723183395373,6.537868027773258],[100.27179138717123,6.537466312366747],[100.27124399520477,6.537092546426052],[100.27067766400127,6.536747754481424],[100.27009394583517,6.53643288164448],[100.26949444063742,6.536148791017077],[100.26888079161006,6.535896261324951],[100.26825468072244,6.535675984782753],[100.26761782410097,6.535488565196153],[100.26697196732539,6.535334516306398],[100.26631888064423,6.535214260381803],[100.2656603541227,6.535128127059964],[100.26499819273621,6.535076352443991],[100.26433421142308,6.535059078455218],[100.26367023010997,6.535076352443991],[100.26300806872348,6.535128127059964],[100.26234954220193,6.535214260381803],[100.26169645552078,6.535334516306398],[100.26105059874521,6.535488565196153],[100.26041374212373,6.535675984782753],[100.25978763123612,6.535896261324951],[100.25917398220876,6.536148791017077],[100.258574477011,6.53643288164448],[100.2579907588449,6.536747754481424],[100.25742442764141,6.537092546426052],[100.25687703567493,6.537466312366747],[100.25635008330887,6.537868027773258],[100.255845014883,6.538296591505571],[100.25536321475475,6.538750828832773],[100.25490600350481,6.539229494653672],[100.25447463431743,6.539731276910278],[100.25407028954555,6.540254800184747],[100.25369407747013,6.540798629470142],[100.25334702926227,6.541361274104324],[100.253030096157,6.54194119185652],[100.25274414684596,6.542536793155101],[100.25248996509627,6.543146445445102],[100.2522682476025,6.543768477663566],[100.25207960207688,6.544401184820338],[100.25192454558365,6.545042832671736],[100.2518035031219,6.545691662474475],[100.25171680646062,6.546345895806597],[100.25166469322932,6.547003739442216],[100.25164730626673,6.547663390266854],[100.25166469322932,6.548323040219803],[100.25171680646062,6.548980881249872],[100.2518035031219,6.549635110271161],[100.25192454558365,6.550283934105017],[100.25207960207688,6.550925574394848],[100.2522682476025,6.551558272480221],[100.25248996509627,6.552180294216874],[100.25274414684596,6.55278993472946],[100.253030096157,6.553385523084061],[100.25334702926227,6.553965426867553],[100.25369407747013,6.55452805666133],[100.25407028954555,6.555071870397223],[100.25447463431743,6.55559537758344],[100.25490600350481,6.556097143389327],[100.25536321475475,6.556575792577286],[100.255845014883,6.557030013271537],[100.25635008330887,6.557458560553131],[100.25687703567493,6.557860259871391],[100.25742442764141,6.558234010262582],[100.2579907588449,6.558578787366806],[100.258574477011,6.558893646235047],[100.25917398220876,6.559177723918483],[100.25978763123612,6.55943024183318],[100.26041374212373,6.559650507893555],[100.26105059874521,6.559837918408768],[100.26169645552078,6.559991959736969],[100.26234954220193,6.560112209692669],[100.26300806872348,6.560198338703673],[100.26367023010997,6.560250110714098],[100.26433421142308,6.560267383831195],[100.26499819273621,6.560250110714098],[100.2656603541227,6.560198338703673],[100.26631888064423,6.560112209692669],[100.26697196732539,6.559991959736969],[100.26761782410097,6.559837918408768],[100.26825468072244,6.559650507893555],[100.26888079161006,6.55943024183318],[100.26949444063742,6.559177723918483],[100.27009394583517,6.558893646235047],[100.27067766400127,6.558578787366806],[100.27124399520477,6.558234010262582],[100.27179138717123,6.557860259871391],[100.2723183395373,6.557458560553131],[100.27282340796319,6.557030013271537],[100.27330520809143,6.556575792577286],[100.27376241934137,6.556097143389327],[100.27419378852875,6.55559537758344],[100.27459813330061,6.555071870397223],[100.27497434537605,6.55452805666133],[100.27532139358391,6.553965426867553],[100.27563832668918,6.553385523084061],[100.27592427600023,6.55278993472946],[100.27617845774991,6.552180294216874],[100.27640017524368,6.551558272480221],[100.2765888207693,6.550925574394848],[100.27674387726253,6.550283934105017],[100.27686491972426,6.549635110271161],[100.27695161638556,6.548980881249872],[100.27700372961685,6.548323040219803],[100.27702111657945,6.547663390266854]],[[100.18444066343476,6.495350997218088],[100.18442477241793,6.494748038777118],[100.18437714292364,6.494146732283923],[100.184297905501,6.493548725886748],[100.18418727733429,6.492955658694282],[100.18404556164764,6.492369156282871],[100.18387314687384,6.491790826240623],[100.18367050558986,6.491222253760925],[100.18343819322136,6.490664997297126],[100.18317684652038,6.490120584290598],[100.18288718182008,6.489590506983633],[100.18256999307125,6.489076218328821],[100.18222614966623,6.488579128006125],[100.18185659405584,6.488100598558519],[100.18146233916639,6.487641941656686],[100.18104446562307,6.487204414503286],[100.18060411878825,6.486789216386396],[100.18014250562199,6.486397485391784],[100.17966089137387,6.486030295282829],[100.1791605961151,6.485688652556798],[100.17864299112017,6.485373493685523],[100.17810949510844,6.485085682548011],[100.17756157035538,6.484826008062085],[100.17700071868462,6.48459518202147],[100.17642847735165,6.484393837144315],[100.17584641483015,6.484222525338572],[100.17525612651306,6.4840817161888],[100.17465923033961,6.483971795668837],[100.17405736236074,6.483893065083413],[100.17345217225473,6.483845740242288],[100.1728453188056,6.483829950868415],[100.17223846535649,6.483845740242288],[100.17163327525047,6.483893065083413],[100.17103140727158,6.483971795668837],[100.17043451109814,6.4840817161888],[100.16984422278107,6.484222525338572],[100.16926216025955,6.484393837144315],[100.16868991892657,6.48459518202147],[100.16812906725583,6.484826008062085],[100.16758114250277,6.485085682548011],[100.16704764649103,6.485373493685523],[100.1665300414961,6.485688652556798],[100.16602974623734,6.486030295282829],[100.16554813198923,6.486397485391784],[100.16508651882297,6.486789216386396],[100.16464617198814,6.487204414503286],[100.16422829844483,6.487641941656686],[100.16383404355535,6.488100598558519],[100.16346448794499,6.488579128006125],[100.16312064453996,6.489076218328821],[100.16280345579112,6.489590506983633],[100.16251379109082,6.490120584290598],[100.16225244438984,6.490664997297126],[100.16202013202134,6.491222253760925],[100.16181749073736,6.491790826240623],[100.16164507596358,6.492369156282871],[100.16150336027691,6.492955658694282],[100.1613927321102,6.493548725886748],[100.16131349468756,6.494146732283923],[100.16126586519329,6.494748038777118],[100.16124997417646,6.495350997218088],[100.16126586519329,6.495953954936613],[100.16131349468756,6.496555259270415],[100.1613927321102,6.497153262094911],[100.16150336027691,6.497746324340558],[100.16164507596358,6.498332820485195],[100.16181749073736,6.498911143009376],[100.16202013202134,6.499479706802088],[100.16225244438984,6.500036953505134],[100.16251379109082,6.500581355784134],[100.16280345579112,6.501111421514301],[100.16312064453996,6.501625697869869],[100.16346448794499,6.502122775305631],[100.16383404355535,6.502601291419819],[100.16422829844483,6.503059934687834],[100.16464617198814,6.503497448056392],[100.16508651882297,6.503912632388441],[100.16554813198923,6.504304349749236],[100.16602974623734,6.504671526524784],[100.1665300414961,6.505013156363883],[100.16704764649103,6.505328302935927],[100.16758114250277,6.505616102496615],[100.16812906725583,6.505875766255],[100.16868991892657,6.506106582534886],[100.16926216025955,6.506307918725057],[100.16984422278107,6.506479223012732],[100.17043451109814,6.506620025895716],[100.17103140727158,6.506729941468874],[100.17163327525047,6.506808668481593],[100.17223846535649,6.506855991163338],[100.1728453188056,6.506871779814793],[100.17345217225473,6.506855991163338],[100.17405736236074,6.506808668481593],[100.17465923033961,6.506729941468874],[100.17525612651306,6.506620025895716],[100.17584641483015,6.506479223012732],[100.17642847735165,6.506307918725057],[100.17700071868462,6.506106582534886],[100.17756157035538,6.505875766255],[100.17810949510844,6.505616102496615],[100.17864299112017,6.505328302935927],[100.1791605961151,6.505013156363883],[100.17966089137387,6.504671526524784],[100.18014250562199,6.504304349749236],[100.18060411878825,6.503912632388441],[100.18104446562307,6.503497448056392],[100.18146233916639,6.503059934687834],[100.18185659405584,6.502601291419819],[100.18222614966623,6.502122775305631],[100.18256999307125,6.501625697869869],[100.18288718182008,6.501111421514301],[100.18317684652038,6.500581355784134],[100.18343819322136,6.500036953505134],[100.18367050558986,6.499479706802088],[100.18387314687384,6.498911143009376],[100.18404556164764,6.498332820485195],[100.18418727733429,6.497746324340558],[100.184297905501,6.497153262094911],[100.18437714292364,6.496555259270415],[100.18442477241793,6.495953954936613],[100.18444066343476,6.495350997218088]],[[100.20567902212262,6.435247647607437],[100.20566041199194,6.434541432858643],[100.20560463260897,6.433837152817728],[100.20551183686112,6.433136737879478],[100.20538227909508,6.432442107852603],[100.20521631441967,6.431755166697426],[100.20501439773255,6.43107779730696],[100.20477708247334,6.430411856345676],[100.20450501910662,6.429759169159998],[100.20419895333923,6.429121524774644],[100.2038597240761,6.428500670988496],[100.20348826112111,6.427898309583237],[100.20308558262838,6.427316091658286],[100.20265279231164,6.426755613104381],[100.20219107641911,6.426218410228721],[100.20170170048195,6.42570595554306],[100.20118600584557,6.425219653726968],[100.20064540599314,6.424760837776792],[100.20008138267129,6.42433076535119],[100.19949548182869,6.423930615323111],[100.19888930937887,6.423561484547803],[100.19826452679837,6.423224384855622],[100.19762284657281,6.422920240277906],[100.19696602750307,6.422649884513592],[100.19629586988461,6.422414058643422],[100.19561421057284,6.422213409098113],[100.19492291794856,6.422048485886025],[100.1942238867968,6.421919741085131],[100.19351903311339,6.421827527603545],[100.19281028885324,6.421772098211894],[100.19209959663512,6.421753604850326],[100.191388904417,6.421772098211894],[100.19068016015684,6.421827527603545],[100.18997530647343,6.421919741085131],[100.18927627532167,6.422048485886025],[100.18858498269739,6.422213409098113],[100.18790332338564,6.422414058643422],[100.18723316576717,6.422649884513592],[100.18657634669744,6.422920240277906],[100.18593466647187,6.423224384855622],[100.18530988389136,6.423561484547803],[100.18470371144154,6.423930615323111],[100.18411781059895,6.42433076535119],[100.18355378727709,6.424760837776792],[100.18301318742466,6.425219653726968],[100.18249749278829,6.42570595554306],[100.18200811685112,6.426218410228721],[100.1815464009586,6.426755613104381],[100.18111361064187,6.427316091658286],[100.18071093214913,6.427898309583237],[100.18033946919414,6.428500670988496],[100.180000239931,6.429121524774644],[100.17969417416361,6.429759169159998],[100.17942211079689,6.430411856345676],[100.17918479553768,6.43107779730696],[100.17898287885056,6.431755166697426],[100.17881691417517,6.432442107852603],[100.17868735640911,6.433136737879478],[100.17859456066127,6.433837152817728],[100.17853878127829,6.434541432858643],[100.17852017114761,6.435247647607437],[100.17853878127829,6.435953861374418],[100.17859456066127,6.436658138480674],[100.17868735640911,6.437358548563578],[100.17881691417517,6.4380531718676],[100.17898287885056,6.438740104506079],[100.17918479553768,6.439417463679319],[100.17942211079689,6.440083392834791],[100.17969417416361,6.440736066755406],[100.180000239931,6.441373696561783],[100.18033946919414,6.44199453461477],[100.18071093214913,6.44259687930507],[100.18111361064187,6.443179079716399],[100.1815464009586,6.443739540149881],[100.18200811685112,6.444276724496878],[100.18249749278829,6.444789160448614],[100.18301318742466,6.445275443530767],[100.18355378727709,6.445734240952278],[100.18411781059895,6.446164295257459],[100.18470371144154,6.446564427771915],[100.18530988389136,6.446933541832263],[100.18593466647187,6.447270625791296],[100.18657634669744,6.447574755790037],[100.18723316576717,6.447845098289288],[100.18790332338564,6.448080912353634],[100.18858498269739,6.448281551681703],[100.18927627532167,6.448446466377092],[100.18997530647343,6.448575204455146],[100.19068016015684,6.448667413081386],[100.191388904417,6.44872283953839],[100.19209959663512,6.448741331918147],[100.19281028885324,6.44872283953839],[100.19351903311339,6.448667413081386],[100.1942238867968,6.448575204455146],[100.19492291794856,6.448446466377092],[100.19561421057284,6.448281551681703],[100.19629586988461,6.448080912353634],[100.19696602750307,6.447845098289288],[100.19762284657281,6.447574755790037],[100.19826452679837,6.447270625791296],[100.19888930937887,6.446933541832263],[100.19949548182869,6.446564427771915],[100.20008138267129,6.446164295257459],[100.20064540599314,6.445734240952278],[100.20118600584557,6.445275443530767],[100.20170170048195,6.444789160448614],[100.20219107641911,6.444276724496878],[100.20265279231164,6.443739540149881],[100.20308558262838,6.443179079716399],[100.20348826112111,6.44259687930507],[100.2038597240761,6.44199453461477],[100.20419895333923,6.441373696561783],[100.20450501910662,6.440736066755406],[100.20477708247334,6.440083392834791],[100.20501439773255,6.439417463679319],[100.20521631441967,6.438740104506079],[100.20538227909508,6.4380531718676],[100.20551183686112,6.437358548563578],[100.20560463260897,6.436658138480674],[100.20566041199194,6.435953861374418],[100.20567902212262,6.435247647607437]],[[100.23431879500946,6.475687892798618],[100.23430188967968,6.475046422876432],[100.23425122002675,6.474406710366961],[100.23416692493261,6.47377050868784],[100.23404923544426,6.473139561640271],[100.23389847414043,6.472515598629232],[100.23371505424737,6.471900329923096],[100.23349947850625,6.471295441965513],[100.23325233779516,6.470702592752629],[100.23297430950969,6.470123407288189],[100.23266615570599,6.469559473129038],[100.23232872101221,6.469012336033188],[100.2319629303134,6.468483495722358],[100.23156978621644,6.467974401770818],[100.231150366302,6.467486449631466],[100.2307058201709,6.467020976810341],[100.23023736629315,6.466579259199928],[100.2297462886683,6.466162507581345],[100.22923393330598,6.465771864304909],[100.22870170453662,6.465408400158424],[100.22815106116228,6.465073111431511],[100.2275835124582,6.464766917184195],[100.22700061403589,6.464490656727189],[100.22640396357941,6.464245087320854],[100.22579519646621,6.46403088209903],[100.22517598128465,6.463848628223534],[100.22454801526047,6.463698825274371],[100.22391301960488,6.46358188387998],[100.22327273479686,6.463498124591507],[100.22262891581258,6.463447777003844],[100.2219833273151,6.463430979126246],[100.22133773881762,6.463447777003844],[100.22069391983332,6.463498124591507],[100.22005363502532,6.46358188387998],[100.21941863936974,6.463698825274371],[100.21879067334555,6.463848628223534],[100.21817145816398,6.46403088209903],[100.21756269105079,6.464245087320854],[100.21696604059433,6.464490656727189],[100.21638314217202,6.464766917184195],[100.21581559346794,6.465073111431511],[100.21526495009358,6.465408400158424],[100.21473272132422,6.465771864304909],[100.2142203659619,6.466162507581345],[100.21372928833705,6.466579259199928],[100.2132608344593,6.467020976810341],[100.2128162883282,6.467486449631466],[100.21239686841375,6.467974401770818],[100.2120037243168,6.468483495722358],[100.211637933618,6.469012336033188],[100.21130049892423,6.469559473129038],[100.21099234512052,6.470123407288189],[100.21071431683502,6.470702592752629],[100.21046717612396,6.471295441965513],[100.21025160038283,6.471900329923096],[100.21006818048977,6.472515598629232],[100.20991741918594,6.473139561640271],[100.2097997296976,6.47377050868784],[100.20971543460345,6.474406710366961],[100.2096647649505,6.475046422876432],[100.20964785962074,6.475687892798618],[100.2096647649505,6.476329361905628],[100.20971543460345,6.476969071978513],[100.2097997296976,6.477605269626345],[100.20991741918594,6.478236211092105],[100.21006818048977,6.478860167031918],[100.21025160038283,6.479475427254917],[100.21046717612396,6.480080305410412],[100.21071431683502,6.48067314360962],[100.21099234512052,6.48125231696948],[100.21130049892423,6.481816238065749],[100.211637933618,6.482363361283579],[100.2120037243168,6.482892187053231],[100.21239686841375,6.483401265959818],[100.2128162883282,6.483889202715248],[100.2132608344593,6.484354659982036],[100.21372928833705,6.484796362038098],[100.2142203659619,6.48521309827276],[100.21473272132422,6.48560372650423],[100.21526495009358,6.48596717610955],[100.21581559346794,6.486302450958418],[100.21638314217202,6.486608632142865],[100.21696604059433,6.486884880495291],[100.21756269105079,6.48713043888795],[100.21817145816398,6.487344634307673],[100.21879067334555,6.487526879700032],[100.21941863936974,6.487676675577994],[100.22005363502532,6.487793611390551],[100.22069391983332,6.487877366647747],[100.22133773881762,6.487927711798825],[100.2219833273151,6.48794450886126],[100.22262891581258,6.487927711798825],[100.22327273479686,6.487877366647747],[100.22391301960488,6.487793611390551],[100.22454801526047,6.487676675577994],[100.22517598128465,6.487526879700032],[100.22579519646621,6.487344634307673],[100.22640396357941,6.48713043888795],[100.22700061403589,6.486884880495291],[100.2275835124582,6.486608632142865],[100.22815106116228,6.486302450958418],[100.22870170453662,6.48596717610955],[100.22923393330598,6.48560372650423],[100.2297462886683,6.48521309827276],[100.23023736629315,6.484796362038098],[100.2307058201709,6.484354659982036],[100.231150366302,6.483889202715248],[100.23156978621644,6.483401265959818],[100.2319629303134,6.482892187053231],[100.23232872101221,6.482363361283579],[100.23266615570599,6.481816238065749],[100.23297430950969,6.48125231696948],[100.23325233779516,6.48067314360962],[100.23349947850625,6.480080305410412],[100.23371505424737,6.479475427254917],[100.23389847414043,6.478860167031918],[100.23404923544426,6.478236211092105],[100.23416692493261,6.477605269626345],[100.23425122002675,6.476969071978513],[100.23430188967968,6.476329361905628],[100.23431879500946,6.475687892798618]],[[100.32855535724867,6.490044870565588],[100.32854113350503,6.489505168403976],[100.32849850126047,6.488966944952578],[100.32842757736692,6.488431675451594],[100.32832855622193,6.487900827049335],[100.32820170923553,6.487375854780641],[100.3280473840865,6.486858197578687],[100.32786600376934,6.486349274330634],[100.32765806543489,6.485850479988288],[100.32742413902771,6.485363181744415],[100.32716486572377,6.48488871528491],[100.3268809561732,6.484428381127426],[100.32657318855236,6.483983441056324],[100.32624240643085,6.483555114663782],[100.32588951645954,6.483144576006512],[100.32551548588528,6.482752950387214],[100.32512133989987,6.482381311269797],[100.32470815883005,6.482030677336551],[100.32427707517644,6.481702009695505],[100.32382927050936,6.481396209245617],[100.32336597223026,6.481114114206996],[100.32288845020757,6.480856497822917],[100.3223980132959,6.480624066240016],[100.32189600574875,6.480417456572338],[100.32138380353395,6.480237235154654],[100.32086281056215,6.480083895989888],[100.32033445483886,6.479957859394716],[100.31980018455037,6.479859470847248],[100.31926146409445,6.479789000039894],[100.3187197700664,6.479746640139991],[100.3181765872119,6.47973250726014],[100.3176334043574,6.479746640139991],[100.31709171032934,6.479789000039894],[100.31655298987341,6.479859470847248],[100.31601871958493,6.479957859394716],[100.31549036386164,6.480083895989888],[100.31496937088983,6.480237235154654],[100.31445716867502,6.480417456572338],[100.3139551611279,6.480624066240016],[100.31346472421622,6.480856497822917],[100.31298720219351,6.481114114206996],[100.31252390391441,6.481396209245617],[100.31207609924735,6.481702009695505],[100.31164501559374,6.482030677336551],[100.31123183452392,6.482381311269797],[100.31083768853851,6.482752950387214],[100.31046365796425,6.483144576006512],[100.31011076799292,6.483555114663782],[100.30977998587143,6.483983441056324],[100.30947221825059,6.484428381127426],[100.30918830870002,6.48488871528491],[100.30892903539608,6.485363181744415],[100.3086951089889,6.485850479988288],[100.30848717065444,6.486349274330634],[100.30830579033729,6.486858197578687],[100.30815146518826,6.487375854780641],[100.30802461820186,6.487900827049335],[100.30792559705687,6.488431675451594],[100.30785467316332,6.488966944952578],[100.30781204091875,6.489505168403976],[100.30779781717511,6.490044870565588],[100.30781204091875,6.490584572148872],[100.30785467316332,6.491122793871626],[100.30792559705687,6.491658060512592],[100.30802461820186,6.492188904954793],[100.30815146518826,6.49271387220676],[100.30830579033729,6.49323152339029],[100.30848717065444,6.4937404396842],[100.3086951089889,6.494239226212801],[100.30892903539608,6.494726515869012],[100.30918830870002,6.495200973060966],[100.30947221825059,6.495661297372584],[100.30977998587143,6.496106227127366],[100.31011076799292,6.496534542846158],[100.31046365796425,6.496945070589215],[100.31083768853851,6.497336685173375],[100.31123183452392,6.497708313255654],[100.31164501559374,6.498058936274661],[100.31207609924735,6.498387593241969],[100.31252390391441,6.498693383375538],[100.31298720219351,6.498975468568293],[100.31346472421622,6.49923307568482],[100.3139551611279,6.499465498680046],[100.31445716867502,6.499672100534004],[100.31496937088983,6.49985231499752],[100.31549036386164,6.500005648143875],[100.31601871958493,6.500131679722332],[100.31655298987341,6.500230064309743],[100.31709171032934,6.500300532257066],[100.3176334043574,6.500342890428324],[100.3181765872119,6.500357022729836],[100.3187197700664,6.500342890428324],[100.31926146409445,6.500300532257066],[100.31980018455037,6.500230064309743],[100.32033445483886,6.500131679722332],[100.32086281056215,6.500005648143875],[100.32138380353395,6.49985231499752],[100.32189600574875,6.499672100534004],[100.3223980132959,6.499465498680046],[100.32288845020757,6.49923307568482],[100.32336597223026,6.498975468568293],[100.32382927050936,6.498693383375538],[100.32427707517644,6.498387593241969],[100.32470815883005,6.498058936274661],[100.32512133989987,6.497708313255654],[100.32551548588528,6.497336685173375],[100.32588951645954,6.496945070589215],[100.32624240643085,6.496534542846158],[100.32657318855236,6.496106227127366],[100.3268809561732,6.495661297372584],[100.32716486572377,6.495200973060966],[100.32742413902771,6.494726515869012],[100.32765806543489,6.494239226212801],[100.32786600376934,6.4937404396842],[100.3280473840865,6.49323152339029],[100.32820170923553,6.49271387220676],[100.32832855622193,6.492188904954793],[100.32842757736692,6.491658060512592],[100.32849850126047,6.491122793871626],[100.32854113350503,6.490584572148872],[100.32855535724867,6.490044870565588]],[[100.15357292700257,6.40200555654081],[100.15355750763469,6.40142038631091],[100.15351129179444,6.400836819324175],[100.15343440615625,6.400256455105433],[100.15332706145833,6.399680884406373],[100.15318955192497,6.399111684845156],[100.15302225446028,6.39855041658217],[100.15282562761499,6.39799861804342],[100.15260021032961,6.39745780170348],[100.15234662045724,6.396929449939601],[100.1520655530701,6.396415010968149],[100.15175777855436,6.395915894874721],[100.15142414049859,6.395433469748758],[100.1510655533815,6.394969057933093],[100.15068300006541,6.394523932399051],[100.15027752910245,6.394099313256732],[100.14985025186029,6.393696364410213],[100.14940233947617,6.393316190366787],[100.14893501964679,6.392959833209011],[100.1484495732633,6.392628269737849],[100.14794733090056,6.392322408794842],[100.14742966916992,6.392043088770372],[100.1468980069462,6.391791075305324],[100.14635380147864,6.3915670591919],[100.14579854439657,6.391371654479885],[100.14523375762106,6.391205396793067],[100.1446609891934,6.391068741860813],[100.14408180903204,6.390962064268677],[100.14349780462955,6.390885656431345],[100.14291057670141,6.390839727790978],[100.14232173479854,6.390824404243014],[100.14173289289567,6.390839727790978],[100.14114566496752,6.390885656431345],[100.14056166056504,6.390962064268677],[100.13998248040369,6.391068741860813],[100.13940971197603,6.391205396793067],[100.13884492520052,6.391371654479885],[100.13828966811845,6.3915670591919],[100.13774546265088,6.391791075305324],[100.13721380042716,6.392043088770372],[100.13669613869652,6.392322408794842],[100.13619389633376,6.392628269737849],[100.1357084499503,6.392959833209011],[100.13524113012092,6.393316190366787],[100.1347932177368,6.393696364410213],[100.13436594049463,6.394099313256732],[100.13396046953166,6.394523932399051],[100.1335779162156,6.394969057933093],[100.1332193290985,6.395433469748758],[100.13288569104273,6.395915894874721],[100.13257791652697,6.396415010968149],[100.13229684913985,6.396929449939601],[100.13204325926749,6.39745780170348],[100.13181784198208,6.39799861804342],[100.13162121513679,6.39855041658217],[100.1314539176721,6.399111684845156],[100.13131640813877,6.399680884406373],[100.13120906344082,6.400256455105433],[100.13113217780264,6.400836819324175],[100.13108596196238,6.40142038631091],[100.1310705425945,6.40200555654081],[100.13108596196238,6.402590726100134],[100.13113217780264,6.403174291082483],[100.13120906344082,6.403754651985001],[100.13131640813877,6.404330218092332],[100.1314539176721,6.40489941183662],[100.13162121513679,6.405460673121202],[100.13181784198208,6.406012463596547],[100.13204325926749,6.406553270876397],[100.13229684913985,6.407081612682785],[100.13257791652697,6.407596040908441],[100.13288569104273,6.408095145585484],[100.1332193290985,6.408577558749585],[100.1335779162156,6.409041958188949],[100.13396046953166,6.409487071067844],[100.13436594049463,6.409911677414828],[100.1347932177368,6.410314613466014],[100.13524113012092,6.410694774854305],[100.1357084499503,6.411051119635767],[100.13619389633376,6.411382671145054],[100.13669613869652,6.411688520671703],[100.13721380042716,6.411967829950363],[100.13774546265088,6.412219833457933],[100.13828966811845,6.412443840511266],[100.13884492520052,6.412639237159877],[100.13940971197603,6.41280548786829],[100.13998248040369,6.412942136983602],[100.14056166056504,6.41304880998401],[100.14114566496752,6.413125214505118],[100.14173289289567,6.413171141141111],[100.14232173479854,6.4131864640185],[100.14291057670141,6.413171141141111],[100.14349780462955,6.413125214505118],[100.14408180903204,6.41304880998401],[100.1446609891934,6.412942136983602],[100.14523375762106,6.41280548786829],[100.14579854439657,6.412639237159877],[100.14635380147864,6.412443840511266],[100.1468980069462,6.412219833457933],[100.14742966916992,6.411967829950363],[100.14794733090056,6.411688520671703],[100.1484495732633,6.411382671145054],[100.14893501964679,6.411051119635767],[100.14940233947617,6.410694774854305],[100.14985025186029,6.410314613466014],[100.15027752910245,6.409911677414828],[100.15068300006541,6.409487071067844],[100.1510655533815,6.409041958188949],[100.15142414049859,6.408577558749585],[100.15175777855436,6.408095145585484],[100.1520655530701,6.407596040908441],[100.15234662045724,6.407081612682785],[100.15260021032961,6.406553270876397],[100.15282562761499,6.406012463596547],[100.15302225446028,6.405460673121202],[100.15318955192497,6.40489941183662],[100.15332706145833,6.404330218092332],[100.15343440615625,6.403754651985001],[100.15351129179444,6.403174291082483],[100.15355750763469,6.402590726100134],[100.15357292700257,6.40200555654081]],[[100.18540827038277,6.373360791830539],[100.18539287876347,6.372776641977274],[100.1853467460929,6.372194092575715],[100.18526999881752,6.37161474036151],[100.18516284729628,6.371040173312382],[100.18502558522404,6.370471966295427],[100.18485858882663,6.369911676750349],[100.18466231582953,6.36936084042029],[100.18443730420339,6.368820967142268],[100.18418417068943,6.368293536708315],[100.18390360910905,6.367779994809206],[100.18359638846202,6.367281749071386],[100.18326335081878,6.366800165198294],[100.18290540901233,6.366336563226568],[100.18252354413633,6.365892213907418],[100.18211880285585,6.365468335222961],[100.18169229453859,6.36506608904733],[100.18124518821422,6.364686577961406],[100.18077870937007,6.364330842230226],[100.18029413659227,6.363999856951068],[100.17979279806107,6.363694529380274],[100.17927606791058,6.363415696445948],[100.17874536246221,6.363164122453483],[100.17820213634269,6.362940496990264],[100.17764787849707,6.362745433034989],[100.1770841081076,6.362579465277192],[100.17651237042968,6.36244304865137],[100.17593423255657,6.362336557089672],[100.17535127912402,6.362260282496743],[100.17476510796682,6.362214433949423],[100.1741773257394,6.362199137123564],[100.17358954351197,6.362214433949423],[100.17300337235477,6.362260282496743],[100.17242041892221,6.362336557089672],[100.1718422810491,6.36244304865137],[100.17127054337121,6.362579465277192],[100.17070677298172,6.362745433034989],[100.1701525151361,6.362940496990264],[100.16960928901656,6.363164122453483],[100.16907858356821,6.363415696445948],[100.16856185341771,6.363694529380274],[100.16806051488652,6.363999856951068],[100.1675759421087,6.364330842230226],[100.16710946326455,6.364686577961406],[100.1666623569402,6.36506608904733],[100.16623584862293,6.365468335222961],[100.16583110734246,6.365892213907418],[100.16544924246645,6.366336563226568],[100.16509130066002,6.366800165198294],[100.16475826301676,6.367281749071386],[100.16445104236973,6.367779994809206],[100.16417048078935,6.368293536708315],[100.16391734727542,6.368820967142268],[100.16369233564926,6.36936084042029],[100.16349606265217,6.369911676750349],[100.16332906625475,6.370471966295427],[100.16319180418249,6.371040173312382],[100.16308465266127,6.37161474036151],[100.16300790538588,6.372194092575715],[100.16296177271532,6.372776641977274],[100.16294638109602,6.373360791830539],[100.16296177271532,6.373944941018597],[100.16300790538588,6.374527488431776],[100.16308465266127,6.375106837356218],[100.16319180418249,6.375681399850257],[100.16332906625475,6.376249601096706],[100.16349606265217,6.376809883719078],[100.16369233564926,6.377360712050067],[100.16391734727542,6.377900576340314],[100.16417048078935,6.378427996896227],[100.16445104236973,6.378941528135299],[100.16475826301676,6.37943976254785],[100.16509130066002,6.379921334554536],[100.16544924246645,6.380384924248722],[100.16583110734246,6.380829261013714],[100.16623584862293,6.381253127004945],[100.1666623569402,6.381655360487352],[100.16710946326455,6.382034859019118],[100.1675759421087,6.38239058247276],[100.16806051488652,6.382721555885509],[100.16856185341771,6.383026872131035],[100.16907858356821,6.383305694405339],[100.16960928901656,6.383557258519763],[100.1701525151361,6.383780874995206],[100.17070677298172,6.383975930951411],[100.17127054337121,6.384141891786501],[100.1718422810491,6.384278302641805],[100.17242041892221,6.384384789648414],[100.17300337235477,6.384461060951594],[100.17358954351197,6.38450690751052],[100.1741773257394,6.38452220367116],[100.17476510796682,6.38450690751052],[100.17535127912402,6.384461060951594],[100.17593423255657,6.384384789648414],[100.17651237042968,6.384278302641805],[100.1770841081076,6.384141891786501],[100.17764787849707,6.383975930951411],[100.17820213634269,6.383780874995206],[100.17874536246221,6.383557258519763],[100.17927606791058,6.383305694405339],[100.17979279806107,6.383026872131035],[100.18029413659227,6.382721555885509],[100.18077870937007,6.38239058247276],[100.18124518821422,6.382034859019118],[100.18169229453859,6.381655360487352],[100.18211880285585,6.381253127004945],[100.18252354413633,6.380829261013714],[100.18290540901233,6.380384924248722],[100.18326335081878,6.379921334554536],[100.18359638846202,6.37943976254785],[100.18390360910905,6.378941528135299],[100.18418417068943,6.378427996896227],[100.18443730420339,6.377900576340314],[100.18466231582953,6.377360712050067],[100.18485858882663,6.376809883719078],[100.18502558522404,6.376249601096706],[100.18516284729628,6.375681399850257],[100.18526999881752,6.375106837356218],[100.1853467460929,6.374527488431776],[100.18539287876347,6.373944941018597],[100.18540827038277,6.373360791830539]],[[100.23269858172002,6.410926472948385],[100.23268337936734,6.410349548609693],[100.23263781397795,6.409774204930522],[100.23256201044336,6.409202018895976],[100.2324561765358,6.408634558841524],[100.23232060233869,6.408073380154129],[100.23215565945145,6.407520021008885],[100.23196179997106,6.406975998152655],[100.23173955525291,6.406442802746568],[100.23148953445433,6.405921896278413],[100.23121242286489,6.405414706556436],[100.23090898002825,6.404922623795389],[100.23058003766013,6.404446996805524],[100.23022649736868,6.403989129295216],[100.22984932818328,6.403550276296923],[100.22944956389843,6.403131640726771],[100.22902830024024,6.402734370086906],[100.22858669186316,6.402359553319633],[100.22812594918503,6.402008217822218],[100.22764733506949,6.401681326630271],[100.22715216136457,6.401379775777595],[100.22664178530701,6.401104391839704],[100.22611760580206,6.400855929667729],[100.22558105958933,6.400635070318973],[100.22503361730469,6.400442419189755],[100.22447677944942,6.400278504355595],[100.22391207227732,6.400143775123518],[100.22334104361153,6.400038600800221],[100.22276525860192,6.399963269679526],[100.22218629543521,6.399917988252039],[100.22160574100916,6.399902880639019],[100.22102518658309,6.399917988252039],[100.22044622341636,6.399963269679526],[100.21987043840676,6.400038600800221],[100.21929940974097,6.400143775123518],[100.21873470256888,6.400278504355595],[100.2181778647136,6.400442419189755],[100.21763042242897,6.400635070318973],[100.21709387621623,6.400855929667729],[100.21656969671129,6.401104391839704],[100.21605932065371,6.401379775777595],[100.21556414694881,6.401681326630271],[100.21508553283327,6.402008217822218],[100.21462479015514,6.402359553319633],[100.21418318177804,6.402734370086906],[100.21376191811989,6.403131640726771],[100.21336215383502,6.403550276296923],[100.21298498464961,6.403989129295216],[100.21263144435815,6.404446996805524],[100.21230250199004,6.404922623795389],[100.21199905915341,6.405414706556436],[100.21172194756397,6.405921896278413],[100.21147192676537,6.406442802746568],[100.21124968204724,6.406975998152655],[100.21105582256685,6.407520021008885],[100.21089087967961,6.408073380154129],[100.2107553054825,6.408634558841524],[100.21064947157494,6.409202018895976],[100.21057366804035,6.409774204930522],[100.21052810265095,6.410349548609693],[100.21051290029828,6.410926472948385],[100.21052810265095,6.411503396634351],[100.21057366804035,6.412078738362493],[100.21064947157494,6.412650921169094],[100.2107553054825,6.41321837675404],[100.21089087967961,6.413779549779336],[100.21105582256685,6.414332902131945],[100.21124968204724,6.41487691713938],[100.21147192676537,6.415410103726553],[100.21172194756397,6.415931000502273],[100.21199905915341,6.4164381797645],[100.21230250199004,6.416930251413071],[100.21263144435815,6.417405866759458],[100.21298498464961,6.417863722222908],[100.21336215383502,6.418302562902925],[100.21376191811989,6.418721186018317],[100.21418318177804,6.419118444203436],[100.21462479015514,6.419493248652432],[100.21508553283327,6.419844572102975],[100.21556414694881,6.420171451651471],[100.21605932065371,6.420472991391659],[100.21656969671129,6.420748364869799],[100.21709387621623,6.420996817349326],[100.21763042242897,6.421217667879154],[100.2181778647136,6.421410311159604],[100.21873470256888,6.421574219201116],[100.21929940974097,6.421708942771094],[100.21987043840676,6.421814112624896],[100.22044622341636,6.421889440517633],[100.22102518658309,6.421934719994093],[100.22160574100916,6.4219498269544],[100.22218629543521,6.421934719994093],[100.22276525860192,6.421889440517633],[100.22334104361153,6.421814112624896],[100.22391207227732,6.421708942771094],[100.22447677944942,6.421574219201116],[100.22503361730469,6.421410311159604],[100.22558105958933,6.421217667879154],[100.22611760580206,6.420996817349326],[100.22664178530701,6.420748364869799],[100.22715216136457,6.420472991391659],[100.22764733506949,6.420171451651471],[100.22812594918503,6.419844572102975],[100.22858669186316,6.419493248652432],[100.22902830024024,6.419118444203436],[100.22944956389843,6.418721186018317],[100.22984932818328,6.418302562902925],[100.23022649736868,6.417863722222908],[100.23058003766013,6.417405866759458],[100.23090898002825,6.416930251413071],[100.23121242286489,6.4164381797645],[100.23148953445433,6.415931000502273],[100.23173955525291,6.415410103726553],[100.23196179997106,6.41487691713938],[100.23215565945145,6.414332902131945],[100.23232060233869,6.413779549779336],[100.2324561765358,6.41321837675404],[100.23256201044336,6.412650921169094],[100.23263781397795,6.412078738362493],[100.23268337936734,6.411503396634351],[100.23269858172002,6.410926472948385]],[[100.27103708162915,6.419317246677859],[100.27102128996667,6.418717968076902],[100.27097395826303,6.418120331354682],[100.27089521625115,6.417525974600646],[100.27078527975743,6.4169365269197],[100.27064445011014,6.416353603966866],[100.27047311331356,6.415778803518636],[100.27027173898993,6.415213701093254],[100.2700408790923,6.414659845632046],[100.26978116639158,6.414118755253516],[100.26949331274224,6.413591913091802],[100.26917810713113,6.413080763231077],[100.26883641351488,6.412586706746888],[100.268469168452,6.412111097865372],[100.26807737853564,6.411655240250857],[100.26766211763474,6.411220383432009],[100.26722452395059,6.410807719376388],[100.266765796897,6.410418379222707],[100.26628719381299,6.410053430179857],[100.26579002651634,6.409713872601213],[100.26527565770803,6.409400637242122],[100.26474549723724,6.409114582708168],[100.26420099823693,6.408856493101304],[100.26364365314105,6.408627075870133],[100.26307498959375,6.408426959870456],[100.26249656626229,6.408256693641085],[100.26190996856481,6.4081167439],[100.26131680432484,6.408007494264816],[100.2607186993643,6.407929244200979],[100.26011729304736,6.407882208200781],[100.25951423378689,6.40786651519526],[100.25891117452643,6.407882208200781],[100.25830976820947,6.407929244200979],[100.25771166324895,6.408007494264816],[100.25711849900897,6.4081167439],[100.25653190131149,6.408256693641085],[100.25595347798003,6.408426959870456],[100.25538481443273,6.408627075870133],[100.25482746933685,6.408856493101304],[100.25428297033655,6.409114582708168],[100.25375280986576,6.409400637242122],[100.25323844105745,6.409713872601213],[100.25274127376079,6.410053430179857],[100.25226267067679,6.410418379222707],[100.2518039436232,6.410807719376388],[100.25136634993905,6.411220383432009],[100.25095108903814,6.411655240250857],[100.25055929912179,6.412111097865372],[100.25019205405889,6.412586706746888],[100.24985036044266,6.413080763231077],[100.24953515483155,6.413591913091802],[100.2492473011822,6.414118755253516],[100.24898758848148,6.414659845632046],[100.24875672858384,6.415213701093254],[100.24855535426022,6.415778803518636],[100.24838401746365,6.416353603966866],[100.24824318781636,6.4169365269197],[100.24813325132261,6.417525974600646],[100.24805450931075,6.418120331354682],[100.24800717760712,6.418717968076902],[100.24799138594462,6.419317246677859],[100.24800717760712,6.419916524573584],[100.24805450931075,6.420514159187873],[100.24813325132261,6.42110851245438],[100.24824318781636,6.421697955306379],[100.24838401746365,6.422280872141759],[100.24855535426022,6.422855665251088],[100.24875672858384,6.4234207591965],[100.24898758848148,6.423974605129569],[100.2492473011822,6.424515685036199],[100.24953515483155,6.425042515896969],[100.24985036044266,6.425553653751545],[100.25019205405889,6.426047697655916],[100.25055929912179,6.42652329352175],[100.25095108903814,6.426979137827348],[100.25136634993905,6.427413981189829],[100.2518039436232,6.427826631789109],[100.25226267067679,6.428215958633873],[100.25274127376079,6.428580894661041],[100.25323844105745,6.428920439659853],[100.25375280986576,6.429233663012795],[100.25428297033655,6.429519706245819],[100.25482746933685,6.429777785380783],[100.25538481443273,6.4300071930838],[100.25595347798003,6.430207300603509],[100.25653190131149,6.430377559493978],[100.25711849900897,6.43051750311761],[100.25771166324895,6.430626747923859],[100.25830976820947,6.430704994500156],[100.25891117452643,6.430752028392433],[100.25951423378689,6.430767720692724],[100.26011729304736,6.430752028392433],[100.2607186993643,6.430704994500156],[100.26131680432484,6.430626747923859],[100.26190996856481,6.43051750311761],[100.26249656626229,6.430377559493978],[100.26307498959375,6.430207300603509],[100.26364365314105,6.4300071930838],[100.26420099823693,6.429777785380783],[100.26474549723724,6.429519706245819],[100.26527565770803,6.429233663012795],[100.26579002651634,6.428920439659853],[100.26628719381299,6.428580894661041],[100.266765796897,6.428215958633873],[100.26722452395059,6.427826631789109],[100.26766211763474,6.427413981189829],[100.26807737853564,6.426979137827348],[100.268469168452,6.42652329352175],[100.26883641351488,6.426047697655916],[100.26917810713113,6.425553653751545],[100.26949331274224,6.425042515896969],[100.26978116639158,6.424515685036199],[100.2700408790923,6.423974605129569],[100.27027173898993,6.4234207591965],[100.27047311331356,6.422855665251088],[100.27064445011014,6.422280872141759],[100.27078527975743,6.421697955306379],[100.27089521625115,6.42110851245438],[100.27097395826303,6.420514159187873],[100.27102128996667,6.419916524573584],[100.27103708162915,6.419317246677859]],[[100.3062294650752,6.410728639816587],[100.30621348018296,6.41012201810319],[100.30616556931977,6.409517058379151],[100.30608586380595,6.408915418805942],[100.30597458210877,6.408318748450531],[100.30583202924363,6.40772868276524],[100.30565859593803,6.40714683910486],[100.3054547575606,6.406574812293334],[100.30522107281816,6.40601417025205],[100.30495818222437,6.405466449701954],[100.30466680634404,6.404933151951024],[100.30434774381823,6.404415738778845],[100.30400186917512,6.403915628429419],[100.3036301304331,6.403434191723289],[100.30323354650221,6.402972748299702],[100.30281320439143,6.402532562998923],[100.30237025622927,6.402114842394763],[100.30190591610585,6.401720731486882],[100.30142145674516,6.401351310561758],[100.30091820601668,6.401007592231122],[100.30039754329562,6.40069051865584],[100.29986089568236,6.400400958962936],[100.29930973409066,6.400139706862832],[100.29874556921617,6.399907478473331],[100.29816994739556,6.399704910356296],[100.29758444636825,6.399532557772427],[100.29699067095187,6.399390893158991],[100.29639024864355,6.399280304834512],[100.29578482515907,6.39920109593416],[100.29517605992217,6.399153483578651],[100.29456562151606,6.399137598278995],[100.29395518310992,6.399153483578651],[100.29334641787302,6.39920109593416],[100.29274099438855,6.399280304834512],[100.29214057208023,6.399390893158991],[100.29154679666384,6.399532557772427],[100.29096129563655,6.399704910356296],[100.29038567381593,6.399907478473331],[100.28982150894144,6.400139706862832],[100.28927034734974,6.400400958962936],[100.28873369973647,6.40069051865584],[100.28821303701541,6.401007592231122],[100.28770978628692,6.401351310561758],[100.28722532692625,6.401720731486882],[100.28676098680283,6.402114842394763],[100.28631803864066,6.402532562998923],[100.28589769652989,6.402972748299702],[100.285501112599,6.403434191723289],[100.28512937385696,6.403915628429419],[100.28478349921387,6.404415738778845],[100.28446443668805,6.404933151951024],[100.28417306080772,6.405466449701954],[100.28391017021393,6.40601417025205],[100.2836764854715,6.406574812293334],[100.28347264709406,6.40714683910486],[100.28329921378847,6.40772868276524],[100.28315666092332,6.408318748450531],[100.28304537922615,6.408915418805942],[100.28296567371233,6.409517058379151],[100.28291776284912,6.41012201810319],[100.28290177795688,6.410728639816587],[100.28291776284912,6.411335260808354],[100.28296567371233,6.411940218375416],[100.28304537922615,6.412541854379916],[100.28315666092332,6.413138519793993],[100.28329921378847,6.413728579219468],[100.28347264709406,6.414310415370113],[100.2836764854715,6.41488243350431],[100.28391017021393,6.415443065795693],[100.28417306080772,6.41599077563017],[100.28446443668805,6.416524061817137],[100.28478349921387,6.417041462703724],[100.28512937385696,6.417541560180554],[100.285501112599,6.418022983568074],[100.28589769652989,6.41848441337297],[100.28631803864066,6.418924584904225],[100.28676098680283,6.419342291738848],[100.28722532692625,6.419736389028052],[100.28770978628692,6.420105796634577],[100.28821303701541,6.420449502092593],[100.28873369973647,6.420766563382295],[100.28927034734974,6.421056111511237],[100.28982150894144,6.421317352895708],[100.29038567381593,6.421549571535321],[100.29096129563655,6.421752130975015],[100.29154679666384,6.421924476049161],[100.29214057208023,6.422066134402782],[100.29274099438855,6.422176717785925],[100.29334641787302,6.422255923117568],[100.29395518310992,6.422303533316101],[100.29456562151606,6.422319417894115],[100.29517605992217,6.422303533316101],[100.29578482515907,6.422255923117568],[100.29639024864355,6.422176717785925],[100.29699067095187,6.422066134402782],[100.29758444636825,6.421924476049161],[100.29816994739556,6.421752130975015],[100.29874556921617,6.421549571535321],[100.29930973409066,6.421317352895708],[100.29986089568236,6.421056111511237],[100.30039754329562,6.420766563382295],[100.30091820601668,6.420449502092593],[100.30142145674516,6.420105796634577],[100.30190591610585,6.419736389028052],[100.30237025622927,6.419342291738848],[100.30281320439143,6.418924584904225],[100.30323354650221,6.41848441337297],[100.3036301304331,6.418022983568074],[100.30400186917512,6.417541560180554],[100.30434774381823,6.417041462703724],[100.30466680634404,6.416524061817137],[100.30495818222437,6.41599077563017],[100.30522107281816,6.415443065795693],[100.3054547575606,6.41488243350431],[100.30565859593803,6.414310415370113],[100.30583202924363,6.413728579219468],[100.30597458210877,6.413138519793993],[100.30608586380595,6.412541854379916],[100.30616556931977,6.411940218375416],[100.30621348018296,6.411335260808354],[100.3062294650752,6.410728639816587]],[[100.21354169924936,6.318326996045974],[100.2135265802049,6.317753129790685],[100.21348126451178,6.317180835829169],[100.21340587637718,6.316611682787253],[100.21330062243472,6.316047230686859],[100.21316579117813,6.315489026669894],[100.21300175217053,6.314938600757491],[100.21280895503142,6.314397461656071],[100.21258792820437,6.313867092621734],[100.21233927750859,6.313348947394516],[100.21206368447827,6.312844446213274],[100.21176190449481,6.312354971922573],[100.21143476471616,6.311881866181941],[100.21108316180965,6.311426425787933],[100.21070805949452,6.310989899119241],[100.21031048590008,6.310573482714428],[100.2098915307479,6.310178317991748],[100.20945234236495,6.309805488120102],[100.20899412453609,6.309456015049521],[100.20851813320449,6.309130856709587],[100.20802567302933,6.308830904383314],[100.20751809380972,6.308556980263611],[100.206996786785,6.308309835199278],[100.20646318082153,6.308090146636529],[100.20591873849612,6.307898516761714],[100.20536495208735,6.307735470850386],[100.20480333948531,6.307601455827206],[100.20423544003106,6.307496839040692],[100.20366281029756,6.307421907256042],[100.20308701982307,6.307376865868986],[100.2025096468093,6.307361838342625],[100.20193227379553,6.307376865868986],[100.20135648332105,6.307421907256042],[100.20078385358755,6.307496839040692],[100.2002159541333,6.307601455827206],[100.19965434153126,6.307735470850386],[100.19910055512248,6.307898516761714],[100.19855611279708,6.308090146636529],[100.19802250683361,6.308309835199278],[100.19750119980888,6.308556980263611],[100.19699362058928,6.308830904383314],[100.19650116041412,6.309130856709587],[100.19602516908252,6.309456015049521],[100.19556695125365,6.309805488120102],[100.1951277628707,6.310178317991748],[100.19470880771853,6.310573482714428],[100.19431123412407,6.310989899119241],[100.19393613180894,6.311426425787933],[100.19358452890245,6.311881866181941],[100.1932573891238,6.312354971922573],[100.19295560914034,6.312844446213274],[100.19268001611002,6.313348947394516],[100.19243136541422,6.313867092621734],[100.19221033858719,6.314397461656071],[100.19201754144808,6.314938600757491],[100.19185350244048,6.315489026669894],[100.19171867118389,6.316047230686859],[100.19161341724143,6.316611682787253],[100.19153802910682,6.317180835829169],[100.19149271341371,6.317753129790685],[100.19147759436925,6.318326996045974],[100.19149271341371,6.318900861664834],[100.19153802910682,6.319473153724074],[100.19161341724143,6.320042303618678],[100.19171867118389,6.320606751361229],[100.19185350244048,6.321164949857553],[100.19201754144808,6.321715369146984],[100.19221033858719,6.32225650059571],[100.19243136541422,6.32278686103143],[100.19268001611002,6.323304996808355],[100.19295560914034,6.323809487791149],[100.1932573891238,6.324298951246972],[100.19358452890245,6.324772045635021],[100.19393613180894,6.325227474283113],[100.19431123412407,6.325663988941256],[100.19470880771853,6.326080393202468],[100.1951277628707,6.326475545781548],[100.19556695125365,6.326848363642644],[100.19602516908252,6.32719782496731],[100.19650116041412,6.327522971954648],[100.19699362058928,6.327822913446057],[100.19750119980888,6.328096827367311],[100.19802250683361,6.328343962981325],[100.19855611279708,6.32856364294547],[100.19910055512248,6.32875526516759],[100.19965434153126,6.328918304455961],[100.2002159541333,6.329052313958499],[100.20078385358755,6.329156926387169],[100.20135648332105,6.329231855024508],[100.20193227379553,6.329276894509275],[100.2025096468093,6.32929192139922],[100.20308701982307,6.329276894509275],[100.20366281029756,6.329231855024508],[100.20423544003106,6.329156926387169],[100.20480333948531,6.329052313958499],[100.20536495208735,6.328918304455961],[100.20591873849612,6.32875526516759],[100.20646318082153,6.32856364294547],[100.206996786785,6.328343962981325],[100.20751809380972,6.328096827367311],[100.20802567302933,6.327822913446057],[100.20851813320449,6.327522971954648],[100.20899412453609,6.32719782496731],[100.20945234236495,6.326848363642644],[100.2098915307479,6.326475545781548],[100.21031048590008,6.326080393202468],[100.21070805949452,6.325663988941256],[100.21108316180965,6.325227474283113],[100.21143476471616,6.324772045635021],[100.21176190449481,6.324298951246972],[100.21206368447827,6.323809487791149],[100.21233927750859,6.323304996808355],[100.21258792820437,6.32278686103143],[100.21280895503142,6.32225650059571],[100.21300175217053,6.321715369146984],[100.21316579117813,6.321164949857553],[100.21330062243472,6.320606751361229],[100.21340587637718,6.320042303618678],[100.21348126451178,6.319473153724074],[100.2135265802049,6.318900861664834],[100.21354169924936,6.318326996045974]]],"bbox":[100.1310705425945,6.307361838342625,100.32855535724867,6.656927892461587]}
