{
"type": "FeatureCollection",
"name": "JHR_SE-05",
"crs": { "type": "name", "properties": { "name": "urn:ogc:def:crs:OGC:1.3:CRS84" } },
"features": [
{ "type": "Feature", "properties": { "state": "Johor", "parlimen": "P.099 Labis", "code_parlimen": "P.099", "dun": "N.01 Buloh Kasap", "code_dun": "N.01" }, "geometry": { "type": "Polygon", "coordinates": [ [ [ 102.793344, 2.805474 ], [ 102.891213, 2.685937 ], [ 102.967416, 2.595401 ], [ 102.871091, 2.559388 ], [ 102.861975, 2.545942 ], [ 102.852631, 2.545486 ], [ 102.844427, 2.540017 ], [ 102.826195, 2.535687 ], [ 102.829384, 2.530757 ], [ 102.813205, 2.524747 ], [ 102.798426, 2.521936 ], [ 102.798426, 2.518607 ], [ 102.793932, 2.525705 ], [ 102.80516, 2.532797 ], [ 102.819342, 2.544615 ], [ 102.80516, 2.54757 ], [ 102.798069, 2.536933 ], [ 102.786841, 2.530433 ], [ 102.784182, 2.534274 ], [ 102.793932, 2.545206 ], [ 102.790387, 2.549934 ], [ 102.779454, 2.546979 ], [ 102.769113, 2.556434 ], [ 102.759658, 2.552593 ], [ 102.759953, 2.539001 ], [ 102.758476, 2.529251 ], [ 102.764976, 2.518614 ], [ 102.759953, 2.510046 ], [ 102.761934, 2.504085 ], [ 102.758938, 2.500257 ], [ 102.759104, 2.491935 ], [ 102.758737, 2.480991 ], [ 102.7421, 2.481219 ], [ 102.74013, 2.474791 ], [ 102.738133, 2.472461 ], [ 102.713999, 2.470131 ], [ 102.702847, 2.46597 ], [ 102.69709, 2.460822 ], [ 102.692076, 2.454782 ], [ 102.68672, 2.447603 ], [ 102.681821, 2.438943 ], [ 102.670084, 2.439399 ], [ 102.664728, 2.443843 ], [ 102.660968, 2.446806 ], [ 102.65094, 2.446122 ], [ 102.634304, 2.447034 ], [ 102.623164, 2.4497 ], [ 102.62616, 2.453695 ], [ 102.630654, 2.459021 ], [ 102.631153, 2.463848 ], [ 102.634482, 2.4745 ], [ 102.631652, 2.48199 ], [ 102.614976, 2.481442 ], [ 102.60433, 2.501781 ], [ 102.606384, 2.510364 ], [ 102.612548, 2.51279 ], [ 102.619085, 2.520067 ], [ 102.611988, 2.529023 ], [ 102.608439, 2.545817 ], [ 102.612174, 2.554026 ], [ 102.606945, 2.567274 ], [ 102.616657, 2.582014 ], [ 102.623568, 2.584999 ], [ 102.625248, 2.589291 ], [ 102.632719, 2.589664 ], [ 102.638883, 2.602538 ], [ 102.638509, 2.610374 ], [ 102.627303, 2.615599 ], [ 102.625435, 2.631085 ], [ 102.628496, 2.639868 ], [ 102.631593, 2.648757 ], [ 102.70258, 2.831474 ], [ 102.785126, 2.804728 ], [ 102.793344, 2.805474 ] ] ] } },
{ "type": "Feature", "properties": { "state": "Johor", "parlimen": "P.099 Labis", "code_parlimen": "P.099", "dun": "N.02 Ayer Panas", "code_dun": "N.02" }, "geometry": { "type": "Polygon", "coordinates": [ [ [ 102.92837, 2.432929 ], [ 102.942847, 2.468976 ], [ 102.914187, 2.468976 ], [ 102.897346, 2.481681 ], [ 102.873708, 2.488477 ], [ 102.860412, 2.483749 ], [ 102.843866, 2.486704 ], [ 102.836042, 2.49414 ], [ 102.820498, 2.50059 ], [ 102.839703, 2.505624 ], [ 102.840553, 2.514492 ], [ 102.830549, 2.516776 ], [ 102.823226, 2.517775 ], [ 102.812573, 2.517941 ], [ 102.805416, 2.516443 ], [ 102.798426, 2.518607 ], [ 102.798426, 2.521936 ], [ 102.813205, 2.524747 ], [ 102.829384, 2.530757 ], [ 102.826195, 2.535687 ], [ 102.844427, 2.540017 ], [ 102.852631, 2.545486 ], [ 102.861975, 2.545942 ], [ 102.871091, 2.559388 ], [ 102.967416, 2.595401 ], [ 102.974748, 2.59223 ], [ 103.055133, 2.557454 ], [ 103.14597, 2.518155 ], [ 103.072896, 2.394389 ], [ 103.076087, 2.372511 ], [ 103.060739, 2.351038 ], [ 103.066057, 2.34488 ], [ 103.094422, 2.327152 ], [ 103.094422, 2.302333 ], [ 103.076694, 2.301151 ], [ 103.077876, 2.265104 ], [ 103.012282, 2.264513 ], [ 103.003261, 2.267793 ], [ 103.016755, 2.289543 ], [ 103.023912, 2.302858 ], [ 102.982634, 2.334648 ], [ 102.973646, 2.333483 ], [ 102.964991, 2.335813 ], [ 102.957335, 2.349295 ], [ 102.949512, 2.354621 ], [ 102.939692, 2.358116 ], [ 102.934034, 2.362777 ], [ 102.923714, 2.380419 ], [ 102.92571, 2.392154 ], [ 102.92837, 2.432929 ] ] ] } },
{ "type": "Feature", "properties": { "state": "Johor", "parlimen": "P.100 Segamat", "code_parlimen": "P.100", "dun": "N.03 Bandar Segamat", "code_dun": "N.03" }, "geometry": { "type": "Polygon", "coordinates": [ [ [ 102.764976, 2.518614 ], [ 102.758476, 2.529251 ], [ 102.759953, 2.539001 ], [ 102.759658, 2.552593 ], [ 102.769113, 2.556434 ], [ 102.779454, 2.546979 ], [ 102.790387, 2.549934 ], [ 102.793932, 2.545206 ], [ 102.784182, 2.534274 ], [ 102.786841, 2.530433 ], [ 102.798069, 2.536933 ], [ 102.80516, 2.54757 ], [ 102.819342, 2.544615 ], [ 102.80516, 2.532797 ], [ 102.793932, 2.525705 ], [ 102.798426, 2.518607 ], [ 102.805416, 2.516443 ], [ 102.812573, 2.517941 ], [ 102.823226, 2.517775 ], [ 102.830549, 2.516776 ], [ 102.840553, 2.514492 ], [ 102.839703, 2.505624 ], [ 102.820498, 2.50059 ], [ 102.836042, 2.49414 ], [ 102.843866, 2.486704 ], [ 102.860412, 2.483749 ], [ 102.873708, 2.488477 ], [ 102.897346, 2.481681 ], [ 102.914187, 2.468976 ], [ 102.942847, 2.468976 ], [ 102.92837, 2.432929 ], [ 102.92571, 2.392154 ], [ 102.923714, 2.380419 ], [ 102.918887, 2.390572 ], [ 102.909733, 2.397563 ], [ 102.90191, 2.398561 ], [ 102.884434, 2.403555 ], [ 102.879441, 2.410878 ], [ 102.876778, 2.415538 ], [ 102.870952, 2.415538 ], [ 102.866791, 2.413042 ], [ 102.860134, 2.409047 ], [ 102.857471, 2.405718 ], [ 102.854808, 2.397896 ], [ 102.852977, 2.396231 ], [ 102.849648, 2.391904 ], [ 102.847817, 2.383082 ], [ 102.844488, 2.378588 ], [ 102.839994, 2.377923 ], [ 102.834502, 2.382749 ], [ 102.831506, 2.380586 ], [ 102.827678, 2.377756 ], [ 102.822851, 2.368935 ], [ 102.818191, 2.369101 ], [ 102.818191, 2.371931 ], [ 102.815861, 2.372763 ], [ 102.811034, 2.374427 ], [ 102.809702, 2.378422 ], [ 102.810243, 2.384788 ], [ 102.80525, 2.394442 ], [ 102.800257, 2.396772 ], [ 102.7926, 2.396772 ], [ 102.784278, 2.4011 ], [ 102.777288, 2.407757 ], [ 102.77296, 2.409422 ], [ 102.7683, 2.412418 ], [ 102.761642, 2.415081 ], [ 102.749326, 2.414415 ], [ 102.742668, 2.412085 ], [ 102.730343, 2.41136 ], [ 102.725691, 2.411086 ], [ 102.720864, 2.414581 ], [ 102.717369, 2.421738 ], [ 102.712376, 2.429561 ], [ 102.709547, 2.4254 ], [ 102.703721, 2.421572 ], [ 102.695233, 2.412584 ], [ 102.696064, 2.407379 ], [ 102.69219, 2.404872 ], [ 102.693557, 2.399403 ], [ 102.688772, 2.395073 ], [ 102.681935, 2.397352 ], [ 102.675553, 2.407151 ], [ 102.668545, 2.413817 ], [ 102.66494, 2.421905 ], [ 102.65279, 2.411252 ], [ 102.650294, 2.412251 ], [ 102.634482, 2.424568 ], [ 102.630654, 2.431725 ], [ 102.628989, 2.436718 ], [ 102.626326, 2.444041 ], [ 102.624162, 2.446538 ], [ 102.623164, 2.4497 ], [ 102.634304, 2.447034 ], [ 102.65094, 2.446122 ], [ 102.660968, 2.446806 ], [ 102.664728, 2.443843 ], [ 102.670084, 2.439399 ], [ 102.681821, 2.438943 ], [ 102.68672, 2.447603 ], [ 102.692076, 2.454782 ], [ 102.69709, 2.460822 ], [ 102.702847, 2.46597 ], [ 102.713999, 2.470131 ], [ 102.738133, 2.472461 ], [ 102.74013, 2.474791 ], [ 102.7421, 2.481219 ], [ 102.758737, 2.480991 ], [ 102.759104, 2.491935 ], [ 102.758938, 2.500257 ], [ 102.761934, 2.504085 ], [ 102.759953, 2.510046 ], [ 102.764976, 2.518614 ] ] ] } },
{ "type": "Feature", "properties": { "state": "Johor", "parlimen": "P.100 Segamat", "code_parlimen": "P.100", "dun": "N.04 Bukit Serampang", "code_dun": "N.04" }, "geometry": { "type": "Polygon", "coordinates": [ [ [ 102.590696, 2.420983 ], [ 102.594805, 2.456251 ], [ 102.608812, 2.467261 ], [ 102.615536, 2.468007 ], [ 102.614976, 2.481442 ], [ 102.631652, 2.48199 ], [ 102.634482, 2.4745 ], [ 102.631153, 2.463848 ], [ 102.630654, 2.459021 ], [ 102.62616, 2.453695 ], [ 102.623164, 2.4497 ], [ 102.624162, 2.446538 ], [ 102.626326, 2.444041 ], [ 102.628989, 2.436718 ], [ 102.630654, 2.431725 ], [ 102.634482, 2.424568 ], [ 102.650294, 2.412251 ], [ 102.65279, 2.411252 ], [ 102.66494, 2.421905 ], [ 102.668545, 2.413817 ], [ 102.675553, 2.407151 ], [ 102.681935, 2.397352 ], [ 102.688772, 2.395073 ], [ 102.693557, 2.399403 ], [ 102.69219, 2.404872 ], [ 102.696064, 2.407379 ], [ 102.695233, 2.412584 ], [ 102.703721, 2.421572 ], [ 102.709547, 2.4254 ], [ 102.712376, 2.429561 ], [ 102.717369, 2.421738 ], [ 102.720864, 2.414581 ], [ 102.725691, 2.411086 ], [ 102.730343, 2.41136 ], [ 102.742668, 2.412085 ], [ 102.749326, 2.414415 ], [ 102.761642, 2.415081 ], [ 102.7683, 2.412418 ], [ 102.77296, 2.409422 ], [ 102.777288, 2.407757 ], [ 102.784278, 2.4011 ], [ 102.7926, 2.396772 ], [ 102.800257, 2.396772 ], [ 102.80525, 2.394442 ], [ 102.810243, 2.384788 ], [ 102.809702, 2.378422 ], [ 102.811034, 2.374427 ], [ 102.815861, 2.372763 ], [ 102.818191, 2.371931 ], [ 102.818191, 2.369101 ], [ 102.822851, 2.368935 ], [ 102.827678, 2.377756 ], [ 102.831506, 2.380586 ], [ 102.834502, 2.382749 ], [ 102.839994, 2.377923 ], [ 102.844488, 2.378588 ], [ 102.847817, 2.383082 ], [ 102.849648, 2.391904 ], [ 102.852977, 2.396231 ], [ 102.854808, 2.397896 ], [ 102.857471, 2.405718 ], [ 102.860134, 2.409047 ], [ 102.866791, 2.413042 ], [ 102.870952, 2.415538 ], [ 102.876778, 2.415538 ], [ 102.879441, 2.410878 ], [ 102.884434, 2.403555 ], [ 102.90191, 2.398561 ], [ 102.909733, 2.397563 ], [ 102.918887, 2.390572 ], [ 102.923714, 2.380419 ], [ 102.934034, 2.362777 ], [ 102.939692, 2.358116 ], [ 102.949512, 2.354621 ], [ 102.957335, 2.349295 ], [ 102.964991, 2.335813 ], [ 102.973646, 2.333483 ], [ 102.982634, 2.334648 ], [ 103.023912, 2.302858 ], [ 103.016755, 2.289543 ], [ 103.003261, 2.267793 ], [ 102.959602, 2.197421 ], [ 102.919324, 2.132253 ], [ 102.90597, 2.110647 ], [ 102.876599, 2.140643 ], [ 102.851574, 2.167098 ], [ 102.858724, 2.179253 ], [ 102.855864, 2.188548 ], [ 102.860869, 2.196412 ], [ 102.840135, 2.207852 ], [ 102.831555, 2.207852 ], [ 102.828337, 2.215002 ], [ 102.845139, 2.218577 ], [ 102.847284, 2.227157 ], [ 102.840135, 2.239312 ], [ 102.815825, 2.245747 ], [ 102.773997, 2.23681 ], [ 102.774712, 2.231447 ], [ 102.77296, 2.224131 ], [ 102.767301, 2.228126 ], [ 102.762142, 2.226961 ], [ 102.757648, 2.225296 ], [ 102.751157, 2.216974 ], [ 102.742895, 2.219292 ], [ 102.743253, 2.230375 ], [ 102.74933, 2.234665 ], [ 102.741465, 2.241815 ], [ 102.7479, 2.24396 ], [ 102.748973, 2.261835 ], [ 102.740393, 2.275777 ], [ 102.727165, 2.284357 ], [ 102.723948, 2.290434 ], [ 102.719408, 2.295118 ], [ 102.714914, 2.299945 ], [ 102.711086, 2.2962 ], [ 102.704262, 2.293204 ], [ 102.684955, 2.302525 ], [ 102.675967, 2.300195 ], [ 102.665315, 2.301193 ], [ 102.654772, 2.299014 ], [ 102.655487, 2.309739 ], [ 102.645477, 2.306164 ], [ 102.636897, 2.316889 ], [ 102.621882, 2.308309 ], [ 102.62081, 2.298299 ], [ 102.609012, 2.301874 ], [ 102.607225, 2.314744 ], [ 102.61652, 2.318319 ], [ 102.618665, 2.351209 ], [ 102.609727, 2.372301 ], [ 102.551813, 2.356571 ], [ 102.544752, 2.352639 ], [ 102.535457, 2.356929 ], [ 102.530095, 2.352639 ], [ 102.523302, 2.355141 ], [ 102.511435, 2.34995 ], [ 102.512998, 2.35511 ], [ 102.525325, 2.359402 ], [ 102.524204, 2.365187 ], [ 102.53429, 2.371718 ], [ 102.534471, 2.374465 ], [ 102.537092, 2.38982 ], [ 102.557637, 2.397284 ], [ 102.563053, 2.395978 ], [ 102.594057, 2.410906 ], [ 102.594057, 2.419863 ], [ 102.590696, 2.420983 ] ] ] } },
{ "type": "Feature", "properties": { "state": "Johor", "parlimen": "P.101 Keluang", "code_parlimen": "P.101", "dun": "N.05 Bekok", "code_dun": "N.05" }, "geometry": { "type": "Polygon", "coordinates": [ [ [ 103.22793, 2.083086 ], [ 103.234365, 2.090236 ], [ 103.229718, 2.098816 ], [ 103.265825, 2.11669 ], [ 103.262965, 2.13242 ], [ 103.275477, 2.14672 ], [ 103.267612, 2.163165 ], [ 103.261893, 2.157803 ], [ 103.254385, 2.164238 ], [ 103.2408, 2.14958 ], [ 103.220423, 2.176035 ], [ 103.195398, 2.183543 ], [ 103.182886, 2.177823 ], [ 103.170373, 2.162093 ], [ 103.165596, 2.15066 ], [ 103.106781, 2.166201 ], [ 103.103821, 2.167001 ], [ 103.085297, 2.16482 ], [ 103.009796, 2.162981 ], [ 103.002998, 2.16528 ], [ 102.993896, 2.16768 ], [ 102.987999, 2.171131 ], [ 102.961296, 2.195531 ], [ 102.959602, 2.197421 ], [ 103.003261, 2.267793 ], [ 103.012282, 2.264513 ], [ 103.077876, 2.265104 ], [ 103.076694, 2.301151 ], [ 103.094422, 2.302333 ], [ 103.094422, 2.327152 ], [ 103.066057, 2.34488 ], [ 103.060739, 2.351038 ], [ 103.076087, 2.372511 ], [ 103.072896, 2.394389 ], [ 103.14597, 2.518155 ], [ 103.154698, 2.52166 ], [ 103.289038, 2.575624 ], [ 103.376396, 2.386621 ], [ 103.452871, 2.221884 ], [ 103.43423, 2.221884 ], [ 103.385629, 2.175281 ], [ 103.327375, 2.121021 ], [ 103.312728, 2.114031 ], [ 103.295751, 2.09772 ], [ 103.287429, 2.090063 ], [ 103.279107, 2.081741 ], [ 103.282436, 2.071089 ], [ 103.270452, 2.065763 ], [ 103.265126, 2.07009 ], [ 103.251811, 2.062101 ], [ 103.253475, 2.055111 ], [ 103.244154, 2.051116 ], [ 103.242157, 2.053446 ], [ 103.229507, 2.04812 ], [ 103.231505, 2.041463 ], [ 103.217857, 2.031476 ], [ 103.202449, 2.053345 ], [ 103.231505, 2.074506 ], [ 103.22793, 2.083086 ] ] ] } },
{ "type": "Feature", "properties": { "state": "Johor", "parlimen": "P.101 Keluang", "code_parlimen": "P.101", "dun": "N.06 Bandar Keluang", "code_dun": "N.06" }, "geometry": { "type": "Polygon", "coordinates": [ [ [ 103.327136, 2.043761 ], [ 103.328219, 2.035639 ], [ 103.342293, 2.038958 ], [ 103.350731, 2.046621 ], [ 103.366818, 2.056988 ], [ 103.364316, 2.067713 ], [ 103.343938, 2.079511 ], [ 103.317126, 2.083801 ], [ 103.311763, 2.103821 ], [ 103.312728, 2.114031 ], [ 103.327375, 2.121021 ], [ 103.385629, 2.175281 ], [ 103.43423, 2.221884 ], [ 103.452871, 2.221884 ], [ 103.490986, 2.139829 ], [ 103.532025, 2.083418 ], [ 103.443859, 2.020345 ], [ 103.349479, 1.954565 ], [ 103.33375, 1.934545 ], [ 103.31659, 1.923105 ], [ 103.298414, 1.915883 ], [ 103.296412, 1.920247 ], [ 103.301188, 1.923317 ], [ 103.296924, 1.929798 ], [ 103.305612, 1.935939 ], [ 103.302382, 1.943614 ], [ 103.29779, 1.953582 ], [ 103.291631, 1.950919 ], [ 103.280979, 1.966231 ], [ 103.289634, 1.97472 ], [ 103.287803, 1.978548 ], [ 103.29921, 1.988072 ], [ 103.296034, 2.001934 ], [ 103.294604, 2.023384 ], [ 103.302111, 2.047336 ], [ 103.309261, 2.050911 ], [ 103.316265, 2.04812 ], [ 103.318913, 2.042688 ], [ 103.327136, 2.043761 ] ] ] } },
{ "type": "Feature", "properties": { "state": "Johor", "parlimen": "P.102 Tenggaroh", "code_parlimen": "P.102", "dun": "N.07 Endau", "code_dun": "N.07" }, "geometry": { "type": "MultiPolygon", "coordinates": [ [ [ [ 103.639409, 2.385912 ], [ 103.638078, 2.375925 ], [ 103.632419, 2.372929 ], [ 103.629423, 2.368269 ], [ 103.629756, 2.357284 ], [ 103.627759, 2.353622 ], [ 103.62443, 2.3453 ], [ 103.62909, 2.288378 ], [ 103.628091, 2.277892 ], [ 103.623098, 2.275062 ], [ 103.61411, 2.270402 ], [ 103.611447, 2.269403 ], [ 103.61178, 2.265242 ], [ 103.612945, 2.259084 ], [ 103.612612, 2.251761 ], [ 103.562599, 2.041391 ], [ 103.532025, 2.083418 ], [ 103.490986, 2.139829 ], [ 103.452871, 2.221884 ], [ 103.376396, 2.386621 ], [ 103.289038, 2.575624 ], [ 103.352915, 2.591297 ], [ 103.414176, 2.557711 ], [ 103.447795, 2.554353 ], [ 103.469834, 2.527484 ], [ 103.607672, 2.456578 ], [ 103.613649, 2.462176 ], [ 103.623735, 2.461056 ], [ 103.641665, 2.486433 ], [ 103.632326, 2.490912 ], [ 103.632326, 2.506213 ], [ 103.618505, 2.517781 ], [ 103.62747, 2.531589 ], [ 103.623361, 2.534575 ], [ 103.61589, 2.531216 ], [ 103.607672, 2.533455 ], [ 103.593478, 2.527857 ], [ 103.590863, 2.535694 ], [ 103.59796, 2.542411 ], [ 103.594225, 2.551368 ], [ 103.609914, 2.565548 ], [ 103.612155, 2.556965 ], [ 103.620373, 2.556219 ], [ 103.618879, 2.575624 ], [ 103.611781, 2.578982 ], [ 103.603563, 2.568907 ], [ 103.600575, 2.580102 ], [ 103.610287, 2.588311 ], [ 103.623361, 2.58346 ], [ 103.628217, 2.589431 ], [ 103.612902, 2.598387 ], [ 103.630832, 2.606596 ], [ 103.615143, 2.621522 ], [ 103.625976, 2.630105 ], [ 103.616264, 2.636075 ], [ 103.618132, 2.651001 ], [ 103.606178, 2.650628 ], [ 103.605058, 2.634583 ], [ 103.596466, 2.637195 ], [ 103.591983, 2.652121 ], [ 103.594598, 2.662569 ], [ 103.604684, 2.665554 ], [ 103.620373, 2.656598 ], [ 103.640918, 2.6663 ], [ 103.663798, 2.667186 ], [ 103.682848, 2.65338 ], [ 103.729915, 2.63323 ], [ 103.746725, 2.635096 ], [ 103.75046, 2.651888 ], [ 103.767643, 2.644425 ], [ 103.770258, 2.628379 ], [ 103.761293, 2.620543 ], [ 103.775488, 2.611214 ], [ 103.782585, 2.62017 ], [ 103.79155, 2.614572 ], [ 103.781464, 2.607482 ], [ 103.794165, 2.594049 ], [ 103.812469, 2.581734 ], [ 103.824422, 2.585839 ], [ 103.828157, 2.576883 ], [ 103.818819, 2.573151 ], [ 103.822928, 2.555612 ], [ 103.831893, 2.54591 ], [ 103.825543, 2.544417 ], [ 103.827784, 2.534714 ], [ 103.83787, 2.514936 ], [ 103.848329, 2.506726 ], [ 103.845341, 2.500382 ], [ 103.833761, 2.502994 ], [ 103.819566, 2.491052 ], [ 103.821807, 2.482095 ], [ 103.83264, 2.469033 ], [ 103.832641, 2.469005 ], [ 103.832638, 2.469005 ], [ 103.782881, 2.447828 ], [ 103.639409, 2.385912 ] ] ], [ [ [ 103.855447, 2.474105 ], [ 103.852197, 2.474441 ], [ 103.851076, 2.47556 ], [ 103.850174, 2.475586 ], [ 103.847154, 2.475672 ], [ 103.845024, 2.478696 ], [ 103.837627, 2.478472 ], [ 103.841214, 2.48407 ], [ 103.840429, 2.486533 ], [ 103.842334, 2.487989 ], [ 103.84536, 2.486197 ], [ 103.848835, 2.480935 ], [ 103.851091, 2.480828 ], [ 103.851188, 2.480823 ], [ 103.854999, 2.47724 ], [ 103.855447, 2.474105 ] ] ] ] } },
{ "type": "Feature", "properties": { "state": "Johor", "parlimen": "P.102 Tenggaroh", "code_parlimen": "P.102", "dun": "N.08 Mersing", "code_dun": "N.08" }, "geometry": { "type": "MultiPolygon", "coordinates": [ [ [ [ 104.104293, 2.186204 ], [ 104.104163, 2.185759 ], [ 104.103568, 2.185282 ], [ 104.102858, 2.185203 ], [ 104.102056, 2.184688 ], [ 104.101203, 2.184562 ], [ 104.100576, 2.183897 ], [ 104.100434, 2.183495 ], [ 104.100541, 2.182742 ], [ 104.100522, 2.181834 ], [ 104.099553, 2.182234 ], [ 104.098974, 2.182571 ], [ 104.098745, 2.182949 ], [ 104.098194, 2.183286 ], [ 104.097519, 2.183473 ], [ 104.097086, 2.183237 ], [ 104.096759, 2.183396 ], [ 104.096736, 2.184222 ], [ 104.096605, 2.184323 ], [ 104.096588, 2.18472 ], [ 104.096818, 2.185152 ], [ 104.097551, 2.185413 ], [ 104.09816, 2.185728 ], [ 104.098616, 2.186283 ], [ 104.099378, 2.186296 ], [ 104.0999, 2.186732 ], [ 104.099799, 2.187105 ], [ 104.099131, 2.188179 ], [ 104.099478, 2.188794 ], [ 104.100257, 2.188564 ], [ 104.101057, 2.188133 ], [ 104.101851, 2.187955 ], [ 104.103754, 2.18678 ], [ 104.104293, 2.186204 ] ] ], [ [ [ 104.061871, 2.232991 ], [ 104.061699, 2.234831 ], [ 104.062182, 2.234839 ], [ 104.062831, 2.233784 ], [ 104.064633, 2.233045 ], [ 104.065224, 2.232285 ], [ 104.066771, 2.231263 ], [ 104.066715, 2.230595 ], [ 104.065851, 2.228858 ], [ 104.066034, 2.226786 ], [ 104.06779, 2.223907 ], [ 104.06981, 2.222411 ], [ 104.06998, 2.221367 ], [ 104.071466, 2.219883 ], [ 104.072613, 2.220355 ], [ 104.074123, 2.219793 ], [ 104.075085, 2.219669 ], [ 104.074225, 2.218077 ], [ 104.074568, 2.216419 ], [ 104.076048, 2.214188 ], [ 104.077456, 2.213141 ], [ 104.079783, 2.213544 ], [ 104.080409, 2.213327 ], [ 104.080929, 2.21179 ], [ 104.081954, 2.209382 ], [ 104.082428, 2.208119 ], [ 104.084575, 2.206627 ], [ 104.086897, 2.203404 ], [ 104.087209, 2.202437 ], [ 104.087153, 2.200948 ], [ 104.086823, 2.200288 ], [ 104.087282, 2.198879 ], [ 104.088117, 2.199163 ], [ 104.089125, 2.198504 ], [ 104.089838, 2.198278 ], [ 104.090348, 2.197346 ], [ 104.089654, 2.1965 ], [ 104.090423, 2.195477 ], [ 104.089497, 2.195069 ], [ 104.088113, 2.196374 ], [ 104.087716, 2.19716 ], [ 104.086465, 2.19781 ], [ 104.085352, 2.198917 ], [ 104.084117, 2.198668 ], [ 104.08334, 2.199011 ], [ 104.082956, 2.199651 ], [ 104.082038, 2.198945 ], [ 104.081367, 2.198902 ], [ 104.081028, 2.199815 ], [ 104.080505, 2.199477 ], [ 104.079907, 2.200773 ], [ 104.078388, 2.200891 ], [ 104.075784, 2.199584 ], [ 104.07369, 2.198649 ], [ 104.071445, 2.196398 ], [ 104.073215, 2.199307 ], [ 104.07469, 2.202982 ], [ 104.075229, 2.205773 ], [ 104.074965, 2.208092 ], [ 104.074951, 2.210795 ], [ 104.073846, 2.212256 ], [ 104.073745, 2.213439 ], [ 104.073577, 2.214115 ], [ 104.072672, 2.215958 ], [ 104.071832, 2.216144 ], [ 104.071418, 2.216477 ], [ 104.070213, 2.216089 ], [ 104.069649, 2.216207 ], [ 104.068876, 2.216102 ], [ 104.068075, 2.217172 ], [ 104.067266, 2.217403 ], [ 104.065818, 2.217368 ], [ 104.065424, 2.217955 ], [ 104.064491, 2.218344 ], [ 104.063787, 2.219254 ], [ 104.063388, 2.219241 ], [ 104.063023, 2.21848 ], [ 104.062998, 2.217931 ], [ 104.062524, 2.21773 ], [ 104.061751, 2.217911 ], [ 104.061218, 2.219076 ], [ 104.061361, 2.219555 ], [ 104.060808, 2.220358 ], [ 104.060818, 2.220852 ], [ 104.060179, 2.221754 ], [ 104.059192, 2.221962 ], [ 104.057597, 2.222768 ], [ 104.05678, 2.223155 ], [ 104.056158, 2.223967 ], [ 104.055605, 2.223948 ], [ 104.054784, 2.2242 ], [ 104.05427, 2.225962 ], [ 104.053713, 2.226467 ], [ 104.053173, 2.227607 ], [ 104.053289, 2.228463 ], [ 104.052362, 2.228932 ], [ 104.051458, 2.229582 ], [ 104.051226, 2.230271 ], [ 104.053676, 2.230295 ], [ 104.054563, 2.230683 ], [ 104.059688, 2.230681 ], [ 104.062035, 2.231656 ], [ 104.061871, 2.232991 ] ] ], [ [ [ 103.847132, 2.435706 ], [ 103.849343, 2.434318 ], [ 103.854679, 2.430966 ], [ 103.912952, 2.349231 ], [ 103.940595, 2.34102 ], [ 103.963381, 2.308548 ], [ 103.95591, 2.307802 ], [ 103.953669, 2.295858 ], [ 103.973093, 2.264505 ], [ 103.983926, 2.253681 ], [ 103.982805, 2.245842 ], [ 103.972346, 2.249948 ], [ 103.960019, 2.248455 ], [ 103.957778, 2.235391 ], [ 103.96226, 2.223447 ], [ 103.958151, 2.217101 ], [ 103.968984, 2.195078 ], [ 103.988035, 2.172682 ], [ 103.993638, 2.162603 ], [ 104.007833, 2.149165 ], [ 104.021654, 2.120796 ], [ 104.043319, 2.072267 ], [ 104.057514, 2.058828 ], [ 104.05602, 2.052109 ], [ 104.058857, 2.048059 ], [ 104.051426, 2.047872 ], [ 104.045706, 2.039292 ], [ 104.034267, 2.045727 ], [ 103.902707, 2.043582 ], [ 103.748303, 2.044292 ], [ 103.562599, 2.041391 ], [ 103.612612, 2.251761 ], [ 103.612945, 2.259084 ], [ 103.61178, 2.265242 ], [ 103.611447, 2.269403 ], [ 103.61411, 2.270402 ], [ 103.623098, 2.275062 ], [ 103.628091, 2.277892 ], [ 103.62909, 2.288378 ], [ 103.62443, 2.3453 ], [ 103.627759, 2.353622 ], [ 103.629756, 2.357284 ], [ 103.629423, 2.368269 ], [ 103.632419, 2.372929 ], [ 103.638078, 2.375925 ], [ 103.639409, 2.385912 ], [ 103.782881, 2.447828 ], [ 103.832638, 2.469005 ], [ 103.832641, 2.469005 ], [ 103.833014, 2.453732 ], [ 103.841605, 2.439177 ], [ 103.847132, 2.435706 ] ] ], [ [ [ 104.09906, 2.313881 ], [ 104.099821, 2.315244 ], [ 104.100972, 2.314953 ], [ 104.10184, 2.314095 ], [ 104.102809, 2.312956 ], [ 104.104355, 2.312631 ], [ 104.106105, 2.314235 ], [ 104.10664, 2.315659 ], [ 104.108757, 2.316344 ], [ 104.110198, 2.317378 ], [ 104.111805, 2.316294 ], [ 104.11319, 2.31673 ], [ 104.116017, 2.316041 ], [ 104.118138, 2.316323 ], [ 104.119456, 2.315073 ], [ 104.121441, 2.315111 ], [ 104.124426, 2.314374 ], [ 104.126119, 2.31386 ], [ 104.126178, 2.312652 ], [ 104.127741, 2.312445 ], [ 104.129026, 2.312901 ], [ 104.12936, 2.311677 ], [ 104.130868, 2.311513 ], [ 104.132999, 2.309372 ], [ 104.135493, 2.310537 ], [ 104.136765, 2.30946 ], [ 104.136746, 2.30819 ], [ 104.134987, 2.308139 ], [ 104.135403, 2.306154 ], [ 104.13648, 2.305578 ], [ 104.137414, 2.304223 ], [ 104.138285, 2.303984 ], [ 104.14021, 2.300908 ], [ 104.14186, 2.299875 ], [ 104.141826, 2.298119 ], [ 104.142898, 2.2956 ], [ 104.142947, 2.293805 ], [ 104.144239, 2.291336 ], [ 104.142998, 2.290448 ], [ 104.143264, 2.289476 ], [ 104.141867, 2.28866 ], [ 104.139841, 2.289935 ], [ 104.13832, 2.289556 ], [ 104.136573, 2.288942 ], [ 104.13639, 2.289848 ], [ 104.135573, 2.289162 ], [ 104.135367, 2.28848 ], [ 104.134752, 2.288144 ], [ 104.136196, 2.286681 ], [ 104.135979, 2.285352 ], [ 104.134985, 2.284389 ], [ 104.13471, 2.283301 ], [ 104.133933, 2.282895 ], [ 104.132938, 2.282478 ], [ 104.131981, 2.281832 ], [ 104.130748, 2.281557 ], [ 104.130051, 2.280926 ], [ 104.12931, 2.280654 ], [ 104.127833, 2.281155 ], [ 104.1265, 2.281231 ], [ 104.125876, 2.281437 ], [ 104.125455, 2.282049 ], [ 104.124758, 2.282683 ], [ 104.121675, 2.283024 ], [ 104.118505, 2.283446 ], [ 104.117806, 2.284216 ], [ 104.114819, 2.284908 ], [ 104.113298, 2.284731 ], [ 104.112605, 2.285881 ], [ 104.110793, 2.286627 ], [ 104.110056, 2.287069 ], [ 104.110377, 2.287934 ], [ 104.11191, 2.288666 ], [ 104.111738, 2.289665 ], [ 104.110773, 2.290515 ], [ 104.109355, 2.290263 ], [ 104.108735, 2.290842 ], [ 104.107841, 2.290717 ], [ 104.106404, 2.291088 ], [ 104.105751, 2.291868 ], [ 104.10459, 2.292285 ], [ 104.1041, 2.292898 ], [ 104.104067, 2.293387 ], [ 104.103592, 2.29387 ], [ 104.099937, 2.294276 ], [ 104.098373, 2.295279 ], [ 104.097804, 2.296321 ], [ 104.097345, 2.297579 ], [ 104.096434, 2.298415 ], [ 104.096436, 2.298852 ], [ 104.095134, 2.29937 ], [ 104.094724, 2.30083 ], [ 104.094919, 2.30183 ], [ 104.094727, 2.302702 ], [ 104.094878, 2.304208 ], [ 104.094393, 2.304921 ], [ 104.093785, 2.306721 ], [ 104.094849, 2.310923 ], [ 104.094206, 2.312824 ], [ 104.093728, 2.312831 ], [ 104.092304, 2.312353 ], [ 104.09163, 2.314609 ], [ 104.092237, 2.31702 ], [ 104.09346, 2.317595 ], [ 104.095562, 2.315809 ], [ 104.09759, 2.316207 ], [ 104.097833, 2.313866 ], [ 104.09906, 2.313881 ] ] ], [ [ [ 103.97766, 2.454828 ], [ 103.98024, 2.452443 ], [ 103.981336, 2.450937 ], [ 103.981934, 2.45104 ], [ 103.983718, 2.450596 ], [ 103.984951, 2.448877 ], [ 103.985453, 2.447166 ], [ 103.985507, 2.445728 ], [ 103.985881, 2.444148 ], [ 103.987145, 2.443092 ], [ 103.987849, 2.442001 ], [ 103.989437, 2.441539 ], [ 103.990529, 2.440566 ], [ 103.989848, 2.438046 ], [ 103.991626, 2.436504 ], [ 103.993231, 2.433765 ], [ 103.994983, 2.430629 ], [ 103.996107, 2.430336 ], [ 103.996956, 2.429213 ], [ 103.99788, 2.428142 ], [ 103.995426, 2.426118 ], [ 103.993706, 2.42397 ], [ 103.992558, 2.42449 ], [ 103.991471, 2.425047 ], [ 103.98994, 2.425518 ], [ 103.988268, 2.42643 ], [ 103.986942, 2.426502 ], [ 103.983745, 2.428338 ], [ 103.982337, 2.428106 ], [ 103.980012, 2.429378 ], [ 103.97736, 2.432105 ], [ 103.97626, 2.434085 ], [ 103.975251, 2.436524 ], [ 103.975658, 2.437676 ], [ 103.97544, 2.438386 ], [ 103.976055, 2.439725 ], [ 103.975907, 2.441941 ], [ 103.974519, 2.443713 ], [ 103.974873, 2.444873 ], [ 103.974069, 2.445856 ], [ 103.974288, 2.446907 ], [ 103.973796, 2.449247 ], [ 103.974687, 2.451539 ], [ 103.974461, 2.453925 ], [ 103.973239, 2.45467 ], [ 103.971845, 2.457308 ], [ 103.975063, 2.459375 ], [ 103.976027, 2.458867 ], [ 103.976124, 2.457795 ], [ 103.977743, 2.457983 ], [ 103.978237, 2.456295 ], [ 103.97766, 2.454828 ] ] ], [ [ [ 104.505799, 2.46267 ], [ 104.506794, 2.46351 ], [ 104.507334, 2.464471 ], [ 104.509467, 2.464975 ], [ 104.510834, 2.465619 ], [ 104.511982, 2.466326 ], [ 104.511495, 2.467019 ], [ 104.511584, 2.468181 ], [ 104.512486, 2.468598 ], [ 104.513869, 2.468343 ], [ 104.514937, 2.467125 ], [ 104.518449, 2.465716 ], [ 104.519877, 2.464817 ], [ 104.520184, 2.463682 ], [ 104.525042, 2.459829 ], [ 104.525573, 2.457073 ], [ 104.524317, 2.455697 ], [ 104.526212, 2.453755 ], [ 104.527126, 2.454772 ], [ 104.528913, 2.45535 ], [ 104.532731, 2.454116 ], [ 104.537938, 2.451232 ], [ 104.540385, 2.450545 ], [ 104.541095, 2.448795 ], [ 104.541163, 2.444369 ], [ 104.540048, 2.440458 ], [ 104.53969, 2.437178 ], [ 104.539435, 2.436158 ], [ 104.539567, 2.434856 ], [ 104.540123, 2.432778 ], [ 104.539412, 2.431067 ], [ 104.538206, 2.430747 ], [ 104.536604, 2.428769 ], [ 104.535837, 2.427156 ], [ 104.533315, 2.425732 ], [ 104.531322, 2.424056 ], [ 104.529214, 2.422817 ], [ 104.527029, 2.422215 ], [ 104.525473, 2.422063 ], [ 104.524553, 2.421703 ], [ 104.521848, 2.421853 ], [ 104.519622, 2.42189 ], [ 104.518915, 2.422824 ], [ 104.519206, 2.424815 ], [ 104.518674, 2.42709 ], [ 104.517756, 2.428206 ], [ 104.517533, 2.429271 ], [ 104.51688, 2.430359 ], [ 104.516942, 2.431331 ], [ 104.512962, 2.437618 ], [ 104.511631, 2.4382 ], [ 104.510121, 2.43886 ], [ 104.508808, 2.439303 ], [ 104.506342, 2.438884 ], [ 104.505541, 2.439275 ], [ 104.504949, 2.43921 ], [ 104.504419, 2.437153 ], [ 104.503278, 2.43712 ], [ 104.502628, 2.437544 ], [ 104.502966, 2.438838 ], [ 104.503517, 2.439634 ], [ 104.503329, 2.440544 ], [ 104.50216, 2.441176 ], [ 104.5017, 2.442138 ], [ 104.501731, 2.443559 ], [ 104.501626, 2.445842 ], [ 104.502633, 2.44612 ], [ 104.503209, 2.447189 ], [ 104.502979, 2.448486 ], [ 104.502586, 2.449793 ], [ 104.501826, 2.450129 ], [ 104.501073, 2.450562 ], [ 104.500442, 2.45126 ], [ 104.499801, 2.451851 ], [ 104.499177, 2.452867 ], [ 104.499545, 2.454177 ], [ 104.499397, 2.456342 ], [ 104.500398, 2.457397 ], [ 104.500676, 2.458468 ], [ 104.502059, 2.45939 ], [ 104.503431, 2.459229 ], [ 104.503897, 2.460309 ], [ 104.505799, 2.46267 ] ] ], [ [ [ 104.503581, 2.472286 ], [ 104.508023, 2.473069 ], [ 104.510556, 2.474932 ], [ 104.513102, 2.474392 ], [ 104.513102, 2.472231 ], [ 104.511344, 2.470706 ], [ 104.509015, 2.470397 ], [ 104.506632, 2.467895 ], [ 104.501637, 2.466641 ], [ 104.49955, 2.467063 ], [ 104.49511, 2.466555 ], [ 104.49266, 2.468656 ], [ 104.49515, 2.471306 ], [ 104.498202, 2.473705 ], [ 104.50106, 2.477057 ], [ 104.503273, 2.476214 ], [ 104.503581, 2.472286 ] ] ], [ [ [ 103.964681, 2.477048 ], [ 103.964526, 2.475456 ], [ 103.964481, 2.474419 ], [ 103.963118, 2.47442 ], [ 103.961674, 2.474444 ], [ 103.961143, 2.47296 ], [ 103.960188, 2.474024 ], [ 103.959118, 2.473958 ], [ 103.957105, 2.474694 ], [ 103.956859, 2.476821 ], [ 103.956325, 2.47755 ], [ 103.957202, 2.478495 ], [ 103.958614, 2.480174 ], [ 103.960021, 2.47958 ], [ 103.962168, 2.479767 ], [ 103.962967, 2.479697 ], [ 103.962381, 2.478769 ], [ 103.964681, 2.477048 ] ] ], [ [ [ 103.952545, 2.494639 ], [ 103.953737, 2.494283 ], [ 103.954515, 2.492777 ], [ 103.954465, 2.492403 ], [ 103.955439, 2.490976 ], [ 103.955449, 2.490055 ], [ 103.954981, 2.488428 ], [ 103.953199, 2.487477 ], [ 103.951767, 2.48825 ], [ 103.950522, 2.488981 ], [ 103.949043, 2.489686 ], [ 103.947431, 2.491629 ], [ 103.947709, 2.492901 ], [ 103.947221, 2.495416 ], [ 103.948355, 2.495715 ], [ 103.948896, 2.494806 ], [ 103.950307, 2.494527 ], [ 103.951808, 2.495531 ], [ 103.952545, 2.494639 ] ] ], [ [ [ 104.333333, 2.588263 ], [ 104.334911, 2.584271 ], [ 104.333912, 2.582415 ], [ 104.33591, 2.580493 ], [ 104.340505, 2.580708 ], [ 104.34334, 2.578077 ], [ 104.345884, 2.570445 ], [ 104.343178, 2.568912 ], [ 104.3416, 2.563242 ], [ 104.336892, 2.562323 ], [ 104.334193, 2.561417 ], [ 104.331275, 2.563977 ], [ 104.327909, 2.566452 ], [ 104.326822, 2.569069 ], [ 104.321475, 2.571014 ], [ 104.319749, 2.572823 ], [ 104.318452, 2.573683 ], [ 104.319531, 2.57594 ], [ 104.317042, 2.581153 ], [ 104.314109, 2.582531 ], [ 104.311789, 2.583594 ], [ 104.309548, 2.589129 ], [ 104.309945, 2.59387 ], [ 104.316323, 2.596617 ], [ 104.319841, 2.598411 ], [ 104.32761, 2.59341 ], [ 104.329678, 2.595057 ], [ 104.33471, 2.59178 ], [ 104.333333, 2.588263 ] ] ] ] } },
{ "type": "Feature", "properties": { "state": "Johor", "parlimen": "P.103 Ledang", "code_parlimen": "P.103", "dun": "N.09 Tangkak", "code_dun": "N.09" }, "geometry": { "type": "Polygon", "coordinates": [ [ [ 102.555745, 2.226442 ], [ 102.547523, 2.220007 ], [ 102.538585, 2.222331 ], [ 102.526966, 2.217326 ], [ 102.523481, 2.220365 ], [ 102.517046, 2.219829 ], [ 102.513292, 2.223582 ], [ 102.503997, 2.225012 ], [ 102.497383, 2.224119 ], [ 102.494841, 2.223937 ], [ 102.494918, 2.225606 ], [ 102.495349, 2.234968 ], [ 102.495362, 2.23524 ], [ 102.495442, 2.236977 ], [ 102.489091, 2.242203 ], [ 102.48741, 2.245936 ], [ 102.493947, 2.247429 ], [ 102.491519, 2.25676 ], [ 102.495628, 2.271424 ], [ 102.501979, 2.294085 ], [ 102.509263, 2.306029 ], [ 102.506461, 2.310508 ], [ 102.51001, 2.320212 ], [ 102.513932, 2.321892 ], [ 102.514119, 2.329543 ], [ 102.508702, 2.340927 ], [ 102.511435, 2.34995 ], [ 102.523302, 2.355141 ], [ 102.530095, 2.352639 ], [ 102.535457, 2.356929 ], [ 102.544752, 2.352639 ], [ 102.551813, 2.356571 ], [ 102.609727, 2.372301 ], [ 102.618665, 2.351209 ], [ 102.61652, 2.318319 ], [ 102.607225, 2.314744 ], [ 102.609012, 2.301874 ], [ 102.62081, 2.298299 ], [ 102.621882, 2.308309 ], [ 102.636897, 2.316889 ], [ 102.645477, 2.306164 ], [ 102.655487, 2.309739 ], [ 102.654772, 2.299014 ], [ 102.665315, 2.301193 ], [ 102.675967, 2.300195 ], [ 102.684955, 2.302525 ], [ 102.704262, 2.293204 ], [ 102.711086, 2.2962 ], [ 102.714914, 2.299945 ], [ 102.719408, 2.295118 ], [ 102.723948, 2.290434 ], [ 102.727165, 2.284357 ], [ 102.740393, 2.275777 ], [ 102.748973, 2.261835 ], [ 102.7479, 2.24396 ], [ 102.741465, 2.241815 ], [ 102.74933, 2.234665 ], [ 102.743253, 2.230375 ], [ 102.742895, 2.219292 ], [ 102.751157, 2.216974 ], [ 102.748827, 2.209651 ], [ 102.74541, 2.208412 ], [ 102.744386, 2.196984 ], [ 102.739269, 2.195449 ], [ 102.738674, 2.190677 ], [ 102.736011, 2.18868 ], [ 102.725026, 2.185351 ], [ 102.7192, 2.180191 ], [ 102.714207, 2.183021 ], [ 102.719367, 2.194006 ], [ 102.721197, 2.201495 ], [ 102.717369, 2.205656 ], [ 102.710452, 2.210355 ], [ 102.710988, 2.21822 ], [ 102.701872, 2.225549 ], [ 102.694901, 2.220722 ], [ 102.68936, 2.224119 ], [ 102.677947, 2.21961 ], [ 102.677632, 2.219887 ], [ 102.67397, 2.229374 ], [ 102.675239, 2.235558 ], [ 102.678456, 2.23967 ], [ 102.6865, 2.241993 ], [ 102.683997, 2.24968 ], [ 102.663977, 2.250037 ], [ 102.659687, 2.253791 ], [ 102.620043, 2.253259 ], [ 102.613718, 2.250928 ], [ 102.608059, 2.249597 ], [ 102.594744, 2.245935 ], [ 102.579931, 2.234784 ], [ 102.57527, 2.220137 ], [ 102.573606, 2.216808 ], [ 102.567281, 2.221801 ], [ 102.563074, 2.225906 ], [ 102.555745, 2.226442 ] ] ] } },
{ "type": "Feature", "properties": { "state": "Johor", "parlimen": "P.103 Ledang", "code_parlimen": "P.103", "dun": "N.10 Serom", "code_dun": "N.10" }, "geometry": { "type": "Polygon", "coordinates": [ [ [ 102.680065, 2.205707 ], [ 102.660939, 2.200166 ], [ 102.658973, 2.206065 ], [ 102.631803, 2.199987 ], [ 102.636271, 2.167813 ], [ 102.640515, 2.164795 ], [ 102.645841, 2.15897 ], [ 102.643345, 2.148983 ], [ 102.643844, 2.14166 ], [ 102.648671, 2.132006 ], [ 102.643012, 2.127513 ], [ 102.634357, 2.126347 ], [ 102.627533, 2.123352 ], [ 102.617713, 2.112533 ], [ 102.613052, 2.112866 ], [ 102.610556, 2.120522 ], [ 102.614051, 2.128345 ], [ 102.620542, 2.135002 ], [ 102.626035, 2.139496 ], [ 102.626201, 2.143324 ], [ 102.622706, 2.145821 ], [ 102.619544, 2.148318 ], [ 102.610057, 2.150481 ], [ 102.603399, 2.149649 ], [ 102.60007, 2.143158 ], [ 102.597407, 2.12951 ], [ 102.59368, 2.125029 ], [ 102.591249, 2.115196 ], [ 102.591249, 2.107706 ], [ 102.598239, 2.101548 ], [ 102.608059, 2.099051 ], [ 102.608725, 2.093725 ], [ 102.602067, 2.088233 ], [ 102.589751, 2.089897 ], [ 102.579931, 2.100882 ], [ 102.576403, 2.103013 ], [ 102.571942, 2.105709 ], [ 102.567614, 2.105875 ], [ 102.56362, 2.102214 ], [ 102.560008, 2.107439 ], [ 102.554209, 2.113579 ], [ 102.547727, 2.112556 ], [ 102.538745, 2.11213 ], [ 102.538896, 2.114254 ], [ 102.532662, 2.11453 ], [ 102.522337, 2.121449 ], [ 102.52271, 2.126115 ], [ 102.534477, 2.134514 ], [ 102.537279, 2.144593 ], [ 102.530928, 2.154671 ], [ 102.534477, 2.158591 ], [ 102.529247, 2.16083 ], [ 102.530742, 2.168296 ], [ 102.524765, 2.16475 ], [ 102.524952, 2.167923 ], [ 102.516547, 2.16475 ], [ 102.51636, 2.169976 ], [ 102.512251, 2.167176 ], [ 102.504593, 2.167923 ], [ 102.502539, 2.172775 ], [ 102.495442, 2.172962 ], [ 102.490399, 2.180614 ], [ 102.485543, 2.178188 ], [ 102.478258, 2.180427 ], [ 102.474897, 2.183974 ], [ 102.477325, 2.187146 ], [ 102.472842, 2.197598 ], [ 102.467799, 2.196665 ], [ 102.46892, 2.203944 ], [ 102.494694, 2.220741 ], [ 102.494841, 2.223937 ], [ 102.497383, 2.224119 ], [ 102.503997, 2.225012 ], [ 102.513292, 2.223582 ], [ 102.517046, 2.219829 ], [ 102.523481, 2.220365 ], [ 102.526966, 2.217326 ], [ 102.538585, 2.222331 ], [ 102.547523, 2.220007 ], [ 102.555745, 2.226442 ], [ 102.563074, 2.225906 ], [ 102.567281, 2.221801 ], [ 102.573606, 2.216808 ], [ 102.57527, 2.220137 ], [ 102.579931, 2.234784 ], [ 102.594744, 2.245935 ], [ 102.608059, 2.249597 ], [ 102.613718, 2.250928 ], [ 102.620043, 2.253259 ], [ 102.659687, 2.253791 ], [ 102.663977, 2.250037 ], [ 102.683997, 2.24968 ], [ 102.6865, 2.241993 ], [ 102.678456, 2.23967 ], [ 102.675239, 2.235558 ], [ 102.67397, 2.229374 ], [ 102.677632, 2.219887 ], [ 102.677947, 2.21961 ], [ 102.674881, 2.218399 ], [ 102.680065, 2.205707 ] ] ] } },
{ "type": "Feature", "properties": { "state": "Johor", "parlimen": "P.104 Pagoh", "code_parlimen": "P.104", "dun": "N.11 Jorak", "code_dun": "N.11" }, "geometry": { "type": "Polygon", "coordinates": [ [ [ 102.736011, 2.18868 ], [ 102.738674, 2.190677 ], [ 102.739269, 2.195449 ], [ 102.744386, 2.196984 ], [ 102.74541, 2.208412 ], [ 102.748827, 2.209651 ], [ 102.751157, 2.216974 ], [ 102.757648, 2.225296 ], [ 102.762142, 2.226961 ], [ 102.767301, 2.228126 ], [ 102.77296, 2.224131 ], [ 102.774712, 2.231447 ], [ 102.773997, 2.23681 ], [ 102.815825, 2.245747 ], [ 102.840135, 2.239312 ], [ 102.847284, 2.227157 ], [ 102.845139, 2.218577 ], [ 102.828337, 2.215002 ], [ 102.831555, 2.207852 ], [ 102.840135, 2.207852 ], [ 102.860869, 2.196412 ], [ 102.855864, 2.188548 ], [ 102.858724, 2.179253 ], [ 102.851574, 2.167098 ], [ 102.876599, 2.140643 ], [ 102.90597, 2.110647 ], [ 102.900912, 2.102463 ], [ 102.898915, 2.100133 ], [ 102.894878, 2.090979 ], [ 102.889386, 2.080493 ], [ 102.879066, 2.089814 ], [ 102.87374, 2.087983 ], [ 102.869003, 2.08139 ], [ 102.869954, 2.074335 ], [ 102.779743, 2.078496 ], [ 102.770755, 2.065513 ], [ 102.767093, 2.063183 ], [ 102.761767, 2.05586 ], [ 102.742765, 2.048492 ], [ 102.738219, 2.046729 ], [ 102.729145, 2.04321 ], [ 102.707235, 2.041616 ], [ 102.689717, 2.042331 ], [ 102.690432, 2.052341 ], [ 102.697582, 2.055558 ], [ 102.697582, 2.067713 ], [ 102.677562, 2.072003 ], [ 102.674702, 2.079868 ], [ 102.66076, 2.082371 ], [ 102.661832, 2.092381 ], [ 102.655398, 2.094883 ], [ 102.64579, 2.089967 ], [ 102.638282, 2.095062 ], [ 102.647041, 2.103463 ], [ 102.657766, 2.109183 ], [ 102.677786, 2.120265 ], [ 102.671351, 2.130275 ], [ 102.664916, 2.13957 ], [ 102.669921, 2.142788 ], [ 102.679216, 2.145648 ], [ 102.683148, 2.161735 ], [ 102.677786, 2.16531 ], [ 102.662056, 2.16388 ], [ 102.659196, 2.172818 ], [ 102.653498, 2.181273 ], [ 102.646674, 2.181939 ], [ 102.640848, 2.176779 ], [ 102.640515, 2.164795 ], [ 102.636271, 2.167813 ], [ 102.631803, 2.199987 ], [ 102.658973, 2.206065 ], [ 102.660939, 2.200166 ], [ 102.680065, 2.205707 ], [ 102.674881, 2.218399 ], [ 102.677947, 2.21961 ], [ 102.68936, 2.224119 ], [ 102.694901, 2.220722 ], [ 102.701872, 2.225549 ], [ 102.710988, 2.21822 ], [ 102.710452, 2.210355 ], [ 102.717369, 2.205656 ], [ 102.721197, 2.201495 ], [ 102.719367, 2.194006 ], [ 102.714207, 2.183021 ], [ 102.7192, 2.180191 ], [ 102.725026, 2.185351 ], [ 102.736011, 2.18868 ] ] ] } },
{ "type": "Feature", "properties": { "state": "Johor", "parlimen": "P.104 Pagoh", "code_parlimen": "P.104", "dun": "N.12 Kesang", "code_dun": "N.12" }, "geometry": { "type": "Polygon", "coordinates": [ [ [ 102.573888, 2.057346 ], [ 102.562119, 2.048656 ], [ 102.55222, 2.057988 ], [ 102.539893, 2.058735 ], [ 102.532422, 2.068068 ], [ 102.51692, 2.08188 ], [ 102.502165, 2.090652 ], [ 102.489278, 2.098305 ], [ 102.48685, 2.10745 ], [ 102.481434, 2.11193 ], [ 102.481247, 2.116783 ], [ 102.488718, 2.121076 ], [ 102.502726, 2.119396 ], [ 102.499177, 2.126115 ], [ 102.504407, 2.127421 ], [ 102.506835, 2.122009 ], [ 102.516734, 2.119769 ], [ 102.522337, 2.121449 ], [ 102.532662, 2.11453 ], [ 102.538896, 2.114254 ], [ 102.538745, 2.11213 ], [ 102.547727, 2.112556 ], [ 102.554209, 2.113579 ], [ 102.560008, 2.107439 ], [ 102.56362, 2.102214 ], [ 102.567614, 2.105875 ], [ 102.571942, 2.105709 ], [ 102.576403, 2.103013 ], [ 102.579931, 2.100882 ], [ 102.589751, 2.089897 ], [ 102.602067, 2.088233 ], [ 102.608725, 2.093725 ], [ 102.608059, 2.099051 ], [ 102.598239, 2.101548 ], [ 102.591249, 2.107706 ], [ 102.591249, 2.115196 ], [ 102.59368, 2.125029 ], [ 102.597407, 2.12951 ], [ 102.60007, 2.143158 ], [ 102.603399, 2.149649 ], [ 102.610057, 2.150481 ], [ 102.619544, 2.148318 ], [ 102.622706, 2.145821 ], [ 102.626201, 2.143324 ], [ 102.626035, 2.139496 ], [ 102.620542, 2.135002 ], [ 102.614051, 2.128345 ], [ 102.610556, 2.120522 ], [ 102.613052, 2.112866 ], [ 102.617713, 2.112533 ], [ 102.627533, 2.123352 ], [ 102.634357, 2.126347 ], [ 102.643012, 2.127513 ], [ 102.648671, 2.132006 ], [ 102.643844, 2.14166 ], [ 102.643345, 2.148983 ], [ 102.645841, 2.15897 ], [ 102.640515, 2.164795 ], [ 102.640848, 2.176779 ], [ 102.646674, 2.181939 ], [ 102.653498, 2.181273 ], [ 102.659196, 2.172818 ], [ 102.662056, 2.16388 ], [ 102.677786, 2.16531 ], [ 102.683148, 2.161735 ], [ 102.679216, 2.145648 ], [ 102.669921, 2.142788 ], [ 102.664916, 2.13957 ], [ 102.671351, 2.130275 ], [ 102.677786, 2.120265 ], [ 102.657766, 2.109183 ], [ 102.647041, 2.103463 ], [ 102.638282, 2.095062 ], [ 102.64579, 2.089967 ], [ 102.635735, 2.083086 ], [ 102.61643, 2.076651 ], [ 102.61357, 2.068786 ], [ 102.602484, 2.070839 ], [ 102.58926, 2.063781 ], [ 102.573888, 2.057346 ] ] ] } },
{ "type": "Feature", "properties": { "state": "Johor", "parlimen": "P.105 Ayer Hitam", "code_parlimen": "P.105", "dun": "N.13 Sri Lalang", "code_dun": "N.13" }, "geometry": { "type": "Polygon", "coordinates": [ [ [ 103.318913, 2.042688 ], [ 103.316265, 2.04812 ], [ 103.309261, 2.050911 ], [ 103.302111, 2.047336 ], [ 103.294604, 2.023384 ], [ 103.296034, 2.001934 ], [ 103.29921, 1.988072 ], [ 103.287803, 1.978548 ], [ 103.289634, 1.97472 ], [ 103.280979, 1.966231 ], [ 103.291631, 1.950919 ], [ 103.29779, 1.953582 ], [ 103.302382, 1.943614 ], [ 103.305612, 1.935939 ], [ 103.296924, 1.929798 ], [ 103.301188, 1.923317 ], [ 103.296412, 1.920247 ], [ 103.298414, 1.915883 ], [ 103.290186, 1.910951 ], [ 103.266124, 1.897575 ], [ 103.26912, 1.889253 ], [ 103.266138, 1.879669 ], [ 103.258988, 1.882887 ], [ 103.248263, 1.880027 ], [ 103.233606, 1.887177 ], [ 103.226456, 1.893612 ], [ 103.208223, 1.899332 ], [ 103.199286, 1.887534 ], [ 103.19289, 1.884259 ], [ 103.197197, 1.87728 ], [ 103.20088, 1.874273 ], [ 103.194888, 1.858627 ], [ 103.194128, 1.845513 ], [ 103.177786, 1.832833 ], [ 103.170271, 1.834453 ], [ 103.153225, 1.838974 ], [ 103.150198, 1.851471 ], [ 103.144373, 1.86695 ], [ 103.140046, 1.869945 ], [ 103.130392, 1.878933 ], [ 103.129687, 1.885537 ], [ 103.13975, 1.886219 ], [ 103.146573, 1.881955 ], [ 103.14589, 1.895089 ], [ 103.14282, 1.898329 ], [ 103.149813, 1.906005 ], [ 103.150837, 1.914192 ], [ 103.148108, 1.921696 ], [ 103.151649, 1.925787 ], [ 103.164519, 1.937227 ], [ 103.140924, 1.953671 ], [ 103.135919, 1.960106 ], [ 103.113039, 1.967971 ], [ 103.114469, 1.956531 ], [ 103.103744, 1.946521 ], [ 103.096594, 1.946521 ], [ 103.08873, 1.934367 ], [ 103.076575, 1.930792 ], [ 103.075145, 1.922927 ], [ 103.043685, 1.930792 ], [ 103.053695, 1.941517 ], [ 103.049405, 1.947951 ], [ 103.036535, 1.941517 ], [ 103.02867, 1.950811 ], [ 103.020957, 1.955163 ], [ 103.030011, 1.957961 ], [ 103.039484, 1.971189 ], [ 103.045919, 1.976909 ], [ 103.045919, 1.988349 ], [ 103.053069, 2.001219 ], [ 103.059504, 2.005509 ], [ 103.061292, 2.015876 ], [ 103.055572, 2.025171 ], [ 103.066654, 2.029818 ], [ 103.075234, 2.039471 ], [ 103.088819, 2.039113 ], [ 103.100974, 2.049838 ], [ 103.115274, 2.055916 ], [ 103.127071, 2.058418 ], [ 103.135651, 2.069501 ], [ 103.145661, 2.080226 ], [ 103.150309, 2.090236 ], [ 103.148164, 2.100603 ], [ 103.149594, 2.112043 ], [ 103.154241, 2.117763 ], [ 103.153884, 2.12384 ], [ 103.157458, 2.130275 ], [ 103.165323, 2.135995 ], [ 103.167503, 2.146279 ], [ 103.165596, 2.15066 ], [ 103.170373, 2.162093 ], [ 103.182886, 2.177823 ], [ 103.195398, 2.183543 ], [ 103.220423, 2.176035 ], [ 103.2408, 2.14958 ], [ 103.254385, 2.164238 ], [ 103.261893, 2.157803 ], [ 103.267612, 2.163165 ], [ 103.275477, 2.14672 ], [ 103.262965, 2.13242 ], [ 103.265825, 2.11669 ], [ 103.229718, 2.098816 ], [ 103.234365, 2.090236 ], [ 103.22793, 2.083086 ], [ 103.231505, 2.074506 ], [ 103.202449, 2.053345 ], [ 103.217857, 2.031476 ], [ 103.231505, 2.041463 ], [ 103.229507, 2.04812 ], [ 103.242157, 2.053446 ], [ 103.244154, 2.051116 ], [ 103.253475, 2.055111 ], [ 103.251811, 2.062101 ], [ 103.265126, 2.07009 ], [ 103.270452, 2.065763 ], [ 103.282436, 2.071089 ], [ 103.279107, 2.081741 ], [ 103.287429, 2.090063 ], [ 103.295751, 2.09772 ], [ 103.312728, 2.114031 ], [ 103.311763, 2.103821 ], [ 103.317126, 2.083801 ], [ 103.343938, 2.079511 ], [ 103.364316, 2.067713 ], [ 103.366818, 2.056988 ], [ 103.350731, 2.046621 ], [ 103.342293, 2.038958 ], [ 103.328219, 2.035639 ], [ 103.327136, 2.043761 ], [ 103.318913, 2.042688 ] ] ] } },
{ "type": "Feature", "properties": { "state": "Johor", "parlimen": "P.105 Ayer Hitam", "code_parlimen": "P.105", "dun": "N.14 Sri Medan", "code_dun": "N.14" }, "geometry": { "type": "Polygon", "coordinates": [ [ [ 102.959602, 2.197421 ], [ 102.961296, 2.195531 ], [ 102.987999, 2.171131 ], [ 102.993896, 2.16768 ], [ 103.002998, 2.16528 ], [ 103.009796, 2.162981 ], [ 103.085297, 2.16482 ], [ 103.103821, 2.167001 ], [ 103.106781, 2.166201 ], [ 103.165596, 2.15066 ], [ 103.167503, 2.146279 ], [ 103.165323, 2.135995 ], [ 103.157458, 2.130275 ], [ 103.153884, 2.12384 ], [ 103.154241, 2.117763 ], [ 103.149594, 2.112043 ], [ 103.148164, 2.100603 ], [ 103.150309, 2.090236 ], [ 103.145661, 2.080226 ], [ 103.135651, 2.069501 ], [ 103.127071, 2.058418 ], [ 103.115274, 2.055916 ], [ 103.100974, 2.049838 ], [ 103.088819, 2.039113 ], [ 103.075234, 2.039471 ], [ 103.066654, 2.029818 ], [ 103.055572, 2.025171 ], [ 103.061292, 2.015876 ], [ 103.059504, 2.005509 ], [ 103.053069, 2.001219 ], [ 103.045919, 1.988349 ], [ 103.045919, 1.976909 ], [ 103.039484, 1.971189 ], [ 103.030011, 1.957961 ], [ 103.020957, 1.955163 ], [ 103.003314, 1.948506 ], [ 102.978015, 1.95017 ], [ 102.9647, 1.947507 ], [ 102.957044, 1.953832 ], [ 102.946392, 1.960156 ], [ 102.939734, 1.961821 ], [ 102.932235, 1.970295 ], [ 102.924281, 1.975121 ], [ 102.898541, 1.970831 ], [ 102.883526, 1.970831 ], [ 102.880666, 1.986561 ], [ 102.863506, 1.995856 ], [ 102.843486, 2.000146 ], [ 102.831331, 2.003721 ], [ 102.834906, 2.015161 ], [ 102.847776, 2.025171 ], [ 102.847776, 2.039471 ], [ 102.859931, 2.040901 ], [ 102.873516, 2.050911 ], [ 102.874231, 2.065211 ], [ 102.869954, 2.074335 ], [ 102.869003, 2.08139 ], [ 102.87374, 2.087983 ], [ 102.879066, 2.089814 ], [ 102.889386, 2.080493 ], [ 102.894878, 2.090979 ], [ 102.898915, 2.100133 ], [ 102.900912, 2.102463 ], [ 102.90597, 2.110647 ], [ 102.919324, 2.132253 ], [ 102.959602, 2.197421 ] ] ] } },
{ "type": "Feature", "properties": { "state": "Johor", "parlimen": "P.106 Muar", "code_parlimen": "P.106", "dun": "N.15 Bandar Maharani", "code_dun": "N.15" }, "geometry": { "type": "Polygon", "coordinates": [ [ [ 102.698169, 2.0307 ], [ 102.688078, 2.020609 ], [ 102.681467, 2.027916 ], [ 102.667548, 2.030004 ], [ 102.658153, 2.040791 ], [ 102.657805, 2.047402 ], [ 102.645975, 2.047402 ], [ 102.648062, 2.040443 ], [ 102.637276, 2.039747 ], [ 102.635536, 2.027568 ], [ 102.627533, 2.02896 ], [ 102.597956, 2.012258 ], [ 102.576233, 1.999048 ], [ 102.552736, 2.020666 ], [ 102.548485, 2.024577 ], [ 102.542135, 2.03503 ], [ 102.546991, 2.047163 ], [ 102.555582, 2.049402 ], [ 102.562119, 2.048656 ], [ 102.573888, 2.057346 ], [ 102.58926, 2.063781 ], [ 102.602484, 2.070839 ], [ 102.61357, 2.068786 ], [ 102.61643, 2.076651 ], [ 102.635735, 2.083086 ], [ 102.64579, 2.089967 ], [ 102.655398, 2.094883 ], [ 102.661832, 2.092381 ], [ 102.66076, 2.082371 ], [ 102.674702, 2.079868 ], [ 102.677562, 2.072003 ], [ 102.697582, 2.067713 ], [ 102.697582, 2.055558 ], [ 102.690432, 2.052341 ], [ 102.689717, 2.042331 ], [ 102.707235, 2.041616 ], [ 102.706172, 2.032092 ], [ 102.698169, 2.0307 ] ] ] } },
{ "type": "Feature", "properties": { "state": "Johor", "parlimen": "P.106 Muar", "code_parlimen": "P.106", "dun": "N.16 Parit Jawa", "code_dun": "N.16" }, "geometry": { "type": "Polygon", "coordinates": [ [ [ 102.873516, 2.050911 ], [ 102.859931, 2.040901 ], [ 102.847776, 2.039471 ], [ 102.847776, 2.025171 ], [ 102.834906, 2.015161 ], [ 102.831331, 2.003721 ], [ 102.815601, 1.981556 ], [ 102.805999, 1.959158 ], [ 102.798343, 1.960489 ], [ 102.784362, 1.968146 ], [ 102.781366, 1.977466 ], [ 102.779368, 1.986121 ], [ 102.775293, 1.980841 ], [ 102.765641, 1.977981 ], [ 102.743834, 1.962966 ], [ 102.735254, 1.963681 ], [ 102.700934, 1.936154 ], [ 102.668402, 1.911844 ], [ 102.659507, 1.906075 ], [ 102.646541, 1.925087 ], [ 102.614976, 1.963166 ], [ 102.60802, 1.969651 ], [ 102.595552, 1.981273 ], [ 102.576233, 1.999048 ], [ 102.597956, 2.012258 ], [ 102.627533, 2.02896 ], [ 102.635536, 2.027568 ], [ 102.637276, 2.039747 ], [ 102.648062, 2.040443 ], [ 102.645975, 2.047402 ], [ 102.657805, 2.047402 ], [ 102.658153, 2.040791 ], [ 102.667548, 2.030004 ], [ 102.681467, 2.027916 ], [ 102.688078, 2.020609 ], [ 102.698169, 2.0307 ], [ 102.706172, 2.032092 ], [ 102.707235, 2.041616 ], [ 102.729145, 2.04321 ], [ 102.738219, 2.046729 ], [ 102.742765, 2.048492 ], [ 102.761767, 2.05586 ], [ 102.767093, 2.063183 ], [ 102.770755, 2.065513 ], [ 102.779743, 2.078496 ], [ 102.869954, 2.074335 ], [ 102.874231, 2.065211 ], [ 102.873516, 2.050911 ] ] ] } },
{ "type": "Feature", "properties": { "state": "Johor", "parlimen": "P.107 Renggam", "code_parlimen": "P.107", "dun": "N.17 Layang-Layang", "code_dun": "N.17" }, "geometry": { "type": "Polygon", "coordinates": [ [ [ 103.31659, 1.923105 ], [ 103.33375, 1.934545 ], [ 103.349479, 1.954565 ], [ 103.443859, 2.020345 ], [ 103.532025, 2.083418 ], [ 103.562599, 2.041391 ], [ 103.563797, 2.033781 ], [ 103.567299, 1.936061 ], [ 103.562599, 1.93617 ], [ 103.553596, 1.934541 ], [ 103.552902, 1.906911 ], [ 103.560699, 1.88643 ], [ 103.565796, 1.885979 ], [ 103.570396, 1.884949 ], [ 103.574303, 1.883231 ], [ 103.580696, 1.87506 ], [ 103.586356, 1.861374 ], [ 103.590185, 1.856547 ], [ 103.600337, 1.850555 ], [ 103.609159, 1.83208 ], [ 103.619977, 1.826588 ], [ 103.6283, 1.820762 ], [ 103.637703, 1.804461 ], [ 103.6381, 1.800541 ], [ 103.645798, 1.79091 ], [ 103.64511, 1.782647 ], [ 103.651701, 1.770485 ], [ 103.659599, 1.755911 ], [ 103.660301, 1.749461 ], [ 103.704918, 1.685261 ], [ 103.685154, 1.671084 ], [ 103.687938, 1.664821 ], [ 103.659405, 1.649163 ], [ 103.657318, 1.655078 ], [ 103.65349, 1.650903 ], [ 103.65001, 1.65473 ], [ 103.625305, 1.640116 ], [ 103.616258, 1.651251 ], [ 103.597469, 1.640464 ], [ 103.583898, 1.648467 ], [ 103.56476, 1.628633 ], [ 103.541447, 1.624806 ], [ 103.533444, 1.636288 ], [ 103.513958, 1.62237 ], [ 103.483338, 1.654382 ], [ 103.468376, 1.656122 ], [ 103.458981, 1.643247 ], [ 103.448031, 1.635885 ], [ 103.42158, 1.662227 ], [ 103.378998, 1.70417 ], [ 103.367441, 1.711052 ], [ 103.373731, 1.72206 ], [ 103.409223, 1.760336 ], [ 103.442627, 1.787476 ], [ 103.421749, 1.815313 ], [ 103.411311, 1.820881 ], [ 103.425925, 1.838278 ], [ 103.411311, 1.856372 ], [ 103.377211, 1.835495 ], [ 103.36538, 1.848021 ], [ 103.359813, 1.848021 ], [ 103.349374, 1.868899 ], [ 103.343111, 1.880034 ], [ 103.337773, 1.887243 ], [ 103.329416, 1.885878 ], [ 103.326516, 1.876839 ], [ 103.305366, 1.873939 ], [ 103.297862, 1.88332 ], [ 103.312359, 1.890484 ], [ 103.323275, 1.896112 ], [ 103.317135, 1.902935 ], [ 103.310142, 1.898159 ], [ 103.306901, 1.902935 ], [ 103.298714, 1.899353 ], [ 103.290186, 1.910951 ], [ 103.298414, 1.915883 ], [ 103.31659, 1.923105 ] ] ] } },
{ "type": "Feature", "properties": { "state": "Johor", "parlimen": "P.107 Renggam", "code_parlimen": "P.107", "dun": "N.18 Kulai", "code_dun": "N.18" }, "geometry": { "type": "Polygon", "coordinates": [ [ [ 103.468376, 1.656122 ], [ 103.483338, 1.654382 ], [ 103.513958, 1.62237 ], [ 103.533444, 1.636288 ], [ 103.541447, 1.624806 ], [ 103.56476, 1.628633 ], [ 103.583898, 1.648467 ], [ 103.597469, 1.640464 ], [ 103.616258, 1.651251 ], [ 103.625305, 1.640116 ], [ 103.65001, 1.65473 ], [ 103.65349, 1.650903 ], [ 103.657318, 1.655078 ], [ 103.659405, 1.649163 ], [ 103.687938, 1.664821 ], [ 103.685154, 1.671084 ], [ 103.704918, 1.685261 ], [ 103.731234, 1.647426 ], [ 103.717345, 1.639591 ], [ 103.69654, 1.62378 ], [ 103.700035, 1.616956 ], [ 103.691713, 1.611629 ], [ 103.704118, 1.597143 ], [ 103.714905, 1.578701 ], [ 103.713861, 1.56861 ], [ 103.725344, 1.568262 ], [ 103.712469, 1.557476 ], [ 103.705858, 1.565131 ], [ 103.70029, 1.566522 ], [ 103.695071, 1.575221 ], [ 103.689156, 1.573134 ], [ 103.686372, 1.565479 ], [ 103.692983, 1.561651 ], [ 103.695071, 1.553648 ], [ 103.70041, 1.546551 ], [ 103.691921, 1.546218 ], [ 103.686928, 1.537064 ], [ 103.682268, 1.529574 ], [ 103.679272, 1.52558 ], [ 103.68077, 1.52042 ], [ 103.685264, 1.514594 ], [ 103.686263, 1.511765 ], [ 103.683599, 1.506272 ], [ 103.678891, 1.499366 ], [ 103.67228, 1.501802 ], [ 103.666364, 1.498323 ], [ 103.656622, 1.501802 ], [ 103.650706, 1.497279 ], [ 103.643051, 1.508761 ], [ 103.649662, 1.51572 ], [ 103.63644, 1.528595 ], [ 103.629133, 1.521636 ], [ 103.621826, 1.522332 ], [ 103.615215, 1.516416 ], [ 103.604428, 1.529639 ], [ 103.597469, 1.531379 ], [ 103.58877, 1.528247 ], [ 103.58877, 1.503194 ], [ 103.58355, 1.510501 ], [ 103.579723, 1.512241 ], [ 103.574872, 1.503443 ], [ 103.575371, 1.519754 ], [ 103.573041, 1.526079 ], [ 103.570545, 1.526578 ], [ 103.567216, 1.526412 ], [ 103.565218, 1.525746 ], [ 103.560725, 1.523249 ], [ 103.557729, 1.522251 ], [ 103.553068, 1.521585 ], [ 103.544452, 1.522196 ], [ 103.542747, 1.517932 ], [ 103.532854, 1.518614 ], [ 103.533262, 1.526578 ], [ 103.525273, 1.532736 ], [ 103.518282, 1.535566 ], [ 103.51279, 1.544387 ], [ 103.509794, 1.558202 ], [ 103.506798, 1.563528 ], [ 103.508129, 1.570352 ], [ 103.507963, 1.57701 ], [ 103.50763, 1.583667 ], [ 103.504196, 1.584611 ], [ 103.498901, 1.584709 ], [ 103.494797, 1.589311 ], [ 103.448031, 1.635885 ], [ 103.458981, 1.643247 ], [ 103.468376, 1.656122 ] ] ] } },
{ "type": "Feature", "properties": { "state": "Johor", "parlimen": "P.108 Panti", "code_parlimen": "P.108", "dun": "N.19 Kota Tinggi", "code_dun": "N.19" }, "geometry": { "type": "Polygon", "coordinates": [ [ [ 103.891494, 1.660993 ], [ 103.898453, 1.693006 ], [ 103.888014, 1.70762 ], [ 103.871312, 1.709012 ], [ 103.867833, 1.72293 ], [ 103.858786, 1.731977 ], [ 103.821902, 1.706924 ], [ 103.833037, 1.689526 ], [ 103.783627, 1.663777 ], [ 103.780899, 1.639461 ], [ 103.776802, 1.641291 ], [ 103.757328, 1.64169 ], [ 103.734901, 1.64215 ], [ 103.731234, 1.647426 ], [ 103.704918, 1.685261 ], [ 103.660301, 1.749461 ], [ 103.659599, 1.755911 ], [ 103.651701, 1.770485 ], [ 103.64511, 1.782647 ], [ 103.645798, 1.79091 ], [ 103.6381, 1.800541 ], [ 103.637703, 1.804461 ], [ 103.6283, 1.820762 ], [ 103.619977, 1.826588 ], [ 103.609159, 1.83208 ], [ 103.600337, 1.850555 ], [ 103.590185, 1.856547 ], [ 103.586356, 1.861374 ], [ 103.580696, 1.87506 ], [ 103.574303, 1.883231 ], [ 103.570396, 1.884949 ], [ 103.565796, 1.885979 ], [ 103.560699, 1.88643 ], [ 103.552902, 1.906911 ], [ 103.553596, 1.934541 ], [ 103.562599, 1.93617 ], [ 103.567299, 1.936061 ], [ 103.563797, 2.033781 ], [ 103.562599, 2.041391 ], [ 103.748303, 2.044292 ], [ 103.808888, 1.861873 ], [ 103.817543, 1.852885 ], [ 103.834853, 1.847892 ], [ 103.86581, 1.830582 ], [ 103.877794, 1.832912 ], [ 103.888779, 1.835243 ], [ 103.901429, 1.83258 ], [ 103.934384, 1.793299 ], [ 103.948365, 1.791302 ], [ 103.956021, 1.790636 ], [ 103.966008, 1.780317 ], [ 103.972665, 1.771329 ], [ 103.989642, 1.772994 ], [ 103.998297, 1.784312 ], [ 104.004955, 1.790636 ], [ 104.02963, 1.716487 ], [ 104.010988, 1.724809 ], [ 104.013152, 1.729636 ], [ 104.011987, 1.735794 ], [ 104.003166, 1.740621 ], [ 103.999338, 1.740288 ], [ 103.996342, 1.735794 ], [ 103.992347, 1.732798 ], [ 103.978699, 1.738957 ], [ 103.972541, 1.738624 ], [ 103.96788, 1.734629 ], [ 103.96788, 1.717985 ], [ 103.967547, 1.711161 ], [ 103.956895, 1.703005 ], [ 103.951902, 1.695183 ], [ 103.94591, 1.690189 ], [ 103.937588, 1.68503 ], [ 103.936257, 1.676874 ], [ 103.932428, 1.672713 ], [ 103.927934, 1.666888 ], [ 103.925179, 1.66111 ], [ 103.925011, 1.661352 ], [ 103.922096, 1.663599 ], [ 103.912598, 1.672461 ], [ 103.908211, 1.673972 ], [ 103.9049, 1.672791 ], [ 103.903603, 1.670831 ], [ 103.902397, 1.664039 ], [ 103.902298, 1.66024 ], [ 103.900597, 1.65598 ], [ 103.893582, 1.652642 ], [ 103.891494, 1.660993 ] ] ] } },
{ "type": "Feature", "properties": { "state": "Johor", "parlimen": "P.108 Panti", "code_parlimen": "P.108", "dun": "N.20 Johor Lama", "code_dun": "N.20" }, "geometry": { "type": "Polygon", "coordinates": [ [ [ 103.927934, 1.666888 ], [ 103.932428, 1.672713 ], [ 103.936257, 1.676874 ], [ 103.937588, 1.68503 ], [ 103.94591, 1.690189 ], [ 103.951902, 1.695183 ], [ 103.956895, 1.703005 ], [ 103.967547, 1.711161 ], [ 103.96788, 1.717985 ], [ 103.96788, 1.734629 ], [ 103.972541, 1.738624 ], [ 103.978699, 1.738957 ], [ 103.992347, 1.732798 ], [ 103.996342, 1.735794 ], [ 103.999338, 1.740288 ], [ 104.003166, 1.740621 ], [ 104.011987, 1.735794 ], [ 104.013152, 1.729636 ], [ 104.010988, 1.724809 ], [ 104.02963, 1.716487 ], [ 104.004955, 1.790636 ], [ 103.998297, 1.784312 ], [ 103.989642, 1.772994 ], [ 103.972665, 1.771329 ], [ 103.966008, 1.780317 ], [ 103.956021, 1.790636 ], [ 103.948365, 1.791302 ], [ 103.934384, 1.793299 ], [ 103.901429, 1.83258 ], [ 103.888779, 1.835243 ], [ 103.877794, 1.832912 ], [ 103.86581, 1.830582 ], [ 103.834853, 1.847892 ], [ 103.817543, 1.852885 ], [ 103.808888, 1.861873 ], [ 103.748303, 2.044292 ], [ 103.902707, 2.043582 ], [ 104.034267, 2.045727 ], [ 104.045706, 2.039292 ], [ 104.051426, 2.047872 ], [ 104.058857, 2.048059 ], [ 104.063864, 2.04091 ], [ 104.13297, 1.92182 ], [ 104.124752, 1.91734 ], [ 104.116534, 1.930033 ], [ 104.105328, 1.896433 ], [ 104.113546, 1.865819 ], [ 104.132223, 1.849391 ], [ 104.148659, 1.844911 ], [ 104.151648, 1.854618 ], [ 104.162854, 1.846405 ], [ 104.158371, 1.835951 ], [ 104.170325, 1.810563 ], [ 104.188255, 1.788161 ], [ 104.200956, 1.754558 ], [ 104.199835, 1.744103 ], [ 104.200769, 1.738503 ], [ 104.221314, 1.710313 ], [ 104.214403, 1.703405 ], [ 104.214216, 1.697805 ], [ 104.227104, 1.677082 ], [ 104.241298, 1.658786 ], [ 104.24933, 1.653372 ], [ 104.250264, 1.647211 ], [ 104.245034, 1.639556 ], [ 104.247088, 1.630408 ], [ 104.26203, 1.614912 ], [ 104.265766, 1.609125 ], [ 104.256987, 1.601097 ], [ 104.255867, 1.60315 ], [ 104.254373, 1.60091 ], [ 104.253812, 1.594936 ], [ 104.260349, 1.58336 ], [ 104.264645, 1.58336 ], [ 104.263524, 1.578506 ], [ 104.260349, 1.579813 ], [ 104.254559, 1.56357 ], [ 104.268754, 1.540605 ], [ 104.279213, 1.531457 ], [ 104.280707, 1.526789 ], [ 104.282762, 1.524735 ], [ 104.28575, 1.510732 ], [ 104.282762, 1.504571 ], [ 104.279774, 1.507558 ], [ 104.275851, 1.504944 ], [ 104.273423, 1.496916 ], [ 104.274357, 1.486087 ], [ 104.282762, 1.467229 ], [ 104.290697, 1.454197 ], [ 104.295836, 1.445757 ], [ 104.294342, 1.441089 ], [ 104.29733, 1.43306 ], [ 104.293595, 1.433247 ], [ 104.288552, 1.438662 ], [ 104.279027, 1.432687 ], [ 104.274918, 1.425032 ], [ 104.274544, 1.411962 ], [ 104.279774, 1.382273 ], [ 104.281828, 1.379846 ], [ 104.283696, 1.380406 ], [ 104.283509, 1.36827 ], [ 104.2794, 1.368456 ], [ 104.276038, 1.363415 ], [ 104.26091, 1.358373 ], [ 104.251758, 1.358 ], [ 104.251384, 1.367336 ], [ 104.246528, 1.368643 ], [ 104.240551, 1.366589 ], [ 104.22617, 1.349971 ], [ 104.228224, 1.347544 ], [ 104.225049, 1.346423 ], [ 104.218699, 1.348477 ], [ 104.216084, 1.348851 ], [ 104.200956, 1.336714 ], [ 104.193298, 1.344556 ], [ 104.183399, 1.348291 ], [ 104.164722, 1.342129 ], [ 104.159305, 1.342876 ], [ 104.156877, 1.346423 ], [ 104.137453, 1.341382 ], [ 104.129982, 1.350905 ], [ 104.12662, 1.35632 ], [ 104.112239, 1.360054 ], [ 104.10813, 1.363788 ], [ 104.087958, 1.36883 ], [ 104.096923, 1.382834 ], [ 104.106822, 1.390863 ], [ 104.111305, 1.391796 ], [ 104.112986, 1.401319 ], [ 104.11504, 1.40692 ], [ 104.113172, 1.409908 ], [ 104.105515, 1.4058 ], [ 104.098791, 1.418123 ], [ 104.089266, 1.429139 ], [ 104.07339, 1.439409 ], [ 104.066293, 1.442956 ], [ 104.058448, 1.444076 ], [ 104.056207, 1.449304 ], [ 104.02783, 1.452675 ], [ 104.023263, 1.521169 ], [ 104.012944, 1.565775 ], [ 103.982985, 1.588411 ], [ 103.972832, 1.615041 ], [ 103.972998, 1.627524 ], [ 103.972, 1.638343 ], [ 103.970668, 1.641173 ], [ 103.96684, 1.644834 ], [ 103.949863, 1.65016 ], [ 103.941208, 1.652491 ], [ 103.928392, 1.656485 ], [ 103.925179, 1.66111 ], [ 103.927934, 1.666888 ] ] ] } },
{ "type": "Feature", "properties": { "state": "Johor", "parlimen": "P.109 Sri Gading", "code_parlimen": "P.109", "dun": "N.21 Parit Raja", "code_dun": "N.21" }, "geometry": { "type": "Polygon", "coordinates": [ [ [ 103.036535, 1.941517 ], [ 103.049405, 1.947951 ], [ 103.053695, 1.941517 ], [ 103.043685, 1.930792 ], [ 103.075145, 1.922927 ], [ 103.076575, 1.930792 ], [ 103.08873, 1.934367 ], [ 103.096594, 1.946521 ], [ 103.103744, 1.946521 ], [ 103.114469, 1.956531 ], [ 103.113039, 1.967971 ], [ 103.135919, 1.960106 ], [ 103.140924, 1.953671 ], [ 103.164519, 1.937227 ], [ 103.151649, 1.925787 ], [ 103.148108, 1.921696 ], [ 103.150837, 1.914192 ], [ 103.149813, 1.906005 ], [ 103.14282, 1.898329 ], [ 103.14589, 1.895089 ], [ 103.146573, 1.881955 ], [ 103.13975, 1.886219 ], [ 103.129687, 1.885537 ], [ 103.130392, 1.878933 ], [ 103.140046, 1.869945 ], [ 103.144373, 1.86695 ], [ 103.150198, 1.851471 ], [ 103.153225, 1.838974 ], [ 103.170271, 1.834453 ], [ 103.177786, 1.832833 ], [ 103.168575, 1.826352 ], [ 103.163799, 1.828399 ], [ 103.141967, 1.815436 ], [ 103.137799, 1.821678 ], [ 103.128664, 1.819188 ], [ 103.129687, 1.813048 ], [ 103.105808, 1.801109 ], [ 103.098186, 1.806365 ], [ 103.086696, 1.805554 ], [ 103.077792, 1.847847 ], [ 103.04404, 1.853763 ], [ 103.014115, 1.857938 ], [ 103.016204, 1.88509 ], [ 103.010555, 1.888587 ], [ 103.004896, 1.88842 ], [ 103.000568, 1.885591 ], [ 102.995924, 1.883706 ], [ 102.993994, 1.886922 ], [ 102.98434, 1.889253 ], [ 102.968695, 1.903234 ], [ 102.953382, 1.905231 ], [ 102.944062, 1.911223 ], [ 102.937404, 1.92587 ], [ 102.931079, 1.957826 ], [ 102.932235, 1.970295 ], [ 102.939734, 1.961821 ], [ 102.946392, 1.960156 ], [ 102.957044, 1.953832 ], [ 102.9647, 1.947507 ], [ 102.978015, 1.95017 ], [ 103.003314, 1.948506 ], [ 103.020957, 1.955163 ], [ 103.02867, 1.950811 ], [ 103.036535, 1.941517 ] ] ] } },
{ "type": "Feature", "properties": { "state": "Johor", "parlimen": "P.109 Sri Gading", "code_parlimen": "P.109", "dun": "N.22 Simpang Renggam", "code_dun": "N.22" }, "geometry": { "type": "Polygon", "coordinates": [ [ [ 103.105808, 1.801109 ], [ 103.129687, 1.813048 ], [ 103.128664, 1.819188 ], [ 103.137799, 1.821678 ], [ 103.141967, 1.815436 ], [ 103.163799, 1.828399 ], [ 103.168575, 1.826352 ], [ 103.177786, 1.832833 ], [ 103.194128, 1.845513 ], [ 103.194888, 1.858627 ], [ 103.20088, 1.874273 ], [ 103.197197, 1.87728 ], [ 103.19289, 1.884259 ], [ 103.199286, 1.887534 ], [ 103.208223, 1.899332 ], [ 103.226456, 1.893612 ], [ 103.233606, 1.887177 ], [ 103.248263, 1.880027 ], [ 103.258988, 1.882887 ], [ 103.266138, 1.879669 ], [ 103.26912, 1.889253 ], [ 103.266124, 1.897575 ], [ 103.290186, 1.910951 ], [ 103.298714, 1.899353 ], [ 103.306901, 1.902935 ], [ 103.310142, 1.898159 ], [ 103.317135, 1.902935 ], [ 103.323275, 1.896112 ], [ 103.312359, 1.890484 ], [ 103.297862, 1.88332 ], [ 103.305366, 1.873939 ], [ 103.326516, 1.876839 ], [ 103.329416, 1.885878 ], [ 103.337773, 1.887243 ], [ 103.343111, 1.880034 ], [ 103.349374, 1.868899 ], [ 103.359813, 1.848021 ], [ 103.36538, 1.848021 ], [ 103.377211, 1.835495 ], [ 103.411311, 1.856372 ], [ 103.425925, 1.838278 ], [ 103.411311, 1.820881 ], [ 103.421749, 1.815313 ], [ 103.442627, 1.787476 ], [ 103.409223, 1.760336 ], [ 103.373731, 1.72206 ], [ 103.367441, 1.711052 ], [ 103.31639, 1.741453 ], [ 103.304874, 1.746433 ], [ 103.304073, 1.746779 ], [ 103.254806, 1.769082 ], [ 103.224098, 1.774511 ], [ 103.219398, 1.773581 ], [ 103.193497, 1.783329 ], [ 103.184615, 1.77756 ], [ 103.15817, 1.757726 ], [ 103.156431, 1.749027 ], [ 103.14634, 1.737196 ], [ 103.140424, 1.710751 ], [ 103.123027, 1.715623 ], [ 103.1105, 1.72293 ], [ 103.117459, 1.731977 ], [ 103.092058, 1.746591 ], [ 103.073268, 1.745895 ], [ 103.060903, 1.749442 ], [ 103.061569, 1.754768 ], [ 103.051915, 1.755434 ], [ 103.048586, 1.761759 ], [ 103.05358, 1.77341 ], [ 103.06402, 1.783882 ], [ 103.069478, 1.798209 ], [ 103.078348, 1.806055 ], [ 103.086696, 1.805554 ], [ 103.098186, 1.806365 ], [ 103.105808, 1.801109 ] ] ] } },
{ "type": "Feature", "properties": { "state": "Johor", "parlimen": "P.110 Semerah", "code_parlimen": "P.110", "dun": "N.23 Sri Menanti", "code_dun": "N.23" }, "geometry": { "type": "Polygon", "coordinates": [ [ [ 102.781366, 1.977466 ], [ 102.784362, 1.968146 ], [ 102.798343, 1.960489 ], [ 102.805999, 1.959158 ], [ 102.813655, 1.951834 ], [ 102.818922, 1.938241 ], [ 102.828302, 1.931861 ], [ 102.833249, 1.924596 ], [ 102.839389, 1.906858 ], [ 102.835637, 1.894918 ], [ 102.841284, 1.886922 ], [ 102.834627, 1.871943 ], [ 102.829301, 1.861623 ], [ 102.827958, 1.849205 ], [ 102.812581, 1.856485 ], [ 102.775227, 1.864699 ], [ 102.744223, 1.867406 ], [ 102.729654, 1.865539 ], [ 102.723304, 1.861245 ], [ 102.710417, 1.851352 ], [ 102.683335, 1.871139 ], [ 102.659507, 1.906075 ], [ 102.668402, 1.911844 ], [ 102.700934, 1.936154 ], [ 102.735254, 1.963681 ], [ 102.743834, 1.962966 ], [ 102.765641, 1.977981 ], [ 102.775293, 1.980841 ], [ 102.779368, 1.986121 ], [ 102.781366, 1.977466 ] ] ] } },
{ "type": "Feature", "properties": { "state": "Johor", "parlimen": "P.110 Semerah", "code_parlimen": "P.110", "dun": "N.24 Peserai", "code_dun": "N.24" }, "geometry": { "type": "Polygon", "coordinates": [ [ [ 102.863506, 1.995856 ], [ 102.880666, 1.986561 ], [ 102.883526, 1.970831 ], [ 102.898541, 1.970831 ], [ 102.924281, 1.975121 ], [ 102.932235, 1.970295 ], [ 102.931079, 1.957826 ], [ 102.937404, 1.92587 ], [ 102.944062, 1.911223 ], [ 102.94144, 1.904337 ], [ 102.929286, 1.900762 ], [ 102.912105, 1.889419 ], [ 102.916773, 1.873234 ], [ 102.930358, 1.86108 ], [ 102.936156, 1.866284 ], [ 102.934658, 1.85713 ], [ 102.939651, 1.854633 ], [ 102.933493, 1.842316 ], [ 102.928666, 1.843648 ], [ 102.924505, 1.834327 ], [ 102.918513, 1.829334 ], [ 102.906113, 1.828335 ], [ 102.900454, 1.82251 ], [ 102.895294, 1.82018 ], [ 102.886917, 1.812429 ], [ 102.848068, 1.839684 ], [ 102.827958, 1.849205 ], [ 102.829301, 1.861623 ], [ 102.834627, 1.871943 ], [ 102.841284, 1.886922 ], [ 102.835637, 1.894918 ], [ 102.839389, 1.906858 ], [ 102.833249, 1.924596 ], [ 102.828302, 1.931861 ], [ 102.818922, 1.938241 ], [ 102.813655, 1.951834 ], [ 102.805999, 1.959158 ], [ 102.815601, 1.981556 ], [ 102.831331, 2.003721 ], [ 102.843486, 2.000146 ], [ 102.863506, 1.995856 ] ] ] } },
{ "type": "Feature", "properties": { "state": "Johor", "parlimen": "P.111 Batu Pahat", "code_parlimen": "P.111", "dun": "N.25 Bandar Penggaram", "code_dun": "N.25" }, "geometry": { "type": "Polygon", "coordinates": [ [ [ 103.086696, 1.805554 ], [ 103.078348, 1.806055 ], [ 103.069478, 1.798209 ], [ 103.06402, 1.783882 ], [ 103.05358, 1.77341 ], [ 103.048586, 1.761759 ], [ 103.051915, 1.755434 ], [ 103.061569, 1.754768 ], [ 103.060903, 1.749442 ], [ 103.053912, 1.73413 ], [ 103.057241, 1.725808 ], [ 103.058906, 1.721147 ], [ 103.054824, 1.712109 ], [ 103.052024, 1.714047 ], [ 103.003463, 1.735329 ], [ 102.975074, 1.742797 ], [ 102.95677, 1.74205 ], [ 102.936598, 1.736823 ], [ 102.885423, 1.791708 ], [ 102.886917, 1.812429 ], [ 102.895294, 1.82018 ], [ 102.900454, 1.82251 ], [ 102.906113, 1.828335 ], [ 102.918513, 1.829334 ], [ 102.924505, 1.834327 ], [ 102.928666, 1.843648 ], [ 102.933493, 1.842316 ], [ 102.939651, 1.854633 ], [ 102.934658, 1.85713 ], [ 102.936156, 1.866284 ], [ 102.930358, 1.86108 ], [ 102.916773, 1.873234 ], [ 102.912105, 1.889419 ], [ 102.929286, 1.900762 ], [ 102.94144, 1.904337 ], [ 102.944062, 1.911223 ], [ 102.953382, 1.905231 ], [ 102.968695, 1.903234 ], [ 102.98434, 1.889253 ], [ 102.993994, 1.886922 ], [ 102.995924, 1.883706 ], [ 103.000568, 1.885591 ], [ 103.004896, 1.88842 ], [ 103.010555, 1.888587 ], [ 103.016204, 1.88509 ], [ 103.014115, 1.857938 ], [ 103.04404, 1.853763 ], [ 103.077792, 1.847847 ], [ 103.086696, 1.805554 ] ] ] } },
{ "type": "Feature", "properties": { "state": "Johor", "parlimen": "P.111 Batu Pahat", "code_parlimen": "P.111", "dun": "N.26 Rengit", "code_dun": "N.26" }, "geometry": { "type": "Polygon", "coordinates": [ [ [ 103.21628, 1.743112 ], [ 103.212154, 1.738939 ], [ 103.206247, 1.728804 ], [ 103.197925, 1.69718 ], [ 103.203455, 1.688111 ], [ 103.209937, 1.679583 ], [ 103.212905, 1.671215 ], [ 103.214237, 1.65324 ], [ 103.215054, 1.638648 ], [ 103.214902, 1.631269 ], [ 103.212905, 1.621949 ], [ 103.209867, 1.613572 ], [ 103.185006, 1.623314 ], [ 103.136072, 1.652438 ], [ 103.08116, 1.693884 ], [ 103.054824, 1.712109 ], [ 103.058906, 1.721147 ], [ 103.057241, 1.725808 ], [ 103.053912, 1.73413 ], [ 103.060903, 1.749442 ], [ 103.073268, 1.745895 ], [ 103.092058, 1.746591 ], [ 103.117459, 1.731977 ], [ 103.1105, 1.72293 ], [ 103.123027, 1.715623 ], [ 103.140424, 1.710751 ], [ 103.14634, 1.737196 ], [ 103.156431, 1.749027 ], [ 103.15817, 1.757726 ], [ 103.184615, 1.77756 ], [ 103.193497, 1.783329 ], [ 103.219398, 1.773581 ], [ 103.224098, 1.774511 ], [ 103.226718, 1.766773 ], [ 103.21628, 1.743112 ] ] ] } },
{ "type": "Feature", "properties": { "state": "Johor", "parlimen": "P.112 Pontian", "code_parlimen": "P.112", "dun": "N.27 Benut", "code_dun": "N.27" }, "geometry": { "type": "Polygon", "coordinates": [ [ [ 103.226718, 1.766773 ], [ 103.224098, 1.774511 ], [ 103.254806, 1.769082 ], [ 103.304073, 1.746779 ], [ 103.304874, 1.746433 ], [ 103.31639, 1.741453 ], [ 103.367441, 1.711052 ], [ 103.378998, 1.70417 ], [ 103.42158, 1.662227 ], [ 103.416232, 1.647944 ], [ 103.405602, 1.637594 ], [ 103.404975, 1.630887 ], [ 103.396788, 1.623041 ], [ 103.382802, 1.617242 ], [ 103.375638, 1.615196 ], [ 103.374274, 1.601892 ], [ 103.378708, 1.594728 ], [ 103.370862, 1.584153 ], [ 103.36711, 1.575966 ], [ 103.375297, 1.563686 ], [ 103.395082, 1.548335 ], [ 103.393377, 1.538101 ], [ 103.387626, 1.528742 ], [ 103.371606, 1.514634 ], [ 103.370471, 1.517267 ], [ 103.35609, 1.537618 ], [ 103.335171, 1.555541 ], [ 103.287918, 1.582987 ], [ 103.209867, 1.613572 ], [ 103.212905, 1.621949 ], [ 103.214902, 1.631269 ], [ 103.215054, 1.638648 ], [ 103.214237, 1.65324 ], [ 103.212905, 1.671215 ], [ 103.209937, 1.679583 ], [ 103.203455, 1.688111 ], [ 103.197925, 1.69718 ], [ 103.206247, 1.728804 ], [ 103.212154, 1.738939 ], [ 103.21628, 1.743112 ], [ 103.226718, 1.766773 ] ] ] } },
{ "type": "Feature", "properties": { "state": "Johor", "parlimen": "P.112 Pontian", "code_parlimen": "P.112", "dun": "N.28 Kukup", "code_dun": "N.28" }, "geometry": { "type": "MultiPolygon", "coordinates": [ [ [ [ 103.437407, 1.325735 ], [ 103.439147, 1.321733 ], [ 103.437755, 1.316862 ], [ 103.436712, 1.313034 ], [ 103.42923, 1.310077 ], [ 103.426969, 1.307641 ], [ 103.421575, 1.305901 ], [ 103.418096, 1.308337 ], [ 103.41653, 1.3146 ], [ 103.418792, 1.322081 ], [ 103.419836, 1.329214 ], [ 103.418096, 1.33687 ], [ 103.418792, 1.338609 ], [ 103.424011, 1.33687 ], [ 103.431318, 1.33165 ], [ 103.437407, 1.325735 ] ] ], [ [ [ 103.494125, 1.345221 ], [ 103.489949, 1.333738 ], [ 103.496213, 1.331302 ], [ 103.501432, 1.340349 ], [ 103.511175, 1.337218 ], [ 103.509783, 1.330954 ], [ 103.515002, 1.329214 ], [ 103.513263, 1.321559 ], [ 103.517786, 1.31808 ], [ 103.523353, 1.324343 ], [ 103.527529, 1.323299 ], [ 103.526155, 1.31753 ], [ 103.523531, 1.315801 ], [ 103.513072, 1.301236 ], [ 103.510644, 1.283684 ], [ 103.514006, 1.262397 ], [ 103.506535, 1.261464 ], [ 103.487297, 1.281444 ], [ 103.471422, 1.301423 ], [ 103.453118, 1.317481 ], [ 103.440604, 1.322336 ], [ 103.431452, 1.353892 ], [ 103.4322, 1.358373 ], [ 103.414083, 1.395157 ], [ 103.407732, 1.43026 ], [ 103.387934, 1.476751 ], [ 103.371606, 1.514634 ], [ 103.387626, 1.528742 ], [ 103.393377, 1.538101 ], [ 103.395082, 1.548335 ], [ 103.409888, 1.554457 ], [ 103.418194, 1.552002 ], [ 103.433023, 1.550795 ], [ 103.443607, 1.55149 ], [ 103.443842, 1.546301 ], [ 103.44717, 1.531988 ], [ 103.450678, 1.525364 ], [ 103.473413, 1.532174 ], [ 103.47175, 1.519595 ], [ 103.463734, 1.510726 ], [ 103.468142, 1.506023 ], [ 103.467143, 1.497368 ], [ 103.46868, 1.485312 ], [ 103.474479, 1.479001 ], [ 103.472432, 1.472349 ], [ 103.47482, 1.462798 ], [ 103.463814, 1.457921 ], [ 103.463315, 1.448934 ], [ 103.46448, 1.442442 ], [ 103.464331, 1.434229 ], [ 103.451197, 1.432352 ], [ 103.451539, 1.426553 ], [ 103.461602, 1.427577 ], [ 103.468308, 1.428794 ], [ 103.467571, 1.420925 ], [ 103.477464, 1.422801 ], [ 103.476782, 1.414955 ], [ 103.465866, 1.41342 ], [ 103.457823, 1.382857 ], [ 103.461984, 1.379694 ], [ 103.476297, 1.375034 ], [ 103.471926, 1.363913 ], [ 103.489949, 1.356703 ], [ 103.487166, 1.347656 ], [ 103.494125, 1.345221 ] ] ] ] } },
{ "type": "Feature", "properties": { "state": "Johor", "parlimen": "P.113 Pulai", "code_parlimen": "P.113", "dun": "N.29 Gelang Patah", "code_dun": "N.29" }, "geometry": { "type": "Polygon", "coordinates": [ [ [ 103.647966, 1.485122 ], [ 103.651446, 1.482164 ], [ 103.654577, 1.485644 ], [ 103.658057, 1.479554 ], [ 103.656143, 1.471551 ], [ 103.650054, 1.471899 ], [ 103.648314, 1.46668 ], [ 103.642921, 1.467898 ], [ 103.639267, 1.473117 ], [ 103.63457, 1.472247 ], [ 103.636657, 1.465114 ], [ 103.639789, 1.451718 ], [ 103.639441, 1.440757 ], [ 103.637179, 1.433102 ], [ 103.643269, 1.426491 ], [ 103.648836, 1.425621 ], [ 103.647618, 1.43258 ], [ 103.655969, 1.438147 ], [ 103.662406, 1.435886 ], [ 103.663798, 1.439365 ], [ 103.666234, 1.438843 ], [ 103.668844, 1.443541 ], [ 103.672949, 1.436981 ], [ 103.667159, 1.421111 ], [ 103.650163, 1.403373 ], [ 103.646428, 1.388809 ], [ 103.637276, 1.373871 ], [ 103.60347, 1.343996 ], [ 103.54557, 1.352398 ], [ 103.537913, 1.359494 ], [ 103.548185, 1.332046 ], [ 103.526155, 1.31753 ], [ 103.527529, 1.323299 ], [ 103.523353, 1.324343 ], [ 103.517786, 1.31808 ], [ 103.513263, 1.321559 ], [ 103.515002, 1.329214 ], [ 103.509783, 1.330954 ], [ 103.511175, 1.337218 ], [ 103.501432, 1.340349 ], [ 103.496213, 1.331302 ], [ 103.489949, 1.333738 ], [ 103.494125, 1.345221 ], [ 103.487166, 1.347656 ], [ 103.489949, 1.356703 ], [ 103.471926, 1.363913 ], [ 103.476297, 1.375034 ], [ 103.461984, 1.379694 ], [ 103.457823, 1.382857 ], [ 103.465866, 1.41342 ], [ 103.476782, 1.414955 ], [ 103.477464, 1.422801 ], [ 103.467571, 1.420925 ], [ 103.468308, 1.428794 ], [ 103.461602, 1.427577 ], [ 103.451539, 1.426553 ], [ 103.451197, 1.432352 ], [ 103.464331, 1.434229 ], [ 103.46448, 1.442442 ], [ 103.463315, 1.448934 ], [ 103.463814, 1.457921 ], [ 103.47482, 1.462798 ], [ 103.472432, 1.472349 ], [ 103.474479, 1.479001 ], [ 103.46868, 1.485312 ], [ 103.467143, 1.497368 ], [ 103.468142, 1.506023 ], [ 103.463734, 1.510726 ], [ 103.47175, 1.519595 ], [ 103.473413, 1.532174 ], [ 103.450678, 1.525364 ], [ 103.44717, 1.531988 ], [ 103.443842, 1.546301 ], [ 103.443607, 1.55149 ], [ 103.433023, 1.550795 ], [ 103.418194, 1.552002 ], [ 103.409888, 1.554457 ], [ 103.395082, 1.548335 ], [ 103.375297, 1.563686 ], [ 103.36711, 1.575966 ], [ 103.370862, 1.584153 ], [ 103.378708, 1.594728 ], [ 103.374274, 1.601892 ], [ 103.375638, 1.615196 ], [ 103.382802, 1.617242 ], [ 103.396788, 1.623041 ], [ 103.404975, 1.630887 ], [ 103.405602, 1.637594 ], [ 103.416232, 1.647944 ], [ 103.42158, 1.662227 ], [ 103.448031, 1.635885 ], [ 103.494797, 1.589311 ], [ 103.498901, 1.584709 ], [ 103.504196, 1.584611 ], [ 103.50763, 1.583667 ], [ 103.507963, 1.57701 ], [ 103.508129, 1.570352 ], [ 103.506798, 1.563528 ], [ 103.509794, 1.558202 ], [ 103.51279, 1.544387 ], [ 103.518282, 1.535566 ], [ 103.525273, 1.532736 ], [ 103.533262, 1.526578 ], [ 103.532854, 1.518614 ], [ 103.542747, 1.517932 ], [ 103.544452, 1.522196 ], [ 103.553068, 1.521585 ], [ 103.557729, 1.522251 ], [ 103.560725, 1.523249 ], [ 103.565218, 1.525746 ], [ 103.567216, 1.526412 ], [ 103.570545, 1.526578 ], [ 103.573041, 1.526079 ], [ 103.575371, 1.519754 ], [ 103.574872, 1.503443 ], [ 103.579723, 1.512241 ], [ 103.58355, 1.510501 ], [ 103.58877, 1.503194 ], [ 103.58877, 1.528247 ], [ 103.597469, 1.531379 ], [ 103.604428, 1.529639 ], [ 103.615215, 1.516416 ], [ 103.621826, 1.522332 ], [ 103.629133, 1.521636 ], [ 103.63644, 1.528595 ], [ 103.649662, 1.51572 ], [ 103.643051, 1.508761 ], [ 103.650706, 1.497279 ], [ 103.64727, 1.488601 ], [ 103.647966, 1.485122 ] ] ] } },
{ "type": "Feature", "properties": { "state": "Johor", "parlimen": "P.113 Pulai", "code_parlimen": "P.113", "dun": "N.30 Skudai", "code_dun": "N.30" }, "geometry": { "type": "Polygon", "coordinates": [ [ [ 103.776841, 1.524593 ], [ 103.765359, 1.538164 ], [ 103.755964, 1.535032 ], [ 103.756312, 1.528421 ], [ 103.764315, 1.522158 ], [ 103.76295, 1.515676 ], [ 103.75313, 1.520503 ], [ 103.74847, 1.521502 ], [ 103.741812, 1.52067 ], [ 103.738351, 1.518788 ], [ 103.734156, 1.516509 ], [ 103.732658, 1.505191 ], [ 103.741146, 1.486882 ], [ 103.748636, 1.482721 ], [ 103.752131, 1.491542 ], [ 103.756792, 1.493706 ], [ 103.756997, 1.453599 ], [ 103.731036, 1.45976 ], [ 103.720763, 1.465735 ], [ 103.708249, 1.461254 ], [ 103.695175, 1.455653 ], [ 103.696296, 1.451172 ], [ 103.687891, 1.445197 ], [ 103.687891, 1.441836 ], [ 103.682288, 1.442583 ], [ 103.672949, 1.436981 ], [ 103.668844, 1.443541 ], [ 103.666234, 1.438843 ], [ 103.663798, 1.439365 ], [ 103.662406, 1.435886 ], [ 103.655969, 1.438147 ], [ 103.647618, 1.43258 ], [ 103.648836, 1.425621 ], [ 103.643269, 1.426491 ], [ 103.637179, 1.433102 ], [ 103.639441, 1.440757 ], [ 103.639789, 1.451718 ], [ 103.636657, 1.465114 ], [ 103.63457, 1.472247 ], [ 103.639267, 1.473117 ], [ 103.642921, 1.467898 ], [ 103.648314, 1.46668 ], [ 103.650054, 1.471899 ], [ 103.656143, 1.471551 ], [ 103.658057, 1.479554 ], [ 103.654577, 1.485644 ], [ 103.651446, 1.482164 ], [ 103.647966, 1.485122 ], [ 103.64727, 1.488601 ], [ 103.650706, 1.497279 ], [ 103.656622, 1.501802 ], [ 103.666364, 1.498323 ], [ 103.67228, 1.501802 ], [ 103.678891, 1.499366 ], [ 103.683599, 1.506272 ], [ 103.686263, 1.511765 ], [ 103.685264, 1.514594 ], [ 103.68077, 1.52042 ], [ 103.679272, 1.52558 ], [ 103.682268, 1.529574 ], [ 103.686928, 1.537064 ], [ 103.691921, 1.546218 ], [ 103.70041, 1.546551 ], [ 103.695071, 1.553648 ], [ 103.692983, 1.561651 ], [ 103.686372, 1.565479 ], [ 103.689156, 1.573134 ], [ 103.695071, 1.575221 ], [ 103.70029, 1.566522 ], [ 103.705858, 1.565131 ], [ 103.712469, 1.557476 ], [ 103.725344, 1.568262 ], [ 103.713861, 1.56861 ], [ 103.714905, 1.578701 ], [ 103.704118, 1.597143 ], [ 103.691713, 1.611629 ], [ 103.700035, 1.616956 ], [ 103.69654, 1.62378 ], [ 103.717345, 1.639591 ], [ 103.731234, 1.647426 ], [ 103.734901, 1.64215 ], [ 103.757328, 1.64169 ], [ 103.754462, 1.592572 ], [ 103.759288, 1.592738 ], [ 103.760786, 1.596067 ], [ 103.765613, 1.598897 ], [ 103.777597, 1.5964 ], [ 103.780426, 1.590075 ], [ 103.786085, 1.577093 ], [ 103.795406, 1.564277 ], [ 103.799401, 1.555456 ], [ 103.792077, 1.549131 ], [ 103.786585, 1.543805 ], [ 103.784088, 1.538479 ], [ 103.781365, 1.532249 ], [ 103.776841, 1.524593 ] ] ] } },
{ "type": "Feature", "properties": { "state": "Johor", "parlimen": "P.114 Johor Bahru", "code_parlimen": "P.114", "dun": "N.31 Tiram", "code_dun": "N.31" }, "geometry": { "type": "Polygon", "coordinates": [ [ [ 103.833037, 1.689526 ], [ 103.821902, 1.706924 ], [ 103.858786, 1.731977 ], [ 103.867833, 1.72293 ], [ 103.871312, 1.709012 ], [ 103.888014, 1.70762 ], [ 103.898453, 1.693006 ], [ 103.891494, 1.660993 ], [ 103.893582, 1.652642 ], [ 103.900597, 1.65598 ], [ 103.902298, 1.66024 ], [ 103.902397, 1.664039 ], [ 103.903603, 1.670831 ], [ 103.9049, 1.672791 ], [ 103.908211, 1.673972 ], [ 103.912598, 1.672461 ], [ 103.922096, 1.663599 ], [ 103.925011, 1.661352 ], [ 103.925179, 1.66111 ], [ 103.928392, 1.656485 ], [ 103.941208, 1.652491 ], [ 103.949863, 1.65016 ], [ 103.96684, 1.644834 ], [ 103.970668, 1.641173 ], [ 103.972, 1.638343 ], [ 103.972998, 1.627524 ], [ 103.972832, 1.615041 ], [ 103.982985, 1.588411 ], [ 104.012944, 1.565775 ], [ 104.023263, 1.521169 ], [ 104.02783, 1.452675 ], [ 104.018479, 1.453785 ], [ 104.006712, 1.44669 ], [ 103.988782, 1.4325 ], [ 103.969544, 1.426525 ], [ 103.954789, 1.427272 ], [ 103.922478, 1.434554 ], [ 103.92061, 1.429886 ], [ 103.888111, 1.436048 ], [ 103.866446, 1.465922 ], [ 103.815083, 1.484593 ], [ 103.804251, 1.481792 ], [ 103.794725, 1.48534 ], [ 103.791332, 1.480416 ], [ 103.791499, 1.488253 ], [ 103.785584, 1.494517 ], [ 103.774797, 1.502172 ], [ 103.76295, 1.515676 ], [ 103.764315, 1.522158 ], [ 103.756312, 1.528421 ], [ 103.755964, 1.535032 ], [ 103.765359, 1.538164 ], [ 103.776841, 1.524593 ], [ 103.781365, 1.532249 ], [ 103.784088, 1.538479 ], [ 103.786585, 1.543805 ], [ 103.792077, 1.549131 ], [ 103.799401, 1.555456 ], [ 103.795406, 1.564277 ], [ 103.786085, 1.577093 ], [ 103.780426, 1.590075 ], [ 103.777597, 1.5964 ], [ 103.765613, 1.598897 ], [ 103.760786, 1.596067 ], [ 103.759288, 1.592738 ], [ 103.754462, 1.592572 ], [ 103.757328, 1.64169 ], [ 103.776802, 1.641291 ], [ 103.780899, 1.639461 ], [ 103.783627, 1.663777 ], [ 103.833037, 1.689526 ] ] ] } },
{ "type": "Feature", "properties": { "state": "Johor", "parlimen": "P.114 Johor Bahru", "code_parlimen": "P.114", "dun": "N.32 Tanjong Petri", "code_dun": "N.32" }, "geometry": { "type": "Polygon", "coordinates": [ [ [ 103.756997, 1.453599 ], [ 103.756792, 1.493706 ], [ 103.752131, 1.491542 ], [ 103.748636, 1.482721 ], [ 103.741146, 1.486882 ], [ 103.732658, 1.505191 ], [ 103.734156, 1.516509 ], [ 103.738351, 1.518788 ], [ 103.741812, 1.52067 ], [ 103.74847, 1.521502 ], [ 103.75313, 1.520503 ], [ 103.76295, 1.515676 ], [ 103.774797, 1.502172 ], [ 103.785584, 1.494517 ], [ 103.791499, 1.488253 ], [ 103.791332, 1.480416 ], [ 103.788935, 1.476938 ], [ 103.769643, 1.457821 ], [ 103.767643, 1.455839 ], [ 103.756997, 1.453599 ] ] ] } }
]
}
