{
"type": "FeatureCollection",
"name": "KTN_SE-02",
"crs": { "type": "name", "properties": { "name": "urn:ogc:def:crs:OGC:1.3:CRS84" } },
"features": [
{ "type": "Feature", "properties": { "state": "Kelantan", "parlimen": "P.015 Tumpat", "code_parlimen": "P.015", "dun": "N.01 Tumpat Barat", "code_dun": "N.01" }, "geometry": { "type": "Polygon", "coordinates": [ [ [ 102.148718, 6.196067 ], [ 102.144123, 6.182936 ], [ 102.144123, 6.173744 ], [ 102.134931, 6.169805 ], [ 102.14084, 6.1593 ], [ 102.153971, 6.154047 ], [ 102.163163, 6.144199 ], [ 102.170385, 6.13435 ], [ 102.163163, 6.13435 ], [ 102.167102, 6.124502 ], [ 102.171997, 6.11182 ], [ 102.169296, 6.111581 ], [ 102.166, 6.111339 ], [ 102.162003, 6.110872 ], [ 102.159103, 6.110861 ], [ 102.155296, 6.110501 ], [ 102.152702, 6.111419 ], [ 102.150803, 6.113021 ], [ 102.148499, 6.115321 ], [ 102.146103, 6.117609 ], [ 102.142197, 6.120481 ], [ 102.139, 6.12191 ], [ 102.135597, 6.12305 ], [ 102.127403, 6.126361 ], [ 102.125839, 6.130491 ], [ 102.1259, 6.13396 ], [ 102.130997, 6.135651 ], [ 102.133698, 6.135651 ], [ 102.137299, 6.13889 ], [ 102.135399, 6.141989 ], [ 102.1334, 6.14325 ], [ 102.131203, 6.14417 ], [ 102.127899, 6.145422 ], [ 102.125801, 6.145991 ], [ 102.121101, 6.147022 ], [ 102.114197, 6.14815 ], [ 102.111603, 6.148141 ], [ 102.1063, 6.14766 ], [ 102.100502, 6.148619 ], [ 102.095001, 6.150219 ], [ 102.093201, 6.15021 ], [ 102.093033, 6.148701 ], [ 102.092691, 6.14828 ], [ 102.09013, 6.150273 ], [ 102.091466, 6.154259 ], [ 102.089685, 6.15913 ], [ 102.085453, 6.157137 ], [ 102.083226, 6.161123 ], [ 102.085008, 6.164666 ], [ 102.082113, 6.171308 ], [ 102.07944, 6.171973 ], [ 102.082113, 6.182601 ], [ 102.078772, 6.189243 ], [ 102.081444, 6.225554 ], [ 102.093248, 6.235074 ], [ 102.095698, 6.245258 ], [ 102.120196, 6.22489 ], [ 102.142221, 6.217363 ], [ 102.15583, 6.212713 ], [ 102.148718, 6.196067 ] ] ] } },
{ "type": "Feature", "properties": { "state": "Kelantan", "parlimen": "P.015 Tumpat", "code_parlimen": "P.015", "dun": "N.02 Tumpat Tengah", "code_dun": "N.02" }, "geometry": { "type": "Polygon", "coordinates": [ [ [ 102.203214, 6.150764 ], [ 102.188112, 6.150764 ], [ 102.177607, 6.141572 ], [ 102.170385, 6.13435 ], [ 102.163163, 6.144199 ], [ 102.153971, 6.154047 ], [ 102.14084, 6.1593 ], [ 102.134931, 6.169805 ], [ 102.144123, 6.173744 ], [ 102.144123, 6.182936 ], [ 102.148718, 6.196067 ], [ 102.15583, 6.212713 ], [ 102.166298, 6.226661 ], [ 102.175149, 6.2264 ], [ 102.18024, 6.21937 ], [ 102.198415, 6.189473 ], [ 102.205264, 6.173932 ], [ 102.203025, 6.168005 ], [ 102.202761, 6.164581 ], [ 102.207766, 6.162473 ], [ 102.203214, 6.150764 ] ] ] } },
{ "type": "Feature", "properties": { "state": "Kelantan", "parlimen": "P.015 Tumpat", "code_parlimen": "P.015", "dun": "N.03 Tumpat Timor", "code_dun": "N.03" }, "geometry": { "type": "Polygon", "coordinates": [ [ [ 102.177607, 6.141572 ], [ 102.188112, 6.150764 ], [ 102.203214, 6.150764 ], [ 102.207766, 6.162473 ], [ 102.213396, 6.161211 ], [ 102.223044, 6.159049 ], [ 102.239403, 6.151819 ], [ 102.238503, 6.14975 ], [ 102.235603, 6.14461 ], [ 102.234497, 6.14196 ], [ 102.233002, 6.135102 ], [ 102.230671, 6.12251 ], [ 102.229301, 6.115111 ], [ 102.224899, 6.105831 ], [ 102.223701, 6.10318 ], [ 102.222099, 6.09557 ], [ 102.221901, 6.091251 ], [ 102.222183, 6.08437 ], [ 102.218193, 6.08445 ], [ 102.215797, 6.084731 ], [ 102.207497, 6.086481 ], [ 102.1968, 6.090711 ], [ 102.194603, 6.09209 ], [ 102.190201, 6.09495 ], [ 102.189003, 6.096851 ], [ 102.188202, 6.09926 ], [ 102.1875, 6.101681 ], [ 102.186501, 6.104331 ], [ 102.183098, 6.108231 ], [ 102.176498, 6.11092 ], [ 102.174301, 6.111481 ], [ 102.171997, 6.11182 ], [ 102.167102, 6.124502 ], [ 102.163163, 6.13435 ], [ 102.170385, 6.13435 ], [ 102.177607, 6.141572 ] ] ] } },
{ "type": "Feature", "properties": { "state": "Kelantan", "parlimen": "P.016 Kelantan Hilir", "code_parlimen": "P.016", "dun": "N.04 Kuala Kelantan", "code_dun": "N.04" }, "geometry": { "type": "Polygon", "coordinates": [ [ [ 102.258365, 6.18031 ], [ 102.249173, 6.170461 ], [ 102.236042, 6.157986 ], [ 102.223044, 6.159049 ], [ 102.213396, 6.161211 ], [ 102.207766, 6.162473 ], [ 102.202761, 6.164581 ], [ 102.203025, 6.168005 ], [ 102.205264, 6.173932 ], [ 102.198415, 6.189473 ], [ 102.18024, 6.21937 ], [ 102.175149, 6.2264 ], [ 102.222644, 6.225 ], [ 102.269951, 6.199108 ], [ 102.258365, 6.18031 ] ] ] } },
{ "type": "Feature", "properties": { "state": "Kelantan", "parlimen": "P.016 Kelantan Hilir", "code_parlimen": "P.016", "dun": "N.05 Kota Bharu Utara", "code_dun": "N.05" }, "geometry": { "type": "Polygon", "coordinates": [ [ [ 102.284628, 6.173088 ], [ 102.283315, 6.156673 ], [ 102.288567, 6.138289 ], [ 102.295133, 6.126471 ], [ 102.287447, 6.109397 ], [ 102.277437, 6.116377 ], [ 102.267823, 6.119406 ], [ 102.25913, 6.125069 ], [ 102.256101, 6.131918 ], [ 102.249516, 6.144957 ], [ 102.243721, 6.149962 ], [ 102.239403, 6.151819 ], [ 102.223044, 6.159049 ], [ 102.236042, 6.157986 ], [ 102.249173, 6.170461 ], [ 102.258365, 6.18031 ], [ 102.269951, 6.199108 ], [ 102.282108, 6.192454 ], [ 102.299151, 6.185995 ], [ 102.284628, 6.173088 ] ] ] } },
{ "type": "Feature", "properties": { "state": "Kelantan", "parlimen": "P.016 Kelantan Hilir", "code_parlimen": "P.016", "dun": "N.06 Kota Bharu Pantai", "code_dun": "N.06" }, "geometry": { "type": "Polygon", "coordinates": [ [ [ 102.295133, 6.126471 ], [ 102.288567, 6.138289 ], [ 102.283315, 6.156673 ], [ 102.284628, 6.173088 ], [ 102.299151, 6.185995 ], [ 102.304602, 6.183929 ], [ 102.304936, 6.18714 ], [ 102.325537, 6.180608 ], [ 102.344356, 6.168873 ], [ 102.339096, 6.16244 ], [ 102.337097, 6.13416 ], [ 102.338501, 6.116841 ], [ 102.3339, 6.11141 ], [ 102.329399, 6.11059 ], [ 102.320099, 6.10976 ], [ 102.315903, 6.10865 ], [ 102.311096, 6.10587 ], [ 102.309303, 6.1031 ], [ 102.308601, 6.098841 ], [ 102.308601, 6.096069 ], [ 102.309303, 6.093601 ], [ 102.311798, 6.090841 ], [ 102.313896, 6.08889 ], [ 102.318529, 6.085558 ], [ 102.309837, 6.081212 ], [ 102.302329, 6.079632 ], [ 102.296403, 6.079632 ], [ 102.294164, 6.082134 ], [ 102.29232, 6.093724 ], [ 102.287447, 6.109397 ], [ 102.295133, 6.126471 ] ] ] } },
{ "type": "Feature", "properties": { "state": "Kelantan", "parlimen": "P.017 Pasir Mas Hilir", "code_parlimen": "P.017", "dun": "N.07 Meranti", "code_dun": "N.07" }, "geometry": { "type": "Polygon", "coordinates": [ [ [ 102.104072, 6.137633 ], [ 102.108011, 6.120562 ], [ 102.11392, 6.108744 ], [ 102.129021, 6.101522 ], [ 102.14084, 6.089047 ], [ 102.150688, 6.081825 ], [ 102.153314, 6.074603 ], [ 102.148718, 6.070663 ], [ 102.138213, 6.065411 ], [ 102.123769, 6.064097 ], [ 102.11983, 6.068693 ], [ 102.11392, 6.084451 ], [ 102.104072, 6.083794 ], [ 102.097506, 6.077229 ], [ 102.090284, 6.062128 ], [ 102.090944, 6.043578 ], [ 102.074745, 6.032778 ], [ 102.05894, 6.025929 ], [ 102.048668, 6.026193 ], [ 102.045011, 6.027602 ], [ 102.036024, 6.031066 ], [ 102.026014, 6.040022 ], [ 102.01786, 6.051506 ], [ 102.024319, 6.063022 ], [ 102.037459, 6.072988 ], [ 102.054385, 6.079189 ], [ 102.06218, 6.103992 ], [ 102.069084, 6.108864 ], [ 102.092691, 6.14828 ], [ 102.093033, 6.148701 ], [ 102.093201, 6.15021 ], [ 102.095001, 6.150219 ], [ 102.100502, 6.148619 ], [ 102.104072, 6.137633 ] ] ] } },
{ "type": "Feature", "properties": { "state": "Kelantan", "parlimen": "P.017 Pasir Mas Hilir", "code_parlimen": "P.017", "dun": "N.08 Tendong", "code_dun": "N.08" }, "geometry": { "type": "Polygon", "coordinates": [ [ [ 102.171698, 6.049653 ], [ 102.169729, 6.058845 ], [ 102.169072, 6.066724 ], [ 102.161193, 6.07132 ], [ 102.153314, 6.074603 ], [ 102.150688, 6.081825 ], [ 102.14084, 6.089047 ], [ 102.129021, 6.101522 ], [ 102.11392, 6.108744 ], [ 102.108011, 6.120562 ], [ 102.104072, 6.137633 ], [ 102.100502, 6.148619 ], [ 102.1063, 6.14766 ], [ 102.111603, 6.148141 ], [ 102.114197, 6.14815 ], [ 102.121101, 6.147022 ], [ 102.125801, 6.145991 ], [ 102.127899, 6.145422 ], [ 102.131203, 6.14417 ], [ 102.1334, 6.14325 ], [ 102.135399, 6.141989 ], [ 102.137299, 6.13889 ], [ 102.133698, 6.135651 ], [ 102.130997, 6.135651 ], [ 102.1259, 6.13396 ], [ 102.125839, 6.130491 ], [ 102.127403, 6.126361 ], [ 102.135597, 6.12305 ], [ 102.139, 6.12191 ], [ 102.142197, 6.120481 ], [ 102.146103, 6.117609 ], [ 102.148499, 6.115321 ], [ 102.150803, 6.113021 ], [ 102.152702, 6.111419 ], [ 102.155296, 6.110501 ], [ 102.159103, 6.110861 ], [ 102.162003, 6.110872 ], [ 102.166, 6.111339 ], [ 102.169296, 6.111581 ], [ 102.171997, 6.11182 ], [ 102.174301, 6.111481 ], [ 102.176498, 6.11092 ], [ 102.183098, 6.108231 ], [ 102.186501, 6.104331 ], [ 102.1875, 6.101681 ], [ 102.188202, 6.09926 ], [ 102.189003, 6.096851 ], [ 102.190201, 6.09495 ], [ 102.194603, 6.09209 ], [ 102.1968, 6.090711 ], [ 102.207497, 6.086481 ], [ 102.215797, 6.084731 ], [ 102.218193, 6.08445 ], [ 102.222183, 6.08437 ], [ 102.223198, 6.073121 ], [ 102.222789, 6.070013 ], [ 102.222099, 6.06477 ], [ 102.220703, 6.06234 ], [ 102.219696, 6.05992 ], [ 102.215996, 6.054901 ], [ 102.214203, 6.053511 ], [ 102.208, 6.04854 ], [ 102.203201, 6.045529 ], [ 102.194801, 6.04073 ], [ 102.191399, 6.0398 ], [ 102.183197, 6.037122 ], [ 102.180667, 6.037115 ], [ 102.175201, 6.037101 ], [ 102.171698, 6.049653 ] ] ] } },
{ "type": "Feature", "properties": { "state": "Kelantan", "parlimen": "P.017 Pasir Mas Hilir", "code_parlimen": "P.017", "dun": "N.09 Bandar Pasir Mas", "code_dun": "N.09" }, "geometry": { "type": "Polygon", "coordinates": [ [ [ 102.161193, 6.07132 ], [ 102.169072, 6.066724 ], [ 102.169729, 6.058845 ], [ 102.171698, 6.049653 ], [ 102.175201, 6.037101 ], [ 102.1688, 6.037541 ], [ 102.162498, 6.038321 ], [ 102.1577, 6.039232 ], [ 102.152702, 6.037951 ], [ 102.1502, 6.03587 ], [ 102.1493, 6.033441 ], [ 102.151802, 6.026259 ], [ 102.141651, 6.030276 ], [ 102.131114, 6.03449 ], [ 102.111227, 6.036729 ], [ 102.102403, 6.038178 ], [ 102.090944, 6.043578 ], [ 102.090284, 6.062128 ], [ 102.097506, 6.077229 ], [ 102.104072, 6.083794 ], [ 102.11392, 6.084451 ], [ 102.11983, 6.068693 ], [ 102.123769, 6.064097 ], [ 102.138213, 6.065411 ], [ 102.148718, 6.070663 ], [ 102.153314, 6.074603 ], [ 102.161193, 6.07132 ] ] ] } },
{ "type": "Feature", "properties": { "state": "Kelantan", "parlimen": "P.018 Kota Bharu Hilir", "code_parlimen": "P.018", "dun": "N.10 Bandar Hilir", "code_dun": "N.10" }, "geometry": { "type": "Polygon", "coordinates": [ [ [ 102.243264, 6.121219 ], [ 102.230671, 6.12251 ], [ 102.233002, 6.135102 ], [ 102.234497, 6.14196 ], [ 102.235603, 6.14461 ], [ 102.238503, 6.14975 ], [ 102.239403, 6.151819 ], [ 102.243721, 6.149962 ], [ 102.249516, 6.144957 ], [ 102.256101, 6.131918 ], [ 102.25913, 6.125069 ], [ 102.243264, 6.121219 ] ] ] } },
{ "type": "Feature", "properties": { "state": "Kelantan", "parlimen": "P.018 Kota Bharu Hilir", "code_parlimen": "P.018", "dun": "N.11 Bandar Hulu", "code_dun": "N.11" }, "geometry": { "type": "Polygon", "coordinates": [ [ [ 102.260335, 6.112683 ], [ 102.264931, 6.101522 ], [ 102.264274, 6.091017 ], [ 102.251799, 6.089704 ], [ 102.238012, 6.085108 ], [ 102.222183, 6.08437 ], [ 102.221901, 6.091251 ], [ 102.222099, 6.09557 ], [ 102.223701, 6.10318 ], [ 102.224899, 6.105831 ], [ 102.229301, 6.115111 ], [ 102.230671, 6.12251 ], [ 102.243264, 6.121219 ], [ 102.25913, 6.125069 ], [ 102.260335, 6.112683 ] ] ] } },
{ "type": "Feature", "properties": { "state": "Kelantan", "parlimen": "P.018 Kota Bharu Hilir", "code_parlimen": "P.018", "dun": "N.12 Kota Bharu Tengah", "code_dun": "N.12" }, "geometry": { "type": "Polygon", "coordinates": [ [ [ 102.238012, 6.085108 ], [ 102.251799, 6.089704 ], [ 102.264274, 6.091017 ], [ 102.264931, 6.101522 ], [ 102.260335, 6.112683 ], [ 102.25913, 6.125069 ], [ 102.267823, 6.119406 ], [ 102.277437, 6.116377 ], [ 102.287447, 6.109397 ], [ 102.29232, 6.093724 ], [ 102.294164, 6.082134 ], [ 102.291563, 6.06735 ], [ 102.29288, 6.062345 ], [ 102.29525, 6.054575 ], [ 102.298675, 6.046673 ], [ 102.296962, 6.040219 ], [ 102.294328, 6.035478 ], [ 102.288007, 6.030737 ], [ 102.28208, 6.029024 ], [ 102.270358, 6.025995 ], [ 102.266671, 6.02402 ], [ 102.262719, 6.024546 ], [ 102.261186, 6.027566 ], [ 102.258505, 6.032844 ], [ 102.258505, 6.037849 ], [ 102.259822, 6.044697 ], [ 102.259822, 6.052204 ], [ 102.25969, 6.057604 ], [ 102.25969, 6.060897 ], [ 102.26351, 6.064584 ], [ 102.264958, 6.07117 ], [ 102.261929, 6.076174 ], [ 102.255607, 6.079467 ], [ 102.250339, 6.079335 ], [ 102.245071, 6.074857 ], [ 102.2427, 6.070643 ], [ 102.239408, 6.064189 ], [ 102.234666, 6.065243 ], [ 102.222801, 6.07001 ], [ 102.222789, 6.070013 ], [ 102.223198, 6.073121 ], [ 102.222183, 6.08437 ], [ 102.238012, 6.085108 ] ] ] } },
{ "type": "Feature", "properties": { "state": "Kelantan", "parlimen": "P.019 Bachok", "code_parlimen": "P.019", "dun": "N.13 Bachok Utara", "code_dun": "N.13" }, "geometry": { "type": "Polygon", "coordinates": [ [ [ 102.36079, 6.119249 ], [ 102.363416, 6.106774 ], [ 102.371951, 6.09036 ], [ 102.37983, 6.072633 ], [ 102.387709, 6.056875 ], [ 102.388365, 6.045714 ], [ 102.3818, 6.029299 ], [ 102.382456, 6.022077 ], [ 102.373921, 6.017481 ], [ 102.35882, 6.012885 ], [ 102.339096, 6.008361 ], [ 102.337601, 6.011121 ], [ 102.33728, 6.016497 ], [ 102.330603, 6.02442 ], [ 102.322098, 6.03399 ], [ 102.322601, 6.038831 ], [ 102.323799, 6.04137 ], [ 102.3256, 6.04235 ], [ 102.328796, 6.043171 ], [ 102.332298, 6.0441 ], [ 102.343697, 6.04955 ], [ 102.3479, 6.05301 ], [ 102.348, 6.055321 ], [ 102.347801, 6.059061 ], [ 102.3461, 6.064241 ], [ 102.343803, 6.067341 ], [ 102.337402, 6.073941 ], [ 102.331902, 6.07726 ], [ 102.322899, 6.08161 ], [ 102.318529, 6.085558 ], [ 102.313896, 6.08889 ], [ 102.311798, 6.090841 ], [ 102.309303, 6.093601 ], [ 102.308601, 6.096069 ], [ 102.308601, 6.098841 ], [ 102.309303, 6.1031 ], [ 102.311096, 6.10587 ], [ 102.315903, 6.10865 ], [ 102.320099, 6.10976 ], [ 102.329399, 6.11059 ], [ 102.3339, 6.11141 ], [ 102.338501, 6.116841 ], [ 102.337097, 6.13416 ], [ 102.339096, 6.16244 ], [ 102.344356, 6.168873 ], [ 102.370414, 6.133001 ], [ 102.373147, 6.127145 ], [ 102.36079, 6.119249 ] ] ] } },
{ "type": "Feature", "properties": { "state": "Kelantan", "parlimen": "P.019 Bachok", "code_parlimen": "P.019", "dun": "N.14 Bachok Tengah", "code_dun": "N.14" }, "geometry": { "type": "Polygon", "coordinates": [ [ [ 102.421194, 5.982683 ], [ 102.425133, 5.965612 ], [ 102.427103, 5.95839 ], [ 102.427103, 5.951168 ], [ 102.419224, 5.951168 ], [ 102.405436, 5.957734 ], [ 102.401497, 5.964299 ], [ 102.394931, 5.980057 ], [ 102.390335, 5.996471 ], [ 102.385739, 6.011572 ], [ 102.382456, 6.022077 ], [ 102.3818, 6.029299 ], [ 102.388365, 6.045714 ], [ 102.387709, 6.056875 ], [ 102.37983, 6.072633 ], [ 102.371951, 6.09036 ], [ 102.363416, 6.106774 ], [ 102.36079, 6.119249 ], [ 102.373147, 6.127145 ], [ 102.43843, 5.987302 ], [ 102.421194, 5.982683 ] ] ] } },
{ "type": "Feature", "properties": { "state": "Kelantan", "parlimen": "P.019 Bachok", "code_parlimen": "P.019", "dun": "N.15 Bachok Selatan", "code_dun": "N.15" }, "geometry": { "type": "Polygon", "coordinates": [ [ [ 102.385739, 6.011572 ], [ 102.390335, 5.996471 ], [ 102.394931, 5.980057 ], [ 102.401497, 5.964299 ], [ 102.405436, 5.957734 ], [ 102.419224, 5.951168 ], [ 102.427103, 5.951168 ], [ 102.427103, 5.95839 ], [ 102.425133, 5.965612 ], [ 102.421194, 5.982683 ], [ 102.43843, 5.987302 ], [ 102.470189, 5.919271 ], [ 102.473147, 5.913681 ], [ 102.472275, 5.913141 ], [ 102.465599, 5.910709 ], [ 102.4599, 5.907981 ], [ 102.449097, 5.903229 ], [ 102.444901, 5.901021 ], [ 102.427803, 5.890781 ], [ 102.419998, 5.88707 ], [ 102.414398, 5.885092 ], [ 102.411201, 5.88336 ], [ 102.408798, 5.88277 ], [ 102.405098, 5.881441 ], [ 102.400272, 5.881505 ], [ 102.398399, 5.88153 ], [ 102.394302, 5.883191 ], [ 102.389297, 5.887779 ], [ 102.387901, 5.889851 ], [ 102.384796, 5.89548 ], [ 102.383499, 5.897951 ], [ 102.381599, 5.900481 ], [ 102.379303, 5.90255 ], [ 102.374802, 5.90472 ], [ 102.369499, 5.90309 ], [ 102.364296, 5.905151 ], [ 102.359299, 5.910482 ], [ 102.355896, 5.914971 ], [ 102.351501, 5.92422 ], [ 102.349197, 5.92698 ], [ 102.3451, 5.931921 ], [ 102.3414, 5.933401 ], [ 102.335098, 5.931771 ], [ 102.328201, 5.929439 ], [ 102.325798, 5.929321 ], [ 102.316902, 5.930909 ], [ 102.309097, 5.93273 ], [ 102.302101, 5.931901 ], [ 102.297203, 5.93338 ], [ 102.293503, 5.934859 ], [ 102.288498, 5.937321 ], [ 102.283203, 5.937881 ], [ 102.284996, 5.943071 ], [ 102.2873, 5.94711 ], [ 102.289703, 5.949019 ], [ 102.294296, 5.95041 ], [ 102.298599, 5.95077 ], [ 102.303802, 5.95355 ], [ 102.306297, 5.95678 ], [ 102.311302, 5.960251 ], [ 102.319801, 5.96178 ], [ 102.324501, 5.963581 ], [ 102.329002, 5.96774 ], [ 102.334, 5.9776 ], [ 102.336403, 5.984749 ], [ 102.337196, 5.991601 ], [ 102.340302, 6.00249 ], [ 102.339096, 6.008361 ], [ 102.35882, 6.012885 ], [ 102.373921, 6.017481 ], [ 102.382456, 6.022077 ], [ 102.385739, 6.011572 ] ] ] } },
{ "type": "Feature", "properties": { "state": "Kelantan", "parlimen": "P.020 Kota Bharu Hulu", "code_parlimen": "P.020", "dun": "N.16 Kota Bharu Timor", "code_dun": "N.16" }, "geometry": { "type": "Polygon", "coordinates": [ [ [ 102.280526, 5.963435 ], [ 102.274772, 5.974943 ], [ 102.27132, 5.99278 ], [ 102.269594, 6.007741 ], [ 102.270358, 6.025995 ], [ 102.28208, 6.029024 ], [ 102.288007, 6.030737 ], [ 102.294328, 6.035478 ], [ 102.296962, 6.040219 ], [ 102.298675, 6.046673 ], [ 102.29525, 6.054575 ], [ 102.29288, 6.062345 ], [ 102.291563, 6.06735 ], [ 102.294164, 6.082134 ], [ 102.296403, 6.079632 ], [ 102.302329, 6.079632 ], [ 102.309837, 6.081212 ], [ 102.318529, 6.085558 ], [ 102.322899, 6.08161 ], [ 102.331902, 6.07726 ], [ 102.337402, 6.073941 ], [ 102.343803, 6.067341 ], [ 102.3461, 6.064241 ], [ 102.347801, 6.059061 ], [ 102.348, 6.055321 ], [ 102.3479, 6.05301 ], [ 102.343697, 6.04955 ], [ 102.332298, 6.0441 ], [ 102.328796, 6.043171 ], [ 102.3256, 6.04235 ], [ 102.323799, 6.04137 ], [ 102.322601, 6.038831 ], [ 102.322098, 6.03399 ], [ 102.330603, 6.02442 ], [ 102.33728, 6.016497 ], [ 102.337601, 6.011121 ], [ 102.339096, 6.008361 ], [ 102.340302, 6.00249 ], [ 102.337196, 5.991601 ], [ 102.336403, 5.984749 ], [ 102.334, 5.9776 ], [ 102.329002, 5.96774 ], [ 102.324501, 5.963581 ], [ 102.319801, 5.96178 ], [ 102.311302, 5.960251 ], [ 102.306297, 5.95678 ], [ 102.303802, 5.95355 ], [ 102.298599, 5.95077 ], [ 102.294296, 5.95041 ], [ 102.289703, 5.949019 ], [ 102.2873, 5.94711 ], [ 102.280526, 5.963435 ] ] ] } },
{ "type": "Feature", "properties": { "state": "Kelantan", "parlimen": "P.020 Kota Bharu Hulu", "code_parlimen": "P.020", "dun": "N.17 Kota Bharu Barat", "code_dun": "N.17" }, "geometry": { "type": "Polygon", "coordinates": [ [ [ 102.248304, 6.023852 ], [ 102.239098, 6.028455 ], [ 102.236221, 6.02155 ], [ 102.225288, 6.030757 ], [ 102.22874, 6.005439 ], [ 102.228165, 5.996233 ], [ 102.224137, 5.980697 ], [ 102.208397, 5.97277 ], [ 102.203003, 5.985021 ], [ 102.197899, 5.99369 ], [ 102.191597, 5.999201 ], [ 102.1838, 6.00592 ], [ 102.175903, 6.01096 ], [ 102.167198, 6.014959 ], [ 102.1604, 6.0188 ], [ 102.155098, 6.022351 ], [ 102.151802, 6.026259 ], [ 102.1493, 6.033441 ], [ 102.1502, 6.03587 ], [ 102.152702, 6.037951 ], [ 102.1577, 6.039232 ], [ 102.162498, 6.038321 ], [ 102.1688, 6.037541 ], [ 102.175201, 6.037101 ], [ 102.180667, 6.037115 ], [ 102.183197, 6.037122 ], [ 102.191399, 6.0398 ], [ 102.194801, 6.04073 ], [ 102.203201, 6.045529 ], [ 102.208, 6.04854 ], [ 102.214203, 6.053511 ], [ 102.215996, 6.054901 ], [ 102.219696, 6.05992 ], [ 102.220703, 6.06234 ], [ 102.222099, 6.06477 ], [ 102.222789, 6.070013 ], [ 102.222801, 6.07001 ], [ 102.234666, 6.065243 ], [ 102.239408, 6.064189 ], [ 102.2427, 6.070643 ], [ 102.245071, 6.074857 ], [ 102.250339, 6.079335 ], [ 102.255607, 6.079467 ], [ 102.261929, 6.076174 ], [ 102.264958, 6.07117 ], [ 102.26351, 6.064584 ], [ 102.25969, 6.060897 ], [ 102.25969, 6.057604 ], [ 102.259822, 6.052204 ], [ 102.259822, 6.044697 ], [ 102.258505, 6.037849 ], [ 102.258505, 6.032844 ], [ 102.261186, 6.027566 ], [ 102.262719, 6.024546 ], [ 102.248304, 6.023852 ] ] ] } },
{ "type": "Feature", "properties": { "state": "Kelantan", "parlimen": "P.020 Kota Bharu Hulu", "code_parlimen": "P.020", "dun": "N.18 Kota Bharu Selatan", "code_dun": "N.18" }, "geometry": { "type": "Polygon", "coordinates": [ [ [ 102.224137, 5.980697 ], [ 102.228165, 5.996233 ], [ 102.22874, 6.005439 ], [ 102.225288, 6.030757 ], [ 102.236221, 6.02155 ], [ 102.239098, 6.028455 ], [ 102.248304, 6.023852 ], [ 102.262719, 6.024546 ], [ 102.266671, 6.02402 ], [ 102.270358, 6.025995 ], [ 102.269594, 6.007741 ], [ 102.27132, 5.99278 ], [ 102.274772, 5.974943 ], [ 102.280526, 5.963435 ], [ 102.2873, 5.94711 ], [ 102.284996, 5.943071 ], [ 102.283203, 5.937881 ], [ 102.282097, 5.934602 ], [ 102.2808, 5.9301 ], [ 102.278397, 5.925141 ], [ 102.275398, 5.91955 ], [ 102.274399, 5.914712 ], [ 102.274597, 5.91068 ], [ 102.274101, 5.90843 ], [ 102.272598, 5.904631 ], [ 102.271202, 5.90278 ], [ 102.269501, 5.90036 ], [ 102.267799, 5.896672 ], [ 102.266899, 5.893151 ], [ 102.2668, 5.8897 ], [ 102.267601, 5.88728 ], [ 102.268997, 5.88521 ], [ 102.270897, 5.881591 ], [ 102.265198, 5.881981 ], [ 102.2603, 5.88369 ], [ 102.254402, 5.887471 ], [ 102.250298, 5.889071 ], [ 102.244003, 5.891929 ], [ 102.239403, 5.890881 ], [ 102.235497, 5.8896 ], [ 102.229202, 5.88981 ], [ 102.224701, 5.891291 ], [ 102.218597, 5.89473 ], [ 102.215599, 5.89719 ], [ 102.211601, 5.89891 ], [ 102.209099, 5.900401 ], [ 102.2062, 5.902001 ], [ 102.195702, 5.90542 ], [ 102.196602, 5.908191 ], [ 102.1996, 5.916781 ], [ 102.2005, 5.92012 ], [ 102.201797, 5.923751 ], [ 102.202599, 5.926631 ], [ 102.204002, 5.93614 ], [ 102.204796, 5.940521 ], [ 102.2061, 5.944659 ], [ 102.207298, 5.95198 ], [ 102.209099, 5.95913 ], [ 102.209702, 5.96287 ], [ 102.208397, 5.97277 ], [ 102.224137, 5.980697 ] ] ] } },
{ "type": "Feature", "properties": { "state": "Kelantan", "parlimen": "P.021 Pasir Mas Hulu", "code_parlimen": "P.021", "dun": "N.19 Rantau Panjang", "code_dun": "N.19" }, "geometry": { "type": "Polygon", "coordinates": [ [ [ 102.054254, 6.010161 ], [ 102.056045, 5.989561 ], [ 102.056045, 5.977022 ], [ 102.058732, 5.954631 ], [ 102.047089, 5.954631 ], [ 102.047089, 5.943883 ], [ 102.047984, 5.934927 ], [ 102.036341, 5.934927 ], [ 102.008576, 5.935822 ], [ 102.01395, 5.925074 ], [ 102.030967, 5.909848 ], [ 102.052463, 5.900892 ], [ 102.0541, 5.890521 ], [ 102.054067, 5.885796 ], [ 102.056438, 5.878684 ], [ 102.056965, 5.872099 ], [ 102.055253, 5.869202 ], [ 102.054858, 5.864987 ], [ 101.942329, 5.869491 ], [ 101.944225, 5.87247 ], [ 101.940266, 5.878914 ], [ 101.941346, 5.885357 ], [ 101.931809, 5.904689 ], [ 101.922316, 5.911075 ], [ 101.923207, 5.923702 ], [ 101.930111, 5.925031 ], [ 101.929889, 5.948955 ], [ 101.936793, 5.948512 ], [ 101.943251, 5.955157 ], [ 101.940579, 5.971327 ], [ 101.946815, 5.985503 ], [ 101.970868, 6.00433 ], [ 101.972427, 6.019391 ], [ 101.99158, 6.040653 ], [ 101.998261, 6.040211 ], [ 102.004275, 6.044419 ], [ 102.003829, 6.051063 ], [ 102.01786, 6.051506 ], [ 102.026014, 6.040022 ], [ 102.036024, 6.031066 ], [ 102.045011, 6.027602 ], [ 102.048668, 6.026193 ], [ 102.05894, 6.025929 ], [ 102.054254, 6.010161 ] ] ] } },
{ "type": "Feature", "properties": { "state": "Kelantan", "parlimen": "P.021 Pasir Mas Hulu", "code_parlimen": "P.021", "dun": "N.20 Lemal", "code_dun": "N.20" }, "geometry": { "type": "Polygon", "coordinates": [ [ [ 102.052463, 5.900892 ], [ 102.030967, 5.909848 ], [ 102.01395, 5.925074 ], [ 102.008576, 5.935822 ], [ 102.036341, 5.934927 ], [ 102.047984, 5.934927 ], [ 102.047089, 5.943883 ], [ 102.047089, 5.954631 ], [ 102.058732, 5.954631 ], [ 102.056045, 5.977022 ], [ 102.056045, 5.989561 ], [ 102.054254, 6.010161 ], [ 102.05894, 6.025929 ], [ 102.074745, 6.032778 ], [ 102.090944, 6.043578 ], [ 102.102403, 6.038178 ], [ 102.111227, 6.036729 ], [ 102.131114, 6.03449 ], [ 102.141651, 6.030276 ], [ 102.151802, 6.026259 ], [ 102.155098, 6.022351 ], [ 102.1604, 6.0188 ], [ 102.167198, 6.014959 ], [ 102.175903, 6.01096 ], [ 102.1838, 6.00592 ], [ 102.168897, 5.993144 ], [ 102.152776, 5.984187 ], [ 102.133071, 5.974335 ], [ 102.118741, 5.97344 ], [ 102.093663, 5.966274 ], [ 102.094558, 5.957318 ], [ 102.099932, 5.938509 ], [ 102.105306, 5.9197 ], [ 102.110603, 5.898361 ], [ 102.106903, 5.897771 ], [ 102.100197, 5.895681 ], [ 102.097198, 5.894571 ], [ 102.094902, 5.89249 ], [ 102.091599, 5.887879 ], [ 102.088097, 5.88648 ], [ 102.084, 5.88578 ], [ 102.0774, 5.887029 ], [ 102.075203, 5.886441 ], [ 102.070297, 5.885511 ], [ 102.062996, 5.887209 ], [ 102.056198, 5.890639 ], [ 102.0541, 5.890521 ], [ 102.052463, 5.900892 ] ] ] } },
{ "type": "Feature", "properties": { "state": "Kelantan", "parlimen": "P.021 Pasir Mas Hulu", "code_parlimen": "P.021", "dun": "N.21 Tok Uban", "code_dun": "N.21" }, "geometry": { "type": "Polygon", "coordinates": [ [ [ 102.105306, 5.9197 ], [ 102.099932, 5.938509 ], [ 102.094558, 5.957318 ], [ 102.093663, 5.966274 ], [ 102.118741, 5.97344 ], [ 102.133071, 5.974335 ], [ 102.152776, 5.984187 ], [ 102.168897, 5.993144 ], [ 102.1838, 6.00592 ], [ 102.191597, 5.999201 ], [ 102.197899, 5.99369 ], [ 102.203003, 5.985021 ], [ 102.208397, 5.97277 ], [ 102.209702, 5.96287 ], [ 102.209099, 5.95913 ], [ 102.207298, 5.95198 ], [ 102.2061, 5.944659 ], [ 102.204796, 5.940521 ], [ 102.204002, 5.93614 ], [ 102.202599, 5.926631 ], [ 102.201797, 5.923751 ], [ 102.2005, 5.92012 ], [ 102.1996, 5.916781 ], [ 102.196602, 5.908191 ], [ 102.195702, 5.90542 ], [ 102.191399, 5.895849 ], [ 102.186897, 5.88622 ], [ 102.184998, 5.881951 ], [ 102.183296, 5.877281 ], [ 102.166702, 5.888691 ], [ 102.151001, 5.896071 ], [ 102.148102, 5.897561 ], [ 102.145203, 5.89755 ], [ 102.1418, 5.89569 ], [ 102.140099, 5.893789 ], [ 102.135597, 5.89228 ], [ 102.133202, 5.89296 ], [ 102.126297, 5.89726 ], [ 102.1241, 5.89863 ], [ 102.121002, 5.899309 ], [ 102.115601, 5.8993 ], [ 102.110603, 5.898361 ], [ 102.105306, 5.9197 ] ] ] } },
{ "type": "Feature", "properties": { "state": "Kelantan", "parlimen": "P.022 Pasir Puteh", "code_parlimen": "P.022", "dun": "N.22 Pasir Puteh Utara", "code_dun": "N.22" }, "geometry": { "type": "Polygon", "coordinates": [ [ [ 102.40725, 5.866471 ], [ 102.398511, 5.86717 ], [ 102.385926, 5.870665 ], [ 102.368797, 5.868918 ], [ 102.355513, 5.862276 ], [ 102.342928, 5.855983 ], [ 102.336286, 5.842699 ], [ 102.336286, 5.82557 ], [ 102.336286, 5.823123 ], [ 102.331742, 5.813684 ], [ 102.325799, 5.812286 ], [ 102.320905, 5.823123 ], [ 102.309369, 5.834659 ], [ 102.300979, 5.835009 ], [ 102.297833, 5.822074 ], [ 102.297833, 5.813335 ], [ 102.3022, 5.804021 ], [ 102.301796, 5.801831 ], [ 102.300079, 5.800561 ], [ 102.298401, 5.799339 ], [ 102.295998, 5.800709 ], [ 102.290703, 5.80594 ], [ 102.284798, 5.814901 ], [ 102.284996, 5.820369 ], [ 102.285698, 5.829641 ], [ 102.2855, 5.832749 ], [ 102.283501, 5.83793 ], [ 102.279297, 5.846381 ], [ 102.277702, 5.854321 ], [ 102.279099, 5.858871 ], [ 102.281097, 5.86107 ], [ 102.283096, 5.86303 ], [ 102.285103, 5.866841 ], [ 102.2854, 5.86966 ], [ 102.283203, 5.87276 ], [ 102.277603, 5.877461 ], [ 102.270897, 5.881591 ], [ 102.268997, 5.88521 ], [ 102.267601, 5.88728 ], [ 102.2668, 5.8897 ], [ 102.266899, 5.893151 ], [ 102.267799, 5.896672 ], [ 102.269501, 5.90036 ], [ 102.271202, 5.90278 ], [ 102.272598, 5.904631 ], [ 102.274101, 5.90843 ], [ 102.274597, 5.91068 ], [ 102.274399, 5.914712 ], [ 102.275398, 5.91955 ], [ 102.278397, 5.925141 ], [ 102.2808, 5.9301 ], [ 102.282097, 5.934602 ], [ 102.283203, 5.937881 ], [ 102.288498, 5.937321 ], [ 102.293503, 5.934859 ], [ 102.297203, 5.93338 ], [ 102.302101, 5.931901 ], [ 102.309097, 5.93273 ], [ 102.316902, 5.930909 ], [ 102.325798, 5.929321 ], [ 102.328201, 5.929439 ], [ 102.335098, 5.931771 ], [ 102.3414, 5.933401 ], [ 102.3451, 5.931921 ], [ 102.349197, 5.92698 ], [ 102.351501, 5.92422 ], [ 102.355896, 5.914971 ], [ 102.359299, 5.910482 ], [ 102.364296, 5.905151 ], [ 102.369499, 5.90309 ], [ 102.374802, 5.90472 ], [ 102.379303, 5.90255 ], [ 102.381599, 5.900481 ], [ 102.383499, 5.897951 ], [ 102.384796, 5.89548 ], [ 102.387901, 5.889851 ], [ 102.389297, 5.887779 ], [ 102.394302, 5.883191 ], [ 102.398399, 5.88153 ], [ 102.400272, 5.881505 ], [ 102.405098, 5.881441 ], [ 102.40725, 5.866471 ] ] ] } },
{ "type": "Feature", "properties": { "state": "Kelantan", "parlimen": "P.022 Pasir Puteh", "code_parlimen": "P.022", "dun": "N.23 Pasir Puteh Tengah", "code_dun": "N.23" }, "geometry": { "type": "Polygon", "coordinates": [ [ [ 102.406902, 5.851335 ], [ 102.409458, 5.844031 ], [ 102.418953, 5.845857 ], [ 102.418223, 5.831614 ], [ 102.436483, 5.827597 ], [ 102.429544, 5.814084 ], [ 102.412745, 5.804589 ], [ 102.396676, 5.797285 ], [ 102.391198, 5.791076 ], [ 102.37732, 5.791807 ], [ 102.364538, 5.788885 ], [ 102.366729, 5.78012 ], [ 102.375494, 5.77026 ], [ 102.3815, 5.76667 ], [ 102.379997, 5.76505 ], [ 102.378403, 5.761531 ], [ 102.378098, 5.756811 ], [ 102.378601, 5.753009 ], [ 102.379303, 5.74887 ], [ 102.380203, 5.741561 ], [ 102.3787, 5.73868 ], [ 102.375099, 5.73832 ], [ 102.372803, 5.739811 ], [ 102.369598, 5.74544 ], [ 102.367699, 5.746821 ], [ 102.362198, 5.744841 ], [ 102.358803, 5.74356 ], [ 102.35508, 5.743911 ], [ 102.345901, 5.745481 ], [ 102.334801, 5.7474 ], [ 102.3255, 5.75181 ], [ 102.320198, 5.755019 ], [ 102.315498, 5.75857 ], [ 102.313103, 5.763341 ], [ 102.3134, 5.766449 ], [ 102.312146, 5.772998 ], [ 102.310699, 5.78055 ], [ 102.307899, 5.78192 ], [ 102.30629, 5.783889 ], [ 102.304703, 5.785831 ], [ 102.304703, 5.788771 ], [ 102.306297, 5.794761 ], [ 102.3078, 5.801101 ], [ 102.307999, 5.80426 ], [ 102.305496, 5.805751 ], [ 102.3022, 5.804021 ], [ 102.297833, 5.813335 ], [ 102.297833, 5.822074 ], [ 102.300979, 5.835009 ], [ 102.309369, 5.834659 ], [ 102.320905, 5.823123 ], [ 102.325799, 5.812286 ], [ 102.331742, 5.813684 ], [ 102.336286, 5.823123 ], [ 102.336286, 5.82557 ], [ 102.336286, 5.842699 ], [ 102.342928, 5.855983 ], [ 102.355513, 5.862276 ], [ 102.368797, 5.868918 ], [ 102.385926, 5.870665 ], [ 102.398511, 5.86717 ], [ 102.40725, 5.866471 ], [ 102.406902, 5.851335 ] ] ] } },
{ "type": "Feature", "properties": { "state": "Kelantan", "parlimen": "P.022 Pasir Puteh", "code_parlimen": "P.022", "dun": "N.24 Pasir Puteh Tenggara", "code_dun": "N.24" }, "geometry": { "type": "Polygon", "coordinates": [ [ [ 102.375494, 5.77026 ], [ 102.366729, 5.78012 ], [ 102.364538, 5.788885 ], [ 102.37732, 5.791807 ], [ 102.391198, 5.791076 ], [ 102.396676, 5.797285 ], [ 102.412745, 5.804589 ], [ 102.429544, 5.814084 ], [ 102.436483, 5.827597 ], [ 102.418223, 5.831614 ], [ 102.418953, 5.845857 ], [ 102.409458, 5.844031 ], [ 102.406902, 5.851335 ], [ 102.40725, 5.866471 ], [ 102.405098, 5.881441 ], [ 102.408798, 5.88277 ], [ 102.411201, 5.88336 ], [ 102.414398, 5.885092 ], [ 102.419998, 5.88707 ], [ 102.427803, 5.890781 ], [ 102.444901, 5.901021 ], [ 102.449097, 5.903229 ], [ 102.4599, 5.907981 ], [ 102.465599, 5.910709 ], [ 102.472275, 5.913141 ], [ 102.473147, 5.913681 ], [ 102.479098, 5.902435 ], [ 102.500255, 5.879617 ], [ 102.536335, 5.847271 ], [ 102.488451, 5.791658 ], [ 102.474269, 5.780214 ], [ 102.463116, 5.771215 ], [ 102.456173, 5.765613 ], [ 102.431882, 5.746012 ], [ 102.430434, 5.744075 ], [ 102.430199, 5.74425 ], [ 102.422501, 5.745151 ], [ 102.418602, 5.743749 ], [ 102.413002, 5.739011 ], [ 102.409599, 5.74119 ], [ 102.409302, 5.749771 ], [ 102.405266, 5.75151 ], [ 102.401802, 5.752161 ], [ 102.400101, 5.75757 ], [ 102.402702, 5.76126 ], [ 102.405701, 5.76582 ], [ 102.402901, 5.769729 ], [ 102.397499, 5.768911 ], [ 102.3937, 5.76832 ], [ 102.387802, 5.76876 ], [ 102.385323, 5.767938 ], [ 102.3815, 5.76667 ], [ 102.375494, 5.77026 ] ] ] } },
{ "type": "Feature", "properties": { "state": "Kelantan", "parlimen": "P.023 Tanah Merah", "code_parlimen": "P.023", "dun": "N.25 Machang Utara", "code_dun": "N.25" }, "geometry": { "type": "Polygon", "coordinates": [ [ [ 102.141132, 5.741466 ], [ 102.14561, 5.76117 ], [ 102.150089, 5.775501 ], [ 102.163523, 5.790727 ], [ 102.164419, 5.803266 ], [ 102.163523, 5.824761 ], [ 102.170689, 5.840883 ], [ 102.175167, 5.857005 ], [ 102.183296, 5.877281 ], [ 102.184998, 5.881951 ], [ 102.186897, 5.88622 ], [ 102.191399, 5.895849 ], [ 102.195702, 5.90542 ], [ 102.2062, 5.902001 ], [ 102.209099, 5.900401 ], [ 102.211601, 5.89891 ], [ 102.215599, 5.89719 ], [ 102.218597, 5.89473 ], [ 102.224701, 5.891291 ], [ 102.229202, 5.88981 ], [ 102.235497, 5.8896 ], [ 102.239403, 5.890881 ], [ 102.244003, 5.891929 ], [ 102.250298, 5.889071 ], [ 102.254402, 5.887471 ], [ 102.2603, 5.88369 ], [ 102.265198, 5.881981 ], [ 102.270897, 5.881591 ], [ 102.277603, 5.877461 ], [ 102.283203, 5.87276 ], [ 102.2854, 5.86966 ], [ 102.285103, 5.866841 ], [ 102.283096, 5.86303 ], [ 102.281097, 5.86107 ], [ 102.279099, 5.858871 ], [ 102.277702, 5.854321 ], [ 102.279297, 5.846381 ], [ 102.283501, 5.83793 ], [ 102.2855, 5.832749 ], [ 102.285698, 5.829641 ], [ 102.284996, 5.820369 ], [ 102.284798, 5.814901 ], [ 102.290703, 5.80594 ], [ 102.295998, 5.800709 ], [ 102.298401, 5.799339 ], [ 102.300079, 5.800561 ], [ 102.301796, 5.801831 ], [ 102.3022, 5.804021 ], [ 102.305496, 5.805751 ], [ 102.307999, 5.80426 ], [ 102.3078, 5.801101 ], [ 102.306297, 5.794761 ], [ 102.304703, 5.788771 ], [ 102.304703, 5.785831 ], [ 102.30629, 5.783889 ], [ 102.307899, 5.78192 ], [ 102.310699, 5.78055 ], [ 102.312146, 5.772998 ], [ 102.292913, 5.776087 ], [ 102.28343, 5.777141 ], [ 102.24787, 5.779775 ], [ 102.222583, 5.785306 ], [ 102.2239, 5.796633 ], [ 102.216261, 5.80032 ], [ 102.207832, 5.799003 ], [ 102.205725, 5.792682 ], [ 102.203617, 5.784779 ], [ 102.198349, 5.777667 ], [ 102.198612, 5.771346 ], [ 102.21231, 5.747639 ], [ 102.216788, 5.736049 ], [ 102.2131, 5.732625 ], [ 102.2023, 5.732625 ], [ 102.187549, 5.72999 ], [ 102.180042, 5.728147 ], [ 102.174247, 5.731439 ], [ 102.167267, 5.734732 ], [ 102.15976, 5.732756 ], [ 102.149597, 5.73099 ], [ 102.148598, 5.728449 ], [ 102.141132, 5.741466 ] ] ] } },
{ "type": "Feature", "properties": { "state": "Kelantan", "parlimen": "P.023 Tanah Merah", "code_parlimen": "P.023", "dun": "N.26 Tanah Merah Timor", "code_dun": "N.26" }, "geometry": { "type": "Polygon", "coordinates": [ [ [ 101.977228, 5.663544 ], [ 101.96648, 5.689518 ], [ 101.957524, 5.702057 ], [ 101.959315, 5.709223 ], [ 101.969167, 5.723553 ], [ 101.971854, 5.738779 ], [ 101.987976, 5.742362 ], [ 102.000515, 5.743257 ], [ 102.005889, 5.736988 ], [ 102.009471, 5.720866 ], [ 102.00768, 5.70564 ], [ 102.022906, 5.69937 ], [ 102.032758, 5.697579 ], [ 102.040819, 5.703849 ], [ 102.049776, 5.698475 ], [ 102.060524, 5.688623 ], [ 102.066793, 5.693101 ], [ 102.068584, 5.709223 ], [ 102.061419, 5.728031 ], [ 102.065002, 5.749527 ], [ 102.068584, 5.763857 ], [ 102.074854, 5.785353 ], [ 102.078437, 5.803266 ], [ 102.068584, 5.812222 ], [ 102.05515, 5.824761 ], [ 102.049776, 5.84357 ], [ 102.061419, 5.851631 ], [ 102.054858, 5.864987 ], [ 102.055253, 5.869202 ], [ 102.056965, 5.872099 ], [ 102.056438, 5.878684 ], [ 102.054067, 5.885796 ], [ 102.0541, 5.890521 ], [ 102.056198, 5.890639 ], [ 102.062996, 5.887209 ], [ 102.070297, 5.885511 ], [ 102.075203, 5.886441 ], [ 102.0774, 5.887029 ], [ 102.084, 5.88578 ], [ 102.088097, 5.88648 ], [ 102.091599, 5.887879 ], [ 102.094902, 5.89249 ], [ 102.097198, 5.894571 ], [ 102.100197, 5.895681 ], [ 102.106903, 5.897771 ], [ 102.110603, 5.898361 ], [ 102.115601, 5.8993 ], [ 102.121002, 5.899309 ], [ 102.1241, 5.89863 ], [ 102.126297, 5.89726 ], [ 102.133202, 5.89296 ], [ 102.135597, 5.89228 ], [ 102.140099, 5.893789 ], [ 102.1418, 5.89569 ], [ 102.145203, 5.89755 ], [ 102.148102, 5.897561 ], [ 102.151001, 5.896071 ], [ 102.166702, 5.888691 ], [ 102.183296, 5.877281 ], [ 102.175167, 5.857005 ], [ 102.170689, 5.840883 ], [ 102.163523, 5.824761 ], [ 102.164419, 5.803266 ], [ 102.163523, 5.790727 ], [ 102.150089, 5.775501 ], [ 102.14561, 5.76117 ], [ 102.141132, 5.741466 ], [ 102.148598, 5.728449 ], [ 102.148102, 5.726031 ], [ 102.145897, 5.717329 ], [ 102.146698, 5.71054 ], [ 102.148796, 5.70277 ], [ 102.148697, 5.69632 ], [ 102.144501, 5.69072 ], [ 102.136002, 5.690351 ], [ 102.127602, 5.6924 ], [ 102.121201, 5.69364 ], [ 102.115601, 5.692361 ], [ 102.111496, 5.689241 ], [ 102.1082, 5.68105 ], [ 102.1082, 5.678801 ], [ 102.1092, 5.666311 ], [ 102.111496, 5.65417 ], [ 102.106979, 5.611885 ], [ 102.104345, 5.60767 ], [ 102.099703, 5.602106 ], [ 102.084425, 5.583404 ], [ 102.072045, 5.566546 ], [ 102.068094, 5.553375 ], [ 102.069147, 5.535464 ], [ 102.09101, 5.493318 ], [ 102.04386, 5.509913 ], [ 102.0191, 5.518342 ], [ 102.004349, 5.517815 ], [ 101.994866, 5.526244 ], [ 101.979589, 5.540732 ], [ 101.968789, 5.544156 ], [ 101.955355, 5.538888 ], [ 101.957989, 5.553112 ], [ 101.962204, 5.575502 ], [ 101.959043, 5.590516 ], [ 101.955882, 5.598682 ], [ 101.953775, 5.613169 ], [ 101.951141, 5.626339 ], [ 101.951141, 5.640037 ], [ 101.949824, 5.642407 ], [ 101.977228, 5.663544 ] ] ] } },
{ "type": "Feature", "properties": { "state": "Kelantan", "parlimen": "P.023 Tanah Merah", "code_parlimen": "P.023", "dun": "N.27 Tanah Merah Barat", "code_dun": "N.27" }, "geometry": { "type": "Polygon", "coordinates": [ [ [ 102.061419, 5.851631 ], [ 102.049776, 5.84357 ], [ 102.05515, 5.824761 ], [ 102.068584, 5.812222 ], [ 102.078437, 5.803266 ], [ 102.074854, 5.785353 ], [ 102.068584, 5.763857 ], [ 102.065002, 5.749527 ], [ 102.061419, 5.728031 ], [ 102.068584, 5.709223 ], [ 102.066793, 5.693101 ], [ 102.060524, 5.688623 ], [ 102.049776, 5.698475 ], [ 102.040819, 5.703849 ], [ 102.032758, 5.697579 ], [ 102.022906, 5.69937 ], [ 102.00768, 5.70564 ], [ 102.009471, 5.720866 ], [ 102.005889, 5.736988 ], [ 102.000515, 5.743257 ], [ 101.987976, 5.742362 ], [ 101.971854, 5.738779 ], [ 101.969167, 5.723553 ], [ 101.959315, 5.709223 ], [ 101.957524, 5.702057 ], [ 101.96648, 5.689518 ], [ 101.977228, 5.663544 ], [ 101.949824, 5.642407 ], [ 101.938234, 5.640827 ], [ 101.882391, 5.6295 ], [ 101.783877, 5.562595 ], [ 101.752795, 5.532303 ], [ 101.740707, 5.509564 ], [ 101.733329, 5.504728 ], [ 101.72937, 5.497026 ], [ 101.723072, 5.500071 ], [ 101.720913, 5.512788 ], [ 101.702739, 5.508131 ], [ 101.69734, 5.499892 ], [ 101.693201, 5.498459 ], [ 101.690502, 5.503295 ], [ 101.683125, 5.505444 ], [ 101.680425, 5.510638 ], [ 101.673767, 5.511355 ], [ 101.66459, 5.507414 ], [ 101.655953, 5.520848 ], [ 101.671338, 5.546371 ], [ 101.688613, 5.586667 ], [ 101.654693, 5.60583 ], [ 101.650554, 5.613441 ], [ 101.656673, 5.61362 ], [ 101.654693, 5.620067 ], [ 101.663061, 5.630901 ], [ 101.662881, 5.633945 ], [ 101.661351, 5.637527 ], [ 101.657662, 5.63887 ], [ 101.656943, 5.642809 ], [ 101.660541, 5.65436 ], [ 101.659462, 5.65624 ], [ 101.660451, 5.66 ], [ 101.658382, 5.661522 ], [ 101.659912, 5.668327 ], [ 101.66414, 5.667521 ], [ 101.685374, 5.693127 ], [ 101.688073, 5.692321 ], [ 101.695181, 5.702796 ], [ 101.693741, 5.707899 ], [ 101.691672, 5.7096 ], [ 101.692842, 5.711211 ], [ 101.691582, 5.715598 ], [ 101.692212, 5.720432 ], [ 101.690682, 5.721238 ], [ 101.689063, 5.724372 ], [ 101.689153, 5.72661 ], [ 101.692302, 5.727594 ], [ 101.693741, 5.730728 ], [ 101.690682, 5.746394 ], [ 101.691852, 5.754719 ], [ 101.700219, 5.751989 ], [ 101.707417, 5.755212 ], [ 101.709576, 5.762194 ], [ 101.715515, 5.763985 ], [ 101.718034, 5.776875 ], [ 101.717314, 5.787617 ], [ 101.719473, 5.789049 ], [ 101.722892, 5.779918 ], [ 101.726311, 5.784394 ], [ 101.732969, 5.784752 ], [ 101.738728, 5.781351 ], [ 101.744486, 5.787975 ], [ 101.744486, 5.794062 ], [ 101.748085, 5.793346 ], [ 101.752403, 5.796926 ], [ 101.759961, 5.796389 ], [ 101.777416, 5.783499 ], [ 101.774897, 5.773831 ], [ 101.776516, 5.765596 ], [ 101.792351, 5.751631 ], [ 101.798649, 5.751273 ], [ 101.802428, 5.745902 ], [ 101.809266, 5.744648 ], [ 101.814485, 5.738382 ], [ 101.815744, 5.733906 ], [ 101.825461, 5.733011 ], [ 101.827261, 5.735875 ], [ 101.824921, 5.745723 ], [ 101.817904, 5.75557 ], [ 101.835898, 5.789586 ], [ 101.839857, 5.790839 ], [ 101.857312, 5.793167 ], [ 101.866489, 5.791018 ], [ 101.86091, 5.801402 ], [ 101.870448, 5.805519 ], [ 101.872607, 5.802655 ], [ 101.880524, 5.811248 ], [ 101.876926, 5.820199 ], [ 101.880524, 5.832372 ], [ 101.887542, 5.839174 ], [ 101.892401, 5.8381 ], [ 101.896, 5.84544 ], [ 101.905537, 5.841323 ], [ 101.916873, 5.842039 ], [ 101.930189, 5.853316 ], [ 101.92749, 5.855285 ], [ 101.930369, 5.860476 ], [ 101.935948, 5.86334 ], [ 101.937387, 5.861729 ], [ 101.942329, 5.869491 ], [ 102.054858, 5.864987 ], [ 102.061419, 5.851631 ] ] ] } },
{ "type": "Feature", "properties": { "state": "Kelantan", "parlimen": "P.024 Ulu Kelantan", "code_parlimen": "P.024", "dun": "N.28 Machang Selatan", "code_dun": "N.28" }, "geometry": { "type": "Polygon", "coordinates": [ [ [ 102.357135, 5.679991 ], [ 102.346062, 5.674455 ], [ 102.329452, 5.669533 ], [ 102.313458, 5.667688 ], [ 102.298694, 5.665227 ], [ 102.28393, 5.660921 ], [ 102.272241, 5.652309 ], [ 102.257477, 5.654154 ], [ 102.247019, 5.655384 ], [ 102.241483, 5.65723 ], [ 102.241483, 5.669533 ], [ 102.237792, 5.670149 ], [ 102.222412, 5.668303 ], [ 102.216876, 5.662766 ], [ 102.205803, 5.669533 ], [ 102.194114, 5.666457 ], [ 102.193499, 5.649848 ], [ 102.184887, 5.63816 ], [ 102.173814, 5.63816 ], [ 102.167047, 5.643081 ], [ 102.155974, 5.648617 ], [ 102.140594, 5.642466 ], [ 102.130903, 5.639235 ], [ 102.111496, 5.65417 ], [ 102.1092, 5.666311 ], [ 102.1082, 5.678801 ], [ 102.1082, 5.68105 ], [ 102.111496, 5.689241 ], [ 102.115601, 5.692361 ], [ 102.121201, 5.69364 ], [ 102.127602, 5.6924 ], [ 102.136002, 5.690351 ], [ 102.144501, 5.69072 ], [ 102.148697, 5.69632 ], [ 102.148796, 5.70277 ], [ 102.146698, 5.71054 ], [ 102.145897, 5.717329 ], [ 102.148102, 5.726031 ], [ 102.148598, 5.728449 ], [ 102.149597, 5.73099 ], [ 102.15976, 5.732756 ], [ 102.167267, 5.734732 ], [ 102.174247, 5.731439 ], [ 102.180042, 5.728147 ], [ 102.187549, 5.72999 ], [ 102.2023, 5.732625 ], [ 102.2131, 5.732625 ], [ 102.216788, 5.736049 ], [ 102.21231, 5.747639 ], [ 102.198612, 5.771346 ], [ 102.198349, 5.777667 ], [ 102.203617, 5.784779 ], [ 102.205725, 5.792682 ], [ 102.207832, 5.799003 ], [ 102.216261, 5.80032 ], [ 102.2239, 5.796633 ], [ 102.222583, 5.785306 ], [ 102.24787, 5.779775 ], [ 102.28343, 5.777141 ], [ 102.292913, 5.776087 ], [ 102.312146, 5.772998 ], [ 102.3134, 5.766449 ], [ 102.313103, 5.763341 ], [ 102.315498, 5.75857 ], [ 102.320198, 5.755019 ], [ 102.3255, 5.75181 ], [ 102.334801, 5.7474 ], [ 102.345901, 5.745481 ], [ 102.35508, 5.743911 ], [ 102.358803, 5.74356 ], [ 102.362198, 5.744841 ], [ 102.367699, 5.746821 ], [ 102.369598, 5.74544 ], [ 102.372803, 5.739811 ], [ 102.375099, 5.73832 ], [ 102.3787, 5.73868 ], [ 102.380203, 5.741561 ], [ 102.379303, 5.74887 ], [ 102.378601, 5.753009 ], [ 102.378098, 5.756811 ], [ 102.378403, 5.761531 ], [ 102.379997, 5.76505 ], [ 102.3815, 5.76667 ], [ 102.385323, 5.767938 ], [ 102.387802, 5.76876 ], [ 102.3937, 5.76832 ], [ 102.397499, 5.768911 ], [ 102.402901, 5.769729 ], [ 102.405701, 5.76582 ], [ 102.402702, 5.76126 ], [ 102.400101, 5.75757 ], [ 102.401802, 5.752161 ], [ 102.405266, 5.75151 ], [ 102.409302, 5.749771 ], [ 102.409599, 5.74119 ], [ 102.413002, 5.739011 ], [ 102.418602, 5.743749 ], [ 102.422501, 5.745151 ], [ 102.430199, 5.74425 ], [ 102.430434, 5.744075 ], [ 102.417629, 5.726954 ], [ 102.41607, 5.72075 ], [ 102.411393, 5.72075 ], [ 102.403598, 5.712329 ], [ 102.396471, 5.696151 ], [ 102.392017, 5.699697 ], [ 102.380213, 5.69327 ], [ 102.378975, 5.684026 ], [ 102.357135, 5.679991 ] ] ] } },
{ "type": "Feature", "properties": { "state": "Kelantan", "parlimen": "P.024 Ulu Kelantan", "code_parlimen": "P.024", "dun": "N.29 Ulu Kelantan Timor", "code_dun": "N.29" }, "geometry": { "type": "Polygon", "coordinates": [ [ [ 102.130903, 5.639235 ], [ 102.140594, 5.642466 ], [ 102.155974, 5.648617 ], [ 102.167047, 5.643081 ], [ 102.173814, 5.63816 ], [ 102.184887, 5.63816 ], [ 102.193499, 5.649848 ], [ 102.194114, 5.666457 ], [ 102.205803, 5.669533 ], [ 102.216876, 5.662766 ], [ 102.222412, 5.668303 ], [ 102.237792, 5.670149 ], [ 102.241483, 5.669533 ], [ 102.241483, 5.65723 ], [ 102.247019, 5.655384 ], [ 102.257477, 5.654154 ], [ 102.272241, 5.652309 ], [ 102.28393, 5.660921 ], [ 102.298694, 5.665227 ], [ 102.313458, 5.667688 ], [ 102.329452, 5.669533 ], [ 102.346062, 5.674455 ], [ 102.357135, 5.679991 ], [ 102.378975, 5.684026 ], [ 102.385803, 5.677631 ], [ 102.387008, 5.671036 ], [ 102.387611, 5.663243 ], [ 102.386607, 5.65365 ], [ 102.390623, 5.64026 ], [ 102.387008, 5.634065 ], [ 102.392631, 5.629668 ], [ 102.402271, 5.613879 ], [ 102.397049, 5.605285 ], [ 102.396447, 5.5821 ], [ 102.399861, 5.577303 ], [ 102.402472, 5.569108 ], [ 102.407693, 5.544523 ], [ 102.400463, 5.543524 ], [ 102.40207, 5.539926 ], [ 102.398254, 5.528932 ], [ 102.390623, 5.522535 ], [ 102.382791, 5.523735 ], [ 102.380783, 5.518737 ], [ 102.386205, 5.512541 ], [ 102.393033, 5.499547 ], [ 102.390371, 5.486069 ], [ 102.388414, 5.476158 ], [ 102.39464, 5.47156 ], [ 102.400463, 5.462564 ], [ 102.39725, 5.454768 ], [ 102.401869, 5.443972 ], [ 102.401869, 5.439574 ], [ 102.392832, 5.426179 ], [ 102.385, 5.426979 ], [ 102.385, 5.410985 ], [ 102.389418, 5.412184 ], [ 102.398054, 5.402988 ], [ 102.398656, 5.399989 ], [ 102.404279, 5.39679 ], [ 102.408697, 5.39719 ], [ 102.411509, 5.391991 ], [ 102.415124, 5.390392 ], [ 102.420144, 5.392791 ], [ 102.419743, 5.385193 ], [ 102.424562, 5.379595 ], [ 102.428579, 5.371397 ], [ 102.437616, 5.372797 ], [ 102.441231, 5.365399 ], [ 102.438419, 5.356002 ], [ 102.428579, 5.356801 ], [ 102.426571, 5.351603 ], [ 102.429181, 5.348004 ], [ 102.427575, 5.337406 ], [ 102.429985, 5.330408 ], [ 102.429583, 5.32221 ], [ 102.422353, 5.31961 ], [ 102.419101, 5.300457 ], [ 102.415322, 5.294723 ], [ 102.418201, 5.288631 ], [ 102.415682, 5.283614 ], [ 102.42018, 5.27358 ], [ 102.415502, 5.26032 ], [ 102.417301, 5.242043 ], [ 102.414422, 5.230037 ], [ 102.4209, 5.223048 ], [ 102.422879, 5.204769 ], [ 102.41982, 5.195809 ], [ 102.410463, 5.183265 ], [ 102.414422, 5.180756 ], [ 102.437815, 5.179681 ], [ 102.444473, 5.168211 ], [ 102.457429, 5.170003 ], [ 102.474884, 5.157816 ], [ 102.484241, 5.147959 ], [ 102.48748, 5.13631 ], [ 102.513932, 5.128066 ], [ 102.529227, 5.108172 ], [ 102.52095, 5.098314 ], [ 102.51879, 5.089352 ], [ 102.513752, 5.084154 ], [ 102.505294, 5.083437 ], [ 102.499176, 5.076088 ], [ 102.502955, 5.074296 ], [ 102.514112, 5.054579 ], [ 102.508713, 5.048306 ], [ 102.52023, 5.026437 ], [ 102.512132, 5.009229 ], [ 102.498816, 5.008153 ], [ 102.501335, 5.001521 ], [ 102.501695, 5.001521 ], [ 102.499536, 4.993812 ], [ 102.503315, 4.981622 ], [ 102.507634, 4.979113 ], [ 102.509973, 4.970687 ], [ 102.522389, 4.960648 ], [ 102.513932, 4.952401 ], [ 102.514831, 4.948637 ], [ 102.52077, 4.94792 ], [ 102.521129, 4.941645 ], [ 102.513392, 4.938239 ], [ 102.513212, 4.919952 ], [ 102.506014, 4.903099 ], [ 102.513752, 4.901486 ], [ 102.529587, 4.896107 ], [ 102.535885, 4.907402 ], [ 102.571514, 4.895749 ], [ 102.58627, 4.88284 ], [ 102.592748, 4.873158 ], [ 102.606244, 4.874054 ], [ 102.614881, 4.862042 ], [ 102.620819, 4.8624 ], [ 102.644032, 4.847877 ], [ 102.647811, 4.850208 ], [ 102.65087, 4.845725 ], [ 102.652489, 4.835326 ], [ 102.646191, 4.826002 ], [ 102.644032, 4.813271 ], [ 102.65231, 4.812733 ], [ 102.659507, 4.800898 ], [ 102.658968, 4.791753 ], [ 102.666525, 4.780097 ], [ 102.664186, 4.770056 ], [ 102.658068, 4.759475 ], [ 102.636834, 4.765034 ], [ 102.630356, 4.771849 ], [ 102.621899, 4.774539 ], [ 102.612002, 4.780456 ], [ 102.606603, 4.774897 ], [ 102.598866, 4.770773 ], [ 102.603184, 4.766828 ], [ 102.604984, 4.760013 ], [ 102.600845, 4.754096 ], [ 102.595627, 4.739032 ], [ 102.600845, 4.733832 ], [ 102.606244, 4.702089 ], [ 102.604084, 4.687742 ], [ 102.597246, 4.687742 ], [ 102.581231, 4.69653 ], [ 102.572234, 4.690432 ], [ 102.563237, 4.698682 ], [ 102.557658, 4.706214 ], [ 102.548841, 4.711773 ], [ 102.545602, 4.706931 ], [ 102.545242, 4.701192 ], [ 102.535165, 4.686845 ], [ 102.530667, 4.686486 ], [ 102.529767, 4.677519 ], [ 102.524009, 4.678775 ], [ 102.516811, 4.67447 ], [ 102.512312, 4.668552 ], [ 102.506014, 4.671601 ], [ 102.500256, 4.66909 ], [ 102.481002, 4.686128 ], [ 102.456709, 4.70191 ], [ 102.458688, 4.705855 ], [ 102.446272, 4.713925 ], [ 102.429897, 4.710159 ], [ 102.422519, 4.713208 ], [ 102.408124, 4.716436 ], [ 102.401826, 4.711594 ], [ 102.379153, 4.714463 ], [ 102.376094, 4.711056 ], [ 102.370155, 4.711773 ], [ 102.362418, 4.705317 ], [ 102.362778, 4.696888 ], [ 102.371415, 4.692943 ], [ 102.371955, 4.684334 ], [ 102.365657, 4.678237 ], [ 102.364397, 4.670345 ], [ 102.35504, 4.665682 ], [ 102.346403, 4.657253 ], [ 102.342984, 4.648644 ], [ 102.344423, 4.641649 ], [ 102.338485, 4.641111 ], [ 102.335786, 4.643801 ], [ 102.332727, 4.6386 ], [ 102.328075, 4.637456 ], [ 102.318871, 4.635192 ], [ 102.294039, 4.647926 ], [ 102.286481, 4.65528 ], [ 102.272625, 4.662095 ], [ 102.265967, 4.65797 ], [ 102.258769, 4.655459 ], [ 102.249952, 4.656715 ], [ 102.246173, 4.653307 ], [ 102.238076, 4.649361 ], [ 102.233757, 4.651334 ], [ 102.229618, 4.645416 ], [ 102.235196, 4.633399 ], [ 102.22476, 4.627301 ], [ 102.216842, 4.629273 ], [ 102.211084, 4.633578 ], [ 102.198848, 4.637524 ], [ 102.19129, 4.649003 ], [ 102.183192, 4.656356 ], [ 102.174555, 4.658867 ], [ 102.174555, 4.676084 ], [ 102.169516, 4.682003 ], [ 102.162679, 4.687024 ], [ 102.159799, 4.692225 ], [ 102.154941, 4.695992 ], [ 102.150982, 4.701551 ], [ 102.131188, 4.712491 ], [ 102.12453, 4.722175 ], [ 102.127409, 4.737239 ], [ 102.116073, 4.761986 ], [ 102.094659, 4.7584 ], [ 102.078464, 4.745309 ], [ 102.062989, 4.738853 ], [ 102.05795, 4.743515 ], [ 102.051292, 4.735984 ], [ 102.050573, 4.725582 ], [ 102.043015, 4.7263 ], [ 102.040676, 4.730962 ], [ 102.034018, 4.732397 ], [ 102.032624, 4.734877 ], [ 102.028979, 4.741363 ], [ 102.042623, 4.784526 ], [ 102.043934, 4.802879 ], [ 102.046556, 4.830409 ], [ 102.057044, 4.868426 ], [ 102.078019, 4.898578 ], [ 102.095061, 4.920864 ], [ 102.106859, 4.964125 ], [ 102.106859, 4.992965 ], [ 102.119969, 5.029671 ], [ 102.127834, 5.061134 ], [ 102.131767, 5.093907 ], [ 102.133078, 5.120126 ], [ 102.129145, 5.145034 ], [ 102.126523, 5.166009 ], [ 102.127834, 5.189606 ], [ 102.126523, 5.218446 ], [ 102.126523, 5.249909 ], [ 102.12259, 5.277438 ], [ 102.12259, 5.298413 ], [ 102.125212, 5.335119 ], [ 102.123901, 5.356094 ], [ 102.123901, 5.37838 ], [ 102.126523, 5.401977 ], [ 102.126523, 5.43344 ], [ 102.119969, 5.457036 ], [ 102.110792, 5.468835 ], [ 102.09101, 5.493318 ], [ 102.069147, 5.535464 ], [ 102.068094, 5.553375 ], [ 102.072045, 5.566546 ], [ 102.084425, 5.583404 ], [ 102.099703, 5.602106 ], [ 102.104345, 5.60767 ], [ 102.106979, 5.611885 ], [ 102.111496, 5.65417 ], [ 102.130903, 5.639235 ] ] ] } },
{ "type": "Feature", "properties": { "state": "Kelantan", "parlimen": "P.024 Ulu Kelantan", "code_parlimen": "P.024", "dun": "N.30 Ulu Kelantan Barat", "code_dun": "N.30" }, "geometry": { "type": "Polygon", "coordinates": [ [ [ 102.110792, 5.468835 ], [ 102.119969, 5.457036 ], [ 102.126523, 5.43344 ], [ 102.126523, 5.401977 ], [ 102.123901, 5.37838 ], [ 102.123901, 5.356094 ], [ 102.125212, 5.335119 ], [ 102.12259, 5.298413 ], [ 102.12259, 5.277438 ], [ 102.126523, 5.249909 ], [ 102.126523, 5.218446 ], [ 102.127834, 5.189606 ], [ 102.126523, 5.166009 ], [ 102.129145, 5.145034 ], [ 102.133078, 5.120126 ], [ 102.131767, 5.093907 ], [ 102.127834, 5.061134 ], [ 102.119969, 5.029671 ], [ 102.106859, 4.992965 ], [ 102.106859, 4.964125 ], [ 102.095061, 4.920864 ], [ 102.078019, 4.898578 ], [ 102.057044, 4.868426 ], [ 102.046556, 4.830409 ], [ 102.043934, 4.802879 ], [ 102.042623, 4.784526 ], [ 102.028979, 4.741363 ], [ 102.023401, 4.741722 ], [ 102.019982, 4.732038 ], [ 102.012784, 4.73688 ], [ 102.004867, 4.748178 ], [ 102.001268, 4.753199 ], [ 102.001808, 4.761448 ], [ 101.987412, 4.760013 ], [ 101.988132, 4.752482 ], [ 101.985433, 4.749075 ], [ 101.987232, 4.739929 ], [ 101.978055, 4.745129 ], [ 101.975356, 4.749613 ], [ 101.970317, 4.750509 ], [ 101.968698, 4.759655 ], [ 101.963659, 4.764676 ], [ 101.950523, 4.757862 ], [ 101.947824, 4.748895 ], [ 101.953762, 4.733473 ], [ 101.951423, 4.729886 ], [ 101.953582, 4.714105 ], [ 101.949264, 4.703165 ], [ 101.949084, 4.69653 ], [ 101.943685, 4.681465 ], [ 101.945125, 4.67734 ], [ 101.938467, 4.657791 ], [ 101.92785, 4.658508 ], [ 101.922452, 4.642905 ], [ 101.915794, 4.632143 ], [ 101.914534, 4.620844 ], [ 101.911655, 4.609185 ], [ 101.900858, 4.608826 ], [ 101.89384, 4.616539 ], [ 101.893301, 4.628018 ], [ 101.888082, 4.635551 ], [ 101.889522, 4.639497 ], [ 101.887902, 4.643263 ], [ 101.892761, 4.651334 ], [ 101.890241, 4.654742 ], [ 101.893121, 4.662275 ], [ 101.887182, 4.666579 ], [ 101.889342, 4.67178 ], [ 101.879085, 4.678237 ], [ 101.870088, 4.67716 ], [ 101.864509, 4.682362 ], [ 101.864509, 4.687204 ], [ 101.86235, 4.693301 ], [ 101.859291, 4.691508 ], [ 101.858571, 4.687204 ], [ 101.850833, 4.683976 ], [ 101.846875, 4.687204 ], [ 101.847235, 4.692225 ], [ 101.845615, 4.694736 ], [ 101.845255, 4.69922 ], [ 101.845975, 4.705138 ], [ 101.841836, 4.719485 ], [ 101.838417, 4.721278 ], [ 101.835178, 4.720023 ], [ 101.831759, 4.714643 ], [ 101.823662, 4.717154 ], [ 101.819163, 4.725403 ], [ 101.821682, 4.750868 ], [ 101.816464, 4.759475 ], [ 101.811246, 4.761269 ], [ 101.808726, 4.760013 ], [ 101.802068, 4.763241 ], [ 101.79667, 4.761448 ], [ 101.79685, 4.755889 ], [ 101.780655, 4.758579 ], [ 101.775077, 4.751226 ], [ 101.775256, 4.747102 ], [ 101.773997, 4.744412 ], [ 101.773457, 4.724148 ], [ 101.775616, 4.716974 ], [ 101.775077, 4.70998 ], [ 101.777596, 4.707111 ], [ 101.776156, 4.703883 ], [ 101.773817, 4.702448 ], [ 101.770938, 4.697247 ], [ 101.772917, 4.691149 ], [ 101.770038, 4.678954 ], [ 101.774357, 4.67178 ], [ 101.774357, 4.659764 ], [ 101.768778, 4.655101 ], [ 101.768239, 4.641828 ], [ 101.768239, 4.636448 ], [ 101.76284, 4.622637 ], [ 101.758342, 4.624431 ], [ 101.752763, 4.62192 ], [ 101.755103, 4.619409 ], [ 101.754563, 4.611158 ], [ 101.749884, 4.610082 ], [ 101.747545, 4.612772 ], [ 101.741427, 4.612414 ], [ 101.734409, 4.618691 ], [ 101.73189, 4.623175 ], [ 101.725592, 4.621202 ], [ 101.724332, 4.615463 ], [ 101.726311, 4.610441 ], [ 101.716414, 4.606136 ], [ 101.712815, 4.610082 ], [ 101.711196, 4.604701 ], [ 101.677906, 4.59376 ], [ 101.674667, 4.595195 ], [ 101.668729, 4.582998 ], [ 101.668189, 4.570621 ], [ 101.653074, 4.556809 ], [ 101.643177, 4.556271 ], [ 101.640837, 4.558603 ], [ 101.635979, 4.559141 ], [ 101.635259, 4.555733 ], [ 101.626442, 4.550531 ], [ 101.624462, 4.546585 ], [ 101.619244, 4.546585 ], [ 101.617085, 4.551428 ], [ 101.613306, 4.558962 ], [ 101.607548, 4.560576 ], [ 101.593872, 4.557885 ], [ 101.590993, 4.551787 ], [ 101.585774, 4.55645 ], [ 101.585234, 4.562728 ], [ 101.578936, 4.562728 ], [ 101.571558, 4.574388 ], [ 101.563101, 4.579051 ], [ 101.551225, 4.575105 ], [ 101.547986, 4.577796 ], [ 101.543667, 4.593401 ], [ 101.53449, 4.599858 ], [ 101.53341, 4.603984 ], [ 101.523693, 4.60506 ], [ 101.522253, 4.611337 ], [ 101.516855, 4.611337 ], [ 101.516315, 4.607212 ], [ 101.507318, 4.607033 ], [ 101.50138, 4.61062 ], [ 101.495262, 4.601652 ], [ 101.488604, 4.598782 ], [ 101.484825, 4.601652 ], [ 101.480686, 4.600576 ], [ 101.477087, 4.590172 ], [ 101.477267, 4.574746 ], [ 101.452075, 4.573312 ], [ 101.446856, 4.57672 ], [ 101.443437, 4.586944 ], [ 101.437679, 4.589455 ], [ 101.425263, 4.605239 ], [ 101.40115, 4.618153 ], [ 101.398631, 4.613759 ], [ 101.386035, 4.609723 ], [ 101.373844, 4.610127 ], [ 101.370245, 4.621247 ], [ 101.376723, 4.629856 ], [ 101.370785, 4.634699 ], [ 101.364487, 4.634878 ], [ 101.363498, 4.643257 ], [ 101.362687, 4.650124 ], [ 101.357829, 4.660167 ], [ 101.35189, 4.664113 ], [ 101.349911, 4.671287 ], [ 101.346222, 4.672004 ], [ 101.343073, 4.676667 ], [ 101.337855, 4.679716 ], [ 101.337515, 4.68018 ], [ 101.334436, 4.684379 ], [ 101.333716, 4.695319 ], [ 101.334975, 4.698727 ], [ 101.340734, 4.700341 ], [ 101.340374, 4.707155 ], [ 101.343433, 4.713432 ], [ 101.347572, 4.713074 ], [ 101.350631, 4.706438 ], [ 101.358368, 4.707155 ], [ 101.365386, 4.71397 ], [ 101.370785, 4.712536 ], [ 101.372764, 4.707514 ], [ 101.379242, 4.708052 ], [ 101.38752, 4.723116 ], [ 101.374563, 4.761314 ], [ 101.38734, 4.764183 ], [ 101.397956, 4.762389 ], [ 101.395797, 4.773149 ], [ 101.411092, 4.798612 ], [ 101.415051, 4.813316 ], [ 101.410373, 4.81726 ], [ 101.407313, 4.825867 ], [ 101.400116, 4.833577 ], [ 101.403175, 4.838957 ], [ 101.402095, 4.843081 ], [ 101.412352, 4.843977 ], [ 101.409833, 4.85097 ], [ 101.410732, 4.855632 ], [ 101.424228, 4.850611 ], [ 101.428727, 4.857245 ], [ 101.435745, 4.859755 ], [ 101.441143, 4.855632 ], [ 101.446542, 4.858859 ], [ 101.438084, 4.86872 ], [ 101.436465, 4.877864 ], [ 101.446362, 4.878044 ], [ 101.447801, 4.899379 ], [ 101.444562, 4.919459 ], [ 101.437544, 4.926451 ], [ 101.437724, 4.956032 ], [ 101.425668, 4.973062 ], [ 101.424648, 4.978606 ], [ 101.423688, 4.983818 ], [ 101.432686, 4.992423 ], [ 101.441143, 4.996367 ], [ 101.445642, 4.994574 ], [ 101.448701, 4.997442 ], [ 101.448341, 5.002103 ], [ 101.45284, 5.005151 ], [ 101.447216, 5.0125 ], [ 101.454431, 5.022781 ], [ 101.460172, 5.030963 ], [ 101.458733, 5.048171 ], [ 101.464491, 5.059464 ], [ 101.460532, 5.064483 ], [ 101.465571, 5.074879 ], [ 101.475468, 5.07918 ], [ 101.485185, 5.089218 ], [ 101.479966, 5.098717 ], [ 101.477267, 5.108575 ], [ 101.480811, 5.114638 ], [ 101.484285, 5.120583 ], [ 101.486624, 5.132591 ], [ 101.480506, 5.143165 ], [ 101.481766, 5.151947 ], [ 101.487164, 5.156965 ], [ 101.489503, 5.161983 ], [ 101.485365, 5.16503 ], [ 101.497421, 5.185998 ], [ 101.510197, 5.198901 ], [ 101.508758, 5.203022 ], [ 101.516135, 5.215566 ], [ 101.511277, 5.222914 ], [ 101.510017, 5.231694 ], [ 101.521894, 5.242087 ], [ 101.524053, 5.250689 ], [ 101.519734, 5.25266 ], [ 101.520994, 5.267891 ], [ 101.528372, 5.272191 ], [ 101.53449, 5.261261 ], [ 101.547266, 5.262873 ], [ 101.547446, 5.278642 ], [ 101.558602, 5.282763 ], [ 101.560222, 5.289213 ], [ 101.56706, 5.284913 ], [ 101.573358, 5.291363 ], [ 101.569219, 5.300143 ], [ 101.571918, 5.301935 ], [ 101.575337, 5.319494 ], [ 101.573718, 5.323436 ], [ 101.575157, 5.327915 ], [ 101.582715, 5.33114 ], [ 101.588293, 5.32899 ], [ 101.59963, 5.330602 ], [ 101.605208, 5.34601 ], [ 101.615285, 5.347265 ], [ 101.619424, 5.351206 ], [ 101.625542, 5.347444 ], [ 101.627701, 5.340994 ], [ 101.639398, 5.338486 ], [ 101.646056, 5.344756 ], [ 101.654333, 5.340815 ], [ 101.654513, 5.336694 ], [ 101.663331, 5.334544 ], [ 101.66639, 5.325586 ], [ 101.672688, 5.324152 ], [ 101.677906, 5.333827 ], [ 101.69932, 5.330423 ], [ 101.702559, 5.338844 ], [ 101.716774, 5.344577 ], [ 101.723792, 5.349952 ], [ 101.734949, 5.351027 ], [ 101.752583, 5.371272 ], [ 101.742866, 5.380409 ], [ 101.739807, 5.396667 ], [ 101.740887, 5.402981 ], [ 101.744486, 5.42 ], [ 101.739267, 5.429136 ], [ 101.739987, 5.452065 ], [ 101.734589, 5.458335 ], [ 101.747185, 5.471232 ], [ 101.749164, 5.482696 ], [ 101.748265, 5.499892 ], [ 101.740707, 5.509564 ], [ 101.752795, 5.532303 ], [ 101.783877, 5.562595 ], [ 101.882391, 5.6295 ], [ 101.938234, 5.640827 ], [ 101.949824, 5.642407 ], [ 101.951141, 5.640037 ], [ 101.951141, 5.626339 ], [ 101.953775, 5.613169 ], [ 101.955882, 5.598682 ], [ 101.959043, 5.590516 ], [ 101.962204, 5.575502 ], [ 101.957989, 5.553112 ], [ 101.955355, 5.538888 ], [ 101.968789, 5.544156 ], [ 101.979589, 5.540732 ], [ 101.994866, 5.526244 ], [ 102.004349, 5.517815 ], [ 102.0191, 5.518342 ], [ 102.04386, 5.509913 ], [ 102.09101, 5.493318 ], [ 102.110792, 5.468835 ] ] ] } }
]
}
