{
"type": "FeatureCollection",
"name": "KTN_SE-08",
"crs": { "type": "name", "properties": { "name": "urn:ogc:def:crs:OGC:1.3:CRS84" } },
"features": [
{ "type": "Feature", "properties": { "state": "Kelantan", "parlimen": "P.017 Tumpat", "code_parlimen": "P.017", "dun": "N.01 Geting", "code_dun": "N.01" }, "geometry": { "type": "Polygon", "coordinates": [ [ [ 102.121797, 6.163737 ], [ 102.115445, 6.164881 ], [ 102.108205, 6.168818 ], [ 102.103505, 6.161451 ], [ 102.106807, 6.153829 ], [ 102.101472, 6.151289 ], [ 102.095001, 6.150219 ], [ 102.093201, 6.15021 ], [ 102.093033, 6.148701 ], [ 102.092691, 6.14828 ], [ 102.09013, 6.150273 ], [ 102.091466, 6.154259 ], [ 102.089685, 6.15913 ], [ 102.085453, 6.157137 ], [ 102.083226, 6.161123 ], [ 102.085008, 6.164666 ], [ 102.082113, 6.171308 ], [ 102.07944, 6.171973 ], [ 102.082113, 6.182601 ], [ 102.078772, 6.189243 ], [ 102.081444, 6.225554 ], [ 102.093248, 6.235074 ], [ 102.095698, 6.245258 ], [ 102.120196, 6.22489 ], [ 102.142221, 6.217363 ], [ 102.15583, 6.212713 ], [ 102.159683, 6.203052 ], [ 102.168193, 6.194414 ], [ 102.179118, 6.193271 ], [ 102.183437, 6.188698 ], [ 102.191948, 6.186158 ], [ 102.186485, 6.175868 ], [ 102.178641, 6.167802 ], [ 102.180293, 6.15891 ], [ 102.178133, 6.15421 ], [ 102.174327, 6.148961 ], [ 102.171232, 6.145274 ], [ 102.165431, 6.152305 ], [ 102.158508, 6.159672 ], [ 102.155459, 6.164881 ], [ 102.150124, 6.171994 ], [ 102.141486, 6.179362 ], [ 102.134499, 6.177202 ], [ 102.126751, 6.16704 ], [ 102.121797, 6.163737 ] ] ] } },
{ "type": "Feature", "properties": { "state": "Kelantan", "parlimen": "P.017 Tumpat", "code_parlimen": "P.017", "dun": "N.02 Sungai Pinang", "code_dun": "N.02" }, "geometry": { "type": "Polygon", "coordinates": [ [ [ 102.235772, 6.184252 ], [ 102.2331, 6.180427 ], [ 102.229675, 6.177647 ], [ 102.22218, 6.171931 ], [ 102.219227, 6.168628 ], [ 102.213638, 6.167612 ], [ 102.207032, 6.164309 ], [ 102.198013, 6.163801 ], [ 102.193948, 6.156814 ], [ 102.190773, 6.148875 ], [ 102.187152, 6.147478 ], [ 102.178133, 6.15421 ], [ 102.180293, 6.15891 ], [ 102.178641, 6.167802 ], [ 102.186485, 6.175868 ], [ 102.191948, 6.186158 ], [ 102.183437, 6.188698 ], [ 102.179118, 6.193271 ], [ 102.168193, 6.194414 ], [ 102.159683, 6.203052 ], [ 102.15583, 6.212713 ], [ 102.166298, 6.226661 ], [ 102.175149, 6.2264 ], [ 102.222644, 6.225 ], [ 102.227089, 6.213443 ], [ 102.233104, 6.205974 ], [ 102.233104, 6.195558 ], [ 102.237423, 6.188825 ], [ 102.235772, 6.184252 ] ] ] } },
{ "type": "Feature", "properties": { "state": "Kelantan", "parlimen": "P.017 Tumpat", "code_parlimen": "P.017", "dun": "N.03 Wakaf Baharu", "code_dun": "N.03" }, "geometry": { "type": "Polygon", "coordinates": [ [ [ 102.174327, 6.148961 ], [ 102.178133, 6.15421 ], [ 102.187152, 6.147478 ], [ 102.190773, 6.148875 ], [ 102.193948, 6.156814 ], [ 102.198013, 6.163801 ], [ 102.207032, 6.164309 ], [ 102.213638, 6.167612 ], [ 102.219227, 6.168628 ], [ 102.22218, 6.171931 ], [ 102.229675, 6.177647 ], [ 102.2331, 6.180427 ], [ 102.235772, 6.184252 ], [ 102.237423, 6.188825 ], [ 102.244894, 6.182462 ], [ 102.248094, 6.178282 ], [ 102.247743, 6.172848 ], [ 102.239678, 6.165992 ], [ 102.233835, 6.15837 ], [ 102.233581, 6.141857 ], [ 102.233136, 6.137538 ], [ 102.233002, 6.135102 ], [ 102.231612, 6.126741 ], [ 102.229929, 6.120008 ], [ 102.224594, 6.113625 ], [ 102.22218, 6.111402 ], [ 102.220402, 6.10848 ], [ 102.219484, 6.104754 ], [ 102.219767, 6.097874 ], [ 102.215776, 6.097953 ], [ 102.213381, 6.098234 ], [ 102.20508, 6.099984 ], [ 102.201411, 6.099779 ], [ 102.198934, 6.100224 ], [ 102.195631, 6.101494 ], [ 102.192407, 6.103378 ], [ 102.191606, 6.105787 ], [ 102.190904, 6.108209 ], [ 102.189905, 6.110858 ], [ 102.186502, 6.114758 ], [ 102.181468, 6.118007 ], [ 102.179271, 6.118569 ], [ 102.17407, 6.11939 ], [ 102.171369, 6.119151 ], [ 102.167958, 6.120526 ], [ 102.162668, 6.120484 ], [ 102.161207, 6.125311 ], [ 102.153109, 6.131599 ], [ 102.149806, 6.138078 ], [ 102.150949, 6.140618 ], [ 102.156031, 6.14011 ], [ 102.160222, 6.142524 ], [ 102.166955, 6.141889 ], [ 102.171232, 6.145274 ], [ 102.174327, 6.148961 ] ] ] } },
{ "type": "Feature", "properties": { "state": "Kelantan", "parlimen": "P.018 Pengkalan Chepa", "code_parlimen": "P.018", "dun": "N.04 Semut Api", "code_dun": "N.04" }, "geometry": { "type": "Polygon", "coordinates": [ [ [ 102.261146, 6.172312 ], [ 102.25797, 6.176758 ], [ 102.256827, 6.184379 ], [ 102.25454, 6.18349 ], [ 102.252508, 6.178663 ], [ 102.248094, 6.178282 ], [ 102.244894, 6.182462 ], [ 102.237423, 6.188825 ], [ 102.233104, 6.195558 ], [ 102.233104, 6.205974 ], [ 102.227089, 6.213443 ], [ 102.222644, 6.225 ], [ 102.269951, 6.199108 ], [ 102.282108, 6.192454 ], [ 102.299151, 6.185995 ], [ 102.296041, 6.179134 ], [ 102.296078, 6.173455 ], [ 102.293411, 6.166849 ], [ 102.288584, 6.163674 ], [ 102.286805, 6.159482 ], [ 102.289981, 6.153385 ], [ 102.292522, 6.14716 ], [ 102.295443, 6.143095 ], [ 102.297603, 6.140936 ], [ 102.296586, 6.13776 ], [ 102.295951, 6.133314 ], [ 102.293538, 6.132933 ], [ 102.289473, 6.135474 ], [ 102.286678, 6.133314 ], [ 102.283503, 6.128106 ], [ 102.278294, 6.128106 ], [ 102.272324, 6.128011 ], [ 102.27388, 6.143857 ], [ 102.271371, 6.145636 ], [ 102.27099, 6.150876 ], [ 102.26813, 6.154508 ], [ 102.264321, 6.17101 ], [ 102.261146, 6.172312 ] ] ] } },
{ "type": "Feature", "properties": { "state": "Kelantan", "parlimen": "P.018 Pengkalan Chepa", "code_parlimen": "P.018", "dun": "N.05 Kemumin", "code_dun": "N.05" }, "geometry": { "type": "Polygon", "coordinates": [ [ [ 102.278294, 6.128106 ], [ 102.283503, 6.128106 ], [ 102.286678, 6.133314 ], [ 102.289473, 6.135474 ], [ 102.293538, 6.132933 ], [ 102.295951, 6.133314 ], [ 102.296586, 6.13776 ], [ 102.297603, 6.140936 ], [ 102.295443, 6.143095 ], [ 102.292522, 6.14716 ], [ 102.289981, 6.153385 ], [ 102.286805, 6.159482 ], [ 102.288584, 6.163674 ], [ 102.293411, 6.166849 ], [ 102.296078, 6.173455 ], [ 102.296041, 6.179134 ], [ 102.299151, 6.185995 ], [ 102.304602, 6.183929 ], [ 102.304936, 6.18714 ], [ 102.325537, 6.180608 ], [ 102.344356, 6.168873 ], [ 102.339096, 6.16244 ], [ 102.329836, 6.147795 ], [ 102.333393, 6.136109 ], [ 102.335298, 6.120103 ], [ 102.332249, 6.113879 ], [ 102.322849, 6.113117 ], [ 102.32069, 6.116293 ], [ 102.309257, 6.116293 ], [ 102.307606, 6.110068 ], [ 102.306336, 6.104352 ], [ 102.305955, 6.099652 ], [ 102.31256, 6.098382 ], [ 102.317133, 6.096603 ], [ 102.318735, 6.091861 ], [ 102.316276, 6.08949 ], [ 102.310814, 6.08733 ], [ 102.302176, 6.087838 ], [ 102.295316, 6.089871 ], [ 102.289473, 6.092665 ], [ 102.289219, 6.103463 ], [ 102.287447, 6.109397 ], [ 102.277437, 6.116377 ], [ 102.267823, 6.119406 ], [ 102.269466, 6.122041 ], [ 102.272324, 6.128011 ], [ 102.278294, 6.128106 ] ] ] } },
{ "type": "Feature", "properties": { "state": "Kelantan", "parlimen": "P.018 Pengkalan Chepa", "code_parlimen": "P.018", "dun": "N.06 Banggol", "code_dun": "N.06" }, "geometry": { "type": "Polygon", "coordinates": [ [ [ 102.252508, 6.178663 ], [ 102.25454, 6.18349 ], [ 102.256827, 6.184379 ], [ 102.25797, 6.176758 ], [ 102.261146, 6.172312 ], [ 102.264321, 6.17101 ], [ 102.26813, 6.154508 ], [ 102.27099, 6.150876 ], [ 102.271371, 6.145636 ], [ 102.27388, 6.143857 ], [ 102.272324, 6.128011 ], [ 102.269466, 6.122041 ], [ 102.267823, 6.119406 ], [ 102.263718, 6.121691 ], [ 102.257367, 6.123343 ], [ 102.249046, 6.12728 ], [ 102.248919, 6.131472 ], [ 102.250094, 6.135029 ], [ 102.250031, 6.141762 ], [ 102.246855, 6.144778 ], [ 102.244759, 6.142301 ], [ 102.239424, 6.145159 ], [ 102.233581, 6.141857 ], [ 102.233835, 6.15837 ], [ 102.239678, 6.165992 ], [ 102.247743, 6.172848 ], [ 102.248094, 6.178282 ], [ 102.252508, 6.178663 ] ] ] } },
{ "type": "Feature", "properties": { "state": "Kelantan", "parlimen": "P.019 Kota Baharu", "code_parlimen": "P.019", "dun": "N.07 Padang Garong", "code_dun": "N.07" }, "geometry": { "type": "Polygon", "coordinates": [ [ [ 102.251793, 6.113943 ], [ 102.246633, 6.113752 ], [ 102.241869, 6.114514 ], [ 102.241615, 6.12004 ], [ 102.241552, 6.123787 ], [ 102.239519, 6.128392 ], [ 102.235169, 6.127439 ], [ 102.231612, 6.126741 ], [ 102.233002, 6.135102 ], [ 102.233136, 6.137538 ], [ 102.233581, 6.141857 ], [ 102.239424, 6.145159 ], [ 102.244759, 6.142301 ], [ 102.246855, 6.144778 ], [ 102.250031, 6.141762 ], [ 102.250094, 6.135029 ], [ 102.248919, 6.131472 ], [ 102.249046, 6.12728 ], [ 102.257367, 6.123343 ], [ 102.263718, 6.121691 ], [ 102.267823, 6.119406 ], [ 102.265068, 6.116229 ], [ 102.26348, 6.114006 ], [ 102.263353, 6.110576 ], [ 102.262543, 6.109433 ], [ 102.258727, 6.111352 ], [ 102.254826, 6.114959 ], [ 102.251793, 6.113943 ] ] ] } },
{ "type": "Feature", "properties": { "state": "Kelantan", "parlimen": "P.019 Kota Baharu", "code_parlimen": "P.019", "dun": "N.08 Bunut Payong", "code_dun": "N.08" }, "geometry": { "type": "Polygon", "coordinates": [ [ [ 102.241615, 6.12004 ], [ 102.241869, 6.114514 ], [ 102.246633, 6.113752 ], [ 102.251793, 6.113943 ], [ 102.254826, 6.114959 ], [ 102.258727, 6.111352 ], [ 102.262543, 6.109433 ], [ 102.254858, 6.107909 ], [ 102.250158, 6.104288 ], [ 102.249777, 6.102002 ], [ 102.251936, 6.100287 ], [ 102.250666, 6.097175 ], [ 102.24603, 6.094063 ], [ 102.244124, 6.09076 ], [ 102.241815, 6.090959 ], [ 102.239043, 6.087775 ], [ 102.238306, 6.083822 ], [ 102.238471, 6.078565 ], [ 102.238154, 6.075009 ], [ 102.237836, 6.071007 ], [ 102.233708, 6.072976 ], [ 102.229643, 6.075644 ], [ 102.223323, 6.077676 ], [ 102.223311, 6.077679 ], [ 102.22372, 6.080787 ], [ 102.219767, 6.097874 ], [ 102.219484, 6.104754 ], [ 102.220402, 6.10848 ], [ 102.22218, 6.111402 ], [ 102.224594, 6.113625 ], [ 102.229929, 6.120008 ], [ 102.231612, 6.126741 ], [ 102.235169, 6.127439 ], [ 102.239519, 6.128392 ], [ 102.241552, 6.123787 ], [ 102.241615, 6.12004 ] ] ] } },
{ "type": "Feature", "properties": { "state": "Kelantan", "parlimen": "P.019 Kota Baharu", "code_parlimen": "P.019", "dun": "N.09 Lundang", "code_dun": "N.09" }, "geometry": { "type": "Polygon", "coordinates": [ [ [ 102.315752, 6.04141 ], [ 102.312449, 6.042172 ], [ 102.309527, 6.04611 ], [ 102.3047, 6.047888 ], [ 102.304065, 6.050302 ], [ 102.299111, 6.054113 ], [ 102.294665, 6.057034 ], [ 102.289203, 6.058559 ], [ 102.283741, 6.059575 ], [ 102.279676, 6.060718 ], [ 102.275865, 6.063894 ], [ 102.273198, 6.069102 ], [ 102.266973, 6.074183 ], [ 102.261929, 6.076174 ], [ 102.255938, 6.080788 ], [ 102.250412, 6.083773 ], [ 102.246728, 6.07685 ], [ 102.244442, 6.073484 ], [ 102.240948, 6.070563 ], [ 102.237836, 6.071007 ], [ 102.238154, 6.075009 ], [ 102.238471, 6.078565 ], [ 102.238306, 6.083822 ], [ 102.239043, 6.087775 ], [ 102.241815, 6.090959 ], [ 102.244124, 6.09076 ], [ 102.24603, 6.094063 ], [ 102.250666, 6.097175 ], [ 102.251936, 6.100287 ], [ 102.249777, 6.102002 ], [ 102.250158, 6.104288 ], [ 102.254858, 6.107909 ], [ 102.262543, 6.109433 ], [ 102.263353, 6.110576 ], [ 102.26348, 6.114006 ], [ 102.265068, 6.116229 ], [ 102.267823, 6.119406 ], [ 102.277437, 6.116377 ], [ 102.287447, 6.109397 ], [ 102.289219, 6.103463 ], [ 102.289473, 6.092665 ], [ 102.295316, 6.089871 ], [ 102.302176, 6.087838 ], [ 102.310814, 6.08733 ], [ 102.316276, 6.08949 ], [ 102.318735, 6.091861 ], [ 102.320833, 6.08991 ], [ 102.32412, 6.085679 ], [ 102.329836, 6.08263 ], [ 102.335679, 6.079455 ], [ 102.337402, 6.073941 ], [ 102.34257, 6.067641 ], [ 102.34346, 6.064592 ], [ 102.341046, 6.060909 ], [ 102.345619, 6.05913 ], [ 102.3479, 6.05301 ], [ 102.345746, 6.051381 ], [ 102.33787, 6.051763 ], [ 102.332662, 6.04846 ], [ 102.328005, 6.048266 ], [ 102.325549, 6.049476 ], [ 102.321611, 6.048968 ], [ 102.319506, 6.045536 ], [ 102.318308, 6.042998 ], [ 102.315752, 6.04141 ] ] ] } },
{ "type": "Feature", "properties": { "state": "Kelantan", "parlimen": "P.020 Pasir Mas", "code_parlimen": "P.020", "dun": "N.10 Tendong", "code_dun": "N.10" }, "geometry": { "type": "Polygon", "coordinates": [ [ [ 102.138707, 6.067673 ], [ 102.137945, 6.070848 ], [ 102.134388, 6.075803 ], [ 102.133753, 6.078343 ], [ 102.136421, 6.082662 ], [ 102.137691, 6.087235 ], [ 102.139342, 6.097143 ], [ 102.137564, 6.100954 ], [ 102.132229, 6.105781 ], [ 102.13261, 6.1101 ], [ 102.130832, 6.112895 ], [ 102.129688, 6.119881 ], [ 102.130355, 6.123597 ], [ 102.131467, 6.126613 ], [ 102.135277, 6.130043 ], [ 102.142264, 6.13017 ], [ 102.144042, 6.132838 ], [ 102.143661, 6.137411 ], [ 102.14455, 6.140587 ], [ 102.148361, 6.142746 ], [ 102.150949, 6.140618 ], [ 102.149806, 6.138078 ], [ 102.153109, 6.131599 ], [ 102.161207, 6.125311 ], [ 102.162668, 6.120484 ], [ 102.167958, 6.120526 ], [ 102.171369, 6.119151 ], [ 102.17407, 6.11939 ], [ 102.179271, 6.118569 ], [ 102.181468, 6.118007 ], [ 102.186502, 6.114758 ], [ 102.189905, 6.110858 ], [ 102.190904, 6.108209 ], [ 102.191606, 6.105787 ], [ 102.192407, 6.103378 ], [ 102.195631, 6.101494 ], [ 102.198934, 6.100224 ], [ 102.201411, 6.099779 ], [ 102.20508, 6.099984 ], [ 102.213381, 6.098234 ], [ 102.215776, 6.097953 ], [ 102.219767, 6.097874 ], [ 102.22372, 6.080787 ], [ 102.223311, 6.077679 ], [ 102.222621, 6.072436 ], [ 102.221225, 6.070006 ], [ 102.218798, 6.06618 ], [ 102.215098, 6.061161 ], [ 102.213305, 6.059771 ], [ 102.207102, 6.0548 ], [ 102.202303, 6.051789 ], [ 102.195555, 6.049407 ], [ 102.183951, 6.045799 ], [ 102.18142, 6.045792 ], [ 102.177101, 6.053287 ], [ 102.175403, 6.062587 ], [ 102.17545, 6.07215 ], [ 102.179769, 6.080026 ], [ 102.178753, 6.083837 ], [ 102.174561, 6.082313 ], [ 102.172401, 6.078629 ], [ 102.166812, 6.079899 ], [ 102.160588, 6.083837 ], [ 102.156434, 6.080751 ], [ 102.148139, 6.067959 ], [ 102.143439, 6.06618 ], [ 102.139374, 6.064783 ], [ 102.138707, 6.067673 ] ] ] } },
{ "type": "Feature", "properties": { "state": "Kelantan", "parlimen": "P.020 Pasir Mas", "code_parlimen": "P.020", "dun": "N.11 Pengkalan Pasir", "code_dun": "N.11" }, "geometry": { "type": "Polygon", "coordinates": [ [ [ 102.094692, 6.050397 ], [ 102.097233, 6.055351 ], [ 102.095708, 6.05967 ], [ 102.095454, 6.062846 ], [ 102.098884, 6.063735 ], [ 102.107141, 6.062211 ], [ 102.117938, 6.06094 ], [ 102.122098, 6.060464 ], [ 102.127434, 6.060845 ], [ 102.131009, 6.061633 ], [ 102.139374, 6.064783 ], [ 102.143439, 6.06618 ], [ 102.148139, 6.067959 ], [ 102.156434, 6.080751 ], [ 102.160588, 6.083837 ], [ 102.166812, 6.079899 ], [ 102.172401, 6.078629 ], [ 102.174561, 6.082313 ], [ 102.178753, 6.083837 ], [ 102.179769, 6.080026 ], [ 102.17545, 6.07215 ], [ 102.175403, 6.062587 ], [ 102.177101, 6.053287 ], [ 102.18142, 6.045792 ], [ 102.175955, 6.045778 ], [ 102.169554, 6.046218 ], [ 102.163252, 6.046998 ], [ 102.155126, 6.046618 ], [ 102.149239, 6.043813 ], [ 102.146737, 6.041732 ], [ 102.145836, 6.039303 ], [ 102.146996, 6.031756 ], [ 102.146361, 6.028326 ], [ 102.14039, 6.029723 ], [ 102.136834, 6.036202 ], [ 102.12972, 6.03671 ], [ 102.125655, 6.034169 ], [ 102.110285, 6.033407 ], [ 102.102403, 6.038178 ], [ 102.092628, 6.047888 ], [ 102.094692, 6.050397 ] ] ] } },
{ "type": "Feature", "properties": { "state": "Kelantan", "parlimen": "P.020 Pasir Mas", "code_parlimen": "P.020", "dun": "N.12 Meranti", "code_dun": "N.12" }, "geometry": { "type": "Polygon", "coordinates": [ [ [ 102.129688, 6.119881 ], [ 102.130832, 6.112895 ], [ 102.13261, 6.1101 ], [ 102.132229, 6.105781 ], [ 102.137564, 6.100954 ], [ 102.139342, 6.097143 ], [ 102.137691, 6.087235 ], [ 102.136421, 6.082662 ], [ 102.133753, 6.078343 ], [ 102.134388, 6.075803 ], [ 102.137945, 6.070848 ], [ 102.138707, 6.067673 ], [ 102.139374, 6.064783 ], [ 102.131009, 6.061633 ], [ 102.127434, 6.060845 ], [ 102.122098, 6.060464 ], [ 102.117938, 6.06094 ], [ 102.107141, 6.062211 ], [ 102.098884, 6.063735 ], [ 102.095454, 6.062846 ], [ 102.095708, 6.05967 ], [ 102.097233, 6.055351 ], [ 102.094692, 6.050397 ], [ 102.092628, 6.047888 ], [ 102.090582, 6.049932 ], [ 102.086308, 6.050143 ], [ 102.077035, 6.049635 ], [ 102.064079, 6.047856 ], [ 102.058108, 6.051286 ], [ 102.060522, 6.062973 ], [ 102.066619, 6.075421 ], [ 102.063316, 6.080503 ], [ 102.056393, 6.085647 ], [ 102.06218, 6.103992 ], [ 102.069084, 6.108864 ], [ 102.092691, 6.14828 ], [ 102.093033, 6.148701 ], [ 102.093201, 6.15021 ], [ 102.095001, 6.150219 ], [ 102.101472, 6.151289 ], [ 102.106807, 6.153829 ], [ 102.103505, 6.161451 ], [ 102.108205, 6.168818 ], [ 102.115445, 6.164881 ], [ 102.121797, 6.163737 ], [ 102.126751, 6.16704 ], [ 102.134499, 6.177202 ], [ 102.141486, 6.179362 ], [ 102.150124, 6.171994 ], [ 102.155459, 6.164881 ], [ 102.158508, 6.159672 ], [ 102.165431, 6.152305 ], [ 102.171232, 6.145274 ], [ 102.166955, 6.141889 ], [ 102.160222, 6.142524 ], [ 102.156031, 6.14011 ], [ 102.150949, 6.140618 ], [ 102.148361, 6.142746 ], [ 102.14455, 6.140587 ], [ 102.143661, 6.137411 ], [ 102.144042, 6.132838 ], [ 102.142264, 6.13017 ], [ 102.135277, 6.130043 ], [ 102.131467, 6.126613 ], [ 102.130355, 6.123597 ], [ 102.129688, 6.119881 ] ] ] } },
{ "type": "Feature", "properties": { "state": "Kelantan", "parlimen": "P.021 Rantau Panjang", "code_parlimen": "P.021", "dun": "N.13 Gual Periok", "code_dun": "N.13" }, "geometry": { "type": "Polygon", "coordinates": [ [ [ 101.996945, 5.921337 ], [ 101.982718, 5.931118 ], [ 101.974207, 5.933786 ], [ 101.947785, 5.909651 ], [ 101.942323, 5.906475 ], [ 101.934701, 5.898853 ], [ 101.931809, 5.904689 ], [ 101.922316, 5.911075 ], [ 101.923207, 5.923702 ], [ 101.930111, 5.925031 ], [ 101.929889, 5.948955 ], [ 101.936793, 5.948512 ], [ 101.943251, 5.955157 ], [ 101.940579, 5.971327 ], [ 101.946815, 5.985503 ], [ 101.970868, 6.00433 ], [ 101.972427, 6.019391 ], [ 101.99158, 6.040653 ], [ 101.998261, 6.040211 ], [ 102.004275, 6.044419 ], [ 102.003829, 6.051063 ], [ 102.01786, 6.051506 ], [ 102.024319, 6.063022 ], [ 102.037459, 6.072988 ], [ 102.054385, 6.079189 ], [ 102.056393, 6.085647 ], [ 102.063316, 6.080503 ], [ 102.066619, 6.075421 ], [ 102.060522, 6.062973 ], [ 102.058108, 6.051286 ], [ 102.047819, 6.046396 ], [ 102.039181, 6.041569 ], [ 102.039689, 6.034963 ], [ 102.043373, 6.032423 ], [ 102.046676, 6.029374 ], [ 102.046739, 6.027151 ], [ 102.048708, 6.023721 ], [ 102.053027, 6.019402 ], [ 102.054933, 6.017751 ], [ 102.054933, 6.008859 ], [ 102.054933, 5.992218 ], [ 102.054398, 5.978687 ], [ 102.05417, 5.969862 ], [ 102.053119, 5.958973 ], [ 102.053599, 5.95157 ], [ 102.053968, 5.944557 ], [ 102.051439, 5.942424 ], [ 102.051185, 5.927307 ], [ 102.039499, 5.926545 ], [ 102.026605, 5.926381 ], [ 102.010715, 5.927494 ], [ 102.008218, 5.923497 ], [ 102.003772, 5.923243 ], [ 102.003264, 5.918034 ], [ 101.996945, 5.921337 ] ] ] } },
{ "type": "Feature", "properties": { "state": "Kelantan", "parlimen": "P.021 Rantau Panjang", "code_parlimen": "P.021", "dun": "N.14 Bukit Tuku", "code_dun": "N.14" }, "geometry": { "type": "Polygon", "coordinates": [ [ [ 102.171322, 6.011908 ], [ 102.165859, 6.009367 ], [ 102.158492, 6.007335 ], [ 102.154173, 6.00454 ], [ 102.142994, 5.999713 ], [ 102.132578, 5.995013 ], [ 102.12737, 5.995013 ], [ 102.114794, 5.986756 ], [ 102.108443, 5.982691 ], [ 102.102892, 5.979099 ], [ 102.09699, 5.976495 ], [ 102.093073, 5.974181 ], [ 102.093696, 5.969462 ], [ 102.093432, 5.960901 ], [ 102.094853, 5.953972 ], [ 102.094597, 5.945345 ], [ 102.095867, 5.93531 ], [ 102.100694, 5.935945 ], [ 102.103362, 5.939502 ], [ 102.105267, 5.926545 ], [ 102.108697, 5.924513 ], [ 102.110221, 5.916637 ], [ 102.111492, 5.910667 ], [ 102.112381, 5.904315 ], [ 102.108062, 5.90368 ], [ 102.104124, 5.899615 ], [ 102.10044, 5.901902 ], [ 102.095867, 5.898345 ], [ 102.090786, 5.894026 ], [ 102.083514, 5.892756 ], [ 102.076527, 5.894534 ], [ 102.07433, 5.893946 ], [ 102.069424, 5.893016 ], [ 102.063698, 5.893518 ], [ 102.058489, 5.892883 ], [ 102.053694, 5.893518 ], [ 102.04947, 5.895042 ], [ 102.045279, 5.894852 ], [ 102.041817, 5.893709 ], [ 102.039612, 5.893929 ], [ 102.035593, 5.894598 ], [ 102.033179, 5.896059 ], [ 102.029686, 5.898345 ], [ 102.028091, 5.899605 ], [ 102.025688, 5.901955 ], [ 102.01603, 5.908634 ], [ 102.013833, 5.910473 ], [ 102.003264, 5.918034 ], [ 102.003772, 5.923243 ], [ 102.008218, 5.923497 ], [ 102.010715, 5.927494 ], [ 102.026605, 5.926381 ], [ 102.039499, 5.926545 ], [ 102.051185, 5.927307 ], [ 102.051439, 5.942424 ], [ 102.053968, 5.944557 ], [ 102.053599, 5.95157 ], [ 102.053119, 5.958973 ], [ 102.05417, 5.969862 ], [ 102.054398, 5.978687 ], [ 102.054933, 5.992218 ], [ 102.054933, 6.008859 ], [ 102.054933, 6.017751 ], [ 102.053027, 6.019402 ], [ 102.048708, 6.023721 ], [ 102.046739, 6.027151 ], [ 102.046676, 6.029374 ], [ 102.043373, 6.032423 ], [ 102.039689, 6.034963 ], [ 102.039181, 6.041569 ], [ 102.047819, 6.046396 ], [ 102.058108, 6.051286 ], [ 102.064079, 6.047856 ], [ 102.077035, 6.049635 ], [ 102.086308, 6.050143 ], [ 102.090582, 6.049932 ], [ 102.092628, 6.047888 ], [ 102.102403, 6.038178 ], [ 102.110285, 6.033407 ], [ 102.125655, 6.034169 ], [ 102.12972, 6.03671 ], [ 102.136834, 6.036202 ], [ 102.14039, 6.029723 ], [ 102.146361, 6.028326 ], [ 102.146996, 6.031756 ], [ 102.152839, 6.028072 ], [ 102.158804, 6.025114 ], [ 102.165602, 6.021273 ], [ 102.174307, 6.017275 ], [ 102.171322, 6.011908 ] ] ] } },
{ "type": "Feature", "properties": { "state": "Kelantan", "parlimen": "P.021 Rantau Panjang", "code_parlimen": "P.021", "dun": "N.15 Chetok", "code_dun": "N.15" }, "geometry": { "type": "Polygon", "coordinates": [ [ [ 102.110221, 5.916637 ], [ 102.108697, 5.924513 ], [ 102.105267, 5.926545 ], [ 102.103362, 5.939502 ], [ 102.100694, 5.935945 ], [ 102.095867, 5.93531 ], [ 102.094597, 5.945345 ], [ 102.094853, 5.953972 ], [ 102.093432, 5.960901 ], [ 102.093696, 5.969462 ], [ 102.093073, 5.974181 ], [ 102.09699, 5.976495 ], [ 102.102892, 5.979099 ], [ 102.108443, 5.982691 ], [ 102.114794, 5.986756 ], [ 102.12737, 5.995013 ], [ 102.132578, 5.995013 ], [ 102.142994, 5.999713 ], [ 102.154173, 6.00454 ], [ 102.158492, 6.007335 ], [ 102.165859, 6.009367 ], [ 102.171322, 6.011908 ], [ 102.174307, 6.017275 ], [ 102.182976, 6.01267 ], [ 102.191597, 5.999201 ], [ 102.195679, 5.990059 ], [ 102.201586, 5.982818 ], [ 102.206603, 5.972656 ], [ 102.207908, 5.962756 ], [ 102.20688, 5.958592 ], [ 102.205079, 5.951443 ], [ 102.203881, 5.944122 ], [ 102.202577, 5.939983 ], [ 102.19975, 5.935927 ], [ 102.198347, 5.926418 ], [ 102.197546, 5.923538 ], [ 102.197373, 5.917122 ], [ 102.196473, 5.914351 ], [ 102.19217, 5.90478 ], [ 102.187829, 5.898676 ], [ 102.18593, 5.894407 ], [ 102.181992, 5.890342 ], [ 102.170813, 5.891867 ], [ 102.160143, 5.898345 ], [ 102.148942, 5.903564 ], [ 102.146043, 5.903553 ], [ 102.142836, 5.90368 ], [ 102.139914, 5.902918 ], [ 102.135341, 5.900505 ], [ 102.131911, 5.898726 ], [ 102.127719, 5.897583 ], [ 102.127652, 5.903401 ], [ 102.121114, 5.905205 ], [ 102.112381, 5.904315 ], [ 102.111492, 5.910667 ], [ 102.110221, 5.916637 ] ] ] } },
{ "type": "Feature", "properties": { "state": "Kelantan", "parlimen": "P.022 Nilam Puri", "code_parlimen": "P.022", "dun": "N.16 Salor", "code_dun": "N.16" }, "geometry": { "type": "Polygon", "coordinates": [ [ [ 102.254604, 6.050651 ], [ 102.245712, 6.053573 ], [ 102.230723, 6.055986 ], [ 102.222593, 6.05497 ], [ 102.218401, 6.056494 ], [ 102.216242, 6.050905 ], [ 102.218401, 6.047856 ], [ 102.21802, 6.044808 ], [ 102.228563, 6.037059 ], [ 102.232247, 6.035916 ], [ 102.232501, 6.027786 ], [ 102.227928, 6.02804 ], [ 102.221831, 6.027786 ], [ 102.215479, 6.022324 ], [ 102.214336, 6.013305 ], [ 102.218274, 6.007589 ], [ 102.222847, 6.004794 ], [ 102.223355, 5.999967 ], [ 102.217639, 5.991456 ], [ 102.21459, 5.985994 ], [ 102.215479, 5.980786 ], [ 102.216321, 5.976086 ], [ 102.206603, 5.972656 ], [ 102.201586, 5.982818 ], [ 102.195679, 5.990059 ], [ 102.191597, 5.999201 ], [ 102.182976, 6.01267 ], [ 102.174307, 6.017275 ], [ 102.165602, 6.021273 ], [ 102.158804, 6.025114 ], [ 102.152839, 6.028072 ], [ 102.146996, 6.031756 ], [ 102.145836, 6.039303 ], [ 102.146737, 6.041732 ], [ 102.149239, 6.043813 ], [ 102.155126, 6.046618 ], [ 102.163252, 6.046998 ], [ 102.169554, 6.046218 ], [ 102.175955, 6.045778 ], [ 102.18142, 6.045792 ], [ 102.183951, 6.045799 ], [ 102.195555, 6.049407 ], [ 102.202303, 6.051789 ], [ 102.207102, 6.0548 ], [ 102.213305, 6.059771 ], [ 102.215098, 6.061161 ], [ 102.218798, 6.06618 ], [ 102.221225, 6.070006 ], [ 102.222621, 6.072436 ], [ 102.223311, 6.077679 ], [ 102.223323, 6.077676 ], [ 102.229643, 6.075644 ], [ 102.233708, 6.072976 ], [ 102.237836, 6.071007 ], [ 102.240948, 6.070563 ], [ 102.244442, 6.073484 ], [ 102.246728, 6.07685 ], [ 102.250412, 6.083773 ], [ 102.255938, 6.080788 ], [ 102.261929, 6.076174 ], [ 102.266973, 6.074183 ], [ 102.273198, 6.069102 ], [ 102.275865, 6.063894 ], [ 102.268196, 6.064497 ], [ 102.26248, 6.060051 ], [ 102.262353, 6.055732 ], [ 102.264766, 6.048492 ], [ 102.261971, 6.046967 ], [ 102.259701, 6.047348 ], [ 102.254604, 6.050651 ] ] ] } },
{ "type": "Feature", "properties": { "state": "Kelantan", "parlimen": "P.022 Nilam Puri", "code_parlimen": "P.022", "dun": "N.17 Mulong", "code_dun": "N.17" }, "geometry": { "type": "Polygon", "coordinates": [ [ [ 102.268704, 5.97507 ], [ 102.261844, 5.977102 ], [ 102.256255, 5.975832 ], [ 102.24965, 5.977864 ], [ 102.240504, 5.976594 ], [ 102.23085, 5.977737 ], [ 102.22318, 5.977229 ], [ 102.216321, 5.976086 ], [ 102.215479, 5.980786 ], [ 102.21459, 5.985994 ], [ 102.217639, 5.991456 ], [ 102.223355, 5.999967 ], [ 102.222847, 6.004794 ], [ 102.218274, 6.007589 ], [ 102.214336, 6.013305 ], [ 102.215479, 6.022324 ], [ 102.221831, 6.027786 ], [ 102.227928, 6.02804 ], [ 102.232501, 6.027786 ], [ 102.232247, 6.035916 ], [ 102.228563, 6.037059 ], [ 102.21802, 6.044808 ], [ 102.218401, 6.047856 ], [ 102.216242, 6.050905 ], [ 102.218401, 6.056494 ], [ 102.222593, 6.05497 ], [ 102.230723, 6.055986 ], [ 102.245712, 6.053573 ], [ 102.254604, 6.050651 ], [ 102.259701, 6.047348 ], [ 102.261971, 6.046967 ], [ 102.264766, 6.048492 ], [ 102.262353, 6.055732 ], [ 102.26248, 6.060051 ], [ 102.268196, 6.064497 ], [ 102.275865, 6.063894 ], [ 102.279676, 6.060718 ], [ 102.283741, 6.059575 ], [ 102.27912, 6.05154 ], [ 102.274547, 6.040108 ], [ 102.27289, 6.033735 ], [ 102.273381, 6.02746 ], [ 102.267652, 6.018567 ], [ 102.265909, 6.008859 ], [ 102.268196, 6.004413 ], [ 102.270355, 5.999332 ], [ 102.269736, 5.995775 ], [ 102.272023, 5.99171 ], [ 102.272023, 5.984978 ], [ 102.275833, 5.981802 ], [ 102.272658, 5.975578 ], [ 102.268704, 5.97507 ] ] ] } },
{ "type": "Feature", "properties": { "state": "Kelantan", "parlimen": "P.022 Nilam Puri", "code_parlimen": "P.022", "dun": "N.18 Peringat", "code_dun": "N.18" }, "geometry": { "type": "Polygon", "coordinates": [ [ [ 102.33533, 6.006064 ], [ 102.332535, 6.006573 ], [ 102.329741, 6.002889 ], [ 102.329741, 5.986375 ], [ 102.328597, 5.970878 ], [ 102.324151, 5.967194 ], [ 102.313989, 5.96821 ], [ 102.309543, 5.968718 ], [ 102.303446, 5.966813 ], [ 102.299508, 5.963129 ], [ 102.294681, 5.963383 ], [ 102.286297, 5.961605 ], [ 102.277993, 5.96351 ], [ 102.277739, 5.967829 ], [ 102.277993, 5.973418 ], [ 102.272658, 5.975578 ], [ 102.275833, 5.981802 ], [ 102.272023, 5.984978 ], [ 102.272023, 5.99171 ], [ 102.269736, 5.995775 ], [ 102.270355, 5.999332 ], [ 102.268196, 6.004413 ], [ 102.265909, 6.008859 ], [ 102.267652, 6.018567 ], [ 102.273381, 6.02746 ], [ 102.27289, 6.033735 ], [ 102.274547, 6.040108 ], [ 102.27912, 6.05154 ], [ 102.283741, 6.059575 ], [ 102.289203, 6.058559 ], [ 102.294665, 6.057034 ], [ 102.299111, 6.054113 ], [ 102.304065, 6.050302 ], [ 102.3047, 6.047888 ], [ 102.309527, 6.04611 ], [ 102.312449, 6.042172 ], [ 102.315752, 6.04141 ], [ 102.318308, 6.042998 ], [ 102.318864, 6.033629 ], [ 102.322357, 6.028485 ], [ 102.326041, 6.02785 ], [ 102.331186, 6.021562 ], [ 102.33728, 6.016497 ], [ 102.341681, 6.007398 ], [ 102.338251, 6.005874 ], [ 102.33533, 6.006064 ] ] ] } },
{ "type": "Feature", "properties": { "state": "Kelantan", "parlimen": "P.023 Bachok", "code_parlimen": "P.023", "dun": "N.19 Tawang", "code_dun": "N.19" }, "geometry": { "type": "Polygon", "coordinates": [ [ [ 102.377439, 6.059607 ], [ 102.376296, 6.055415 ], [ 102.37871, 6.049698 ], [ 102.37312, 6.042966 ], [ 102.376296, 6.038901 ], [ 102.376804, 6.028104 ], [ 102.378583, 6.024674 ], [ 102.377185, 6.02226 ], [ 102.378202, 6.019085 ], [ 102.373341, 6.016259 ], [ 102.370707, 6.015337 ], [ 102.365673, 6.01159 ], [ 102.360592, 6.00689 ], [ 102.355067, 6.005874 ], [ 102.34808, 6.006509 ], [ 102.341681, 6.007398 ], [ 102.33728, 6.016497 ], [ 102.331186, 6.021562 ], [ 102.326041, 6.02785 ], [ 102.322357, 6.028485 ], [ 102.318864, 6.033629 ], [ 102.318308, 6.042998 ], [ 102.319506, 6.045536 ], [ 102.321611, 6.048968 ], [ 102.325549, 6.049476 ], [ 102.328005, 6.048266 ], [ 102.332662, 6.04846 ], [ 102.33787, 6.051763 ], [ 102.345746, 6.051381 ], [ 102.3479, 6.05301 ], [ 102.345619, 6.05913 ], [ 102.341046, 6.060909 ], [ 102.34346, 6.064592 ], [ 102.34257, 6.067641 ], [ 102.337402, 6.073941 ], [ 102.335679, 6.079455 ], [ 102.329836, 6.08263 ], [ 102.32412, 6.085679 ], [ 102.320833, 6.08991 ], [ 102.318735, 6.091861 ], [ 102.317133, 6.096603 ], [ 102.31256, 6.098382 ], [ 102.305955, 6.099652 ], [ 102.306336, 6.104352 ], [ 102.307606, 6.110068 ], [ 102.309257, 6.116293 ], [ 102.32069, 6.116293 ], [ 102.322849, 6.113117 ], [ 102.332249, 6.113879 ], [ 102.335298, 6.120103 ], [ 102.333393, 6.136109 ], [ 102.329836, 6.147795 ], [ 102.339096, 6.16244 ], [ 102.344356, 6.168873 ], [ 102.370414, 6.133001 ], [ 102.373147, 6.127145 ], [ 102.369056, 6.128392 ], [ 102.36226, 6.124327 ], [ 102.359465, 6.119436 ], [ 102.36353, 6.113212 ], [ 102.370897, 6.109719 ], [ 102.376868, 6.099493 ], [ 102.37368, 6.091584 ], [ 102.374708, 6.085139 ], [ 102.377948, 6.079677 ], [ 102.383283, 6.075675 ], [ 102.384172, 6.072627 ], [ 102.38341, 6.069134 ], [ 102.379027, 6.066657 ], [ 102.379853, 6.062655 ], [ 102.377439, 6.059607 ] ] ] } },
{ "type": "Feature", "properties": { "state": "Kelantan", "parlimen": "P.023 Bachok", "code_parlimen": "P.023", "dun": "N.20 Perupok", "code_dun": "N.20" }, "geometry": { "type": "Polygon", "coordinates": [ [ [ 102.438317, 5.97742 ], [ 102.433363, 5.973609 ], [ 102.427901, 5.970941 ], [ 102.421042, 5.970052 ], [ 102.419517, 5.967385 ], [ 102.420152, 5.961414 ], [ 102.418755, 5.954936 ], [ 102.421423, 5.95049 ], [ 102.422058, 5.947314 ], [ 102.415325, 5.939566 ], [ 102.411006, 5.936517 ], [ 102.406942, 5.94236 ], [ 102.40458, 5.948146 ], [ 102.40221, 5.955126 ], [ 102.394489, 5.973314 ], [ 102.391197, 5.97687 ], [ 102.387983, 5.979071 ], [ 102.387792, 5.983644 ], [ 102.389443, 5.989233 ], [ 102.385506, 5.994823 ], [ 102.38125, 6.003905 ], [ 102.382012, 6.008859 ], [ 102.384299, 6.013686 ], [ 102.382628, 6.017432 ], [ 102.378202, 6.019085 ], [ 102.377185, 6.02226 ], [ 102.378583, 6.024674 ], [ 102.376804, 6.028104 ], [ 102.376296, 6.038901 ], [ 102.37312, 6.042966 ], [ 102.37871, 6.049698 ], [ 102.376296, 6.055415 ], [ 102.377439, 6.059607 ], [ 102.379853, 6.062655 ], [ 102.379027, 6.066657 ], [ 102.38341, 6.069134 ], [ 102.384172, 6.072627 ], [ 102.383283, 6.075675 ], [ 102.377948, 6.079677 ], [ 102.374708, 6.085139 ], [ 102.37368, 6.091584 ], [ 102.376868, 6.099493 ], [ 102.370897, 6.109719 ], [ 102.36353, 6.113212 ], [ 102.359465, 6.119436 ], [ 102.36226, 6.124327 ], [ 102.369056, 6.128392 ], [ 102.373147, 6.127145 ], [ 102.43843, 5.987302 ], [ 102.442763, 5.978055 ], [ 102.438317, 5.97742 ] ] ] } },
{ "type": "Feature", "properties": { "state": "Kelantan", "parlimen": "P.023 Bachok", "code_parlimen": "P.023", "dun": "N.21 Jelawat", "code_dun": "N.21" }, "geometry": { "type": "Polygon", "coordinates": [ [ [ 102.406942, 5.94236 ], [ 102.411006, 5.936517 ], [ 102.415325, 5.939566 ], [ 102.422058, 5.947314 ], [ 102.421423, 5.95049 ], [ 102.418755, 5.954936 ], [ 102.420152, 5.961414 ], [ 102.419517, 5.967385 ], [ 102.421042, 5.970052 ], [ 102.427901, 5.970941 ], [ 102.433363, 5.973609 ], [ 102.438317, 5.97742 ], [ 102.442763, 5.978055 ], [ 102.470189, 5.919271 ], [ 102.473147, 5.913681 ], [ 102.472275, 5.913141 ], [ 102.466073, 5.909778 ], [ 102.459478, 5.904797 ], [ 102.448674, 5.900045 ], [ 102.444478, 5.897837 ], [ 102.431426, 5.888755 ], [ 102.424567, 5.884499 ], [ 102.420591, 5.880909 ], [ 102.417394, 5.879177 ], [ 102.414991, 5.878587 ], [ 102.411291, 5.877258 ], [ 102.406465, 5.877322 ], [ 102.404592, 5.877347 ], [ 102.398907, 5.878021 ], [ 102.392683, 5.881578 ], [ 102.389297, 5.887779 ], [ 102.38341, 5.894661 ], [ 102.382113, 5.897132 ], [ 102.381599, 5.900481 ], [ 102.377058, 5.899044 ], [ 102.372168, 5.901267 ], [ 102.369865, 5.904379 ], [ 102.36642, 5.906665 ], [ 102.362625, 5.912699 ], [ 102.359222, 5.917188 ], [ 102.354828, 5.926437 ], [ 102.350684, 5.931753 ], [ 102.345603, 5.934421 ], [ 102.341077, 5.934186 ], [ 102.335098, 5.931771 ], [ 102.329349, 5.931427 ], [ 102.326946, 5.931309 ], [ 102.31805, 5.932897 ], [ 102.307098, 5.938359 ], [ 102.302207, 5.936834 ], [ 102.298015, 5.934802 ], [ 102.294395, 5.937089 ], [ 102.289314, 5.939248 ], [ 102.28201, 5.940264 ], [ 102.281565, 5.94363 ], [ 102.282137, 5.949347 ], [ 102.280994, 5.953856 ], [ 102.276743, 5.95725 ], [ 102.277993, 5.96351 ], [ 102.286297, 5.961605 ], [ 102.294681, 5.963383 ], [ 102.299508, 5.963129 ], [ 102.303446, 5.966813 ], [ 102.309543, 5.968718 ], [ 102.313989, 5.96821 ], [ 102.324151, 5.967194 ], [ 102.328597, 5.970878 ], [ 102.329741, 5.986375 ], [ 102.329741, 6.002889 ], [ 102.332535, 6.006573 ], [ 102.33533, 6.006064 ], [ 102.338251, 6.005874 ], [ 102.341681, 6.007398 ], [ 102.34808, 6.006509 ], [ 102.355067, 6.005874 ], [ 102.360592, 6.00689 ], [ 102.365673, 6.01159 ], [ 102.370707, 6.015337 ], [ 102.373341, 6.016259 ], [ 102.378202, 6.019085 ], [ 102.382628, 6.017432 ], [ 102.384299, 6.013686 ], [ 102.382012, 6.008859 ], [ 102.38125, 6.003905 ], [ 102.385506, 5.994823 ], [ 102.389443, 5.989233 ], [ 102.387792, 5.983644 ], [ 102.387983, 5.979071 ], [ 102.391197, 5.97687 ], [ 102.394489, 5.973314 ], [ 102.40221, 5.955126 ], [ 102.40458, 5.948146 ], [ 102.406942, 5.94236 ] ] ] } },
{ "type": "Feature", "properties": { "state": "Kelantan", "parlimen": "P.024 Pasir Puteh", "code_parlimen": "P.024", "dun": "N.22 Cherang Ruku", "code_dun": "N.22" }, "geometry": { "type": "Polygon", "coordinates": [ [ [ 102.475568, 5.784592 ], [ 102.468073, 5.78853 ], [ 102.460452, 5.790689 ], [ 102.452068, 5.790181 ], [ 102.44559, 5.794246 ], [ 102.440509, 5.801106 ], [ 102.434665, 5.808727 ], [ 102.430712, 5.810061 ], [ 102.433316, 5.815714 ], [ 102.435602, 5.823018 ], [ 102.435475, 5.827019 ], [ 102.432288, 5.831007 ], [ 102.430775, 5.831275 ], [ 102.428933, 5.828163 ], [ 102.425281, 5.82613 ], [ 102.424837, 5.829496 ], [ 102.42255, 5.830513 ], [ 102.418784, 5.827985 ], [ 102.415182, 5.828988 ], [ 102.414674, 5.833307 ], [ 102.416677, 5.837468 ], [ 102.419574, 5.841946 ], [ 102.419311, 5.845502 ], [ 102.416808, 5.844843 ], [ 102.414438, 5.841682 ], [ 102.409565, 5.841156 ], [ 102.405877, 5.84379 ], [ 102.40475, 5.847979 ], [ 102.4071, 5.852996 ], [ 102.411419, 5.855537 ], [ 102.411483, 5.858459 ], [ 102.407354, 5.861825 ], [ 102.407799, 5.865128 ], [ 102.404115, 5.866525 ], [ 102.403734, 5.86951 ], [ 102.406275, 5.872368 ], [ 102.406465, 5.877322 ], [ 102.411291, 5.877258 ], [ 102.414991, 5.878587 ], [ 102.417394, 5.879177 ], [ 102.420591, 5.880909 ], [ 102.424567, 5.884499 ], [ 102.431426, 5.888755 ], [ 102.444478, 5.897837 ], [ 102.448674, 5.900045 ], [ 102.459478, 5.904797 ], [ 102.466073, 5.909778 ], [ 102.472275, 5.913141 ], [ 102.473147, 5.913681 ], [ 102.479098, 5.902435 ], [ 102.500255, 5.879617 ], [ 102.536335, 5.847271 ], [ 102.488451, 5.791658 ], [ 102.477505, 5.782782 ], [ 102.475568, 5.784592 ] ] ] } },
{ "type": "Feature", "properties": { "state": "Kelantan", "parlimen": "P.024 Pasir Puteh", "code_parlimen": "P.024", "dun": "N.23 Limbongan", "code_dun": "N.23" }, "geometry": { "type": "Polygon", "coordinates": [ [ [ 102.319054, 5.82975 ], [ 102.325025, 5.829369 ], [ 102.327057, 5.832037 ], [ 102.332265, 5.832926 ], [ 102.334171, 5.838769 ], [ 102.338236, 5.842453 ], [ 102.337473, 5.850583 ], [ 102.341157, 5.85414 ], [ 102.350176, 5.85668 ], [ 102.357163, 5.860237 ], [ 102.357544, 5.866334 ], [ 102.360719, 5.871796 ], [ 102.357544, 5.875099 ], [ 102.358433, 5.879418 ], [ 102.362371, 5.882086 ], [ 102.3611, 5.886278 ], [ 102.36453, 5.889961 ], [ 102.36796, 5.889961 ], [ 102.369992, 5.895678 ], [ 102.372168, 5.901267 ], [ 102.377058, 5.899044 ], [ 102.381599, 5.900481 ], [ 102.382113, 5.897132 ], [ 102.38341, 5.894661 ], [ 102.389297, 5.887779 ], [ 102.392683, 5.881578 ], [ 102.398907, 5.878021 ], [ 102.404592, 5.877347 ], [ 102.406465, 5.877322 ], [ 102.406275, 5.872368 ], [ 102.403734, 5.86951 ], [ 102.404115, 5.866525 ], [ 102.407799, 5.865128 ], [ 102.407354, 5.861825 ], [ 102.411483, 5.858459 ], [ 102.411419, 5.855537 ], [ 102.4071, 5.852996 ], [ 102.40475, 5.847979 ], [ 102.405877, 5.84379 ], [ 102.409565, 5.841156 ], [ 102.414438, 5.841682 ], [ 102.416808, 5.844843 ], [ 102.419311, 5.845502 ], [ 102.419574, 5.841946 ], [ 102.416677, 5.837468 ], [ 102.414674, 5.833307 ], [ 102.415182, 5.828988 ], [ 102.418784, 5.827985 ], [ 102.42255, 5.830513 ], [ 102.424837, 5.829496 ], [ 102.425281, 5.82613 ], [ 102.428933, 5.828163 ], [ 102.430775, 5.831275 ], [ 102.432288, 5.831007 ], [ 102.435475, 5.827019 ], [ 102.435602, 5.823018 ], [ 102.433316, 5.815714 ], [ 102.430712, 5.810061 ], [ 102.425456, 5.807775 ], [ 102.422915, 5.80498 ], [ 102.418088, 5.800661 ], [ 102.410562, 5.796469 ], [ 102.406878, 5.797739 ], [ 102.404973, 5.80625 ], [ 102.402559, 5.808537 ], [ 102.39824, 5.80841 ], [ 102.392397, 5.812094 ], [ 102.382616, 5.817175 ], [ 102.379313, 5.81654 ], [ 102.371945, 5.810315 ], [ 102.364197, 5.804345 ], [ 102.360005, 5.801677 ], [ 102.356829, 5.80371 ], [ 102.347048, 5.80625 ], [ 102.344889, 5.804472 ], [ 102.340824, 5.797485 ], [ 102.337521, 5.795453 ], [ 102.33498, 5.796596 ], [ 102.330916, 5.802948 ], [ 102.326263, 5.807139 ], [ 102.317562, 5.807267 ], [ 102.307082, 5.807076 ], [ 102.302763, 5.805806 ], [ 102.301413, 5.807012 ], [ 102.298619, 5.808092 ], [ 102.298041, 5.814943 ], [ 102.297909, 5.82166 ], [ 102.299094, 5.825875 ], [ 102.299884, 5.82785 ], [ 102.301683, 5.833053 ], [ 102.304351, 5.835594 ], [ 102.308098, 5.83553 ], [ 102.310469, 5.835794 ], [ 102.314386, 5.833053 ], [ 102.316652, 5.830415 ], [ 102.319054, 5.82975 ] ] ] } },
{ "type": "Feature", "properties": { "state": "Kelantan", "parlimen": "P.024 Pasir Puteh", "code_parlimen": "P.024", "dun": "N.24 Gaal", "code_dun": "N.24" }, "geometry": { "type": "Polygon", "coordinates": [ [ [ 102.330916, 5.802948 ], [ 102.33498, 5.796596 ], [ 102.337521, 5.795453 ], [ 102.340824, 5.797485 ], [ 102.344889, 5.804472 ], [ 102.347048, 5.80625 ], [ 102.356829, 5.80371 ], [ 102.360005, 5.801677 ], [ 102.364197, 5.804345 ], [ 102.371945, 5.810315 ], [ 102.379313, 5.81654 ], [ 102.382616, 5.817175 ], [ 102.392397, 5.812094 ], [ 102.39824, 5.80841 ], [ 102.402559, 5.808537 ], [ 102.404973, 5.80625 ], [ 102.406878, 5.797739 ], [ 102.410562, 5.796469 ], [ 102.418088, 5.800661 ], [ 102.422915, 5.80498 ], [ 102.425456, 5.807775 ], [ 102.430712, 5.810061 ], [ 102.434665, 5.808727 ], [ 102.440509, 5.801106 ], [ 102.44559, 5.794246 ], [ 102.452068, 5.790181 ], [ 102.460452, 5.790689 ], [ 102.468073, 5.78853 ], [ 102.475568, 5.784592 ], [ 102.477505, 5.782782 ], [ 102.474269, 5.780214 ], [ 102.463116, 5.771215 ], [ 102.459022, 5.76792 ], [ 102.456173, 5.765613 ], [ 102.431882, 5.746012 ], [ 102.430434, 5.744075 ], [ 102.430199, 5.74425 ], [ 102.422501, 5.745151 ], [ 102.418628, 5.747056 ], [ 102.414055, 5.744896 ], [ 102.409582, 5.738779 ], [ 102.406052, 5.740196 ], [ 102.406179, 5.743626 ], [ 102.408974, 5.74858 ], [ 102.406942, 5.75328 ], [ 102.401479, 5.754423 ], [ 102.397287, 5.74985 ], [ 102.393477, 5.751374 ], [ 102.396398, 5.75798 ], [ 102.401098, 5.763696 ], [ 102.402337, 5.768015 ], [ 102.400431, 5.771445 ], [ 102.395985, 5.77208 ], [ 102.3937, 5.76832 ], [ 102.389634, 5.768142 ], [ 102.386204, 5.771191 ], [ 102.382266, 5.771826 ], [ 102.378583, 5.769031 ], [ 102.373629, 5.770047 ], [ 102.373558, 5.762972 ], [ 102.37561, 5.75669 ], [ 102.379241, 5.744707 ], [ 102.377738, 5.741826 ], [ 102.374137, 5.741466 ], [ 102.37184, 5.742957 ], [ 102.368636, 5.748586 ], [ 102.366736, 5.749967 ], [ 102.362895, 5.752645 ], [ 102.358322, 5.749596 ], [ 102.357051, 5.745531 ], [ 102.353495, 5.744642 ], [ 102.352383, 5.749596 ], [ 102.345524, 5.749723 ], [ 102.337521, 5.752772 ], [ 102.330535, 5.750358 ], [ 102.3255, 5.75181 ], [ 102.322532, 5.755439 ], [ 102.315259, 5.757599 ], [ 102.311099, 5.762426 ], [ 102.311397, 5.765534 ], [ 102.310893, 5.769476 ], [ 102.310699, 5.78055 ], [ 102.307899, 5.78192 ], [ 102.302128, 5.781162 ], [ 102.300858, 5.784529 ], [ 102.302573, 5.790245 ], [ 102.301112, 5.793675 ], [ 102.304542, 5.797041 ], [ 102.302763, 5.805806 ], [ 102.307082, 5.807076 ], [ 102.317562, 5.807267 ], [ 102.326263, 5.807139 ], [ 102.330916, 5.802948 ] ] ] } },
{ "type": "Feature", "properties": { "state": "Kelantan", "parlimen": "P.025 Kok Lanas", "code_parlimen": "P.025", "dun": "N.25 Selising", "code_dun": "N.25" }, "geometry": { "type": "Polygon", "coordinates": [ [ [ 102.369992, 5.895678 ], [ 102.36796, 5.889961 ], [ 102.36453, 5.889961 ], [ 102.3611, 5.886278 ], [ 102.362371, 5.882086 ], [ 102.358433, 5.879418 ], [ 102.357544, 5.875099 ], [ 102.360719, 5.871796 ], [ 102.357544, 5.866334 ], [ 102.357163, 5.860237 ], [ 102.350176, 5.85668 ], [ 102.341157, 5.85414 ], [ 102.337473, 5.850583 ], [ 102.338236, 5.842453 ], [ 102.334171, 5.838769 ], [ 102.332265, 5.832926 ], [ 102.327057, 5.832037 ], [ 102.325025, 5.829369 ], [ 102.319054, 5.82975 ], [ 102.316652, 5.830415 ], [ 102.314386, 5.833053 ], [ 102.310469, 5.835794 ], [ 102.308098, 5.83553 ], [ 102.304351, 5.835594 ], [ 102.301683, 5.833053 ], [ 102.299884, 5.82785 ], [ 102.299094, 5.825875 ], [ 102.297909, 5.82166 ], [ 102.298041, 5.814943 ], [ 102.298619, 5.808092 ], [ 102.296205, 5.806441 ], [ 102.296142, 5.801868 ], [ 102.2943, 5.801106 ], [ 102.292712, 5.801868 ], [ 102.286996, 5.807012 ], [ 102.283947, 5.811077 ], [ 102.282994, 5.814126 ], [ 102.27804, 5.817937 ], [ 102.279184, 5.823018 ], [ 102.27804, 5.826321 ], [ 102.28147, 5.83064 ], [ 102.279438, 5.835594 ], [ 102.276262, 5.841945 ], [ 102.271562, 5.84728 ], [ 102.274484, 5.850583 ], [ 102.275246, 5.862142 ], [ 102.279565, 5.867605 ], [ 102.279692, 5.870844 ], [ 102.280644, 5.875163 ], [ 102.280327, 5.877068 ], [ 102.274738, 5.880688 ], [ 102.264957, 5.883991 ], [ 102.263432, 5.886532 ], [ 102.264131, 5.892502 ], [ 102.26502, 5.895805 ], [ 102.266671, 5.898345 ], [ 102.269501, 5.90036 ], [ 102.271202, 5.90278 ], [ 102.272598, 5.904631 ], [ 102.270292, 5.911937 ], [ 102.271435, 5.917272 ], [ 102.269021, 5.923243 ], [ 102.26953, 5.92718 ], [ 102.272451, 5.929848 ], [ 102.276897, 5.929213 ], [ 102.2808, 5.9301 ], [ 102.281057, 5.932452 ], [ 102.27839, 5.934548 ], [ 102.278771, 5.938867 ], [ 102.28201, 5.940264 ], [ 102.289314, 5.939248 ], [ 102.294395, 5.937089 ], [ 102.298015, 5.934802 ], [ 102.302207, 5.936834 ], [ 102.307098, 5.938359 ], [ 102.31805, 5.932897 ], [ 102.326946, 5.931309 ], [ 102.329349, 5.931427 ], [ 102.335098, 5.931771 ], [ 102.341077, 5.934186 ], [ 102.345603, 5.934421 ], [ 102.350684, 5.931753 ], [ 102.354828, 5.926437 ], [ 102.359222, 5.917188 ], [ 102.362625, 5.912699 ], [ 102.36642, 5.906665 ], [ 102.369865, 5.904379 ], [ 102.372168, 5.901267 ], [ 102.369992, 5.895678 ] ] ] } },
{ "type": "Feature", "properties": { "state": "Kelantan", "parlimen": "P.025 Kok Lanas", "code_parlimen": "P.025", "dun": "N.26 Ketereh", "code_dun": "N.26" }, "geometry": { "type": "Polygon", "coordinates": [ [ [ 102.23085, 5.977737 ], [ 102.240504, 5.976594 ], [ 102.24965, 5.977864 ], [ 102.256255, 5.975832 ], [ 102.261844, 5.977102 ], [ 102.268704, 5.97507 ], [ 102.272658, 5.975578 ], [ 102.277993, 5.973418 ], [ 102.277739, 5.967829 ], [ 102.277993, 5.96351 ], [ 102.276743, 5.95725 ], [ 102.280994, 5.953856 ], [ 102.282137, 5.949347 ], [ 102.281565, 5.94363 ], [ 102.28201, 5.940264 ], [ 102.278771, 5.938867 ], [ 102.27839, 5.934548 ], [ 102.281057, 5.932452 ], [ 102.2808, 5.9301 ], [ 102.276897, 5.929213 ], [ 102.272451, 5.929848 ], [ 102.26953, 5.92718 ], [ 102.269021, 5.923243 ], [ 102.271435, 5.917272 ], [ 102.270292, 5.911937 ], [ 102.272598, 5.904631 ], [ 102.271202, 5.90278 ], [ 102.269501, 5.90036 ], [ 102.266671, 5.898345 ], [ 102.26502, 5.895805 ], [ 102.264131, 5.892502 ], [ 102.263432, 5.886532 ], [ 102.25905, 5.887357 ], [ 102.257081, 5.89301 ], [ 102.249015, 5.892629 ], [ 102.242727, 5.896567 ], [ 102.241075, 5.894661 ], [ 102.240123, 5.890533 ], [ 102.234279, 5.894598 ], [ 102.225642, 5.894788 ], [ 102.21983, 5.898726 ], [ 102.216464, 5.900886 ], [ 102.216146, 5.904379 ], [ 102.211256, 5.907999 ], [ 102.208017, 5.906967 ], [ 102.196473, 5.914351 ], [ 102.197373, 5.917122 ], [ 102.197546, 5.923538 ], [ 102.198347, 5.926418 ], [ 102.19975, 5.935927 ], [ 102.202577, 5.939983 ], [ 102.203881, 5.944122 ], [ 102.205079, 5.951443 ], [ 102.20688, 5.958592 ], [ 102.207908, 5.962756 ], [ 102.206603, 5.972656 ], [ 102.216321, 5.976086 ], [ 102.22318, 5.977229 ], [ 102.23085, 5.977737 ] ] ] } },
{ "type": "Feature", "properties": { "state": "Kelantan", "parlimen": "P.025 Kok Lanas", "code_parlimen": "P.025", "dun": "N.27 Pulai Chondong", "code_dun": "N.27" }, "geometry": { "type": "Polygon", "coordinates": [ [ [ 102.260669, 5.789229 ], [ 102.259145, 5.795834 ], [ 102.254064, 5.803202 ], [ 102.244156, 5.813491 ], [ 102.240472, 5.81908 ], [ 102.23844, 5.82721 ], [ 102.234629, 5.83191 ], [ 102.226499, 5.832926 ], [ 102.224467, 5.831148 ], [ 102.223196, 5.820858 ], [ 102.215702, 5.815523 ], [ 102.208461, 5.816794 ], [ 102.204396, 5.814126 ], [ 102.19995, 5.815142 ], [ 102.195885, 5.812856 ], [ 102.187629, 5.812094 ], [ 102.185406, 5.807267 ], [ 102.179435, 5.807267 ], [ 102.172703, 5.807012 ], [ 102.171179, 5.811712 ], [ 102.16597, 5.81781 ], [ 102.16343, 5.824034 ], [ 102.167241, 5.830767 ], [ 102.169273, 5.840675 ], [ 102.175625, 5.852742 ], [ 102.177022, 5.862905 ], [ 102.179308, 5.871542 ], [ 102.181595, 5.887462 ], [ 102.181992, 5.890342 ], [ 102.18593, 5.894407 ], [ 102.187829, 5.898676 ], [ 102.19217, 5.90478 ], [ 102.196473, 5.914351 ], [ 102.208017, 5.906967 ], [ 102.211256, 5.907999 ], [ 102.216146, 5.904379 ], [ 102.216464, 5.900886 ], [ 102.21983, 5.898726 ], [ 102.225642, 5.894788 ], [ 102.234279, 5.894598 ], [ 102.240123, 5.890533 ], [ 102.241075, 5.894661 ], [ 102.242727, 5.896567 ], [ 102.249015, 5.892629 ], [ 102.257081, 5.89301 ], [ 102.25905, 5.887357 ], [ 102.263432, 5.886532 ], [ 102.264957, 5.883991 ], [ 102.274738, 5.880688 ], [ 102.280327, 5.877068 ], [ 102.280644, 5.875163 ], [ 102.279692, 5.870844 ], [ 102.279565, 5.867605 ], [ 102.275246, 5.862142 ], [ 102.274484, 5.850583 ], [ 102.271562, 5.84728 ], [ 102.276262, 5.841945 ], [ 102.279438, 5.835594 ], [ 102.28147, 5.83064 ], [ 102.27804, 5.826321 ], [ 102.279184, 5.823018 ], [ 102.27804, 5.817937 ], [ 102.282994, 5.814126 ], [ 102.283947, 5.811077 ], [ 102.286996, 5.807012 ], [ 102.292712, 5.801868 ], [ 102.2943, 5.801106 ], [ 102.296142, 5.801868 ], [ 102.296205, 5.806441 ], [ 102.298619, 5.808092 ], [ 102.301413, 5.807012 ], [ 102.302763, 5.805806 ], [ 102.304542, 5.797041 ], [ 102.301112, 5.793675 ], [ 102.302573, 5.790245 ], [ 102.300858, 5.784529 ], [ 102.302128, 5.781162 ], [ 102.307899, 5.78192 ], [ 102.310699, 5.78055 ], [ 102.310893, 5.769476 ], [ 102.304843, 5.771191 ], [ 102.290489, 5.77551 ], [ 102.282613, 5.776653 ], [ 102.2614, 5.785799 ], [ 102.260669, 5.789229 ] ] ] } },
{ "type": "Feature", "properties": { "state": "Kelantan", "parlimen": "P.026 Tanah Merah", "code_parlimen": "P.026", "dun": "N.28 Bukit Panau", "code_dun": "N.28" }, "geometry": { "type": "Polygon", "coordinates": [ [ [ 102.060077, 5.86554 ], [ 102.060585, 5.870621 ], [ 102.063126, 5.877989 ], [ 102.067445, 5.884086 ], [ 102.063888, 5.888151 ], [ 102.058489, 5.892883 ], [ 102.063698, 5.893518 ], [ 102.069424, 5.893016 ], [ 102.07433, 5.893946 ], [ 102.076527, 5.894534 ], [ 102.083514, 5.892756 ], [ 102.090786, 5.894026 ], [ 102.095867, 5.898345 ], [ 102.10044, 5.901902 ], [ 102.104124, 5.899615 ], [ 102.108062, 5.90368 ], [ 102.112381, 5.904315 ], [ 102.121114, 5.905205 ], [ 102.127652, 5.903401 ], [ 102.127719, 5.897583 ], [ 102.131911, 5.898726 ], [ 102.135341, 5.900505 ], [ 102.139914, 5.902918 ], [ 102.142836, 5.90368 ], [ 102.146043, 5.903553 ], [ 102.148942, 5.903564 ], [ 102.160143, 5.898345 ], [ 102.170813, 5.891867 ], [ 102.181992, 5.890342 ], [ 102.181595, 5.887462 ], [ 102.179308, 5.871542 ], [ 102.177022, 5.862905 ], [ 102.175625, 5.852742 ], [ 102.169273, 5.840675 ], [ 102.167241, 5.830767 ], [ 102.16343, 5.824034 ], [ 102.16597, 5.81781 ], [ 102.171179, 5.811712 ], [ 102.172703, 5.807012 ], [ 102.170107, 5.797983 ], [ 102.166209, 5.794405 ], [ 102.158991, 5.790977 ], [ 102.155596, 5.787567 ], [ 102.153696, 5.785259 ], [ 102.151995, 5.780418 ], [ 102.148361, 5.761632 ], [ 102.146254, 5.762887 ], [ 102.138564, 5.764617 ], [ 102.132149, 5.768237 ], [ 102.130673, 5.771985 ], [ 102.132642, 5.78075 ], [ 102.13334, 5.789768 ], [ 102.129275, 5.793833 ], [ 102.118605, 5.796691 ], [ 102.11111, 5.798216 ], [ 102.1026, 5.800947 ], [ 102.099456, 5.803297 ], [ 102.095518, 5.805837 ], [ 102.090818, 5.811173 ], [ 102.081037, 5.817206 ], [ 102.075575, 5.821462 ], [ 102.063888, 5.829465 ], [ 102.058045, 5.835562 ], [ 102.050804, 5.840135 ], [ 102.054107, 5.843184 ], [ 102.057029, 5.847375 ], [ 102.060585, 5.855251 ], [ 102.061729, 5.861285 ], [ 102.060077, 5.86554 ] ] ] } },
{ "type": "Feature", "properties": { "state": "Kelantan", "parlimen": "P.026 Tanah Merah", "code_parlimen": "P.026", "dun": "N.29 Panglima Bayu", "code_dun": "N.29" }, "geometry": { "type": "Polygon", "coordinates": [ [ [ 102.090818, 5.811173 ], [ 102.095518, 5.805837 ], [ 102.099456, 5.803297 ], [ 102.1026, 5.800947 ], [ 102.10044, 5.795612 ], [ 102.103171, 5.785386 ], [ 102.108427, 5.775351 ], [ 102.106966, 5.771159 ], [ 102.088738, 5.769508 ], [ 102.082895, 5.766078 ], [ 102.081116, 5.782528 ], [ 102.082386, 5.79612 ], [ 102.081164, 5.796819 ], [ 102.069223, 5.797835 ], [ 102.067064, 5.796819 ], [ 102.065285, 5.787545 ], [ 102.059061, 5.782591 ], [ 102.055123, 5.77624 ], [ 102.050677, 5.766713 ], [ 102.049534, 5.758456 ], [ 102.051439, 5.750835 ], [ 102.044453, 5.745118 ], [ 102.04242, 5.740672 ], [ 102.03048, 5.750581 ], [ 102.016253, 5.762775 ], [ 102.013696, 5.762839 ], [ 102.010394, 5.757504 ], [ 102.010394, 5.749247 ], [ 102.004931, 5.744293 ], [ 102.006075, 5.739339 ], [ 101.99789, 5.732053 ], [ 101.98972, 5.727779 ], [ 101.979413, 5.726145 ], [ 101.970094, 5.725874 ], [ 101.970983, 5.720253 ], [ 101.966156, 5.715934 ], [ 101.956248, 5.711996 ], [ 101.947483, 5.713012 ], [ 101.939735, 5.719364 ], [ 101.938464, 5.728637 ], [ 101.932685, 5.732987 ], [ 101.925889, 5.732447 ], [ 101.92284, 5.733972 ], [ 101.923221, 5.739815 ], [ 101.919596, 5.747218 ], [ 101.918759, 5.749882 ], [ 101.915711, 5.751279 ], [ 101.913297, 5.754963 ], [ 101.913678, 5.768174 ], [ 101.915329, 5.771222 ], [ 101.914186, 5.773763 ], [ 101.913297, 5.783925 ], [ 101.916981, 5.79485 ], [ 101.923713, 5.810728 ], [ 101.925111, 5.816698 ], [ 101.924475, 5.827369 ], [ 101.924729, 5.834228 ], [ 101.928413, 5.84909 ], [ 101.930189, 5.853316 ], [ 101.92749, 5.855285 ], [ 101.930369, 5.860476 ], [ 101.935948, 5.86334 ], [ 101.937387, 5.861729 ], [ 101.942329, 5.869491 ], [ 101.944225, 5.87247 ], [ 101.940266, 5.878914 ], [ 101.941346, 5.885357 ], [ 101.934701, 5.898853 ], [ 101.942323, 5.906475 ], [ 101.947785, 5.909651 ], [ 101.974207, 5.933786 ], [ 101.982718, 5.931118 ], [ 101.996945, 5.921337 ], [ 102.003264, 5.918034 ], [ 102.013833, 5.910473 ], [ 102.01603, 5.908634 ], [ 102.025688, 5.901955 ], [ 102.028091, 5.899605 ], [ 102.029686, 5.898345 ], [ 102.033179, 5.896059 ], [ 102.035593, 5.894598 ], [ 102.039612, 5.893929 ], [ 102.041817, 5.893709 ], [ 102.045279, 5.894852 ], [ 102.04947, 5.895042 ], [ 102.053694, 5.893518 ], [ 102.058489, 5.892883 ], [ 102.063888, 5.888151 ], [ 102.067445, 5.884086 ], [ 102.063126, 5.877989 ], [ 102.060585, 5.870621 ], [ 102.060077, 5.86554 ], [ 102.061729, 5.861285 ], [ 102.060585, 5.855251 ], [ 102.057029, 5.847375 ], [ 102.054107, 5.843184 ], [ 102.050804, 5.840135 ], [ 102.058045, 5.835562 ], [ 102.063888, 5.829465 ], [ 102.075575, 5.821462 ], [ 102.081037, 5.817206 ], [ 102.090818, 5.811173 ] ] ] } },
{ "type": "Feature", "properties": { "state": "Kelantan", "parlimen": "P.026 Tanah Merah", "code_parlimen": "P.026", "dun": "N.30 Jeli", "code_dun": "N.30" }, "geometry": { "type": "Polygon", "coordinates": [ [ [ 101.928413, 5.84909 ], [ 101.924729, 5.834228 ], [ 101.924475, 5.827369 ], [ 101.925111, 5.816698 ], [ 101.923713, 5.810728 ], [ 101.916981, 5.79485 ], [ 101.913297, 5.783925 ], [ 101.914186, 5.773763 ], [ 101.915329, 5.771222 ], [ 101.913678, 5.768174 ], [ 101.913297, 5.754963 ], [ 101.915711, 5.751279 ], [ 101.918759, 5.749882 ], [ 101.919596, 5.747218 ], [ 101.923221, 5.739815 ], [ 101.92284, 5.733972 ], [ 101.925889, 5.732447 ], [ 101.932685, 5.732987 ], [ 101.938464, 5.728637 ], [ 101.939735, 5.719364 ], [ 101.947483, 5.713012 ], [ 101.956248, 5.711996 ], [ 101.966156, 5.715934 ], [ 101.970983, 5.720253 ], [ 101.973651, 5.715426 ], [ 101.9673, 5.708185 ], [ 101.961075, 5.703866 ], [ 101.959678, 5.698531 ], [ 101.959551, 5.690274 ], [ 101.959998, 5.680387 ], [ 101.965394, 5.667663 ], [ 101.974286, 5.650515 ], [ 101.969078, 5.638574 ], [ 101.96641, 5.63019 ], [ 101.964378, 5.621552 ], [ 101.958154, 5.620155 ], [ 101.952818, 5.623077 ], [ 101.948118, 5.618631 ], [ 101.946848, 5.609231 ], [ 101.942767, 5.613708 ], [ 101.936162, 5.617265 ], [ 101.91787, 5.617773 ], [ 101.9072, 5.619806 ], [ 101.898054, 5.626919 ], [ 101.893608, 5.627936 ], [ 101.88751, 5.620568 ], [ 101.880143, 5.621076 ], [ 101.853975, 5.616249 ], [ 101.84051, 5.614725 ], [ 101.835429, 5.618535 ], [ 101.831364, 5.62946 ], [ 101.823489, 5.635303 ], [ 101.814343, 5.632763 ], [ 101.81104, 5.627427 ], [ 101.797829, 5.619044 ], [ 101.786905, 5.618027 ], [ 101.770645, 5.606341 ], [ 101.759721, 5.605833 ], [ 101.754386, 5.600752 ], [ 101.753624, 5.580427 ], [ 101.757688, 5.569249 ], [ 101.753369, 5.563152 ], [ 101.745494, 5.558324 ], [ 101.742953, 5.545622 ], [ 101.740921, 5.52606 ], [ 101.740707, 5.509564 ], [ 101.733329, 5.504728 ], [ 101.72937, 5.497026 ], [ 101.723072, 5.500071 ], [ 101.720913, 5.512788 ], [ 101.702739, 5.508131 ], [ 101.69734, 5.499892 ], [ 101.693201, 5.498459 ], [ 101.690502, 5.503295 ], [ 101.683125, 5.505444 ], [ 101.680425, 5.510638 ], [ 101.673767, 5.511355 ], [ 101.66459, 5.507414 ], [ 101.655953, 5.520848 ], [ 101.671338, 5.546371 ], [ 101.688613, 5.586667 ], [ 101.654693, 5.60583 ], [ 101.650554, 5.613441 ], [ 101.656673, 5.61362 ], [ 101.654693, 5.620067 ], [ 101.663061, 5.630901 ], [ 101.662881, 5.633945 ], [ 101.661351, 5.637527 ], [ 101.657662, 5.63887 ], [ 101.656943, 5.642809 ], [ 101.660541, 5.65436 ], [ 101.659462, 5.65624 ], [ 101.660451, 5.66 ], [ 101.658382, 5.661522 ], [ 101.659912, 5.668327 ], [ 101.66414, 5.667521 ], [ 101.685374, 5.693127 ], [ 101.688073, 5.692321 ], [ 101.695181, 5.702796 ], [ 101.693741, 5.707899 ], [ 101.691672, 5.7096 ], [ 101.692842, 5.711211 ], [ 101.691582, 5.715598 ], [ 101.692212, 5.720432 ], [ 101.690682, 5.721238 ], [ 101.689063, 5.724372 ], [ 101.689153, 5.72661 ], [ 101.692302, 5.727594 ], [ 101.693741, 5.730728 ], [ 101.690682, 5.746394 ], [ 101.691852, 5.754719 ], [ 101.700219, 5.751989 ], [ 101.707417, 5.755212 ], [ 101.709576, 5.762194 ], [ 101.715515, 5.763985 ], [ 101.718034, 5.776875 ], [ 101.717314, 5.787617 ], [ 101.719473, 5.789049 ], [ 101.722892, 5.779918 ], [ 101.726311, 5.784394 ], [ 101.732969, 5.784752 ], [ 101.738728, 5.781351 ], [ 101.744486, 5.787975 ], [ 101.744486, 5.794062 ], [ 101.748085, 5.793346 ], [ 101.752403, 5.796926 ], [ 101.759961, 5.796389 ], [ 101.777416, 5.783499 ], [ 101.774897, 5.773831 ], [ 101.776516, 5.765596 ], [ 101.792351, 5.751631 ], [ 101.798649, 5.751273 ], [ 101.802428, 5.745902 ], [ 101.809266, 5.744648 ], [ 101.814485, 5.738382 ], [ 101.815744, 5.733906 ], [ 101.825461, 5.733011 ], [ 101.827261, 5.735875 ], [ 101.824921, 5.745723 ], [ 101.817904, 5.75557 ], [ 101.835898, 5.789586 ], [ 101.839857, 5.790839 ], [ 101.857312, 5.793167 ], [ 101.866489, 5.791018 ], [ 101.86091, 5.801402 ], [ 101.870448, 5.805519 ], [ 101.872607, 5.802655 ], [ 101.880524, 5.811248 ], [ 101.876926, 5.820199 ], [ 101.880524, 5.832372 ], [ 101.887542, 5.839174 ], [ 101.892401, 5.8381 ], [ 101.896, 5.84544 ], [ 101.905537, 5.841323 ], [ 101.916873, 5.842039 ], [ 101.930189, 5.853316 ], [ 101.928413, 5.84909 ] ] ] } },
{ "type": "Feature", "properties": { "state": "Kelantan", "parlimen": "P.027 Machang", "code_parlimen": "P.027", "dun": "N.31 Gual Ipoh", "code_dun": "N.31" }, "geometry": { "type": "Polygon", "coordinates": [ [ [ 102.108684, 5.635756 ], [ 102.104101, 5.625717 ], [ 102.099081, 5.620479 ], [ 102.095153, 5.617205 ], [ 102.095589, 5.607166 ], [ 102.100172, 5.602146 ], [ 102.099518, 5.597344 ], [ 102.093843, 5.594071 ], [ 102.088823, 5.593416 ], [ 102.088169, 5.587523 ], [ 102.078784, 5.581194 ], [ 102.066125, 5.582067 ], [ 102.059141, 5.58294 ], [ 102.051939, 5.575738 ], [ 102.04561, 5.564825 ], [ 102.045392, 5.559369 ], [ 102.040154, 5.55173 ], [ 102.036225, 5.551075 ], [ 102.039062, 5.545837 ], [ 102.036825, 5.539945 ], [ 102.029841, 5.531651 ], [ 102.031369, 5.528159 ], [ 102.030278, 5.523139 ], [ 102.032242, 5.519429 ], [ 102.030714, 5.51621 ], [ 102.018165, 5.511408 ], [ 102.016201, 5.516865 ], [ 102.001141, 5.52996 ], [ 101.990775, 5.53116 ], [ 101.986519, 5.52865 ], [ 101.979589, 5.540732 ], [ 101.970983, 5.53746 ], [ 101.964378, 5.545082 ], [ 101.967681, 5.548766 ], [ 101.972254, 5.551433 ], [ 101.972127, 5.557022 ], [ 101.966537, 5.575441 ], [ 101.963362, 5.589287 ], [ 101.950151, 5.598052 ], [ 101.946848, 5.609231 ], [ 101.948118, 5.618631 ], [ 101.952818, 5.623077 ], [ 101.958154, 5.620155 ], [ 101.964378, 5.621552 ], [ 101.96641, 5.63019 ], [ 101.969078, 5.638574 ], [ 101.974286, 5.650515 ], [ 101.965394, 5.667663 ], [ 101.959998, 5.680387 ], [ 101.959551, 5.690274 ], [ 101.959678, 5.698531 ], [ 101.961075, 5.703866 ], [ 101.9673, 5.708185 ], [ 101.973651, 5.715426 ], [ 101.970983, 5.720253 ], [ 101.970094, 5.725874 ], [ 101.979413, 5.726145 ], [ 101.98972, 5.727779 ], [ 101.99789, 5.732053 ], [ 102.006075, 5.739339 ], [ 102.004931, 5.744293 ], [ 102.010394, 5.749247 ], [ 102.010394, 5.757504 ], [ 102.013696, 5.762839 ], [ 102.016253, 5.762775 ], [ 102.03048, 5.750581 ], [ 102.04242, 5.740672 ], [ 102.044453, 5.745118 ], [ 102.051439, 5.750835 ], [ 102.049534, 5.758456 ], [ 102.050677, 5.766713 ], [ 102.055123, 5.77624 ], [ 102.059061, 5.782591 ], [ 102.065285, 5.787545 ], [ 102.067064, 5.796819 ], [ 102.069223, 5.797835 ], [ 102.081164, 5.796819 ], [ 102.082386, 5.79612 ], [ 102.081116, 5.782528 ], [ 102.082895, 5.766078 ], [ 102.088738, 5.769508 ], [ 102.106966, 5.771159 ], [ 102.108427, 5.775351 ], [ 102.103171, 5.785386 ], [ 102.10044, 5.795612 ], [ 102.1026, 5.800947 ], [ 102.11111, 5.798216 ], [ 102.118605, 5.796691 ], [ 102.129275, 5.793833 ], [ 102.13334, 5.789768 ], [ 102.132642, 5.78075 ], [ 102.130673, 5.771985 ], [ 102.132149, 5.768237 ], [ 102.138564, 5.764617 ], [ 102.146254, 5.762887 ], [ 102.148361, 5.761632 ], [ 102.147536, 5.755471 ], [ 102.147917, 5.748612 ], [ 102.148806, 5.744102 ], [ 102.148515, 5.738879 ], [ 102.148316, 5.735769 ], [ 102.144926, 5.726616 ], [ 102.144423, 5.723165 ], [ 102.143423, 5.720624 ], [ 102.142022, 5.715472 ], [ 102.141476, 5.707506 ], [ 102.142458, 5.699322 ], [ 102.146278, 5.692338 ], [ 102.143877, 5.687754 ], [ 102.138312, 5.688082 ], [ 102.127602, 5.6924 ], [ 102.121201, 5.69364 ], [ 102.111534, 5.690765 ], [ 102.107429, 5.687645 ], [ 102.106556, 5.679352 ], [ 102.106556, 5.677103 ], [ 102.106338, 5.663529 ], [ 102.110278, 5.653086 ], [ 102.113431, 5.639849 ], [ 102.108684, 5.635756 ] ] ] } },
{ "type": "Feature", "properties": { "state": "Kelantan", "parlimen": "P.027 Machang", "code_parlimen": "P.027", "dun": "N.32 Labok", "code_dun": "N.32" }, "geometry": { "type": "Polygon", "coordinates": [ [ [ 102.228285, 5.773799 ], [ 102.225557, 5.768452 ], [ 102.224247, 5.758413 ], [ 102.223047, 5.75503 ], [ 102.212135, 5.750556 ], [ 102.205041, 5.750119 ], [ 102.204387, 5.748373 ], [ 102.211371, 5.730804 ], [ 102.211753, 5.728676 ], [ 102.201386, 5.730095 ], [ 102.187549, 5.72999 ], [ 102.180042, 5.728147 ], [ 102.173064, 5.729094 ], [ 102.166084, 5.732387 ], [ 102.158577, 5.730411 ], [ 102.152061, 5.723547 ], [ 102.144423, 5.723165 ], [ 102.144926, 5.726616 ], [ 102.148316, 5.735769 ], [ 102.148515, 5.738879 ], [ 102.148806, 5.744102 ], [ 102.147917, 5.748612 ], [ 102.147536, 5.755471 ], [ 102.148361, 5.761632 ], [ 102.151995, 5.780418 ], [ 102.153696, 5.785259 ], [ 102.155596, 5.787567 ], [ 102.158991, 5.790977 ], [ 102.166209, 5.794405 ], [ 102.170107, 5.797983 ], [ 102.172703, 5.807012 ], [ 102.179435, 5.807267 ], [ 102.185406, 5.807267 ], [ 102.187629, 5.812094 ], [ 102.195885, 5.812856 ], [ 102.19995, 5.815142 ], [ 102.204396, 5.814126 ], [ 102.208461, 5.816794 ], [ 102.215702, 5.815523 ], [ 102.223196, 5.820858 ], [ 102.224467, 5.831148 ], [ 102.226499, 5.832926 ], [ 102.234629, 5.83191 ], [ 102.23844, 5.82721 ], [ 102.240472, 5.81908 ], [ 102.244156, 5.813491 ], [ 102.254064, 5.803202 ], [ 102.259145, 5.795834 ], [ 102.260669, 5.789229 ], [ 102.2614, 5.785799 ], [ 102.256446, 5.782877 ], [ 102.255577, 5.780157 ], [ 102.240799, 5.777665 ], [ 102.232241, 5.780238 ], [ 102.228285, 5.773799 ] ] ] } },
{ "type": "Feature", "properties": { "state": "Kelantan", "parlimen": "P.027 Machang", "code_parlimen": "P.027", "dun": "N.33 Banggol Judah", "code_dun": "N.33" }, "geometry": { "type": "Polygon", "coordinates": [ [ [ 102.191237, 5.669039 ], [ 102.190582, 5.675696 ], [ 102.189709, 5.686718 ], [ 102.186763, 5.694029 ], [ 102.181307, 5.701122 ], [ 102.178579, 5.712362 ], [ 102.174759, 5.72633 ], [ 102.173064, 5.729094 ], [ 102.180042, 5.728147 ], [ 102.187549, 5.72999 ], [ 102.201386, 5.730095 ], [ 102.211753, 5.728676 ], [ 102.211371, 5.730804 ], [ 102.204387, 5.748373 ], [ 102.205041, 5.750119 ], [ 102.212135, 5.750556 ], [ 102.223047, 5.75503 ], [ 102.224247, 5.758413 ], [ 102.225557, 5.768452 ], [ 102.228285, 5.773799 ], [ 102.232241, 5.780238 ], [ 102.240799, 5.777665 ], [ 102.255577, 5.780157 ], [ 102.256446, 5.782877 ], [ 102.2614, 5.785799 ], [ 102.282613, 5.776653 ], [ 102.290489, 5.77551 ], [ 102.304843, 5.771191 ], [ 102.310893, 5.769476 ], [ 102.311397, 5.765534 ], [ 102.311099, 5.762426 ], [ 102.315259, 5.757599 ], [ 102.322532, 5.755439 ], [ 102.3255, 5.75181 ], [ 102.330535, 5.750358 ], [ 102.337521, 5.752772 ], [ 102.345524, 5.749723 ], [ 102.352383, 5.749596 ], [ 102.353495, 5.744642 ], [ 102.357051, 5.745531 ], [ 102.358322, 5.749596 ], [ 102.362895, 5.752645 ], [ 102.366736, 5.749967 ], [ 102.368636, 5.748586 ], [ 102.37184, 5.742957 ], [ 102.374137, 5.741466 ], [ 102.377738, 5.741826 ], [ 102.379241, 5.744707 ], [ 102.37561, 5.75669 ], [ 102.373558, 5.762972 ], [ 102.373629, 5.770047 ], [ 102.378583, 5.769031 ], [ 102.382266, 5.771826 ], [ 102.386204, 5.771191 ], [ 102.389634, 5.768142 ], [ 102.3937, 5.76832 ], [ 102.395985, 5.77208 ], [ 102.400431, 5.771445 ], [ 102.402337, 5.768015 ], [ 102.401098, 5.763696 ], [ 102.396398, 5.75798 ], [ 102.393477, 5.751374 ], [ 102.397287, 5.74985 ], [ 102.401479, 5.754423 ], [ 102.406942, 5.75328 ], [ 102.408974, 5.74858 ], [ 102.406179, 5.743626 ], [ 102.406052, 5.740196 ], [ 102.409582, 5.738779 ], [ 102.414055, 5.744896 ], [ 102.418628, 5.747056 ], [ 102.422501, 5.745151 ], [ 102.430199, 5.74425 ], [ 102.430434, 5.744075 ], [ 102.417629, 5.726954 ], [ 102.41607, 5.72075 ], [ 102.411393, 5.72075 ], [ 102.403598, 5.712329 ], [ 102.396471, 5.696151 ], [ 102.392017, 5.699697 ], [ 102.380213, 5.69327 ], [ 102.378975, 5.684026 ], [ 102.364967, 5.680605 ], [ 102.364418, 5.673514 ], [ 102.35547, 5.668712 ], [ 102.344339, 5.667184 ], [ 102.336077, 5.672644 ], [ 102.331899, 5.666093 ], [ 102.319241, 5.669585 ], [ 102.306582, 5.668494 ], [ 102.301344, 5.660855 ], [ 102.295645, 5.662739 ], [ 102.284975, 5.663911 ], [ 102.28192, 5.659546 ], [ 102.279956, 5.654744 ], [ 102.270353, 5.655399 ], [ 102.256603, 5.656108 ], [ 102.248473, 5.659437 ], [ 102.243017, 5.66151 ], [ 102.242526, 5.668767 ], [ 102.239198, 5.669258 ], [ 102.233203, 5.666969 ], [ 102.224684, 5.661728 ], [ 102.218955, 5.660855 ], [ 102.213713, 5.664224 ], [ 102.202811, 5.669144 ], [ 102.198609, 5.667778 ], [ 102.195908, 5.667429 ], [ 102.192109, 5.665168 ], [ 102.191237, 5.669039 ] ] ] } },
{ "type": "Feature", "properties": { "state": "Kelantan", "parlimen": "P.028 Kuala Krai", "code_parlimen": "P.028", "dun": "N.34 Temangan", "code_dun": "N.34" }, "geometry": { "type": "Polygon", "coordinates": [ [ [ 102.148051, 5.564661 ], [ 102.123389, 5.540872 ], [ 102.087896, 5.507589 ], [ 102.082658, 5.500932 ], [ 102.065962, 5.505407 ], [ 102.055486, 5.518065 ], [ 102.045883, 5.520248 ], [ 102.03628, 5.513373 ], [ 102.030714, 5.51621 ], [ 102.032242, 5.519429 ], [ 102.030278, 5.523139 ], [ 102.031369, 5.528159 ], [ 102.029841, 5.531651 ], [ 102.036825, 5.539945 ], [ 102.039062, 5.545837 ], [ 102.036225, 5.551075 ], [ 102.040154, 5.55173 ], [ 102.045392, 5.559369 ], [ 102.04561, 5.564825 ], [ 102.051939, 5.575738 ], [ 102.059141, 5.58294 ], [ 102.066125, 5.582067 ], [ 102.078784, 5.581194 ], [ 102.088169, 5.587523 ], [ 102.088823, 5.593416 ], [ 102.093843, 5.594071 ], [ 102.099518, 5.597344 ], [ 102.100172, 5.602146 ], [ 102.095589, 5.607166 ], [ 102.095153, 5.617205 ], [ 102.099081, 5.620479 ], [ 102.104101, 5.625717 ], [ 102.108684, 5.635756 ], [ 102.113431, 5.639849 ], [ 102.110278, 5.653086 ], [ 102.106338, 5.663529 ], [ 102.106556, 5.677103 ], [ 102.106556, 5.679352 ], [ 102.107429, 5.687645 ], [ 102.111534, 5.690765 ], [ 102.121201, 5.69364 ], [ 102.127602, 5.6924 ], [ 102.138312, 5.688082 ], [ 102.143877, 5.687754 ], [ 102.146278, 5.692338 ], [ 102.142458, 5.699322 ], [ 102.141476, 5.707506 ], [ 102.142022, 5.715472 ], [ 102.143423, 5.720624 ], [ 102.144423, 5.723165 ], [ 102.152061, 5.723547 ], [ 102.158577, 5.730411 ], [ 102.166084, 5.732387 ], [ 102.173064, 5.729094 ], [ 102.174759, 5.72633 ], [ 102.178579, 5.712362 ], [ 102.181307, 5.701122 ], [ 102.186763, 5.694029 ], [ 102.189709, 5.686718 ], [ 102.190582, 5.675696 ], [ 102.191237, 5.669039 ], [ 102.192109, 5.665168 ], [ 102.195908, 5.667429 ], [ 102.198609, 5.667778 ], [ 102.202811, 5.669144 ], [ 102.213713, 5.664224 ], [ 102.218955, 5.660855 ], [ 102.224684, 5.661728 ], [ 102.233203, 5.666969 ], [ 102.239198, 5.669258 ], [ 102.242526, 5.668767 ], [ 102.243017, 5.66151 ], [ 102.248473, 5.659437 ], [ 102.256603, 5.656108 ], [ 102.270353, 5.655399 ], [ 102.279956, 5.654744 ], [ 102.28192, 5.659546 ], [ 102.284975, 5.663911 ], [ 102.295645, 5.662739 ], [ 102.301344, 5.660855 ], [ 102.306582, 5.668494 ], [ 102.319241, 5.669585 ], [ 102.331899, 5.666093 ], [ 102.336077, 5.672644 ], [ 102.344339, 5.667184 ], [ 102.35547, 5.668712 ], [ 102.364418, 5.673514 ], [ 102.364967, 5.680605 ], [ 102.378975, 5.684026 ], [ 102.385803, 5.677631 ], [ 102.387008, 5.671036 ], [ 102.387611, 5.663243 ], [ 102.386607, 5.65365 ], [ 102.390623, 5.64026 ], [ 102.387008, 5.634065 ], [ 102.392631, 5.629668 ], [ 102.394864, 5.620861 ], [ 102.392027, 5.618569 ], [ 102.384716, 5.615841 ], [ 102.371184, 5.612567 ], [ 102.365401, 5.613004 ], [ 102.356862, 5.616059 ], [ 102.33591, 5.626426 ], [ 102.31995, 5.633628 ], [ 102.313512, 5.632319 ], [ 102.304864, 5.626863 ], [ 102.289913, 5.621079 ], [ 102.279737, 5.613113 ], [ 102.267734, 5.60722 ], [ 102.247082, 5.599472 ], [ 102.238897, 5.594671 ], [ 102.245663, 5.592488 ], [ 102.245554, 5.589542 ], [ 102.242062, 5.585286 ], [ 102.23977, 5.57983 ], [ 102.235596, 5.573501 ], [ 102.229813, 5.574919 ], [ 102.227739, 5.567717 ], [ 102.221192, 5.566735 ], [ 102.216827, 5.563134 ], [ 102.213226, 5.566189 ], [ 102.209079, 5.565534 ], [ 102.207006, 5.561715 ], [ 102.200676, 5.562697 ], [ 102.193474, 5.559314 ], [ 102.187363, 5.560624 ], [ 102.185044, 5.55855 ], [ 102.17435, 5.556041 ], [ 102.170622, 5.556675 ], [ 102.169221, 5.556914 ], [ 102.165947, 5.561279 ], [ 102.163219, 5.567171 ], [ 102.158418, 5.572518 ], [ 102.152634, 5.571645 ], [ 102.148992, 5.570926 ], [ 102.148051, 5.564661 ] ] ] } },
{ "type": "Feature", "properties": { "state": "Kelantan", "parlimen": "P.028 Kuala Krai", "code_parlimen": "P.028", "dun": "N.35 Guchil", "code_dun": "N.35" }, "geometry": { "type": "Polygon", "coordinates": [ [ [ 102.277528, 5.497986 ], [ 102.276655, 5.491657 ], [ 102.269452, 5.492093 ], [ 102.263778, 5.488383 ], [ 102.257885, 5.493403 ], [ 102.249373, 5.499732 ], [ 102.235624, 5.50868 ], [ 102.225802, 5.510863 ], [ 102.217509, 5.507371 ], [ 102.211398, 5.505407 ], [ 102.215326, 5.492093 ], [ 102.205942, 5.487292 ], [ 102.193065, 5.481836 ], [ 102.18368, 5.478344 ], [ 102.175605, 5.476379 ], [ 102.173641, 5.47005 ], [ 102.176042, 5.463284 ], [ 102.175605, 5.458701 ], [ 102.171185, 5.452918 ], [ 102.164201, 5.453027 ], [ 102.129827, 5.423781 ], [ 102.127263, 5.429128 ], [ 102.124425, 5.43393 ], [ 102.116896, 5.435894 ], [ 102.113076, 5.434912 ], [ 102.108057, 5.436221 ], [ 102.101182, 5.446261 ], [ 102.10642, 5.452699 ], [ 102.105438, 5.457937 ], [ 102.097472, 5.464812 ], [ 102.095616, 5.473106 ], [ 102.094743, 5.482927 ], [ 102.089806, 5.491111 ], [ 102.082658, 5.500932 ], [ 102.087896, 5.507589 ], [ 102.123389, 5.540872 ], [ 102.148051, 5.564661 ], [ 102.148992, 5.570926 ], [ 102.152634, 5.571645 ], [ 102.158418, 5.572518 ], [ 102.163219, 5.567171 ], [ 102.165947, 5.561279 ], [ 102.169221, 5.556914 ], [ 102.170622, 5.556675 ], [ 102.17435, 5.556041 ], [ 102.185044, 5.55855 ], [ 102.187363, 5.560624 ], [ 102.193474, 5.559314 ], [ 102.200676, 5.562697 ], [ 102.207006, 5.561715 ], [ 102.209079, 5.565534 ], [ 102.213226, 5.566189 ], [ 102.216827, 5.563134 ], [ 102.221192, 5.566735 ], [ 102.227739, 5.567717 ], [ 102.229813, 5.574919 ], [ 102.235596, 5.573501 ], [ 102.23977, 5.57983 ], [ 102.242062, 5.585286 ], [ 102.245554, 5.589542 ], [ 102.245663, 5.592488 ], [ 102.238897, 5.594671 ], [ 102.247082, 5.599472 ], [ 102.267734, 5.60722 ], [ 102.279737, 5.613113 ], [ 102.289913, 5.621079 ], [ 102.304864, 5.626863 ], [ 102.313512, 5.632319 ], [ 102.31995, 5.633628 ], [ 102.33591, 5.626426 ], [ 102.356862, 5.616059 ], [ 102.365401, 5.613004 ], [ 102.371184, 5.612567 ], [ 102.384716, 5.615841 ], [ 102.392027, 5.618569 ], [ 102.394864, 5.620861 ], [ 102.392631, 5.629668 ], [ 102.402271, 5.613879 ], [ 102.397049, 5.605285 ], [ 102.396447, 5.5821 ], [ 102.399861, 5.577303 ], [ 102.402472, 5.569108 ], [ 102.407693, 5.544523 ], [ 102.401194, 5.544255 ], [ 102.386885, 5.542127 ], [ 102.375085, 5.533943 ], [ 102.369534, 5.532033 ], [ 102.366683, 5.521503 ], [ 102.356589, 5.510044 ], [ 102.350914, 5.506443 ], [ 102.344149, 5.508517 ], [ 102.34022, 5.506334 ], [ 102.335637, 5.507316 ], [ 102.3328, 5.501642 ], [ 102.326279, 5.502078 ], [ 102.31774, 5.497495 ], [ 102.306828, 5.49684 ], [ 102.291878, 5.495531 ], [ 102.288495, 5.499405 ], [ 102.284021, 5.499459 ], [ 102.28102, 5.502951 ], [ 102.278401, 5.503224 ], [ 102.277528, 5.497986 ] ] ] } },
{ "type": "Feature", "properties": { "state": "Kelantan", "parlimen": "P.028 Kuala Krai", "code_parlimen": "P.028", "dun": "N.36 Manek Urai", "code_dun": "N.36" }, "geometry": { "type": "Polygon", "coordinates": [ [ [ 102.175605, 5.458701 ], [ 102.176042, 5.463284 ], [ 102.173641, 5.47005 ], [ 102.175605, 5.476379 ], [ 102.18368, 5.478344 ], [ 102.193065, 5.481836 ], [ 102.205942, 5.487292 ], [ 102.215326, 5.492093 ], [ 102.211398, 5.505407 ], [ 102.217509, 5.507371 ], [ 102.225802, 5.510863 ], [ 102.235624, 5.50868 ], [ 102.249373, 5.499732 ], [ 102.257885, 5.493403 ], [ 102.263778, 5.488383 ], [ 102.269452, 5.492093 ], [ 102.276655, 5.491657 ], [ 102.277528, 5.497986 ], [ 102.278401, 5.503224 ], [ 102.28102, 5.502951 ], [ 102.284021, 5.499459 ], [ 102.288495, 5.499405 ], [ 102.291878, 5.495531 ], [ 102.306828, 5.49684 ], [ 102.31774, 5.497495 ], [ 102.326279, 5.502078 ], [ 102.3328, 5.501642 ], [ 102.335637, 5.507316 ], [ 102.34022, 5.506334 ], [ 102.344149, 5.508517 ], [ 102.350914, 5.506443 ], [ 102.356589, 5.510044 ], [ 102.366683, 5.521503 ], [ 102.369534, 5.532033 ], [ 102.375085, 5.533943 ], [ 102.386885, 5.542127 ], [ 102.401194, 5.544255 ], [ 102.407693, 5.544523 ], [ 102.402503, 5.541854 ], [ 102.40207, 5.539926 ], [ 102.398254, 5.528932 ], [ 102.390623, 5.522535 ], [ 102.382791, 5.523735 ], [ 102.380783, 5.518737 ], [ 102.386205, 5.512541 ], [ 102.393033, 5.499547 ], [ 102.390371, 5.486069 ], [ 102.388414, 5.476158 ], [ 102.39464, 5.47156 ], [ 102.400463, 5.462564 ], [ 102.39725, 5.454768 ], [ 102.401869, 5.443972 ], [ 102.401869, 5.439574 ], [ 102.392832, 5.426179 ], [ 102.385, 5.426979 ], [ 102.385, 5.410985 ], [ 102.389418, 5.412184 ], [ 102.398054, 5.402988 ], [ 102.398656, 5.399989 ], [ 102.404279, 5.39679 ], [ 102.408697, 5.39719 ], [ 102.411509, 5.391991 ], [ 102.415124, 5.390392 ], [ 102.420144, 5.392791 ], [ 102.419743, 5.385193 ], [ 102.424562, 5.379595 ], [ 102.428579, 5.371397 ], [ 102.437616, 5.372797 ], [ 102.441231, 5.365399 ], [ 102.442736, 5.360107 ], [ 102.436377, 5.35654 ], [ 102.428579, 5.356801 ], [ 102.426571, 5.351603 ], [ 102.422337, 5.352959 ], [ 102.406186, 5.35165 ], [ 102.360899, 5.347066 ], [ 102.323797, 5.344229 ], [ 102.322705, 5.335063 ], [ 102.325979, 5.329606 ], [ 102.325106, 5.321313 ], [ 102.320305, 5.313892 ], [ 102.310265, 5.308436 ], [ 102.296734, 5.308873 ], [ 102.289968, 5.312146 ], [ 102.257012, 5.311492 ], [ 102.249592, 5.308873 ], [ 102.251774, 5.2805 ], [ 102.252723, 5.254926 ], [ 102.192382, 5.255147 ], [ 102.136478, 5.255147 ], [ 102.13365, 5.317938 ], [ 102.129882, 5.347285 ], [ 102.129445, 5.39901 ], [ 102.129827, 5.423781 ], [ 102.164201, 5.453027 ], [ 102.171185, 5.452918 ], [ 102.175605, 5.458701 ] ] ] } },
{ "type": "Feature", "properties": { "state": "Kelantan", "parlimen": "P.029 Gua Musang", "code_parlimen": "P.029", "dun": "N.37 Dabong", "code_dun": "N.37" }, "geometry": { "type": "Polygon", "coordinates": [ [ [ 102.106308, 5.175394 ], [ 102.074141, 5.176499 ], [ 102.032213, 5.184674 ], [ 102.010695, 5.187104 ], [ 101.962566, 5.217317 ], [ 101.91335, 5.242415 ], [ 101.867518, 5.266423 ], [ 101.815684, 5.292176 ], [ 101.806517, 5.316402 ], [ 101.789139, 5.358961 ], [ 101.746689, 5.393335 ], [ 101.739807, 5.396667 ], [ 101.740887, 5.402981 ], [ 101.744486, 5.42 ], [ 101.739267, 5.429136 ], [ 101.739987, 5.452065 ], [ 101.734589, 5.458335 ], [ 101.747185, 5.471232 ], [ 101.749164, 5.482696 ], [ 101.748265, 5.499892 ], [ 101.740707, 5.509564 ], [ 101.740921, 5.52606 ], [ 101.742953, 5.545622 ], [ 101.745494, 5.558324 ], [ 101.753369, 5.563152 ], [ 101.757688, 5.569249 ], [ 101.753624, 5.580427 ], [ 101.754386, 5.600752 ], [ 101.759721, 5.605833 ], [ 101.770645, 5.606341 ], [ 101.786905, 5.618027 ], [ 101.797829, 5.619044 ], [ 101.81104, 5.627427 ], [ 101.814343, 5.632763 ], [ 101.823489, 5.635303 ], [ 101.831364, 5.62946 ], [ 101.835429, 5.618535 ], [ 101.84051, 5.614725 ], [ 101.853975, 5.616249 ], [ 101.880143, 5.621076 ], [ 101.88751, 5.620568 ], [ 101.893608, 5.627936 ], [ 101.898054, 5.626919 ], [ 101.9072, 5.619806 ], [ 101.91787, 5.617773 ], [ 101.936162, 5.617265 ], [ 101.942767, 5.613708 ], [ 101.946848, 5.609231 ], [ 101.950151, 5.598052 ], [ 101.963362, 5.589287 ], [ 101.966537, 5.575441 ], [ 101.972127, 5.557022 ], [ 101.972254, 5.551433 ], [ 101.967681, 5.548766 ], [ 101.964378, 5.545082 ], [ 101.970983, 5.53746 ], [ 101.979589, 5.540732 ], [ 101.986519, 5.52865 ], [ 101.990775, 5.53116 ], [ 102.001141, 5.52996 ], [ 102.016201, 5.516865 ], [ 102.018165, 5.511408 ], [ 102.030714, 5.51621 ], [ 102.03628, 5.513373 ], [ 102.045883, 5.520248 ], [ 102.055486, 5.518065 ], [ 102.065962, 5.505407 ], [ 102.082658, 5.500932 ], [ 102.089806, 5.491111 ], [ 102.094743, 5.482927 ], [ 102.095616, 5.473106 ], [ 102.097472, 5.464812 ], [ 102.105438, 5.457937 ], [ 102.10642, 5.452699 ], [ 102.101182, 5.446261 ], [ 102.108057, 5.436221 ], [ 102.113076, 5.434912 ], [ 102.116896, 5.435894 ], [ 102.124425, 5.43393 ], [ 102.127263, 5.429128 ], [ 102.129827, 5.423781 ], [ 102.129445, 5.39901 ], [ 102.129882, 5.347285 ], [ 102.13365, 5.317938 ], [ 102.136478, 5.255147 ], [ 102.144243, 5.174732 ], [ 102.106308, 5.175394 ] ] ] } },
{ "type": "Feature", "properties": { "state": "Kelantan", "parlimen": "P.029 Gua Musang", "code_parlimen": "P.029", "dun": "N.38 Paloh", "code_dun": "N.38" }, "geometry": { "type": "Polygon", "coordinates": [ [ [ 102.080639, 4.908275 ], [ 102.051394, 4.916568 ], [ 102.021384, 4.924425 ], [ 101.996285, 4.930755 ], [ 101.981881, 4.935993 ], [ 101.98821, 4.947778 ], [ 101.990829, 4.960218 ], [ 101.985591, 4.97244 ], [ 101.988428, 4.981607 ], [ 101.982317, 4.989027 ], [ 101.98319, 5.00736 ], [ 101.982972, 5.021983 ], [ 101.978607, 5.026785 ], [ 101.965076, 5.034423 ], [ 101.957, 5.03486 ], [ 101.936485, 5.023947 ], [ 101.9271, 5.055594 ], [ 101.921426, 5.074145 ], [ 101.929283, 5.088113 ], [ 101.924918, 5.098371 ], [ 101.924263, 5.106664 ], [ 101.929283, 5.123688 ], [ 101.926882, 5.139401 ], [ 101.912696, 5.15206 ], [ 101.896109, 5.16581 ], [ 101.891744, 5.180432 ], [ 101.8972, 5.20946 ], [ 101.91335, 5.242415 ], [ 101.962566, 5.217317 ], [ 102.010695, 5.187104 ], [ 102.032213, 5.184674 ], [ 102.074141, 5.176499 ], [ 102.106308, 5.175394 ], [ 102.144243, 5.174732 ], [ 102.136478, 5.255147 ], [ 102.192382, 5.255147 ], [ 102.252723, 5.254926 ], [ 102.251774, 5.2805 ], [ 102.249592, 5.308873 ], [ 102.257012, 5.311492 ], [ 102.289968, 5.312146 ], [ 102.296734, 5.308873 ], [ 102.310265, 5.308436 ], [ 102.320305, 5.313892 ], [ 102.325106, 5.321313 ], [ 102.325979, 5.329606 ], [ 102.322705, 5.335063 ], [ 102.323797, 5.344229 ], [ 102.360899, 5.347066 ], [ 102.406186, 5.35165 ], [ 102.422337, 5.352959 ], [ 102.426571, 5.351603 ], [ 102.429181, 5.348004 ], [ 102.427575, 5.337406 ], [ 102.429985, 5.330408 ], [ 102.429583, 5.32221 ], [ 102.422353, 5.31961 ], [ 102.419101, 5.300457 ], [ 102.415322, 5.294723 ], [ 102.418201, 5.288631 ], [ 102.415682, 5.283614 ], [ 102.42018, 5.27358 ], [ 102.415502, 5.26032 ], [ 102.417301, 5.242043 ], [ 102.414422, 5.230037 ], [ 102.4209, 5.223048 ], [ 102.422879, 5.204769 ], [ 102.41982, 5.195809 ], [ 102.410463, 5.183265 ], [ 102.414422, 5.180756 ], [ 102.437815, 5.179681 ], [ 102.444473, 5.168211 ], [ 102.457429, 5.170003 ], [ 102.474884, 5.157816 ], [ 102.484241, 5.147959 ], [ 102.48748, 5.13631 ], [ 102.513932, 5.128066 ], [ 102.529227, 5.108172 ], [ 102.52095, 5.098314 ], [ 102.51879, 5.089352 ], [ 102.513752, 5.084154 ], [ 102.505294, 5.083437 ], [ 102.499176, 5.076088 ], [ 102.502955, 5.074296 ], [ 102.514112, 5.054579 ], [ 102.508713, 5.048306 ], [ 102.52023, 5.026437 ], [ 102.512132, 5.009229 ], [ 102.498816, 5.008153 ], [ 102.501335, 5.001521 ], [ 102.501695, 5.001521 ], [ 102.499536, 4.993812 ], [ 102.503315, 4.981622 ], [ 102.507634, 4.979113 ], [ 102.509973, 4.970687 ], [ 102.522389, 4.960648 ], [ 102.513932, 4.952401 ], [ 102.514831, 4.948637 ], [ 102.52077, 4.94792 ], [ 102.521129, 4.941645 ], [ 102.513392, 4.938239 ], [ 102.513212, 4.919952 ], [ 102.506014, 4.903099 ], [ 102.513752, 4.901486 ], [ 102.529587, 4.896107 ], [ 102.535885, 4.907402 ], [ 102.571514, 4.895749 ], [ 102.58627, 4.88284 ], [ 102.592748, 4.873158 ], [ 102.606244, 4.874054 ], [ 102.614881, 4.862042 ], [ 102.620819, 4.8624 ], [ 102.644032, 4.847877 ], [ 102.647811, 4.850208 ], [ 102.65087, 4.845725 ], [ 102.652489, 4.835326 ], [ 102.646191, 4.826002 ], [ 102.644032, 4.813271 ], [ 102.65231, 4.812733 ], [ 102.659507, 4.800898 ], [ 102.658968, 4.791753 ], [ 102.666525, 4.780097 ], [ 102.664186, 4.770056 ], [ 102.658068, 4.759475 ], [ 102.636834, 4.765034 ], [ 102.630356, 4.771849 ], [ 102.621899, 4.774539 ], [ 102.612002, 4.780456 ], [ 102.606603, 4.774897 ], [ 102.598866, 4.770773 ], [ 102.603184, 4.766828 ], [ 102.604984, 4.760013 ], [ 102.600845, 4.754096 ], [ 102.595627, 4.739032 ], [ 102.600845, 4.733832 ], [ 102.606244, 4.702089 ], [ 102.604084, 4.687742 ], [ 102.597246, 4.687742 ], [ 102.581231, 4.69653 ], [ 102.572234, 4.690432 ], [ 102.563237, 4.698682 ], [ 102.557658, 4.706214 ], [ 102.548841, 4.711773 ], [ 102.545602, 4.706931 ], [ 102.545242, 4.701192 ], [ 102.535165, 4.686845 ], [ 102.530667, 4.686486 ], [ 102.529767, 4.677519 ], [ 102.524009, 4.678775 ], [ 102.516811, 4.67447 ], [ 102.512312, 4.668552 ], [ 102.506014, 4.671601 ], [ 102.500256, 4.66909 ], [ 102.481002, 4.686128 ], [ 102.456709, 4.70191 ], [ 102.458688, 4.705855 ], [ 102.446272, 4.713925 ], [ 102.429897, 4.710159 ], [ 102.422519, 4.713208 ], [ 102.408124, 4.716436 ], [ 102.401826, 4.711594 ], [ 102.379153, 4.714463 ], [ 102.376094, 4.711056 ], [ 102.370155, 4.711773 ], [ 102.362418, 4.705317 ], [ 102.362778, 4.696888 ], [ 102.371415, 4.692943 ], [ 102.371955, 4.684334 ], [ 102.365657, 4.678237 ], [ 102.364397, 4.670345 ], [ 102.35504, 4.665682 ], [ 102.346403, 4.657253 ], [ 102.342984, 4.648644 ], [ 102.344423, 4.641649 ], [ 102.338485, 4.641111 ], [ 102.335786, 4.643801 ], [ 102.332727, 4.6386 ], [ 102.328075, 4.637456 ], [ 102.318871, 4.635192 ], [ 102.294039, 4.647926 ], [ 102.286481, 4.65528 ], [ 102.272625, 4.662095 ], [ 102.265967, 4.65797 ], [ 102.258769, 4.655459 ], [ 102.249952, 4.656715 ], [ 102.246173, 4.653307 ], [ 102.238076, 4.649361 ], [ 102.233757, 4.651334 ], [ 102.229618, 4.645416 ], [ 102.235196, 4.633399 ], [ 102.22476, 4.627301 ], [ 102.216842, 4.629273 ], [ 102.211084, 4.633578 ], [ 102.198848, 4.637524 ], [ 102.19129, 4.649003 ], [ 102.183192, 4.656356 ], [ 102.174555, 4.658867 ], [ 102.174555, 4.676084 ], [ 102.169516, 4.682003 ], [ 102.162679, 4.687024 ], [ 102.159799, 4.692225 ], [ 102.154941, 4.695992 ], [ 102.150982, 4.701551 ], [ 102.131188, 4.712491 ], [ 102.12453, 4.722175 ], [ 102.127409, 4.737239 ], [ 102.116073, 4.761986 ], [ 102.094659, 4.7584 ], [ 102.078464, 4.745309 ], [ 102.062989, 4.738853 ], [ 102.05795, 4.743515 ], [ 102.051292, 4.735984 ], [ 102.050573, 4.725582 ], [ 102.043015, 4.7263 ], [ 102.040676, 4.730962 ], [ 102.034018, 4.732397 ], [ 102.032624, 4.734877 ], [ 102.067007, 4.838799 ], [ 102.115474, 4.902017 ], [ 102.080639, 4.908275 ] ] ] } },
{ "type": "Feature", "properties": { "state": "Kelantan", "parlimen": "P.029 Gua Musang", "code_parlimen": "P.029", "dun": "N.39 Galas", "code_dun": "N.39" }, "geometry": { "type": "Polygon", "coordinates": [ [ [ 101.8972, 5.20946 ], [ 101.891744, 5.180432 ], [ 101.896109, 5.16581 ], [ 101.912696, 5.15206 ], [ 101.926882, 5.139401 ], [ 101.929283, 5.123688 ], [ 101.924263, 5.106664 ], [ 101.924918, 5.098371 ], [ 101.929283, 5.088113 ], [ 101.921426, 5.074145 ], [ 101.9271, 5.055594 ], [ 101.936485, 5.023947 ], [ 101.957, 5.03486 ], [ 101.965076, 5.034423 ], [ 101.978607, 5.026785 ], [ 101.982972, 5.021983 ], [ 101.98319, 5.00736 ], [ 101.982317, 4.989027 ], [ 101.988428, 4.981607 ], [ 101.985591, 4.97244 ], [ 101.990829, 4.960218 ], [ 101.98821, 4.947778 ], [ 101.981881, 4.935993 ], [ 101.996285, 4.930755 ], [ 102.021384, 4.924425 ], [ 102.051394, 4.916568 ], [ 102.080639, 4.908275 ], [ 102.115474, 4.902017 ], [ 102.067007, 4.838799 ], [ 102.032624, 4.734877 ], [ 102.028979, 4.741363 ], [ 102.023401, 4.741722 ], [ 102.019982, 4.732038 ], [ 102.012784, 4.73688 ], [ 102.004867, 4.748178 ], [ 102.001268, 4.753199 ], [ 102.001808, 4.761448 ], [ 101.987412, 4.760013 ], [ 101.988132, 4.752482 ], [ 101.985433, 4.749075 ], [ 101.987232, 4.739929 ], [ 101.978055, 4.745129 ], [ 101.975356, 4.749613 ], [ 101.970317, 4.750509 ], [ 101.968698, 4.759655 ], [ 101.963659, 4.764676 ], [ 101.950523, 4.757862 ], [ 101.947824, 4.748895 ], [ 101.953762, 4.733473 ], [ 101.951423, 4.729886 ], [ 101.953582, 4.714105 ], [ 101.949264, 4.703165 ], [ 101.949084, 4.69653 ], [ 101.943685, 4.681465 ], [ 101.945125, 4.67734 ], [ 101.938467, 4.657791 ], [ 101.92785, 4.658508 ], [ 101.922452, 4.642905 ], [ 101.915794, 4.632143 ], [ 101.914534, 4.620844 ], [ 101.911655, 4.609185 ], [ 101.900858, 4.608826 ], [ 101.89384, 4.616539 ], [ 101.893301, 4.628018 ], [ 101.888082, 4.635551 ], [ 101.889522, 4.639497 ], [ 101.887902, 4.643263 ], [ 101.892761, 4.651334 ], [ 101.890241, 4.654742 ], [ 101.893121, 4.662275 ], [ 101.887182, 4.666579 ], [ 101.889342, 4.67178 ], [ 101.879085, 4.678237 ], [ 101.870088, 4.67716 ], [ 101.864509, 4.682362 ], [ 101.864509, 4.687204 ], [ 101.86235, 4.693301 ], [ 101.859291, 4.691508 ], [ 101.858571, 4.687204 ], [ 101.850833, 4.683976 ], [ 101.846875, 4.687204 ], [ 101.847235, 4.692225 ], [ 101.845615, 4.694736 ], [ 101.845255, 4.69922 ], [ 101.845975, 4.705138 ], [ 101.841836, 4.719485 ], [ 101.838417, 4.721278 ], [ 101.835178, 4.720023 ], [ 101.831759, 4.714643 ], [ 101.823662, 4.717154 ], [ 101.819163, 4.725403 ], [ 101.821682, 4.750868 ], [ 101.816464, 4.759475 ], [ 101.811246, 4.761269 ], [ 101.808726, 4.760013 ], [ 101.802068, 4.763241 ], [ 101.79667, 4.761448 ], [ 101.79685, 4.755889 ], [ 101.780655, 4.758579 ], [ 101.775077, 4.751226 ], [ 101.775256, 4.747102 ], [ 101.773997, 4.744412 ], [ 101.773457, 4.724148 ], [ 101.775616, 4.716974 ], [ 101.775077, 4.70998 ], [ 101.777596, 4.707111 ], [ 101.776156, 4.703883 ], [ 101.773817, 4.702448 ], [ 101.770938, 4.697247 ], [ 101.772917, 4.691149 ], [ 101.770038, 4.678954 ], [ 101.774357, 4.67178 ], [ 101.774357, 4.659764 ], [ 101.768778, 4.655101 ], [ 101.768239, 4.641828 ], [ 101.768239, 4.636448 ], [ 101.76284, 4.622637 ], [ 101.758342, 4.624431 ], [ 101.752763, 4.62192 ], [ 101.755103, 4.619409 ], [ 101.754563, 4.611158 ], [ 101.749884, 4.610082 ], [ 101.747545, 4.612772 ], [ 101.741427, 4.612414 ], [ 101.734409, 4.618691 ], [ 101.73189, 4.623175 ], [ 101.725592, 4.621202 ], [ 101.724332, 4.615463 ], [ 101.726311, 4.610441 ], [ 101.716414, 4.606136 ], [ 101.712815, 4.610082 ], [ 101.711196, 4.604701 ], [ 101.677906, 4.59376 ], [ 101.674667, 4.595195 ], [ 101.668729, 4.582998 ], [ 101.668189, 4.570621 ], [ 101.653074, 4.556809 ], [ 101.643177, 4.556271 ], [ 101.640837, 4.558603 ], [ 101.635979, 4.559141 ], [ 101.635259, 4.555733 ], [ 101.626442, 4.550531 ], [ 101.624462, 4.546585 ], [ 101.619244, 4.546585 ], [ 101.617085, 4.551428 ], [ 101.613306, 4.558962 ], [ 101.607548, 4.560576 ], [ 101.593872, 4.557885 ], [ 101.590993, 4.551787 ], [ 101.585774, 4.55645 ], [ 101.585234, 4.562728 ], [ 101.578936, 4.562728 ], [ 101.571558, 4.574388 ], [ 101.563101, 4.579051 ], [ 101.551225, 4.575105 ], [ 101.547986, 4.577796 ], [ 101.543667, 4.593401 ], [ 101.53449, 4.599858 ], [ 101.53341, 4.603984 ], [ 101.523693, 4.60506 ], [ 101.522253, 4.611337 ], [ 101.516855, 4.611337 ], [ 101.516315, 4.607212 ], [ 101.507318, 4.607033 ], [ 101.50138, 4.61062 ], [ 101.495262, 4.601652 ], [ 101.488604, 4.598782 ], [ 101.484825, 4.601652 ], [ 101.480686, 4.600576 ], [ 101.477087, 4.590172 ], [ 101.477267, 4.574746 ], [ 101.452075, 4.573312 ], [ 101.446856, 4.57672 ], [ 101.443437, 4.586944 ], [ 101.437679, 4.589455 ], [ 101.425263, 4.605239 ], [ 101.40115, 4.618153 ], [ 101.398631, 4.613759 ], [ 101.386035, 4.609723 ], [ 101.373844, 4.610127 ], [ 101.370245, 4.621247 ], [ 101.376723, 4.629856 ], [ 101.370785, 4.634699 ], [ 101.364487, 4.634878 ], [ 101.363498, 4.643257 ], [ 101.362687, 4.650124 ], [ 101.357829, 4.660167 ], [ 101.35189, 4.664113 ], [ 101.349911, 4.671287 ], [ 101.346222, 4.672004 ], [ 101.343073, 4.676667 ], [ 101.337855, 4.679716 ], [ 101.337515, 4.68018 ], [ 101.334436, 4.684379 ], [ 101.333716, 4.695319 ], [ 101.334975, 4.698727 ], [ 101.340734, 4.700341 ], [ 101.340374, 4.707155 ], [ 101.343433, 4.713432 ], [ 101.347572, 4.713074 ], [ 101.350631, 4.706438 ], [ 101.358368, 4.707155 ], [ 101.365386, 4.71397 ], [ 101.370785, 4.712536 ], [ 101.372764, 4.707514 ], [ 101.379242, 4.708052 ], [ 101.38752, 4.723116 ], [ 101.374563, 4.761314 ], [ 101.38734, 4.764183 ], [ 101.397956, 4.762389 ], [ 101.395797, 4.773149 ], [ 101.411092, 4.798612 ], [ 101.415051, 4.813316 ], [ 101.410373, 4.81726 ], [ 101.407313, 4.825867 ], [ 101.400116, 4.833577 ], [ 101.403175, 4.838957 ], [ 101.402095, 4.843081 ], [ 101.412352, 4.843977 ], [ 101.409833, 4.85097 ], [ 101.410732, 4.855632 ], [ 101.424228, 4.850611 ], [ 101.428727, 4.857245 ], [ 101.435745, 4.859755 ], [ 101.441143, 4.855632 ], [ 101.446542, 4.858859 ], [ 101.438084, 4.86872 ], [ 101.436465, 4.877864 ], [ 101.446362, 4.878044 ], [ 101.447801, 4.899379 ], [ 101.444562, 4.919459 ], [ 101.437544, 4.926451 ], [ 101.437724, 4.956032 ], [ 101.425668, 4.973062 ], [ 101.42319, 4.978512 ], [ 101.423287, 4.984229 ], [ 101.426776, 4.986943 ], [ 101.432686, 4.992423 ], [ 101.441143, 4.996367 ], [ 101.445642, 4.994574 ], [ 101.448701, 4.997442 ], [ 101.448341, 5.002103 ], [ 101.45284, 5.005151 ], [ 101.447216, 5.0125 ], [ 101.449068, 5.014851 ], [ 101.460172, 5.030963 ], [ 101.458733, 5.048171 ], [ 101.464491, 5.059464 ], [ 101.460532, 5.064483 ], [ 101.465571, 5.074879 ], [ 101.475468, 5.07918 ], [ 101.485185, 5.089218 ], [ 101.479966, 5.098717 ], [ 101.477267, 5.108575 ], [ 101.480811, 5.114638 ], [ 101.484285, 5.120583 ], [ 101.486624, 5.132591 ], [ 101.480506, 5.143165 ], [ 101.481766, 5.151947 ], [ 101.487164, 5.156965 ], [ 101.489503, 5.161983 ], [ 101.485365, 5.16503 ], [ 101.497421, 5.185998 ], [ 101.510197, 5.198901 ], [ 101.508758, 5.203022 ], [ 101.516135, 5.215566 ], [ 101.511277, 5.222914 ], [ 101.510017, 5.231694 ], [ 101.521894, 5.242087 ], [ 101.524053, 5.250689 ], [ 101.519734, 5.25266 ], [ 101.520994, 5.267891 ], [ 101.528372, 5.272191 ], [ 101.53449, 5.261261 ], [ 101.547266, 5.262873 ], [ 101.547446, 5.278642 ], [ 101.558602, 5.282763 ], [ 101.560222, 5.289213 ], [ 101.56706, 5.284913 ], [ 101.573358, 5.291363 ], [ 101.569219, 5.300143 ], [ 101.571918, 5.301935 ], [ 101.575337, 5.319494 ], [ 101.573718, 5.323436 ], [ 101.575157, 5.327915 ], [ 101.582715, 5.33114 ], [ 101.588293, 5.32899 ], [ 101.59963, 5.330602 ], [ 101.605208, 5.34601 ], [ 101.615285, 5.347265 ], [ 101.619424, 5.351206 ], [ 101.625542, 5.347444 ], [ 101.627701, 5.340994 ], [ 101.639398, 5.338486 ], [ 101.646056, 5.344756 ], [ 101.654333, 5.340815 ], [ 101.654513, 5.336694 ], [ 101.663331, 5.334544 ], [ 101.66639, 5.325586 ], [ 101.672688, 5.324152 ], [ 101.677906, 5.333827 ], [ 101.69932, 5.330423 ], [ 101.702559, 5.338844 ], [ 101.716774, 5.344577 ], [ 101.723792, 5.349952 ], [ 101.734949, 5.351027 ], [ 101.752583, 5.371272 ], [ 101.742866, 5.380409 ], [ 101.739807, 5.396667 ], [ 101.746689, 5.393335 ], [ 101.789139, 5.358961 ], [ 101.806517, 5.316402 ], [ 101.815684, 5.292176 ], [ 101.867518, 5.266423 ], [ 101.91335, 5.242415 ], [ 101.8972, 5.20946 ] ] ] } }
]
}
