{
"type": "FeatureCollection",
"name": "MLK_SE-13",
"crs": { "type": "name", "properties": { "name": "urn:ogc:def:crs:OGC:1.3:CRS84" } },
"features": [
{ "type": "Feature", "properties": { "state": "Melaka", "parlimen": "P.134 Masjid Tanah", "code_parlimen": "P.134", "dun": "N.01 Kuala Linggi", "code_dun": "N.01" }, "geometry": { "type": "Polygon", "coordinates": [ [ [ 102.060423, 2.381605 ], [ 102.05797, 2.378141 ], [ 102.054361, 2.37677 ], [ 102.053495, 2.373955 ], [ 102.055443, 2.370996 ], [ 102.053278, 2.368253 ], [ 102.057609, 2.367965 ], [ 102.063382, 2.365366 ], [ 102.067496, 2.362407 ], [ 102.069661, 2.356922 ], [ 102.070022, 2.350788 ], [ 102.070672, 2.346602 ], [ 102.068651, 2.344509 ], [ 102.068146, 2.340323 ], [ 102.066937, 2.338915 ], [ 102.066414, 2.337219 ], [ 102.066648, 2.335956 ], [ 102.067659, 2.33482 ], [ 102.068931, 2.332936 ], [ 102.067539, 2.331252 ], [ 102.066432, 2.330201 ], [ 102.065181, 2.329641 ], [ 102.060442, 2.336395 ], [ 102.055119, 2.341714 ], [ 102.050076, 2.34442 ], [ 102.045034, 2.34554 ], [ 102.041858, 2.348059 ], [ 102.038963, 2.348526 ], [ 102.022247, 2.361775 ], [ 102.011414, 2.366441 ], [ 102.002543, 2.368307 ], [ 101.997687, 2.367747 ], [ 101.996286, 2.364854 ], [ 101.986947, 2.36896 ], [ 101.976208, 2.370453 ], [ 101.971258, 2.375864 ], [ 101.972379, 2.377077 ], [ 101.967336, 2.386781 ], [ 101.971165, 2.390793 ], [ 101.976675, 2.389674 ], [ 101.984332, 2.398164 ], [ 101.993951, 2.399751 ], [ 101.997667, 2.402113 ], [ 102.000001, 2.403505 ], [ 102.005531, 2.407215 ], [ 102.011601, 2.408708 ], [ 102.017671, 2.417665 ], [ 102.02729, 2.427648 ], [ 102.026917, 2.433526 ], [ 102.030092, 2.439778 ], [ 102.038216, 2.43418 ], [ 102.035321, 2.430914 ], [ 102.034574, 2.426249 ], [ 102.040738, 2.421024 ], [ 102.042043, 2.421045 ], [ 102.044193, 2.42121 ], [ 102.041543, 2.419023 ], [ 102.040912, 2.416915 ], [ 102.041564, 2.414646 ], [ 102.045425, 2.411144 ], [ 102.051914, 2.408328 ], [ 102.059883, 2.403883 ], [ 102.068936, 2.397654 ], [ 102.062253, 2.397141 ], [ 102.062065, 2.387261 ], [ 102.062149, 2.38104 ], [ 102.060423, 2.381605 ] ] ] } },
{ "type": "Feature", "properties": { "state": "Melaka", "parlimen": "P.134 Masjid Tanah", "code_parlimen": "P.134", "dun": "N.02 Tanjung Bidara", "code_dun": "N.02" }, "geometry": { "type": "Polygon", "coordinates": [ [ [ 102.068651, 2.344509 ], [ 102.070672, 2.346602 ], [ 102.070022, 2.350788 ], [ 102.069661, 2.356922 ], [ 102.067496, 2.362407 ], [ 102.063382, 2.365366 ], [ 102.057609, 2.367965 ], [ 102.053278, 2.368253 ], [ 102.055443, 2.370996 ], [ 102.053495, 2.373955 ], [ 102.054361, 2.37677 ], [ 102.05797, 2.378141 ], [ 102.060423, 2.381605 ], [ 102.062149, 2.38104 ], [ 102.062065, 2.387261 ], [ 102.062253, 2.397141 ], [ 102.068936, 2.397654 ], [ 102.071646, 2.396996 ], [ 102.075291, 2.397826 ], [ 102.079549, 2.395516 ], [ 102.081245, 2.393604 ], [ 102.083085, 2.39364 ], [ 102.086297, 2.389454 ], [ 102.08857, 2.389309 ], [ 102.089978, 2.386747 ], [ 102.0894, 2.385015 ], [ 102.090555, 2.382128 ], [ 102.089833, 2.380035 ], [ 102.088209, 2.378664 ], [ 102.087921, 2.375488 ], [ 102.087343, 2.373287 ], [ 102.091132, 2.36874 ], [ 102.094488, 2.364302 ], [ 102.096401, 2.364194 ], [ 102.096726, 2.360657 ], [ 102.102175, 2.3551 ], [ 102.098783, 2.351798 ], [ 102.099901, 2.35021 ], [ 102.101561, 2.351076 ], [ 102.102139, 2.348045 ], [ 102.098313, 2.345014 ], [ 102.099324, 2.342271 ], [ 102.103726, 2.342705 ], [ 102.102716, 2.340684 ], [ 102.100262, 2.339601 ], [ 102.099829, 2.337725 ], [ 102.104953, 2.334333 ], [ 102.10849, 2.331662 ], [ 102.105422, 2.330399 ], [ 102.104232, 2.327548 ], [ 102.100948, 2.327115 ], [ 102.098747, 2.324517 ], [ 102.100912, 2.315207 ], [ 102.103077, 2.312537 ], [ 102.104232, 2.305897 ], [ 102.096437, 2.306258 ], [ 102.096365, 2.299979 ], [ 102.08756, 2.299762 ], [ 102.089581, 2.297164 ], [ 102.08977, 2.292383 ], [ 102.088738, 2.29114 ], [ 102.087021, 2.291228 ], [ 102.084349, 2.291327 ], [ 102.082668, 2.293566 ], [ 102.08024, 2.294966 ], [ 102.077999, 2.295152 ], [ 102.071555, 2.317454 ], [ 102.069221, 2.322119 ], [ 102.065181, 2.329641 ], [ 102.066432, 2.330201 ], [ 102.067539, 2.331252 ], [ 102.068931, 2.332936 ], [ 102.067659, 2.33482 ], [ 102.066648, 2.335956 ], [ 102.066414, 2.337219 ], [ 102.066937, 2.338915 ], [ 102.068146, 2.340323 ], [ 102.068651, 2.344509 ] ] ] } },
{ "type": "Feature", "properties": { "state": "Melaka", "parlimen": "P.134 Masjid Tanah", "code_parlimen": "P.134", "dun": "N.03 Ayer Limau", "code_dun": "N.03" }, "geometry": { "type": "Polygon", "coordinates": [ [ [ 102.087921, 2.375488 ], [ 102.088209, 2.378664 ], [ 102.089833, 2.380035 ], [ 102.090555, 2.382128 ], [ 102.0894, 2.385015 ], [ 102.089978, 2.386747 ], [ 102.08857, 2.389309 ], [ 102.086297, 2.389454 ], [ 102.083085, 2.39364 ], [ 102.081245, 2.393604 ], [ 102.079549, 2.395516 ], [ 102.075291, 2.397826 ], [ 102.071646, 2.396996 ], [ 102.068936, 2.397654 ], [ 102.059883, 2.403883 ], [ 102.051914, 2.408328 ], [ 102.045425, 2.411144 ], [ 102.041564, 2.414646 ], [ 102.040912, 2.416915 ], [ 102.041543, 2.419023 ], [ 102.044193, 2.42121 ], [ 102.047275, 2.419624 ], [ 102.050076, 2.420651 ], [ 102.051944, 2.42345 ], [ 102.048769, 2.427648 ], [ 102.050637, 2.430261 ], [ 102.050917, 2.43306 ], [ 102.056894, 2.435579 ], [ 102.059602, 2.434459 ], [ 102.062497, 2.436699 ], [ 102.063244, 2.440524 ], [ 102.064831, 2.442483 ], [ 102.064364, 2.444163 ], [ 102.062777, 2.44267 ], [ 102.060722, 2.44211 ], [ 102.059322, 2.444256 ], [ 102.06259, 2.448361 ], [ 102.060442, 2.45088 ], [ 102.064364, 2.457785 ], [ 102.069688, 2.457505 ], [ 102.076691, 2.454239 ], [ 102.083789, 2.453866 ], [ 102.087042, 2.449186 ], [ 102.088458, 2.447148 ], [ 102.12161, 2.46273 ], [ 102.120975, 2.459099 ], [ 102.124584, 2.455491 ], [ 102.125883, 2.454986 ], [ 102.125739, 2.451521 ], [ 102.124367, 2.449861 ], [ 102.123862, 2.444737 ], [ 102.126605, 2.443149 ], [ 102.122563, 2.437953 ], [ 102.116501, 2.434705 ], [ 102.117872, 2.432396 ], [ 102.114119, 2.427777 ], [ 102.119171, 2.421281 ], [ 102.129347, 2.422075 ], [ 102.129203, 2.416157 ], [ 102.12444, 2.414714 ], [ 102.124512, 2.41161 ], [ 102.12711, 2.409878 ], [ 102.125378, 2.407208 ], [ 102.119099, 2.407641 ], [ 102.112009, 2.407644 ], [ 102.112028, 2.404199 ], [ 102.115801, 2.39782 ], [ 102.1175, 2.396252 ], [ 102.12062, 2.390416 ], [ 102.121761, 2.387202 ], [ 102.123616, 2.386079 ], [ 102.126893, 2.384257 ], [ 102.137467, 2.378411 ], [ 102.13642, 2.376824 ], [ 102.131657, 2.371447 ], [ 102.126966, 2.368849 ], [ 102.122202, 2.362967 ], [ 102.116429, 2.357806 ], [ 102.110294, 2.353494 ], [ 102.108219, 2.352664 ], [ 102.106306, 2.352953 ], [ 102.102175, 2.3551 ], [ 102.096726, 2.360657 ], [ 102.096401, 2.364194 ], [ 102.094488, 2.364302 ], [ 102.091132, 2.36874 ], [ 102.087343, 2.373287 ], [ 102.087921, 2.375488 ] ] ] } },
{ "type": "Feature", "properties": { "state": "Melaka", "parlimen": "P.134 Masjid Tanah", "code_parlimen": "P.134", "dun": "N.04 Lendu", "code_dun": "N.04" }, "geometry": { "type": "Polygon", "coordinates": [ [ [ 102.122202, 2.362967 ], [ 102.126966, 2.368849 ], [ 102.131657, 2.371447 ], [ 102.13642, 2.376824 ], [ 102.137467, 2.378411 ], [ 102.140353, 2.376715 ], [ 102.143233, 2.377987 ], [ 102.145242, 2.376853 ], [ 102.148282, 2.374446 ], [ 102.151684, 2.371014 ], [ 102.154488, 2.367859 ], [ 102.154868, 2.366213 ], [ 102.158096, 2.365544 ], [ 102.161452, 2.36681 ], [ 102.163732, 2.369652 ], [ 102.165285, 2.37097 ], [ 102.166155, 2.373179 ], [ 102.167833, 2.373269 ], [ 102.169006, 2.374785 ], [ 102.171712, 2.374677 ], [ 102.173011, 2.377275 ], [ 102.172945, 2.382904 ], [ 102.173617, 2.383825 ], [ 102.175834, 2.382443 ], [ 102.176568, 2.381649 ], [ 102.175618, 2.379232 ], [ 102.176191, 2.376996 ], [ 102.174464, 2.374902 ], [ 102.175943, 2.371871 ], [ 102.17603, 2.369037 ], [ 102.17686, 2.366792 ], [ 102.177556, 2.364592 ], [ 102.177803, 2.362145 ], [ 102.177517, 2.360947 ], [ 102.175939, 2.360099 ], [ 102.174976, 2.358289 ], [ 102.175799, 2.354489 ], [ 102.177668, 2.351838 ], [ 102.178009, 2.349864 ], [ 102.179434, 2.34733 ], [ 102.180428, 2.34603 ], [ 102.180713, 2.342959 ], [ 102.180586, 2.341175 ], [ 102.181103, 2.338961 ], [ 102.181123, 2.337544 ], [ 102.183828, 2.334666 ], [ 102.183882, 2.332249 ], [ 102.18434, 2.330129 ], [ 102.184578, 2.32789 ], [ 102.183972, 2.325934 ], [ 102.180364, 2.324472 ], [ 102.18031, 2.319647 ], [ 102.180674, 2.316145 ], [ 102.18215, 2.315956 ], [ 102.185637, 2.316309 ], [ 102.187966, 2.315799 ], [ 102.189349, 2.315063 ], [ 102.189692, 2.313701 ], [ 102.189764, 2.312113 ], [ 102.184965, 2.312474 ], [ 102.184568, 2.308667 ], [ 102.183142, 2.308685 ], [ 102.182837, 2.309557 ], [ 102.179245, 2.308847 ], [ 102.178108, 2.309839 ], [ 102.175889, 2.30946 ], [ 102.175185, 2.308558 ], [ 102.173616, 2.308811 ], [ 102.170855, 2.308234 ], [ 102.169664, 2.307097 ], [ 102.169051, 2.30762 ], [ 102.166113, 2.306572 ], [ 102.160607, 2.305311 ], [ 102.159344, 2.305256 ], [ 102.158911, 2.306501 ], [ 102.158189, 2.307746 ], [ 102.157287, 2.307476 ], [ 102.156294, 2.306844 ], [ 102.157142, 2.305383 ], [ 102.15612, 2.303712 ], [ 102.152902, 2.303542 ], [ 102.15153, 2.303008 ], [ 102.149504, 2.30285 ], [ 102.147183, 2.301864 ], [ 102.144278, 2.301431 ], [ 102.145247, 2.2981 ], [ 102.145581, 2.296922 ], [ 102.146209, 2.295501 ], [ 102.146551, 2.292969 ], [ 102.14693, 2.29075 ], [ 102.145663, 2.289466 ], [ 102.137512, 2.293456 ], [ 102.134174, 2.294593 ], [ 102.132965, 2.291742 ], [ 102.130818, 2.289415 ], [ 102.127435, 2.290028 ], [ 102.125315, 2.289559 ], [ 102.123456, 2.287809 ], [ 102.12167, 2.287286 ], [ 102.120335, 2.28494 ], [ 102.117989, 2.285048 ], [ 102.116564, 2.286979 ], [ 102.114182, 2.288278 ], [ 102.110665, 2.288168 ], [ 102.109745, 2.290256 ], [ 102.107267, 2.290035 ], [ 102.105311, 2.289945 ], [ 102.103158, 2.290136 ], [ 102.102039, 2.288982 ], [ 102.100632, 2.290064 ], [ 102.098935, 2.289816 ], [ 102.096569, 2.289499 ], [ 102.094315, 2.289284 ], [ 102.092368, 2.290705 ], [ 102.090755, 2.291734 ], [ 102.08977, 2.292383 ], [ 102.089581, 2.297164 ], [ 102.08756, 2.299762 ], [ 102.096365, 2.299979 ], [ 102.096437, 2.306258 ], [ 102.104232, 2.305897 ], [ 102.103077, 2.312537 ], [ 102.100912, 2.315207 ], [ 102.098747, 2.324517 ], [ 102.100948, 2.327115 ], [ 102.104232, 2.327548 ], [ 102.105422, 2.330399 ], [ 102.10849, 2.331662 ], [ 102.104953, 2.334333 ], [ 102.099829, 2.337725 ], [ 102.100262, 2.339601 ], [ 102.102716, 2.340684 ], [ 102.103726, 2.342705 ], [ 102.099324, 2.342271 ], [ 102.098313, 2.345014 ], [ 102.102139, 2.348045 ], [ 102.101561, 2.351076 ], [ 102.099901, 2.35021 ], [ 102.098783, 2.351798 ], [ 102.102175, 2.3551 ], [ 102.106306, 2.352953 ], [ 102.108219, 2.352664 ], [ 102.110294, 2.353494 ], [ 102.116429, 2.357806 ], [ 102.122202, 2.362967 ] ] ] } },
{ "type": "Feature", "properties": { "state": "Melaka", "parlimen": "P.134 Masjid Tanah", "code_parlimen": "P.134", "dun": "N.05 Taboh Naning", "code_dun": "N.05" }, "geometry": { "type": "Polygon", "coordinates": [ [ [ 102.119099, 2.407641 ], [ 102.125378, 2.407208 ], [ 102.12711, 2.409878 ], [ 102.124512, 2.41161 ], [ 102.12444, 2.414714 ], [ 102.129203, 2.416157 ], [ 102.129347, 2.422075 ], [ 102.119171, 2.421281 ], [ 102.114119, 2.427777 ], [ 102.117872, 2.432396 ], [ 102.116501, 2.434705 ], [ 102.122563, 2.437953 ], [ 102.126605, 2.443149 ], [ 102.123862, 2.444737 ], [ 102.124367, 2.449861 ], [ 102.125739, 2.451521 ], [ 102.125883, 2.454986 ], [ 102.124584, 2.455491 ], [ 102.120975, 2.459099 ], [ 102.12161, 2.46273 ], [ 102.140172, 2.457425 ], [ 102.141597, 2.457028 ], [ 102.145615, 2.461928 ], [ 102.176241, 2.499489 ], [ 102.19249, 2.490533 ], [ 102.193611, 2.486801 ], [ 102.205189, 2.48262 ], [ 102.205894, 2.477927 ], [ 102.203852, 2.475435 ], [ 102.204471, 2.471822 ], [ 102.202646, 2.4698 ], [ 102.203191, 2.468988 ], [ 102.205371, 2.469373 ], [ 102.205213, 2.467632 ], [ 102.204731, 2.466244 ], [ 102.203598, 2.464098 ], [ 102.20379, 2.462406 ], [ 102.205374, 2.461127 ], [ 102.207122, 2.458451 ], [ 102.210823, 2.453597 ], [ 102.211137, 2.448322 ], [ 102.207621, 2.446652 ], [ 102.203805, 2.444003 ], [ 102.197385, 2.442894 ], [ 102.19311, 2.440994 ], [ 102.191595, 2.439848 ], [ 102.1915, 2.437296 ], [ 102.19131, 2.434573 ], [ 102.190837, 2.432737 ], [ 102.190678, 2.430964 ], [ 102.187851, 2.42816 ], [ 102.18839, 2.427105 ], [ 102.191741, 2.425569 ], [ 102.192932, 2.424273 ], [ 102.193515, 2.422032 ], [ 102.193273, 2.419152 ], [ 102.19423, 2.418016 ], [ 102.196746, 2.418764 ], [ 102.198338, 2.418842 ], [ 102.19743, 2.417254 ], [ 102.194846, 2.415355 ], [ 102.194784, 2.413444 ], [ 102.19506, 2.410804 ], [ 102.190711, 2.406901 ], [ 102.190311, 2.405689 ], [ 102.190293, 2.404584 ], [ 102.192046, 2.402192 ], [ 102.19229, 2.397347 ], [ 102.190522, 2.396121 ], [ 102.190522, 2.393342 ], [ 102.19211, 2.392043 ], [ 102.187382, 2.388651 ], [ 102.18731, 2.384717 ], [ 102.18957, 2.384355 ], [ 102.18948, 2.381796 ], [ 102.187851, 2.381542 ], [ 102.185117, 2.383076 ], [ 102.184195, 2.382973 ], [ 102.181007, 2.382255 ], [ 102.178089, 2.382973 ], [ 102.176568, 2.381649 ], [ 102.175834, 2.382443 ], [ 102.173617, 2.383825 ], [ 102.172945, 2.382904 ], [ 102.173011, 2.377275 ], [ 102.171712, 2.374677 ], [ 102.169006, 2.374785 ], [ 102.167833, 2.373269 ], [ 102.166155, 2.373179 ], [ 102.165285, 2.37097 ], [ 102.163732, 2.369652 ], [ 102.161452, 2.36681 ], [ 102.158096, 2.365544 ], [ 102.154868, 2.366213 ], [ 102.154488, 2.367859 ], [ 102.151684, 2.371014 ], [ 102.148282, 2.374446 ], [ 102.145242, 2.376853 ], [ 102.143233, 2.377987 ], [ 102.140353, 2.376715 ], [ 102.137467, 2.378411 ], [ 102.126893, 2.384257 ], [ 102.123616, 2.386079 ], [ 102.121761, 2.387202 ], [ 102.12062, 2.390416 ], [ 102.1175, 2.396252 ], [ 102.115801, 2.39782 ], [ 102.112028, 2.404199 ], [ 102.112009, 2.407644 ], [ 102.119099, 2.407641 ] ] ] } },
{ "type": "Feature", "properties": { "state": "Melaka", "parlimen": "P.135 Alor Gajah", "code_parlimen": "P.135", "dun": "N.06 Rembia", "code_dun": "N.06" }, "geometry": { "type": "Polygon", "coordinates": [ [ [ 102.221648, 2.360667 ], [ 102.222408, 2.358355 ], [ 102.224517, 2.357604 ], [ 102.226268, 2.355247 ], [ 102.228468, 2.354372 ], [ 102.230237, 2.353194 ], [ 102.231431, 2.351656 ], [ 102.234843, 2.351162 ], [ 102.237536, 2.349546 ], [ 102.240275, 2.34977 ], [ 102.237963, 2.346695 ], [ 102.238704, 2.343193 ], [ 102.238771, 2.339556 ], [ 102.238732, 2.337427 ], [ 102.239075, 2.335226 ], [ 102.2394, 2.3327 ], [ 102.236621, 2.329308 ], [ 102.237632, 2.327233 ], [ 102.236703, 2.325889 ], [ 102.236062, 2.32369 ], [ 102.235703, 2.322545 ], [ 102.236125, 2.321161 ], [ 102.234971, 2.321522 ], [ 102.233996, 2.320259 ], [ 102.235133, 2.320656 ], [ 102.236564, 2.320718 ], [ 102.237821, 2.320223 ], [ 102.238922, 2.320061 ], [ 102.237912, 2.319249 ], [ 102.239463, 2.317877 ], [ 102.240373, 2.313294 ], [ 102.236725, 2.311105 ], [ 102.239986, 2.30781 ], [ 102.238435, 2.304742 ], [ 102.23728, 2.300773 ], [ 102.237713, 2.297633 ], [ 102.236772, 2.296375 ], [ 102.234953, 2.296151 ], [ 102.231318, 2.297691 ], [ 102.228222, 2.302505 ], [ 102.225148, 2.304691 ], [ 102.224497, 2.307834 ], [ 102.221438, 2.310119 ], [ 102.218985, 2.309397 ], [ 102.217252, 2.308243 ], [ 102.21303, 2.312392 ], [ 102.210017, 2.315263 ], [ 102.20804, 2.316884 ], [ 102.202926, 2.316614 ], [ 102.198921, 2.315279 ], [ 102.194699, 2.31481 ], [ 102.195709, 2.31398 ], [ 102.194482, 2.312898 ], [ 102.189692, 2.313701 ], [ 102.189349, 2.315063 ], [ 102.187966, 2.315799 ], [ 102.185637, 2.316309 ], [ 102.18215, 2.315956 ], [ 102.180674, 2.316145 ], [ 102.18031, 2.319647 ], [ 102.180364, 2.324472 ], [ 102.183972, 2.325934 ], [ 102.184578, 2.32789 ], [ 102.18434, 2.330129 ], [ 102.183882, 2.332249 ], [ 102.183828, 2.334666 ], [ 102.181123, 2.337544 ], [ 102.181103, 2.338961 ], [ 102.180586, 2.341175 ], [ 102.180713, 2.342959 ], [ 102.180428, 2.34603 ], [ 102.179434, 2.34733 ], [ 102.178009, 2.349864 ], [ 102.177668, 2.351838 ], [ 102.175799, 2.354489 ], [ 102.174976, 2.358289 ], [ 102.175939, 2.360099 ], [ 102.177517, 2.360947 ], [ 102.177803, 2.362145 ], [ 102.177556, 2.364592 ], [ 102.17686, 2.366792 ], [ 102.17603, 2.369037 ], [ 102.175943, 2.371871 ], [ 102.174464, 2.374902 ], [ 102.176191, 2.376996 ], [ 102.175618, 2.379232 ], [ 102.176568, 2.381649 ], [ 102.178089, 2.382973 ], [ 102.181007, 2.382255 ], [ 102.184195, 2.382973 ], [ 102.185117, 2.383076 ], [ 102.187851, 2.381542 ], [ 102.18948, 2.381796 ], [ 102.18957, 2.384355 ], [ 102.18731, 2.384717 ], [ 102.187382, 2.388651 ], [ 102.19211, 2.392043 ], [ 102.190522, 2.393342 ], [ 102.190522, 2.396121 ], [ 102.19229, 2.397347 ], [ 102.192046, 2.402192 ], [ 102.192894, 2.402607 ], [ 102.194897, 2.402571 ], [ 102.195908, 2.403257 ], [ 102.198686, 2.403329 ], [ 102.202259, 2.399991 ], [ 102.203107, 2.397717 ], [ 102.203395, 2.395155 ], [ 102.200699, 2.392491 ], [ 102.201501, 2.391691 ], [ 102.204713, 2.394055 ], [ 102.207187, 2.393434 ], [ 102.207591, 2.395679 ], [ 102.209187, 2.39539 ], [ 102.212619, 2.39083 ], [ 102.214011, 2.39083 ], [ 102.214258, 2.389057 ], [ 102.218191, 2.390049 ], [ 102.220858, 2.388897 ], [ 102.224939, 2.390482 ], [ 102.228353, 2.390873 ], [ 102.230265, 2.390649 ], [ 102.231795, 2.391231 ], [ 102.23383, 2.391371 ], [ 102.233403, 2.390001 ], [ 102.233894, 2.388404 ], [ 102.233958, 2.386979 ], [ 102.236612, 2.384871 ], [ 102.237713, 2.383445 ], [ 102.236558, 2.382958 ], [ 102.235337, 2.383015 ], [ 102.234192, 2.38223 ], [ 102.232679, 2.381334 ], [ 102.231055, 2.379981 ], [ 102.229972, 2.377605 ], [ 102.230009, 2.374244 ], [ 102.226544, 2.372674 ], [ 102.223802, 2.372277 ], [ 102.223213, 2.371357 ], [ 102.223685, 2.368544 ], [ 102.220901, 2.367691 ], [ 102.220049, 2.366909 ], [ 102.219902, 2.365872 ], [ 102.221339, 2.363492 ], [ 102.221648, 2.360667 ] ] ] } },
{ "type": "Feature", "properties": { "state": "Melaka", "parlimen": "P.135 Alor Gajah", "code_parlimen": "P.135", "dun": "N.07 Gadek", "code_dun": "N.07" }, "geometry": { "type": "Polygon", "coordinates": [ [ [ 102.269649, 2.409842 ], [ 102.274051, 2.405656 ], [ 102.276686, 2.402769 ], [ 102.272211, 2.401542 ], [ 102.267195, 2.398331 ], [ 102.268025, 2.396472 ], [ 102.269054, 2.39622 ], [ 102.269144, 2.393026 ], [ 102.266185, 2.392593 ], [ 102.265427, 2.391475 ], [ 102.26936, 2.384907 ], [ 102.272518, 2.379674 ], [ 102.270082, 2.379386 ], [ 102.268691, 2.378073 ], [ 102.264964, 2.378207 ], [ 102.26361, 2.379828 ], [ 102.262802, 2.382252 ], [ 102.256734, 2.39068 ], [ 102.256532, 2.393126 ], [ 102.254557, 2.397706 ], [ 102.252761, 2.398132 ], [ 102.248496, 2.396 ], [ 102.246363, 2.391173 ], [ 102.244702, 2.389692 ], [ 102.242704, 2.386594 ], [ 102.240863, 2.385584 ], [ 102.240113, 2.38626 ], [ 102.237984, 2.386278 ], [ 102.236612, 2.384871 ], [ 102.233958, 2.386979 ], [ 102.233894, 2.388404 ], [ 102.233403, 2.390001 ], [ 102.23383, 2.391371 ], [ 102.231795, 2.391231 ], [ 102.230265, 2.390649 ], [ 102.228353, 2.390873 ], [ 102.224939, 2.390482 ], [ 102.220858, 2.388897 ], [ 102.218191, 2.390049 ], [ 102.214258, 2.389057 ], [ 102.214011, 2.39083 ], [ 102.212619, 2.39083 ], [ 102.209187, 2.39539 ], [ 102.207591, 2.395679 ], [ 102.207187, 2.393434 ], [ 102.204713, 2.394055 ], [ 102.201501, 2.391691 ], [ 102.200699, 2.392491 ], [ 102.203395, 2.395155 ], [ 102.203107, 2.397717 ], [ 102.202259, 2.399991 ], [ 102.198686, 2.403329 ], [ 102.195908, 2.403257 ], [ 102.194897, 2.402571 ], [ 102.192894, 2.402607 ], [ 102.192046, 2.402192 ], [ 102.190293, 2.404584 ], [ 102.190311, 2.405689 ], [ 102.190711, 2.406901 ], [ 102.19506, 2.410804 ], [ 102.194784, 2.413444 ], [ 102.194846, 2.415355 ], [ 102.19743, 2.417254 ], [ 102.198338, 2.418842 ], [ 102.196746, 2.418764 ], [ 102.19423, 2.418016 ], [ 102.193273, 2.419152 ], [ 102.193515, 2.422032 ], [ 102.192932, 2.424273 ], [ 102.191741, 2.425569 ], [ 102.18839, 2.427105 ], [ 102.187851, 2.42816 ], [ 102.190678, 2.430964 ], [ 102.190837, 2.432737 ], [ 102.19131, 2.434573 ], [ 102.1915, 2.437296 ], [ 102.191595, 2.439848 ], [ 102.19311, 2.440994 ], [ 102.197385, 2.442894 ], [ 102.203805, 2.444003 ], [ 102.207621, 2.446652 ], [ 102.211137, 2.448322 ], [ 102.210823, 2.453597 ], [ 102.207122, 2.458451 ], [ 102.205374, 2.461127 ], [ 102.20379, 2.462406 ], [ 102.203598, 2.464098 ], [ 102.204731, 2.466244 ], [ 102.205213, 2.467632 ], [ 102.205371, 2.469373 ], [ 102.203191, 2.468988 ], [ 102.202646, 2.4698 ], [ 102.204471, 2.471822 ], [ 102.203852, 2.475435 ], [ 102.205894, 2.477927 ], [ 102.205189, 2.48262 ], [ 102.207353, 2.481791 ], [ 102.231433, 2.466462 ], [ 102.276253, 2.458666 ], [ 102.270732, 2.457223 ], [ 102.268494, 2.451413 ], [ 102.26835, 2.44665 ], [ 102.268422, 2.442572 ], [ 102.269938, 2.440623 ], [ 102.270479, 2.437592 ], [ 102.267332, 2.439247 ], [ 102.263404, 2.442659 ], [ 102.254476, 2.438415 ], [ 102.253978, 2.436843 ], [ 102.254746, 2.433118 ], [ 102.258809, 2.432422 ], [ 102.263576, 2.434803 ], [ 102.265888, 2.432648 ], [ 102.265744, 2.429339 ], [ 102.266562, 2.426542 ], [ 102.266629, 2.424275 ], [ 102.264943, 2.421083 ], [ 102.267175, 2.418928 ], [ 102.268963, 2.419441 ], [ 102.2701, 2.418063 ], [ 102.269635, 2.415684 ], [ 102.267794, 2.414113 ], [ 102.26936, 2.412801 ], [ 102.269649, 2.409842 ] ] ] } },
{ "type": "Feature", "properties": { "state": "Melaka", "parlimen": "P.135 Alor Gajah", "code_parlimen": "P.135", "dun": "N.08 Machap", "code_dun": "N.08" }, "geometry": { "type": "Polygon", "coordinates": [ [ [ 102.265427, 2.391475 ], [ 102.266185, 2.392593 ], [ 102.269144, 2.393026 ], [ 102.269054, 2.39622 ], [ 102.268025, 2.396472 ], [ 102.267195, 2.398331 ], [ 102.272211, 2.401542 ], [ 102.276686, 2.402769 ], [ 102.274051, 2.405656 ], [ 102.269649, 2.409842 ], [ 102.26936, 2.412801 ], [ 102.267794, 2.414113 ], [ 102.269635, 2.415684 ], [ 102.2701, 2.418063 ], [ 102.268963, 2.419441 ], [ 102.267175, 2.418928 ], [ 102.264943, 2.421083 ], [ 102.266629, 2.424275 ], [ 102.266562, 2.426542 ], [ 102.265744, 2.429339 ], [ 102.265888, 2.432648 ], [ 102.263576, 2.434803 ], [ 102.258809, 2.432422 ], [ 102.254746, 2.433118 ], [ 102.253978, 2.436843 ], [ 102.254476, 2.438415 ], [ 102.263404, 2.442659 ], [ 102.267332, 2.439247 ], [ 102.270479, 2.437592 ], [ 102.269938, 2.440623 ], [ 102.268422, 2.442572 ], [ 102.26835, 2.44665 ], [ 102.268494, 2.451413 ], [ 102.270732, 2.457223 ], [ 102.276253, 2.458666 ], [ 102.278229, 2.458657 ], [ 102.319028, 2.479755 ], [ 102.334347, 2.483555 ], [ 102.36476, 2.489912 ], [ 102.364121, 2.484808 ], [ 102.363335, 2.477442 ], [ 102.362482, 2.474255 ], [ 102.363424, 2.472998 ], [ 102.361651, 2.465096 ], [ 102.364255, 2.464737 ], [ 102.367981, 2.466735 ], [ 102.365961, 2.462717 ], [ 102.366208, 2.460876 ], [ 102.367645, 2.459933 ], [ 102.367689, 2.458631 ], [ 102.362245, 2.454111 ], [ 102.362787, 2.451224 ], [ 102.360982, 2.446785 ], [ 102.356724, 2.446641 ], [ 102.352369, 2.440594 ], [ 102.345552, 2.436934 ], [ 102.340613, 2.434105 ], [ 102.339403, 2.43051 ], [ 102.341504, 2.427305 ], [ 102.339114, 2.424809 ], [ 102.34101, 2.421603 ], [ 102.343255, 2.417922 ], [ 102.346263, 2.415453 ], [ 102.347161, 2.413298 ], [ 102.346532, 2.409122 ], [ 102.348373, 2.404902 ], [ 102.349226, 2.400547 ], [ 102.348966, 2.39843 ], [ 102.348785, 2.395074 ], [ 102.350157, 2.394425 ], [ 102.349765, 2.387752 ], [ 102.350573, 2.383487 ], [ 102.351636, 2.380423 ], [ 102.353043, 2.380586 ], [ 102.356435, 2.381975 ], [ 102.357302, 2.3823 ], [ 102.356508, 2.378727 ], [ 102.357698, 2.374433 ], [ 102.359575, 2.367468 ], [ 102.351383, 2.36386 ], [ 102.349687, 2.357617 ], [ 102.35142, 2.357761 ], [ 102.353224, 2.354044 ], [ 102.350842, 2.349209 ], [ 102.347913, 2.339983 ], [ 102.346837, 2.337535 ], [ 102.345465, 2.337698 ], [ 102.344277, 2.333079 ], [ 102.346633, 2.330016 ], [ 102.344491, 2.328333 ], [ 102.344168, 2.32627 ], [ 102.343939, 2.324709 ], [ 102.343165, 2.324959 ], [ 102.339529, 2.326261 ], [ 102.335533, 2.325543 ], [ 102.332166, 2.323209 ], [ 102.329427, 2.321951 ], [ 102.326374, 2.322715 ], [ 102.321795, 2.326306 ], [ 102.316138, 2.329539 ], [ 102.311964, 2.331015 ], [ 102.308103, 2.331823 ], [ 102.306192, 2.334436 ], [ 102.304127, 2.337915 ], [ 102.30341, 2.340044 ], [ 102.303389, 2.344283 ], [ 102.301681, 2.341706 ], [ 102.301765, 2.339141 ], [ 102.297839, 2.339021 ], [ 102.297587, 2.340707 ], [ 102.296118, 2.34201 ], [ 102.295185, 2.342606 ], [ 102.294523, 2.343154 ], [ 102.293549, 2.343684 ], [ 102.291377, 2.34382 ], [ 102.291594, 2.345503 ], [ 102.290182, 2.346633 ], [ 102.287395, 2.346682 ], [ 102.284918, 2.346812 ], [ 102.28365, 2.346809 ], [ 102.282712, 2.34865 ], [ 102.278995, 2.350201 ], [ 102.280186, 2.352763 ], [ 102.280006, 2.354784 ], [ 102.277444, 2.357924 ], [ 102.277444, 2.354856 ], [ 102.274881, 2.353702 ], [ 102.272067, 2.353629 ], [ 102.271273, 2.355001 ], [ 102.271309, 2.357202 ], [ 102.270443, 2.358537 ], [ 102.264741, 2.358609 ], [ 102.263947, 2.356264 ], [ 102.26005, 2.358645 ], [ 102.257055, 2.358682 ], [ 102.253843, 2.360414 ], [ 102.250884, 2.357743 ], [ 102.251317, 2.35381 ], [ 102.248611, 2.351952 ], [ 102.247492, 2.352854 ], [ 102.248503, 2.355145 ], [ 102.246229, 2.355145 ], [ 102.245129, 2.351699 ], [ 102.243, 2.349516 ], [ 102.240275, 2.34977 ], [ 102.237536, 2.349546 ], [ 102.234843, 2.351162 ], [ 102.231431, 2.351656 ], [ 102.230237, 2.353194 ], [ 102.228468, 2.354372 ], [ 102.226268, 2.355247 ], [ 102.224517, 2.357604 ], [ 102.222408, 2.358355 ], [ 102.221648, 2.360667 ], [ 102.221339, 2.363492 ], [ 102.219902, 2.365872 ], [ 102.220049, 2.366909 ], [ 102.220901, 2.367691 ], [ 102.223685, 2.368544 ], [ 102.223213, 2.371357 ], [ 102.223802, 2.372277 ], [ 102.226544, 2.372674 ], [ 102.230009, 2.374244 ], [ 102.229972, 2.377605 ], [ 102.231055, 2.379981 ], [ 102.232679, 2.381334 ], [ 102.234192, 2.38223 ], [ 102.235337, 2.383015 ], [ 102.236558, 2.382958 ], [ 102.237713, 2.383445 ], [ 102.236612, 2.384871 ], [ 102.237984, 2.386278 ], [ 102.240113, 2.38626 ], [ 102.240863, 2.385584 ], [ 102.242704, 2.386594 ], [ 102.244702, 2.389692 ], [ 102.246363, 2.391173 ], [ 102.248496, 2.396 ], [ 102.252761, 2.398132 ], [ 102.254557, 2.397706 ], [ 102.256532, 2.393126 ], [ 102.256734, 2.39068 ], [ 102.262802, 2.382252 ], [ 102.26361, 2.379828 ], [ 102.264964, 2.378207 ], [ 102.268691, 2.378073 ], [ 102.270082, 2.379386 ], [ 102.272518, 2.379674 ], [ 102.26936, 2.384907 ], [ 102.265427, 2.391475 ] ] ] } },
{ "type": "Feature", "properties": { "state": "Melaka", "parlimen": "P.135 Alor Gajah", "code_parlimen": "P.135", "dun": "N.09 Durian Tunggal", "code_dun": "N.09" }, "geometry": { "type": "Polygon", "coordinates": [ [ [ 102.243, 2.349516 ], [ 102.245129, 2.351699 ], [ 102.246229, 2.355145 ], [ 102.248503, 2.355145 ], [ 102.247492, 2.352854 ], [ 102.248611, 2.351952 ], [ 102.251317, 2.35381 ], [ 102.250884, 2.357743 ], [ 102.253843, 2.360414 ], [ 102.257055, 2.358682 ], [ 102.26005, 2.358645 ], [ 102.263947, 2.356264 ], [ 102.264741, 2.358609 ], [ 102.270443, 2.358537 ], [ 102.271309, 2.357202 ], [ 102.271273, 2.355001 ], [ 102.272067, 2.353629 ], [ 102.274881, 2.353702 ], [ 102.277444, 2.354856 ], [ 102.277444, 2.357924 ], [ 102.280006, 2.354784 ], [ 102.280186, 2.352763 ], [ 102.278995, 2.350201 ], [ 102.282712, 2.34865 ], [ 102.28365, 2.346809 ], [ 102.284918, 2.346812 ], [ 102.287395, 2.346682 ], [ 102.290182, 2.346633 ], [ 102.291594, 2.345503 ], [ 102.291377, 2.34382 ], [ 102.293549, 2.343684 ], [ 102.294523, 2.343154 ], [ 102.295185, 2.342606 ], [ 102.296118, 2.34201 ], [ 102.297587, 2.340707 ], [ 102.297839, 2.339021 ], [ 102.301765, 2.339141 ], [ 102.301681, 2.341706 ], [ 102.303389, 2.344283 ], [ 102.30341, 2.340044 ], [ 102.304127, 2.337915 ], [ 102.306192, 2.334436 ], [ 102.308103, 2.331823 ], [ 102.311964, 2.331015 ], [ 102.316138, 2.329539 ], [ 102.321795, 2.326306 ], [ 102.326374, 2.322715 ], [ 102.329427, 2.321951 ], [ 102.332166, 2.323209 ], [ 102.335533, 2.325543 ], [ 102.339529, 2.326261 ], [ 102.343165, 2.324959 ], [ 102.343939, 2.324709 ], [ 102.344745, 2.322979 ], [ 102.343841, 2.318897 ], [ 102.343697, 2.316263 ], [ 102.341893, 2.313664 ], [ 102.340761, 2.309456 ], [ 102.340052, 2.304066 ], [ 102.339078, 2.297678 ], [ 102.33666, 2.290461 ], [ 102.334405, 2.284593 ], [ 102.3315, 2.282053 ], [ 102.327477, 2.282721 ], [ 102.324698, 2.282378 ], [ 102.324066, 2.283334 ], [ 102.31307, 2.284671 ], [ 102.309722, 2.287141 ], [ 102.30624, 2.289433 ], [ 102.300015, 2.289018 ], [ 102.296488, 2.288477 ], [ 102.287236, 2.284469 ], [ 102.282839, 2.283469 ], [ 102.277579, 2.281909 ], [ 102.276112, 2.279453 ], [ 102.273264, 2.280376 ], [ 102.271545, 2.2809 ], [ 102.26921, 2.278543 ], [ 102.268447, 2.275243 ], [ 102.265843, 2.274233 ], [ 102.264811, 2.272235 ], [ 102.262242, 2.272328 ], [ 102.262319, 2.270327 ], [ 102.26059, 2.270013 ], [ 102.258974, 2.26916 ], [ 102.256011, 2.271068 ], [ 102.249706, 2.273828 ], [ 102.241583, 2.277723 ], [ 102.244018, 2.279411 ], [ 102.246143, 2.280375 ], [ 102.248344, 2.281809 ], [ 102.249558, 2.282062 ], [ 102.25092, 2.283371 ], [ 102.253419, 2.285247 ], [ 102.25544, 2.288025 ], [ 102.257242, 2.2918 ], [ 102.260501, 2.294885 ], [ 102.263256, 2.299266 ], [ 102.263429, 2.301845 ], [ 102.26217, 2.303921 ], [ 102.259973, 2.305848 ], [ 102.258267, 2.306746 ], [ 102.256649, 2.307548 ], [ 102.256976, 2.313359 ], [ 102.254556, 2.317399 ], [ 102.254899, 2.319871 ], [ 102.257407, 2.323877 ], [ 102.257672, 2.329993 ], [ 102.254105, 2.33187 ], [ 102.250244, 2.333602 ], [ 102.247501, 2.331437 ], [ 102.238732, 2.337427 ], [ 102.238771, 2.339556 ], [ 102.238704, 2.343193 ], [ 102.237963, 2.346695 ], [ 102.240275, 2.34977 ], [ 102.243, 2.349516 ] ] ] } },
{ "type": "Feature", "properties": { "state": "Melaka", "parlimen": "P.135 Alor Gajah", "code_parlimen": "P.135", "dun": "N.10 Asahan", "code_dun": "N.10" }, "geometry": { "type": "Polygon", "coordinates": [ [ [ 102.353043, 2.380586 ], [ 102.351636, 2.380423 ], [ 102.350573, 2.383487 ], [ 102.349765, 2.387752 ], [ 102.350157, 2.394425 ], [ 102.348785, 2.395074 ], [ 102.348966, 2.39843 ], [ 102.349226, 2.400547 ], [ 102.348373, 2.404902 ], [ 102.346532, 2.409122 ], [ 102.347161, 2.413298 ], [ 102.346263, 2.415453 ], [ 102.343255, 2.417922 ], [ 102.34101, 2.421603 ], [ 102.339114, 2.424809 ], [ 102.341504, 2.427305 ], [ 102.339403, 2.43051 ], [ 102.340613, 2.434105 ], [ 102.345552, 2.436934 ], [ 102.352369, 2.440594 ], [ 102.356724, 2.446641 ], [ 102.360982, 2.446785 ], [ 102.362787, 2.451224 ], [ 102.362245, 2.454111 ], [ 102.367689, 2.458631 ], [ 102.367645, 2.459933 ], [ 102.366208, 2.460876 ], [ 102.365961, 2.462717 ], [ 102.367981, 2.466735 ], [ 102.364255, 2.464737 ], [ 102.361651, 2.465096 ], [ 102.363424, 2.472998 ], [ 102.362482, 2.474255 ], [ 102.363335, 2.477442 ], [ 102.364121, 2.484808 ], [ 102.36476, 2.489912 ], [ 102.367933, 2.48883 ], [ 102.415769, 2.474793 ], [ 102.433359, 2.466918 ], [ 102.431886, 2.457532 ], [ 102.471172, 2.446634 ], [ 102.510053, 2.437655 ], [ 102.525599, 2.432407 ], [ 102.563047, 2.419158 ], [ 102.587493, 2.416004 ], [ 102.594277, 2.409653 ], [ 102.565661, 2.396229 ], [ 102.555304, 2.396265 ], [ 102.539607, 2.390202 ], [ 102.535602, 2.382697 ], [ 102.538019, 2.377572 ], [ 102.535465, 2.375181 ], [ 102.534343, 2.374238 ], [ 102.5312, 2.371275 ], [ 102.524992, 2.366855 ], [ 102.520843, 2.366819 ], [ 102.516043, 2.36985 ], [ 102.514114, 2.374472 ], [ 102.51178, 2.376807 ], [ 102.507671, 2.379593 ], [ 102.505145, 2.378258 ], [ 102.500382, 2.378005 ], [ 102.49782, 2.379268 ], [ 102.497242, 2.376887 ], [ 102.496557, 2.374397 ], [ 102.484092, 2.371303 ], [ 102.485226, 2.365736 ], [ 102.487561, 2.361533 ], [ 102.46031, 2.363733 ], [ 102.433641, 2.365169 ], [ 102.43198, 2.366516 ], [ 102.426593, 2.366426 ], [ 102.424258, 2.36719 ], [ 102.415593, 2.371724 ], [ 102.407533, 2.375407 ], [ 102.397239, 2.376257 ], [ 102.395008, 2.37657 ], [ 102.392702, 2.385836 ], [ 102.387749, 2.384079 ], [ 102.385504, 2.380263 ], [ 102.38285, 2.377284 ], [ 102.381607, 2.378458 ], [ 102.377118, 2.380658 ], [ 102.37336, 2.381452 ], [ 102.369575, 2.380928 ], [ 102.367375, 2.380793 ], [ 102.364248, 2.383761 ], [ 102.360892, 2.383815 ], [ 102.359737, 2.382697 ], [ 102.357302, 2.3823 ], [ 102.356435, 2.381975 ], [ 102.353043, 2.380586 ] ] ] } },
{ "type": "Feature", "properties": { "state": "Melaka", "parlimen": "P.136 Tangga Batu", "code_parlimen": "P.136", "dun": "N.11 Sungai Udang", "code_dun": "N.11" }, "geometry": { "type": "Polygon", "coordinates": [ [ [ 102.166362, 2.304927 ], [ 102.16546, 2.303195 ], [ 102.166904, 2.30204 ], [ 102.164269, 2.300019 ], [ 102.165821, 2.298251 ], [ 102.167481, 2.297313 ], [ 102.167842, 2.29522 ], [ 102.163331, 2.292838 ], [ 102.163548, 2.290926 ], [ 102.163548, 2.283997 ], [ 102.164197, 2.282446 ], [ 102.164233, 2.278657 ], [ 102.164197, 2.274615 ], [ 102.164125, 2.270032 ], [ 102.157192, 2.273485 ], [ 102.154429, 2.271721 ], [ 102.1494, 2.269095 ], [ 102.146841, 2.26584 ], [ 102.144711, 2.264457 ], [ 102.143484, 2.263446 ], [ 102.144422, 2.26148 ], [ 102.142383, 2.260975 ], [ 102.140729, 2.257962 ], [ 102.140303, 2.25565 ], [ 102.136808, 2.252296 ], [ 102.137028, 2.249242 ], [ 102.121003, 2.267252 ], [ 102.113766, 2.272338 ], [ 102.10989, 2.274017 ], [ 102.105454, 2.274437 ], [ 102.101906, 2.271451 ], [ 102.096163, 2.280922 ], [ 102.09238, 2.283069 ], [ 102.088738, 2.29114 ], [ 102.08977, 2.292383 ], [ 102.090755, 2.291734 ], [ 102.092368, 2.290705 ], [ 102.094315, 2.289284 ], [ 102.096569, 2.289499 ], [ 102.098935, 2.289816 ], [ 102.100632, 2.290064 ], [ 102.102039, 2.288982 ], [ 102.103158, 2.290136 ], [ 102.105311, 2.289945 ], [ 102.107267, 2.290035 ], [ 102.109745, 2.290256 ], [ 102.110665, 2.288168 ], [ 102.114182, 2.288278 ], [ 102.116564, 2.286979 ], [ 102.117989, 2.285048 ], [ 102.120335, 2.28494 ], [ 102.12167, 2.287286 ], [ 102.123456, 2.287809 ], [ 102.125315, 2.289559 ], [ 102.127435, 2.290028 ], [ 102.130818, 2.289415 ], [ 102.132965, 2.291742 ], [ 102.134174, 2.294593 ], [ 102.137512, 2.293456 ], [ 102.145663, 2.289466 ], [ 102.14693, 2.29075 ], [ 102.146551, 2.292969 ], [ 102.146209, 2.295501 ], [ 102.145581, 2.296922 ], [ 102.145247, 2.2981 ], [ 102.144278, 2.301431 ], [ 102.147183, 2.301864 ], [ 102.149504, 2.30285 ], [ 102.15153, 2.303008 ], [ 102.152902, 2.303542 ], [ 102.15612, 2.303712 ], [ 102.157142, 2.305383 ], [ 102.156294, 2.306844 ], [ 102.157287, 2.307476 ], [ 102.158189, 2.307746 ], [ 102.158911, 2.306501 ], [ 102.159344, 2.305256 ], [ 102.160607, 2.305311 ], [ 102.166113, 2.306572 ], [ 102.166362, 2.304927 ] ] ] } },
{ "type": "Feature", "properties": { "state": "Melaka", "parlimen": "P.136 Tangga Batu", "code_parlimen": "P.136", "dun": "N.12 Pantai Kundor", "code_dun": "N.12" }, "geometry": { "type": "Polygon", "coordinates": [ [ [ 102.163836, 2.265558 ], [ 102.161238, 2.261516 ], [ 102.162249, 2.258413 ], [ 102.165424, 2.254515 ], [ 102.160949, 2.251123 ], [ 102.161599, 2.248381 ], [ 102.168455, 2.241236 ], [ 102.172569, 2.234668 ], [ 102.174806, 2.230626 ], [ 102.174662, 2.226368 ], [ 102.176611, 2.221821 ], [ 102.17689, 2.220333 ], [ 102.175691, 2.220205 ], [ 102.175038, 2.220214 ], [ 102.169928, 2.220287 ], [ 102.164895, 2.218262 ], [ 102.164335, 2.216209 ], [ 102.160833, 2.216395 ], [ 102.159572, 2.215416 ], [ 102.154155, 2.216909 ], [ 102.141175, 2.242571 ], [ 102.137028, 2.249242 ], [ 102.136808, 2.252296 ], [ 102.140303, 2.25565 ], [ 102.140729, 2.257962 ], [ 102.142383, 2.260975 ], [ 102.144422, 2.26148 ], [ 102.143484, 2.263446 ], [ 102.144711, 2.264457 ], [ 102.146841, 2.26584 ], [ 102.1494, 2.269095 ], [ 102.154429, 2.271721 ], [ 102.157192, 2.273485 ], [ 102.164125, 2.270032 ], [ 102.163836, 2.265558 ] ] ] } },
{ "type": "Feature", "properties": { "state": "Melaka", "parlimen": "P.136 Tangga Batu", "code_parlimen": "P.136", "dun": "N.13 Paya Rumput", "code_dun": "N.13" }, "geometry": { "type": "Polygon", "coordinates": [ [ [ 102.163548, 2.290926 ], [ 102.163331, 2.292838 ], [ 102.167842, 2.29522 ], [ 102.167481, 2.297313 ], [ 102.165821, 2.298251 ], [ 102.164269, 2.300019 ], [ 102.166904, 2.30204 ], [ 102.16546, 2.303195 ], [ 102.166362, 2.304927 ], [ 102.166113, 2.306572 ], [ 102.169051, 2.30762 ], [ 102.169664, 2.307097 ], [ 102.170855, 2.308234 ], [ 102.173616, 2.308811 ], [ 102.175185, 2.308558 ], [ 102.175889, 2.30946 ], [ 102.178108, 2.309839 ], [ 102.179245, 2.308847 ], [ 102.182837, 2.309557 ], [ 102.183142, 2.308685 ], [ 102.184568, 2.308667 ], [ 102.184965, 2.312474 ], [ 102.189764, 2.312113 ], [ 102.189692, 2.313701 ], [ 102.194482, 2.312898 ], [ 102.195709, 2.31398 ], [ 102.194699, 2.31481 ], [ 102.198921, 2.315279 ], [ 102.202926, 2.316614 ], [ 102.20804, 2.316884 ], [ 102.210017, 2.315263 ], [ 102.21303, 2.312392 ], [ 102.217252, 2.308243 ], [ 102.218985, 2.309397 ], [ 102.221438, 2.310119 ], [ 102.224497, 2.307834 ], [ 102.225148, 2.304691 ], [ 102.228222, 2.302505 ], [ 102.231318, 2.297691 ], [ 102.234953, 2.296151 ], [ 102.236772, 2.296375 ], [ 102.237713, 2.297633 ], [ 102.23728, 2.300773 ], [ 102.238435, 2.304742 ], [ 102.239986, 2.30781 ], [ 102.236725, 2.311105 ], [ 102.240373, 2.313294 ], [ 102.239463, 2.317877 ], [ 102.237912, 2.319249 ], [ 102.238922, 2.320061 ], [ 102.237821, 2.320223 ], [ 102.236564, 2.320718 ], [ 102.235133, 2.320656 ], [ 102.233996, 2.320259 ], [ 102.234971, 2.321522 ], [ 102.236125, 2.321161 ], [ 102.235703, 2.322545 ], [ 102.236062, 2.32369 ], [ 102.236703, 2.325889 ], [ 102.237632, 2.327233 ], [ 102.236621, 2.329308 ], [ 102.2394, 2.3327 ], [ 102.239075, 2.335226 ], [ 102.238732, 2.337427 ], [ 102.247501, 2.331437 ], [ 102.250244, 2.333602 ], [ 102.254105, 2.33187 ], [ 102.257672, 2.329993 ], [ 102.257407, 2.323877 ], [ 102.254899, 2.319871 ], [ 102.254556, 2.317399 ], [ 102.256976, 2.313359 ], [ 102.256649, 2.307548 ], [ 102.258267, 2.306746 ], [ 102.259973, 2.305848 ], [ 102.26217, 2.303921 ], [ 102.263429, 2.301845 ], [ 102.263256, 2.299266 ], [ 102.260501, 2.294885 ], [ 102.257242, 2.2918 ], [ 102.25544, 2.288025 ], [ 102.253419, 2.285247 ], [ 102.25092, 2.283371 ], [ 102.249558, 2.282062 ], [ 102.248344, 2.281809 ], [ 102.246143, 2.280375 ], [ 102.244018, 2.279411 ], [ 102.241583, 2.277723 ], [ 102.240798, 2.276911 ], [ 102.239337, 2.275089 ], [ 102.238922, 2.272238 ], [ 102.239564, 2.27002 ], [ 102.238746, 2.268235 ], [ 102.238056, 2.263866 ], [ 102.236179, 2.262801 ], [ 102.237021, 2.259258 ], [ 102.236443, 2.256372 ], [ 102.235909, 2.254628 ], [ 102.234844, 2.253022 ], [ 102.233301, 2.250755 ], [ 102.231326, 2.246942 ], [ 102.230485, 2.245084 ], [ 102.229215, 2.241148 ], [ 102.228006, 2.237938 ], [ 102.226256, 2.236585 ], [ 102.223405, 2.237541 ], [ 102.221356, 2.23864 ], [ 102.219719, 2.238731 ], [ 102.217263, 2.236286 ], [ 102.214176, 2.234596 ], [ 102.212399, 2.234442 ], [ 102.2122, 2.236048 ], [ 102.212182, 2.237167 ], [ 102.210243, 2.241705 ], [ 102.208393, 2.246841 ], [ 102.207178, 2.24909 ], [ 102.203558, 2.250519 ], [ 102.201212, 2.252828 ], [ 102.196052, 2.255174 ], [ 102.189845, 2.257592 ], [ 102.185226, 2.259901 ], [ 102.181365, 2.26387 ], [ 102.179164, 2.264809 ], [ 102.175447, 2.269356 ], [ 102.175591, 2.271918 ], [ 102.175023, 2.273893 ], [ 102.173291, 2.271728 ], [ 102.169971, 2.274182 ], [ 102.167088, 2.276823 ], [ 102.164233, 2.278657 ], [ 102.164197, 2.282446 ], [ 102.163548, 2.283997 ], [ 102.163548, 2.290926 ] ] ] } },
{ "type": "Feature", "properties": { "state": "Melaka", "parlimen": "P.136 Tangga Batu", "code_parlimen": "P.136", "dun": "N.14 Kelebang", "code_dun": "N.14" }, "geometry": { "type": "Polygon", "coordinates": [ [ [ 102.174662, 2.226368 ], [ 102.174806, 2.230626 ], [ 102.172569, 2.234668 ], [ 102.168455, 2.241236 ], [ 102.161599, 2.248381 ], [ 102.160949, 2.251123 ], [ 102.165424, 2.254515 ], [ 102.162249, 2.258413 ], [ 102.161238, 2.261516 ], [ 102.163836, 2.265558 ], [ 102.164125, 2.270032 ], [ 102.164197, 2.274615 ], [ 102.164233, 2.278657 ], [ 102.167088, 2.276823 ], [ 102.169971, 2.274182 ], [ 102.173291, 2.271728 ], [ 102.175023, 2.273893 ], [ 102.175591, 2.271918 ], [ 102.175447, 2.269356 ], [ 102.179164, 2.264809 ], [ 102.181365, 2.26387 ], [ 102.185226, 2.259901 ], [ 102.189845, 2.257592 ], [ 102.196052, 2.255174 ], [ 102.201212, 2.252828 ], [ 102.203558, 2.250519 ], [ 102.207178, 2.24909 ], [ 102.208393, 2.246841 ], [ 102.210243, 2.241705 ], [ 102.212182, 2.237167 ], [ 102.2122, 2.236048 ], [ 102.212399, 2.234442 ], [ 102.21165, 2.234352 ], [ 102.207608, 2.228001 ], [ 102.207139, 2.225114 ], [ 102.209521, 2.223887 ], [ 102.209268, 2.221217 ], [ 102.213779, 2.220008 ], [ 102.216883, 2.217825 ], [ 102.21986, 2.218041 ], [ 102.218777, 2.21317 ], [ 102.2182, 2.210265 ], [ 102.217171, 2.207649 ], [ 102.216117, 2.206691 ], [ 102.214622, 2.207645 ], [ 102.21419, 2.208594 ], [ 102.209021, 2.211409 ], [ 102.20595, 2.213081 ], [ 102.205691, 2.212909 ], [ 102.203145, 2.214246 ], [ 102.203232, 2.214893 ], [ 102.198788, 2.216964 ], [ 102.195121, 2.218431 ], [ 102.190708, 2.21958 ], [ 102.189642, 2.219639 ], [ 102.184982, 2.220329 ], [ 102.184853, 2.219337 ], [ 102.182911, 2.219294 ], [ 102.183041, 2.22007 ], [ 102.18015, 2.220329 ], [ 102.178036, 2.220459 ], [ 102.17689, 2.220333 ], [ 102.176611, 2.221821 ], [ 102.174662, 2.226368 ] ] ] } },
{ "type": "Feature", "properties": { "state": "Melaka", "parlimen": "P.137 Bukit Katil", "code_parlimen": "P.137", "dun": "N.15 Bachang", "code_dun": "N.15" }, "geometry": { "type": "Polygon", "coordinates": [ [ [ 102.251363, 2.236987 ], [ 102.254231, 2.236734 ], [ 102.256324, 2.235669 ], [ 102.257281, 2.234713 ], [ 102.260186, 2.234713 ], [ 102.261376, 2.235705 ], [ 102.262062, 2.236644 ], [ 102.262171, 2.237288 ], [ 102.261972, 2.239603 ], [ 102.266015, 2.242591 ], [ 102.267367, 2.241425 ], [ 102.268594, 2.238998 ], [ 102.269532, 2.235958 ], [ 102.270542, 2.234316 ], [ 102.271913, 2.231646 ], [ 102.271571, 2.230184 ], [ 102.271282, 2.229201 ], [ 102.270091, 2.226855 ], [ 102.268034, 2.225971 ], [ 102.266537, 2.22718 ], [ 102.265027, 2.226564 ], [ 102.264209, 2.225755 ], [ 102.263871, 2.223983 ], [ 102.265707, 2.220306 ], [ 102.265725, 2.218123 ], [ 102.266753, 2.215434 ], [ 102.27075, 2.216697 ], [ 102.274485, 2.217717 ], [ 102.27545, 2.217765 ], [ 102.276487, 2.216571 ], [ 102.276451, 2.214658 ], [ 102.27624, 2.213237 ], [ 102.276433, 2.211492 ], [ 102.277877, 2.210815 ], [ 102.279555, 2.210193 ], [ 102.278382, 2.20718 ], [ 102.277047, 2.204455 ], [ 102.272013, 2.203986 ], [ 102.268151, 2.204004 ], [ 102.267105, 2.204527 ], [ 102.266275, 2.20552 ], [ 102.264694, 2.205923 ], [ 102.264192, 2.206856 ], [ 102.264597, 2.210193 ], [ 102.263364, 2.211041 ], [ 102.262793, 2.21169 ], [ 102.259888, 2.212105 ], [ 102.257199, 2.213549 ], [ 102.254658, 2.21484 ], [ 102.253306, 2.214992 ], [ 102.247601, 2.216923 ], [ 102.244281, 2.217626 ], [ 102.243848, 2.219665 ], [ 102.243613, 2.221731 ], [ 102.243144, 2.223626 ], [ 102.239585, 2.224458 ], [ 102.236881, 2.226326 ], [ 102.234852, 2.2262 ], [ 102.232661, 2.223869 ], [ 102.229882, 2.225601 ], [ 102.226328, 2.225457 ], [ 102.225266, 2.225665 ], [ 102.2217, 2.226134 ], [ 102.216549, 2.227108 ], [ 102.21672, 2.231601 ], [ 102.214176, 2.234596 ], [ 102.217263, 2.236286 ], [ 102.219719, 2.238731 ], [ 102.221356, 2.23864 ], [ 102.223405, 2.237541 ], [ 102.226256, 2.236585 ], [ 102.228006, 2.237938 ], [ 102.229215, 2.241148 ], [ 102.230485, 2.245084 ], [ 102.231326, 2.246942 ], [ 102.233301, 2.250755 ], [ 102.234844, 2.253022 ], [ 102.236143, 2.25028 ], [ 102.238507, 2.24714 ], [ 102.240266, 2.246468 ], [ 102.24263, 2.243653 ], [ 102.246004, 2.245494 ], [ 102.248367, 2.244751 ], [ 102.250009, 2.243293 ], [ 102.250882, 2.241527 ], [ 102.250659, 2.239242 ], [ 102.251363, 2.236987 ] ] ] } },
{ "type": "Feature", "properties": { "state": "Melaka", "parlimen": "P.137 Bukit Katil", "code_parlimen": "P.137", "dun": "N.16 Ayer Keroh", "code_dun": "N.16" }, "geometry": { "type": "Polygon", "coordinates": [ [ [ 102.260186, 2.234713 ], [ 102.257281, 2.234713 ], [ 102.256324, 2.235669 ], [ 102.254231, 2.236734 ], [ 102.251363, 2.236987 ], [ 102.250659, 2.239242 ], [ 102.250882, 2.241527 ], [ 102.250009, 2.243293 ], [ 102.248367, 2.244751 ], [ 102.246004, 2.245494 ], [ 102.24263, 2.243653 ], [ 102.240266, 2.246468 ], [ 102.238507, 2.24714 ], [ 102.236143, 2.25028 ], [ 102.234844, 2.253022 ], [ 102.235909, 2.254628 ], [ 102.236443, 2.256372 ], [ 102.237021, 2.259258 ], [ 102.236179, 2.262801 ], [ 102.238056, 2.263866 ], [ 102.238746, 2.268235 ], [ 102.239564, 2.27002 ], [ 102.238922, 2.272238 ], [ 102.239337, 2.275089 ], [ 102.240798, 2.276911 ], [ 102.241583, 2.277723 ], [ 102.249706, 2.273828 ], [ 102.256011, 2.271068 ], [ 102.258974, 2.26916 ], [ 102.26059, 2.270013 ], [ 102.262319, 2.270327 ], [ 102.262242, 2.272328 ], [ 102.264811, 2.272235 ], [ 102.265843, 2.274233 ], [ 102.268447, 2.275243 ], [ 102.26921, 2.278543 ], [ 102.271545, 2.2809 ], [ 102.273264, 2.280376 ], [ 102.276112, 2.279453 ], [ 102.277579, 2.281909 ], [ 102.282839, 2.283469 ], [ 102.287236, 2.284469 ], [ 102.296488, 2.288477 ], [ 102.300015, 2.289018 ], [ 102.30624, 2.289433 ], [ 102.309722, 2.287141 ], [ 102.31307, 2.284671 ], [ 102.324066, 2.283334 ], [ 102.324698, 2.282378 ], [ 102.327477, 2.282721 ], [ 102.3315, 2.282053 ], [ 102.328685, 2.279491 ], [ 102.330526, 2.276568 ], [ 102.329978, 2.273575 ], [ 102.330327, 2.269933 ], [ 102.32971, 2.26767 ], [ 102.329619, 2.265209 ], [ 102.327188, 2.260893 ], [ 102.325077, 2.257303 ], [ 102.322533, 2.25281 ], [ 102.321288, 2.248606 ], [ 102.318807, 2.245665 ], [ 102.316958, 2.244168 ], [ 102.316101, 2.24276 ], [ 102.311655, 2.243018 ], [ 102.306914, 2.243839 ], [ 102.304366, 2.24461 ], [ 102.296678, 2.244792 ], [ 102.294666, 2.245954 ], [ 102.292573, 2.245569 ], [ 102.290446, 2.242864 ], [ 102.285247, 2.242724 ], [ 102.283551, 2.24175 ], [ 102.281837, 2.242941 ], [ 102.280177, 2.241642 ], [ 102.279239, 2.243265 ], [ 102.277579, 2.243302 ], [ 102.27729, 2.24166 ], [ 102.275594, 2.241227 ], [ 102.274457, 2.239513 ], [ 102.272545, 2.238412 ], [ 102.270975, 2.238484 ], [ 102.268594, 2.238998 ], [ 102.267367, 2.241425 ], [ 102.266015, 2.242591 ], [ 102.261972, 2.239603 ], [ 102.262171, 2.237288 ], [ 102.262062, 2.236644 ], [ 102.261376, 2.235705 ], [ 102.260186, 2.234713 ] ] ] } },
{ "type": "Feature", "properties": { "state": "Melaka", "parlimen": "P.137 Bukit Katil", "code_parlimen": "P.137", "dun": "N.17 Bukit Baru", "code_dun": "N.17" }, "geometry": { "type": "Polygon", "coordinates": [ [ [ 102.27729, 2.24166 ], [ 102.277579, 2.243302 ], [ 102.279239, 2.243265 ], [ 102.280177, 2.241642 ], [ 102.281837, 2.242941 ], [ 102.283551, 2.24175 ], [ 102.285247, 2.242724 ], [ 102.290446, 2.242864 ], [ 102.292573, 2.245569 ], [ 102.294666, 2.245954 ], [ 102.296678, 2.244792 ], [ 102.304366, 2.24461 ], [ 102.306914, 2.243839 ], [ 102.311655, 2.243018 ], [ 102.316101, 2.24276 ], [ 102.315926, 2.241178 ], [ 102.317233, 2.239659 ], [ 102.316398, 2.238105 ], [ 102.31445, 2.237257 ], [ 102.31352, 2.235669 ], [ 102.313169, 2.233234 ], [ 102.313024, 2.229751 ], [ 102.314603, 2.229066 ], [ 102.313809, 2.227893 ], [ 102.312113, 2.224357 ], [ 102.311427, 2.222191 ], [ 102.311716, 2.220098 ], [ 102.313304, 2.218402 ], [ 102.315144, 2.215371 ], [ 102.315577, 2.213856 ], [ 102.31583, 2.212971 ], [ 102.307494, 2.211961 ], [ 102.300367, 2.211239 ], [ 102.297552, 2.213332 ], [ 102.292663, 2.213098 ], [ 102.289686, 2.215768 ], [ 102.287993, 2.215539 ], [ 102.285759, 2.215599 ], [ 102.282721, 2.216327 ], [ 102.282037, 2.2137 ], [ 102.28155, 2.210737 ], [ 102.280563, 2.209674 ], [ 102.279555, 2.210193 ], [ 102.277877, 2.210815 ], [ 102.276433, 2.211492 ], [ 102.27624, 2.213237 ], [ 102.276451, 2.214658 ], [ 102.276487, 2.216571 ], [ 102.27545, 2.217765 ], [ 102.274485, 2.217717 ], [ 102.27075, 2.216697 ], [ 102.266753, 2.215434 ], [ 102.265725, 2.218123 ], [ 102.265707, 2.220306 ], [ 102.263871, 2.223983 ], [ 102.264209, 2.225755 ], [ 102.265027, 2.226564 ], [ 102.266537, 2.22718 ], [ 102.268034, 2.225971 ], [ 102.270091, 2.226855 ], [ 102.271282, 2.229201 ], [ 102.271571, 2.230184 ], [ 102.271913, 2.231646 ], [ 102.270542, 2.234316 ], [ 102.269532, 2.235958 ], [ 102.268594, 2.238998 ], [ 102.270975, 2.238484 ], [ 102.272545, 2.238412 ], [ 102.274457, 2.239513 ], [ 102.275594, 2.241227 ], [ 102.27729, 2.24166 ] ] ] } },
{ "type": "Feature", "properties": { "state": "Melaka", "parlimen": "P.137 Bukit Katil", "code_parlimen": "P.137", "dun": "N.18 Ayer Molek", "code_dun": "N.18" }, "geometry": { "type": "Polygon", "coordinates": [ [ [ 102.315144, 2.215371 ], [ 102.313304, 2.218402 ], [ 102.311716, 2.220098 ], [ 102.311427, 2.222191 ], [ 102.312113, 2.224357 ], [ 102.313809, 2.227893 ], [ 102.314603, 2.229066 ], [ 102.318907, 2.228005 ], [ 102.320683, 2.228344 ], [ 102.322614, 2.229084 ], [ 102.326622, 2.233915 ], [ 102.330466, 2.23583 ], [ 102.333505, 2.235024 ], [ 102.335784, 2.235571 ], [ 102.337641, 2.234378 ], [ 102.339188, 2.232198 ], [ 102.341178, 2.231484 ], [ 102.342105, 2.228233 ], [ 102.343654, 2.228324 ], [ 102.348863, 2.232597 ], [ 102.352332, 2.234802 ], [ 102.356885, 2.235446 ], [ 102.359638, 2.235815 ], [ 102.364293, 2.237872 ], [ 102.365931, 2.237464 ], [ 102.367478, 2.237243 ], [ 102.368785, 2.236787 ], [ 102.370029, 2.236634 ], [ 102.371327, 2.236064 ], [ 102.372013, 2.235317 ], [ 102.373691, 2.235317 ], [ 102.374953, 2.235435 ], [ 102.37781, 2.236027 ], [ 102.38072, 2.239182 ], [ 102.383462, 2.242773 ], [ 102.387622, 2.246623 ], [ 102.388552, 2.246085 ], [ 102.389235, 2.244581 ], [ 102.391362, 2.246101 ], [ 102.392548, 2.244992 ], [ 102.390664, 2.241041 ], [ 102.392213, 2.240737 ], [ 102.394067, 2.242287 ], [ 102.395787, 2.24027 ], [ 102.395138, 2.236878 ], [ 102.394452, 2.232313 ], [ 102.392142, 2.226016 ], [ 102.392142, 2.223545 ], [ 102.393797, 2.221545 ], [ 102.395625, 2.218168 ], [ 102.397217, 2.216289 ], [ 102.399021, 2.214358 ], [ 102.399243, 2.212078 ], [ 102.396376, 2.208177 ], [ 102.395228, 2.206963 ], [ 102.396076, 2.206332 ], [ 102.394686, 2.205682 ], [ 102.394199, 2.204203 ], [ 102.392612, 2.204148 ], [ 102.391042, 2.202452 ], [ 102.390789, 2.200071 ], [ 102.387, 2.199241 ], [ 102.386441, 2.197112 ], [ 102.386946, 2.195271 ], [ 102.383807, 2.19316 ], [ 102.381623, 2.193214 ], [ 102.381425, 2.190111 ], [ 102.380775, 2.188433 ], [ 102.3776, 2.182984 ], [ 102.373161, 2.178979 ], [ 102.374316, 2.17611 ], [ 102.372313, 2.175099 ], [ 102.370388, 2.175451 ], [ 102.368382, 2.176591 ], [ 102.365373, 2.17852 ], [ 102.363984, 2.178474 ], [ 102.363236, 2.176843 ], [ 102.362675, 2.175339 ], [ 102.36137, 2.174782 ], [ 102.360565, 2.176134 ], [ 102.36137, 2.178079 ], [ 102.360375, 2.18076 ], [ 102.360132, 2.182781 ], [ 102.3599, 2.18418 ], [ 102.358366, 2.184644 ], [ 102.357753, 2.183309 ], [ 102.358074, 2.180311 ], [ 102.35474, 2.181744 ], [ 102.351821, 2.183222 ], [ 102.349512, 2.182979 ], [ 102.347521, 2.184027 ], [ 102.346503, 2.182979 ], [ 102.345318, 2.181505 ], [ 102.34386, 2.182964 ], [ 102.342702, 2.182721 ], [ 102.341681, 2.184597 ], [ 102.33886, 2.186217 ], [ 102.336462, 2.184969 ], [ 102.334876, 2.186698 ], [ 102.333419, 2.187965 ], [ 102.331843, 2.189065 ], [ 102.330672, 2.191381 ], [ 102.32975, 2.191194 ], [ 102.328631, 2.189371 ], [ 102.325889, 2.188595 ], [ 102.324554, 2.186286 ], [ 102.322948, 2.187441 ], [ 102.320584, 2.185113 ], [ 102.318816, 2.186773 ], [ 102.315604, 2.184572 ], [ 102.309813, 2.184373 ], [ 102.308802, 2.186196 ], [ 102.300845, 2.185691 ], [ 102.298482, 2.18542 ], [ 102.29518, 2.189028 ], [ 102.293538, 2.191031 ], [ 102.294467, 2.192235 ], [ 102.295038, 2.192991 ], [ 102.295829, 2.19372 ], [ 102.296497, 2.195271 ], [ 102.296946, 2.196296 ], [ 102.297489, 2.197436 ], [ 102.298555, 2.198348 ], [ 102.300211, 2.199104 ], [ 102.301607, 2.198772 ], [ 102.30277, 2.197967 ], [ 102.303225, 2.197239 ], [ 102.304057, 2.19648 ], [ 102.304642, 2.195046 ], [ 102.30581, 2.1936 ], [ 102.306616, 2.192892 ], [ 102.307887, 2.192457 ], [ 102.308975, 2.192596 ], [ 102.310473, 2.192747 ], [ 102.311497, 2.193371 ], [ 102.312027, 2.195506 ], [ 102.31255, 2.197669 ], [ 102.313024, 2.198519 ], [ 102.313638, 2.200774 ], [ 102.314468, 2.203295 ], [ 102.314648, 2.20496 ], [ 102.31291, 2.207532 ], [ 102.31297, 2.208966 ], [ 102.315063, 2.210716 ], [ 102.31583, 2.212971 ], [ 102.315577, 2.213856 ], [ 102.315144, 2.215371 ] ] ] } },
{ "type": "Feature", "properties": { "state": "Melaka", "parlimen": "P.138 Kota Melaka", "code_parlimen": "P.138", "dun": "N.19 Kesidang", "code_dun": "N.19" }, "geometry": { "type": "Polygon", "coordinates": [ [ [ 102.244443, 2.212989 ], [ 102.246825, 2.210067 ], [ 102.247799, 2.208876 ], [ 102.246915, 2.20801 ], [ 102.245616, 2.207649 ], [ 102.243323, 2.210602 ], [ 102.242801, 2.211528 ], [ 102.241736, 2.213305 ], [ 102.240113, 2.212755 ], [ 102.237713, 2.211564 ], [ 102.233978, 2.211961 ], [ 102.230748, 2.214415 ], [ 102.229973, 2.21335 ], [ 102.228998, 2.21059 ], [ 102.228457, 2.208858 ], [ 102.228475, 2.207721 ], [ 102.230406, 2.207017 ], [ 102.233708, 2.207071 ], [ 102.237226, 2.207992 ], [ 102.237695, 2.206314 ], [ 102.239102, 2.2046 ], [ 102.241484, 2.2033 ], [ 102.241069, 2.201785 ], [ 102.240275, 2.20045 ], [ 102.240419, 2.200125 ], [ 102.239307, 2.200411 ], [ 102.2382, 2.200071 ], [ 102.237208, 2.199926 ], [ 102.236607, 2.200552 ], [ 102.228312, 2.202229 ], [ 102.216117, 2.206691 ], [ 102.217171, 2.207649 ], [ 102.2182, 2.210265 ], [ 102.218777, 2.21317 ], [ 102.21986, 2.218041 ], [ 102.216883, 2.217825 ], [ 102.213779, 2.220008 ], [ 102.209268, 2.221217 ], [ 102.209521, 2.223887 ], [ 102.207139, 2.225114 ], [ 102.207608, 2.228001 ], [ 102.21165, 2.234352 ], [ 102.212399, 2.234442 ], [ 102.214176, 2.234596 ], [ 102.21672, 2.231601 ], [ 102.216549, 2.227108 ], [ 102.2217, 2.226134 ], [ 102.225266, 2.225665 ], [ 102.226328, 2.225457 ], [ 102.229882, 2.225601 ], [ 102.232661, 2.223869 ], [ 102.234852, 2.2262 ], [ 102.236881, 2.226326 ], [ 102.239585, 2.224458 ], [ 102.243144, 2.223626 ], [ 102.243613, 2.221731 ], [ 102.243848, 2.219665 ], [ 102.244281, 2.217626 ], [ 102.242927, 2.215876 ], [ 102.244443, 2.212989 ] ] ] } },
{ "type": "Feature", "properties": { "state": "Melaka", "parlimen": "P.138 Kota Melaka", "code_parlimen": "P.138", "dun": "N.20 Kota Laksamana", "code_dun": "N.20" }, "geometry": { "type": "Polygon", "coordinates": [ [ [ 102.241484, 2.2033 ], [ 102.239102, 2.2046 ], [ 102.237695, 2.206314 ], [ 102.237226, 2.207992 ], [ 102.233708, 2.207071 ], [ 102.230406, 2.207017 ], [ 102.228475, 2.207721 ], [ 102.228457, 2.208858 ], [ 102.228998, 2.21059 ], [ 102.229973, 2.21335 ], [ 102.230748, 2.214415 ], [ 102.233978, 2.211961 ], [ 102.237713, 2.211564 ], [ 102.240113, 2.212755 ], [ 102.241736, 2.213305 ], [ 102.242801, 2.211528 ], [ 102.243323, 2.210602 ], [ 102.245616, 2.207649 ], [ 102.246915, 2.20801 ], [ 102.247799, 2.208876 ], [ 102.246825, 2.210067 ], [ 102.244443, 2.212989 ], [ 102.242927, 2.215876 ], [ 102.244281, 2.217626 ], [ 102.247601, 2.216923 ], [ 102.253306, 2.214992 ], [ 102.254658, 2.21484 ], [ 102.257199, 2.213549 ], [ 102.256009, 2.21169 ], [ 102.255124, 2.209832 ], [ 102.253789, 2.207541 ], [ 102.253573, 2.203463 ], [ 102.253248, 2.199999 ], [ 102.249423, 2.200432 ], [ 102.248737, 2.197653 ], [ 102.251335, 2.196823 ], [ 102.251372, 2.196173 ], [ 102.250767, 2.195713 ], [ 102.249477, 2.194939 ], [ 102.247835, 2.193846 ], [ 102.247016, 2.192717 ], [ 102.246407, 2.191876 ], [ 102.244353, 2.189371 ], [ 102.243108, 2.188523 ], [ 102.240293, 2.188126 ], [ 102.237172, 2.190526 ], [ 102.23627, 2.192944 ], [ 102.233744, 2.195867 ], [ 102.237208, 2.199926 ], [ 102.2382, 2.200071 ], [ 102.239307, 2.200411 ], [ 102.240419, 2.200125 ], [ 102.240275, 2.20045 ], [ 102.241069, 2.201785 ], [ 102.241484, 2.2033 ] ] ] } },
{ "type": "Feature", "properties": { "state": "Melaka", "parlimen": "P.138 Kota Melaka", "code_parlimen": "P.138", "dun": "N.21 Duyong", "code_dun": "N.21" }, "geometry": { "type": "Polygon", "coordinates": [ [ [ 102.272013, 2.203986 ], [ 102.277047, 2.204455 ], [ 102.278382, 2.20718 ], [ 102.279555, 2.210193 ], [ 102.280563, 2.209674 ], [ 102.28155, 2.210737 ], [ 102.282037, 2.2137 ], [ 102.282721, 2.216327 ], [ 102.285759, 2.215599 ], [ 102.287993, 2.215539 ], [ 102.289686, 2.215768 ], [ 102.292663, 2.213098 ], [ 102.297552, 2.213332 ], [ 102.300367, 2.211239 ], [ 102.307494, 2.211961 ], [ 102.31583, 2.212971 ], [ 102.315063, 2.210716 ], [ 102.31297, 2.208966 ], [ 102.31291, 2.207532 ], [ 102.314648, 2.20496 ], [ 102.314468, 2.203295 ], [ 102.313638, 2.200774 ], [ 102.313024, 2.198519 ], [ 102.31255, 2.197669 ], [ 102.312027, 2.195506 ], [ 102.311497, 2.193371 ], [ 102.310473, 2.192747 ], [ 102.308975, 2.192596 ], [ 102.307887, 2.192457 ], [ 102.306616, 2.192892 ], [ 102.30581, 2.1936 ], [ 102.304642, 2.195046 ], [ 102.304057, 2.19648 ], [ 102.303225, 2.197239 ], [ 102.30277, 2.197967 ], [ 102.301607, 2.198772 ], [ 102.300211, 2.199104 ], [ 102.298555, 2.198348 ], [ 102.297489, 2.197436 ], [ 102.296946, 2.196296 ], [ 102.296497, 2.195271 ], [ 102.295829, 2.19372 ], [ 102.295038, 2.192991 ], [ 102.294467, 2.192235 ], [ 102.293538, 2.191031 ], [ 102.292868, 2.190127 ], [ 102.291837, 2.188265 ], [ 102.290489, 2.188072 ], [ 102.286609, 2.190003 ], [ 102.283578, 2.190652 ], [ 102.282243, 2.189624 ], [ 102.279013, 2.191103 ], [ 102.276206, 2.191696 ], [ 102.275576, 2.192527 ], [ 102.277822, 2.194658 ], [ 102.27932, 2.195722 ], [ 102.277268, 2.195398 ], [ 102.275838, 2.195885 ], [ 102.273916, 2.19534 ], [ 102.272428, 2.195307 ], [ 102.270641, 2.196011 ], [ 102.269072, 2.195975 ], [ 102.26761, 2.195307 ], [ 102.266347, 2.193377 ], [ 102.264633, 2.193431 ], [ 102.262003, 2.194467 ], [ 102.259195, 2.195269 ], [ 102.256532, 2.194874 ], [ 102.255666, 2.195524 ], [ 102.256439, 2.198578 ], [ 102.256261, 2.200792 ], [ 102.257831, 2.203012 ], [ 102.257127, 2.203517 ], [ 102.254709, 2.203715 ], [ 102.253573, 2.203463 ], [ 102.253789, 2.207541 ], [ 102.255124, 2.209832 ], [ 102.256009, 2.21169 ], [ 102.257199, 2.213549 ], [ 102.259888, 2.212105 ], [ 102.262793, 2.21169 ], [ 102.263364, 2.211041 ], [ 102.264597, 2.210193 ], [ 102.264192, 2.206856 ], [ 102.264694, 2.205923 ], [ 102.266275, 2.20552 ], [ 102.267105, 2.204527 ], [ 102.268151, 2.204004 ], [ 102.272013, 2.203986 ] ] ] } },
{ "type": "Feature", "properties": { "state": "Melaka", "parlimen": "P.138 Kota Melaka", "code_parlimen": "P.138", "dun": "N.22 Bandar Hilir", "code_dun": "N.22" }, "geometry": { "type": "MultiPolygon", "coordinates": [ [ [ [ 102.250767, 2.195713 ], [ 102.251372, 2.196173 ], [ 102.251335, 2.196823 ], [ 102.248737, 2.197653 ], [ 102.249423, 2.200432 ], [ 102.253248, 2.199999 ], [ 102.253573, 2.203463 ], [ 102.254709, 2.203715 ], [ 102.257127, 2.203517 ], [ 102.257831, 2.203012 ], [ 102.256261, 2.200792 ], [ 102.256439, 2.198578 ], [ 102.255666, 2.195524 ], [ 102.256532, 2.194874 ], [ 102.259195, 2.195269 ], [ 102.262003, 2.194467 ], [ 102.264633, 2.193431 ], [ 102.264776, 2.191157 ], [ 102.265464, 2.18898 ], [ 102.269303, 2.187662 ], [ 102.271652, 2.187662 ], [ 102.274775, 2.18623 ], [ 102.275262, 2.184109 ], [ 102.274116, 2.180929 ], [ 102.273269, 2.179045 ], [ 102.273158, 2.179109 ], [ 102.264886, 2.183381 ], [ 102.263226, 2.181324 ], [ 102.259725, 2.183237 ], [ 102.25673, 2.183056 ], [ 102.250957, 2.185943 ], [ 102.244714, 2.187784 ], [ 102.244353, 2.189371 ], [ 102.246407, 2.191876 ], [ 102.247016, 2.192717 ], [ 102.247835, 2.193846 ], [ 102.249477, 2.194939 ], [ 102.250767, 2.195713 ] ] ], [ [ [ 102.257777, 2.18035 ], [ 102.257849, 2.178004 ], [ 102.255287, 2.176669 ], [ 102.249874, 2.178906 ], [ 102.244461, 2.180602 ], [ 102.245165, 2.182786 ], [ 102.250163, 2.182659 ], [ 102.255323, 2.180494 ], [ 102.257777, 2.18035 ] ] ] ] } },
{ "type": "Feature", "properties": { "state": "Melaka", "parlimen": "P.138 Kota Melaka", "code_parlimen": "P.138", "dun": "N.23 Telok Mas", "code_dun": "N.23" }, "geometry": { "type": "Polygon", "coordinates": [ [ [ 102.29518, 2.189028 ], [ 102.298482, 2.18542 ], [ 102.300845, 2.185691 ], [ 102.308802, 2.186196 ], [ 102.309813, 2.184373 ], [ 102.315604, 2.184572 ], [ 102.318816, 2.186773 ], [ 102.320584, 2.185113 ], [ 102.322948, 2.187441 ], [ 102.324554, 2.186286 ], [ 102.325889, 2.188595 ], [ 102.328631, 2.189371 ], [ 102.32975, 2.191194 ], [ 102.330672, 2.191381 ], [ 102.331843, 2.189065 ], [ 102.333419, 2.187965 ], [ 102.334876, 2.186698 ], [ 102.336462, 2.184969 ], [ 102.33886, 2.186217 ], [ 102.341681, 2.184597 ], [ 102.342702, 2.182721 ], [ 102.34386, 2.182964 ], [ 102.345318, 2.181505 ], [ 102.342712, 2.17972 ], [ 102.338998, 2.17229 ], [ 102.33923, 2.164961 ], [ 102.340424, 2.160085 ], [ 102.337174, 2.156039 ], [ 102.336975, 2.154613 ], [ 102.335706, 2.154927 ], [ 102.331076, 2.155645 ], [ 102.318749, 2.156952 ], [ 102.312959, 2.163204 ], [ 102.311315, 2.164271 ], [ 102.306982, 2.167124 ], [ 102.300538, 2.16871 ], [ 102.296429, 2.168617 ], [ 102.289425, 2.16983 ], [ 102.287457, 2.170953 ], [ 102.273269, 2.179045 ], [ 102.274116, 2.180929 ], [ 102.275262, 2.184109 ], [ 102.274775, 2.18623 ], [ 102.271652, 2.187662 ], [ 102.269303, 2.187662 ], [ 102.265464, 2.18898 ], [ 102.264776, 2.191157 ], [ 102.264633, 2.193431 ], [ 102.266347, 2.193377 ], [ 102.26761, 2.195307 ], [ 102.269072, 2.195975 ], [ 102.270641, 2.196011 ], [ 102.272428, 2.195307 ], [ 102.273916, 2.19534 ], [ 102.275838, 2.195885 ], [ 102.277268, 2.195398 ], [ 102.27932, 2.195722 ], [ 102.277822, 2.194658 ], [ 102.275576, 2.192527 ], [ 102.276206, 2.191696 ], [ 102.279013, 2.191103 ], [ 102.282243, 2.189624 ], [ 102.283578, 2.190652 ], [ 102.286609, 2.190003 ], [ 102.290489, 2.188072 ], [ 102.291837, 2.188265 ], [ 102.292868, 2.190127 ], [ 102.293538, 2.191031 ], [ 102.29518, 2.189028 ] ] ] } },
{ "type": "Feature", "properties": { "state": "Melaka", "parlimen": "P.139 Jasin", "code_parlimen": "P.139", "dun": "N.24 Bemban", "code_dun": "N.24" }, "geometry": { "type": "Polygon", "coordinates": [ [ [ 102.40125, 2.333467 ], [ 102.401683, 2.330724 ], [ 102.411642, 2.33058 ], [ 102.412366, 2.329074 ], [ 102.411094, 2.327212 ], [ 102.411426, 2.324626 ], [ 102.409706, 2.322988 ], [ 102.40974, 2.320528 ], [ 102.408813, 2.318759 ], [ 102.40795, 2.317241 ], [ 102.408416, 2.316095 ], [ 102.408575, 2.315063 ], [ 102.408975, 2.314593 ], [ 102.410508, 2.31482 ], [ 102.411033, 2.315316 ], [ 102.412064, 2.315648 ], [ 102.412763, 2.315731 ], [ 102.413511, 2.31593 ], [ 102.41447, 2.315777 ], [ 102.415107, 2.31564 ], [ 102.416245, 2.314235 ], [ 102.417724, 2.314452 ], [ 102.419578, 2.313232 ], [ 102.4201, 2.313041 ], [ 102.421139, 2.313096 ], [ 102.421854, 2.313744 ], [ 102.422379, 2.314084 ], [ 102.423218, 2.314575 ], [ 102.424042, 2.314733 ], [ 102.425445, 2.314161 ], [ 102.427028, 2.313087 ], [ 102.42844, 2.313511 ], [ 102.429731, 2.313087 ], [ 102.430859, 2.312308 ], [ 102.431876, 2.311591 ], [ 102.43279, 2.311046 ], [ 102.434421, 2.310339 ], [ 102.435701, 2.308212 ], [ 102.437144, 2.307874 ], [ 102.437826, 2.308356 ], [ 102.438743, 2.307431 ], [ 102.440294, 2.307052 ], [ 102.433348, 2.301837 ], [ 102.421722, 2.293735 ], [ 102.415449, 2.289135 ], [ 102.408268, 2.2843 ], [ 102.404263, 2.28448 ], [ 102.399896, 2.284588 ], [ 102.399552, 2.283011 ], [ 102.399486, 2.277373 ], [ 102.401854, 2.274756 ], [ 102.402418, 2.27323 ], [ 102.400761, 2.270453 ], [ 102.396143, 2.266834 ], [ 102.3947, 2.262648 ], [ 102.395901, 2.258248 ], [ 102.398333, 2.25422 ], [ 102.399535, 2.250632 ], [ 102.399355, 2.248322 ], [ 102.397696, 2.248479 ], [ 102.39481, 2.250768 ], [ 102.393365, 2.249477 ], [ 102.392469, 2.247635 ], [ 102.392548, 2.244992 ], [ 102.391362, 2.246101 ], [ 102.389235, 2.244581 ], [ 102.388552, 2.246085 ], [ 102.387622, 2.246623 ], [ 102.383462, 2.242773 ], [ 102.38072, 2.239182 ], [ 102.37781, 2.236027 ], [ 102.374953, 2.235435 ], [ 102.373691, 2.235317 ], [ 102.372013, 2.235317 ], [ 102.371327, 2.236064 ], [ 102.370029, 2.236634 ], [ 102.368785, 2.236787 ], [ 102.367478, 2.237243 ], [ 102.365931, 2.237464 ], [ 102.364293, 2.237872 ], [ 102.359638, 2.235815 ], [ 102.356885, 2.235446 ], [ 102.352332, 2.234802 ], [ 102.348863, 2.232597 ], [ 102.343654, 2.228324 ], [ 102.342105, 2.228233 ], [ 102.341178, 2.231484 ], [ 102.339188, 2.232198 ], [ 102.337641, 2.234378 ], [ 102.335784, 2.235571 ], [ 102.333505, 2.235024 ], [ 102.330466, 2.23583 ], [ 102.326622, 2.233915 ], [ 102.322614, 2.229084 ], [ 102.320683, 2.228344 ], [ 102.318907, 2.228005 ], [ 102.314603, 2.229066 ], [ 102.313024, 2.229751 ], [ 102.313169, 2.233234 ], [ 102.31352, 2.235669 ], [ 102.31445, 2.237257 ], [ 102.316398, 2.238105 ], [ 102.317233, 2.239659 ], [ 102.315926, 2.241178 ], [ 102.316101, 2.24276 ], [ 102.316958, 2.244168 ], [ 102.318807, 2.245665 ], [ 102.321288, 2.248606 ], [ 102.322533, 2.25281 ], [ 102.325077, 2.257303 ], [ 102.327188, 2.260893 ], [ 102.329619, 2.265209 ], [ 102.32971, 2.26767 ], [ 102.330327, 2.269933 ], [ 102.329978, 2.273575 ], [ 102.330526, 2.276568 ], [ 102.328685, 2.279491 ], [ 102.3315, 2.282053 ], [ 102.334405, 2.284593 ], [ 102.33666, 2.290461 ], [ 102.339078, 2.297678 ], [ 102.340052, 2.304066 ], [ 102.340761, 2.309456 ], [ 102.341893, 2.313664 ], [ 102.343697, 2.316263 ], [ 102.343841, 2.318897 ], [ 102.344745, 2.322979 ], [ 102.343939, 2.324709 ], [ 102.344168, 2.32627 ], [ 102.344491, 2.328333 ], [ 102.346633, 2.330016 ], [ 102.344277, 2.333079 ], [ 102.345465, 2.337698 ], [ 102.346837, 2.337535 ], [ 102.347913, 2.339983 ], [ 102.350842, 2.349209 ], [ 102.353224, 2.354044 ], [ 102.35142, 2.357761 ], [ 102.349687, 2.357617 ], [ 102.351383, 2.36386 ], [ 102.359575, 2.367468 ], [ 102.357698, 2.374433 ], [ 102.356508, 2.378727 ], [ 102.357302, 2.3823 ], [ 102.359737, 2.382697 ], [ 102.360892, 2.383815 ], [ 102.364248, 2.383761 ], [ 102.367375, 2.380793 ], [ 102.369575, 2.380928 ], [ 102.37336, 2.381452 ], [ 102.377118, 2.380658 ], [ 102.381607, 2.378458 ], [ 102.38285, 2.377284 ], [ 102.385504, 2.380263 ], [ 102.387749, 2.384079 ], [ 102.392702, 2.385836 ], [ 102.395008, 2.37657 ], [ 102.397064, 2.371212 ], [ 102.396703, 2.360892 ], [ 102.398796, 2.348623 ], [ 102.399734, 2.338591 ], [ 102.399084, 2.336065 ], [ 102.40125, 2.333467 ] ] ] } },
{ "type": "Feature", "properties": { "state": "Melaka", "parlimen": "P.139 Jasin", "code_parlimen": "P.139", "dun": "N.25 Rim", "code_dun": "N.25" }, "geometry": { "type": "Polygon", "coordinates": [ [ [ 102.40125, 2.333467 ], [ 102.399084, 2.336065 ], [ 102.399734, 2.338591 ], [ 102.398796, 2.348623 ], [ 102.396703, 2.360892 ], [ 102.397064, 2.371212 ], [ 102.395008, 2.37657 ], [ 102.397239, 2.376257 ], [ 102.407533, 2.375407 ], [ 102.415593, 2.371724 ], [ 102.424258, 2.36719 ], [ 102.426593, 2.366426 ], [ 102.43198, 2.366516 ], [ 102.433641, 2.365169 ], [ 102.46031, 2.363733 ], [ 102.487561, 2.361533 ], [ 102.485226, 2.365736 ], [ 102.484092, 2.371303 ], [ 102.496557, 2.374397 ], [ 102.497242, 2.376887 ], [ 102.49782, 2.379268 ], [ 102.500382, 2.378005 ], [ 102.505145, 2.378258 ], [ 102.507671, 2.379593 ], [ 102.51178, 2.376807 ], [ 102.514114, 2.374472 ], [ 102.516043, 2.36985 ], [ 102.520843, 2.366819 ], [ 102.524992, 2.366855 ], [ 102.5312, 2.371275 ], [ 102.534343, 2.374238 ], [ 102.535465, 2.375181 ], [ 102.535241, 2.371006 ], [ 102.524204, 2.365187 ], [ 102.525325, 2.359402 ], [ 102.512998, 2.35511 ], [ 102.511435, 2.34995 ], [ 102.508702, 2.340927 ], [ 102.514119, 2.329543 ], [ 102.513932, 2.321892 ], [ 102.51001, 2.320212 ], [ 102.506461, 2.310508 ], [ 102.509263, 2.306029 ], [ 102.501979, 2.294085 ], [ 102.496428, 2.273811 ], [ 102.49535, 2.276257 ], [ 102.495383, 2.279175 ], [ 102.494421, 2.281 ], [ 102.493924, 2.282757 ], [ 102.494653, 2.28551 ], [ 102.494786, 2.287799 ], [ 102.494288, 2.289059 ], [ 102.492339, 2.291869 ], [ 102.493744, 2.294945 ], [ 102.492185, 2.296305 ], [ 102.487973, 2.297426 ], [ 102.486402, 2.299654 ], [ 102.483152, 2.302473 ], [ 102.482515, 2.305708 ], [ 102.480647, 2.305726 ], [ 102.479567, 2.305378 ], [ 102.476515, 2.302559 ], [ 102.475848, 2.299952 ], [ 102.471409, 2.300168 ], [ 102.471404, 2.301927 ], [ 102.471271, 2.30395 ], [ 102.470074, 2.304138 ], [ 102.468585, 2.303784 ], [ 102.465463, 2.302345 ], [ 102.463971, 2.300819 ], [ 102.46394, 2.297823 ], [ 102.462532, 2.295405 ], [ 102.46477, 2.291869 ], [ 102.464842, 2.288982 ], [ 102.461738, 2.285084 ], [ 102.457769, 2.285012 ], [ 102.452212, 2.284868 ], [ 102.450119, 2.286961 ], [ 102.447448, 2.285662 ], [ 102.44882, 2.281981 ], [ 102.451923, 2.278733 ], [ 102.455171, 2.278517 ], [ 102.4525, 2.275269 ], [ 102.448026, 2.274547 ], [ 102.440809, 2.276568 ], [ 102.434818, 2.278878 ], [ 102.43121, 2.278878 ], [ 102.428034, 2.280754 ], [ 102.421467, 2.286384 ], [ 102.418291, 2.287394 ], [ 102.415449, 2.289135 ], [ 102.421722, 2.293735 ], [ 102.433348, 2.301837 ], [ 102.440294, 2.307052 ], [ 102.438743, 2.307431 ], [ 102.437826, 2.308356 ], [ 102.437144, 2.307874 ], [ 102.435701, 2.308212 ], [ 102.434421, 2.310339 ], [ 102.43279, 2.311046 ], [ 102.431876, 2.311591 ], [ 102.430859, 2.312308 ], [ 102.429731, 2.313087 ], [ 102.42844, 2.313511 ], [ 102.427028, 2.313087 ], [ 102.425445, 2.314161 ], [ 102.424042, 2.314733 ], [ 102.423218, 2.314575 ], [ 102.422379, 2.314084 ], [ 102.421854, 2.313744 ], [ 102.421139, 2.313096 ], [ 102.4201, 2.313041 ], [ 102.419578, 2.313232 ], [ 102.417724, 2.314452 ], [ 102.416245, 2.314235 ], [ 102.415107, 2.31564 ], [ 102.41447, 2.315777 ], [ 102.413511, 2.31593 ], [ 102.412763, 2.315731 ], [ 102.412064, 2.315648 ], [ 102.411033, 2.315316 ], [ 102.410508, 2.31482 ], [ 102.408975, 2.314593 ], [ 102.408575, 2.315063 ], [ 102.408416, 2.316095 ], [ 102.40795, 2.317241 ], [ 102.408813, 2.318759 ], [ 102.40974, 2.320528 ], [ 102.409706, 2.322988 ], [ 102.411426, 2.324626 ], [ 102.411094, 2.327212 ], [ 102.412366, 2.329074 ], [ 102.411642, 2.33058 ], [ 102.401683, 2.330724 ], [ 102.40125, 2.333467 ] ] ] } },
{ "type": "Feature", "properties": { "state": "Melaka", "parlimen": "P.139 Jasin", "code_parlimen": "P.139", "dun": "N.26 Serkam", "code_dun": "N.26" }, "geometry": { "type": "Polygon", "coordinates": [ [ [ 102.422134, 2.150701 ], [ 102.421413, 2.148536 ], [ 102.416505, 2.14803 ], [ 102.415567, 2.14601 ], [ 102.414484, 2.13937 ], [ 102.412463, 2.13439 ], [ 102.410226, 2.129266 ], [ 102.406812, 2.130729 ], [ 102.400462, 2.132502 ], [ 102.394205, 2.133155 ], [ 102.382812, 2.131568 ], [ 102.371045, 2.133715 ], [ 102.353769, 2.144353 ], [ 102.347325, 2.150419 ], [ 102.336975, 2.154613 ], [ 102.337174, 2.156039 ], [ 102.340424, 2.160085 ], [ 102.33923, 2.164961 ], [ 102.338998, 2.17229 ], [ 102.342712, 2.17972 ], [ 102.345318, 2.181505 ], [ 102.346503, 2.182979 ], [ 102.347521, 2.184027 ], [ 102.349512, 2.182979 ], [ 102.351821, 2.183222 ], [ 102.35474, 2.181744 ], [ 102.358074, 2.180311 ], [ 102.357753, 2.183309 ], [ 102.358366, 2.184644 ], [ 102.3599, 2.18418 ], [ 102.360132, 2.182781 ], [ 102.360375, 2.18076 ], [ 102.36137, 2.178079 ], [ 102.360565, 2.176134 ], [ 102.36137, 2.174782 ], [ 102.362675, 2.175339 ], [ 102.363236, 2.176843 ], [ 102.363984, 2.178474 ], [ 102.365373, 2.17852 ], [ 102.368382, 2.176591 ], [ 102.370388, 2.175451 ], [ 102.372313, 2.175099 ], [ 102.374316, 2.17611 ], [ 102.373161, 2.178979 ], [ 102.3776, 2.182984 ], [ 102.380775, 2.188433 ], [ 102.381425, 2.190111 ], [ 102.381623, 2.193214 ], [ 102.383807, 2.19316 ], [ 102.386946, 2.195271 ], [ 102.386441, 2.197112 ], [ 102.387, 2.199241 ], [ 102.390789, 2.200071 ], [ 102.391042, 2.202452 ], [ 102.392612, 2.204148 ], [ 102.394199, 2.204203 ], [ 102.394686, 2.205682 ], [ 102.396076, 2.206332 ], [ 102.399833, 2.206002 ], [ 102.409215, 2.205317 ], [ 102.408927, 2.207338 ], [ 102.409504, 2.211054 ], [ 102.410249, 2.216228 ], [ 102.412417, 2.219588 ], [ 102.41351, 2.219823 ], [ 102.41427, 2.218546 ], [ 102.415386, 2.216666 ], [ 102.416453, 2.214901 ], [ 102.416834, 2.213475 ], [ 102.416995, 2.212396 ], [ 102.417203, 2.207841 ], [ 102.418065, 2.203132 ], [ 102.417486, 2.200065 ], [ 102.416288, 2.197288 ], [ 102.414123, 2.19588 ], [ 102.411957, 2.197633 ], [ 102.411294, 2.194979 ], [ 102.408652, 2.194405 ], [ 102.409117, 2.191751 ], [ 102.408187, 2.189002 ], [ 102.409182, 2.187277 ], [ 102.406564, 2.184907 ], [ 102.406696, 2.181059 ], [ 102.40539, 2.179389 ], [ 102.405246, 2.17578 ], [ 102.401882, 2.173823 ], [ 102.401998, 2.172064 ], [ 102.404813, 2.170223 ], [ 102.403478, 2.16629 ], [ 102.40088, 2.163186 ], [ 102.400429, 2.160508 ], [ 102.401159, 2.155334 ], [ 102.403149, 2.154273 ], [ 102.405205, 2.15487 ], [ 102.406797, 2.155998 ], [ 102.407916, 2.154165 ], [ 102.410516, 2.15292 ], [ 102.413966, 2.152257 ], [ 102.413293, 2.155897 ], [ 102.421882, 2.155789 ], [ 102.422134, 2.150701 ] ] ] } },
{ "type": "Feature", "properties": { "state": "Melaka", "parlimen": "P.139 Jasin", "code_parlimen": "P.139", "dun": "N.27 Merlimau", "code_dun": "N.27" }, "geometry": { "type": "Polygon", "coordinates": [ [ [ 102.415567, 2.14601 ], [ 102.416505, 2.14803 ], [ 102.421413, 2.148536 ], [ 102.422134, 2.150701 ], [ 102.421882, 2.155789 ], [ 102.413293, 2.155897 ], [ 102.413966, 2.152257 ], [ 102.410516, 2.15292 ], [ 102.407916, 2.154165 ], [ 102.406797, 2.155998 ], [ 102.405205, 2.15487 ], [ 102.403149, 2.154273 ], [ 102.401159, 2.155334 ], [ 102.400429, 2.160508 ], [ 102.40088, 2.163186 ], [ 102.403478, 2.16629 ], [ 102.404813, 2.170223 ], [ 102.401998, 2.172064 ], [ 102.401882, 2.173823 ], [ 102.405246, 2.17578 ], [ 102.40539, 2.179389 ], [ 102.406696, 2.181059 ], [ 102.406564, 2.184907 ], [ 102.409182, 2.187277 ], [ 102.408187, 2.189002 ], [ 102.409117, 2.191751 ], [ 102.408652, 2.194405 ], [ 102.411294, 2.194979 ], [ 102.411957, 2.197633 ], [ 102.414123, 2.19588 ], [ 102.416288, 2.197288 ], [ 102.417486, 2.200065 ], [ 102.418065, 2.203132 ], [ 102.417203, 2.207841 ], [ 102.416995, 2.212396 ], [ 102.416834, 2.213475 ], [ 102.416453, 2.214901 ], [ 102.415386, 2.216666 ], [ 102.41427, 2.218546 ], [ 102.41351, 2.219823 ], [ 102.412417, 2.219588 ], [ 102.410249, 2.216228 ], [ 102.409504, 2.211054 ], [ 102.408927, 2.207338 ], [ 102.409215, 2.205317 ], [ 102.399833, 2.206002 ], [ 102.396076, 2.206332 ], [ 102.395228, 2.206963 ], [ 102.396376, 2.208177 ], [ 102.399243, 2.212078 ], [ 102.399021, 2.214358 ], [ 102.397217, 2.216289 ], [ 102.395625, 2.218168 ], [ 102.393797, 2.221545 ], [ 102.392142, 2.223545 ], [ 102.392142, 2.226016 ], [ 102.394452, 2.232313 ], [ 102.395138, 2.236878 ], [ 102.395787, 2.24027 ], [ 102.394067, 2.242287 ], [ 102.392213, 2.240737 ], [ 102.390664, 2.241041 ], [ 102.392548, 2.244992 ], [ 102.392469, 2.247635 ], [ 102.393365, 2.249477 ], [ 102.39481, 2.250768 ], [ 102.397696, 2.248479 ], [ 102.399355, 2.248322 ], [ 102.399535, 2.250632 ], [ 102.398333, 2.25422 ], [ 102.395901, 2.258248 ], [ 102.3947, 2.262648 ], [ 102.396143, 2.266834 ], [ 102.400761, 2.270453 ], [ 102.402418, 2.27323 ], [ 102.401854, 2.274756 ], [ 102.399486, 2.277373 ], [ 102.399552, 2.283011 ], [ 102.399896, 2.284588 ], [ 102.404263, 2.28448 ], [ 102.408268, 2.2843 ], [ 102.415449, 2.289135 ], [ 102.418291, 2.287394 ], [ 102.421467, 2.286384 ], [ 102.428034, 2.280754 ], [ 102.43121, 2.278878 ], [ 102.434818, 2.278878 ], [ 102.440809, 2.276568 ], [ 102.448026, 2.274547 ], [ 102.4525, 2.275269 ], [ 102.455171, 2.278517 ], [ 102.451923, 2.278733 ], [ 102.44882, 2.281981 ], [ 102.447448, 2.285662 ], [ 102.450119, 2.286961 ], [ 102.452212, 2.284868 ], [ 102.457769, 2.285012 ], [ 102.461738, 2.285084 ], [ 102.464842, 2.288982 ], [ 102.46477, 2.291869 ], [ 102.462532, 2.295405 ], [ 102.46394, 2.297823 ], [ 102.463971, 2.300819 ], [ 102.465463, 2.302345 ], [ 102.468585, 2.303784 ], [ 102.470074, 2.304138 ], [ 102.471271, 2.30395 ], [ 102.471404, 2.301927 ], [ 102.471409, 2.300168 ], [ 102.475848, 2.299952 ], [ 102.476515, 2.302559 ], [ 102.479567, 2.305378 ], [ 102.480647, 2.305726 ], [ 102.482515, 2.305708 ], [ 102.483152, 2.302473 ], [ 102.486402, 2.299654 ], [ 102.487973, 2.297426 ], [ 102.492185, 2.296305 ], [ 102.493744, 2.294945 ], [ 102.492339, 2.291869 ], [ 102.494288, 2.289059 ], [ 102.494786, 2.287799 ], [ 102.494653, 2.28551 ], [ 102.493924, 2.282757 ], [ 102.494421, 2.281 ], [ 102.495383, 2.279175 ], [ 102.49535, 2.276257 ], [ 102.496428, 2.273811 ], [ 102.491519, 2.25676 ], [ 102.493947, 2.247429 ], [ 102.48741, 2.245936 ], [ 102.489091, 2.242203 ], [ 102.495442, 2.236977 ], [ 102.493611, 2.236414 ], [ 102.478744, 2.238362 ], [ 102.459402, 2.23995 ], [ 102.449226, 2.240311 ], [ 102.447999, 2.23663 ], [ 102.44937, 2.231217 ], [ 102.444246, 2.225516 ], [ 102.443163, 2.218226 ], [ 102.443524, 2.212525 ], [ 102.442297, 2.20805 ], [ 102.443452, 2.20307 ], [ 102.44107, 2.19708 ], [ 102.44273, 2.191162 ], [ 102.439627, 2.185605 ], [ 102.437606, 2.178604 ], [ 102.436307, 2.17413 ], [ 102.441575, 2.169438 ], [ 102.4467, 2.165685 ], [ 102.450453, 2.165541 ], [ 102.450813, 2.160706 ], [ 102.456659, 2.159262 ], [ 102.459691, 2.161716 ], [ 102.468667, 2.161563 ], [ 102.470219, 2.163042 ], [ 102.4691, 2.159722 ], [ 102.466213, 2.159001 ], [ 102.466754, 2.154815 ], [ 102.464945, 2.155339 ], [ 102.461661, 2.156566 ], [ 102.461071, 2.15366 ], [ 102.458725, 2.15458 ], [ 102.456772, 2.153712 ], [ 102.4578, 2.152451 ], [ 102.460163, 2.15217 ], [ 102.461855, 2.151408 ], [ 102.460223, 2.149672 ], [ 102.457552, 2.151008 ], [ 102.454857, 2.150214 ], [ 102.454492, 2.147328 ], [ 102.454449, 2.144205 ], [ 102.450263, 2.134895 ], [ 102.44651, 2.125369 ], [ 102.446655, 2.118079 ], [ 102.446314, 2.115424 ], [ 102.440525, 2.114677 ], [ 102.423902, 2.121583 ], [ 102.419798, 2.124258 ], [ 102.417675, 2.125452 ], [ 102.41559, 2.126716 ], [ 102.410226, 2.129266 ], [ 102.412463, 2.13439 ], [ 102.414484, 2.13937 ], [ 102.415567, 2.14601 ] ] ] } },
{ "type": "Feature", "properties": { "state": "Melaka", "parlimen": "P.139 Jasin", "code_parlimen": "P.139", "dun": "N.28 Sungai Rambai", "code_dun": "N.28" }, "geometry": { "type": "Polygon", "coordinates": [ [ [ 102.44651, 2.125369 ], [ 102.450263, 2.134895 ], [ 102.454449, 2.144205 ], [ 102.454492, 2.147328 ], [ 102.454857, 2.150214 ], [ 102.457552, 2.151008 ], [ 102.460223, 2.149672 ], [ 102.461855, 2.151408 ], [ 102.460163, 2.15217 ], [ 102.4578, 2.152451 ], [ 102.456772, 2.153712 ], [ 102.458725, 2.15458 ], [ 102.461071, 2.15366 ], [ 102.461661, 2.156566 ], [ 102.464945, 2.155339 ], [ 102.466754, 2.154815 ], [ 102.466213, 2.159001 ], [ 102.4691, 2.159722 ], [ 102.470219, 2.163042 ], [ 102.468667, 2.161563 ], [ 102.459691, 2.161716 ], [ 102.456659, 2.159262 ], [ 102.450813, 2.160706 ], [ 102.450453, 2.165541 ], [ 102.4467, 2.165685 ], [ 102.441575, 2.169438 ], [ 102.436307, 2.17413 ], [ 102.437606, 2.178604 ], [ 102.439627, 2.185605 ], [ 102.44273, 2.191162 ], [ 102.44107, 2.19708 ], [ 102.443452, 2.20307 ], [ 102.442297, 2.20805 ], [ 102.443524, 2.212525 ], [ 102.443163, 2.218226 ], [ 102.444246, 2.225516 ], [ 102.44937, 2.231217 ], [ 102.447999, 2.23663 ], [ 102.449226, 2.240311 ], [ 102.459402, 2.23995 ], [ 102.478744, 2.238362 ], [ 102.493611, 2.236414 ], [ 102.495442, 2.236977 ], [ 102.495362, 2.23524 ], [ 102.495349, 2.234968 ], [ 102.494918, 2.225606 ], [ 102.494841, 2.223937 ], [ 102.494694, 2.220741 ], [ 102.46892, 2.203944 ], [ 102.467799, 2.196665 ], [ 102.472842, 2.197598 ], [ 102.477325, 2.187146 ], [ 102.474897, 2.183974 ], [ 102.478258, 2.180427 ], [ 102.485543, 2.178188 ], [ 102.490399, 2.180614 ], [ 102.495442, 2.172962 ], [ 102.502539, 2.172775 ], [ 102.504593, 2.167923 ], [ 102.512251, 2.167176 ], [ 102.51636, 2.169976 ], [ 102.516547, 2.16475 ], [ 102.524952, 2.167923 ], [ 102.524765, 2.16475 ], [ 102.530742, 2.168296 ], [ 102.529247, 2.16083 ], [ 102.534477, 2.158591 ], [ 102.530928, 2.154671 ], [ 102.537279, 2.144593 ], [ 102.534477, 2.134514 ], [ 102.52271, 2.126115 ], [ 102.522337, 2.121449 ], [ 102.516734, 2.119769 ], [ 102.506835, 2.122009 ], [ 102.504407, 2.127421 ], [ 102.499177, 2.126115 ], [ 102.502726, 2.119396 ], [ 102.488718, 2.121076 ], [ 102.481247, 2.116783 ], [ 102.481434, 2.11193 ], [ 102.48685, 2.10745 ], [ 102.489278, 2.098305 ], [ 102.475451, 2.107678 ], [ 102.465645, 2.111504 ], [ 102.446314, 2.115424 ], [ 102.446655, 2.118079 ], [ 102.44651, 2.125369 ] ] ] } }
]
}
