{
"type": "FeatureCollection",
"name": "MLK_SE-08",
"crs": { "type": "name", "properties": { "name": "urn:ogc:def:crs:OGC:1.3:CRS84" } },
"features": [
{ "type": "Feature", "properties": { "state": "Melaka", "parlimen": "P.110 Alor Gajah", "code_parlimen": "P.110", "dun": "N.01 Kuala Linggi", "code_dun": "N.01" }, "geometry": { "type": "Polygon", "coordinates": [ [ [ 102.042518, 2.419023 ], [ 102.042518, 2.417883 ], [ 102.040681, 2.41706 ], [ 102.040365, 2.415793 ], [ 102.038971, 2.417187 ], [ 102.035552, 2.417757 ], [ 102.033525, 2.41459 ], [ 102.032195, 2.41535 ], [ 102.029662, 2.413134 ], [ 102.029029, 2.410031 ], [ 102.025736, 2.405914 ], [ 102.023899, 2.400531 ], [ 102.027889, 2.396668 ], [ 102.025926, 2.395909 ], [ 102.025293, 2.397555 ], [ 102.022949, 2.398568 ], [ 102.022126, 2.396985 ], [ 102.023393, 2.395275 ], [ 102.022633, 2.394325 ], [ 102.024089, 2.393249 ], [ 102.024089, 2.391792 ], [ 102.025736, 2.391412 ], [ 102.024913, 2.387866 ], [ 102.022696, 2.385523 ], [ 102.026179, 2.386283 ], [ 102.025103, 2.384193 ], [ 102.026116, 2.380203 ], [ 102.025293, 2.378113 ], [ 102.026243, 2.3771 ], [ 102.028079, 2.380203 ], [ 102.030042, 2.380267 ], [ 102.030169, 2.376594 ], [ 102.031309, 2.376657 ], [ 102.031752, 2.37444 ], [ 102.036502, 2.372224 ], [ 102.036312, 2.370007 ], [ 102.039288, 2.370767 ], [ 102.041568, 2.370261 ], [ 102.041631, 2.367474 ], [ 102.044608, 2.365828 ], [ 102.04627, 2.363548 ], [ 102.049246, 2.365511 ], [ 102.053046, 2.369564 ], [ 102.058429, 2.368171 ], [ 102.060835, 2.367094 ], [ 102.067105, 2.362408 ], [ 102.068435, 2.354999 ], [ 102.069005, 2.347906 ], [ 102.066788, 2.343093 ], [ 102.065648, 2.3398 ], [ 102.064128, 2.337774 ], [ 102.064508, 2.336 ], [ 102.067281, 2.332645 ], [ 102.074229, 2.327198 ], [ 102.079422, 2.325678 ], [ 102.083728, 2.327198 ], [ 102.089554, 2.326945 ], [ 102.092341, 2.329984 ], [ 102.095254, 2.330998 ], [ 102.100447, 2.332644 ], [ 102.103107, 2.335431 ], [ 102.1064, 2.334417 ], [ 102.107793, 2.332264 ], [ 102.1045, 2.330744 ], [ 102.103613, 2.327578 ], [ 102.099307, 2.327451 ], [ 102.099307, 2.325805 ], [ 102.097787, 2.325108 ], [ 102.096837, 2.323335 ], [ 102.098357, 2.321878 ], [ 102.09766, 2.320422 ], [ 102.099054, 2.319219 ], [ 102.098674, 2.316749 ], [ 102.099624, 2.315862 ], [ 102.100004, 2.314089 ], [ 102.1007, 2.313076 ], [ 102.102663, 2.305856 ], [ 102.094241, 2.306173 ], [ 102.093544, 2.29965 ], [ 102.088478, 2.299777 ], [ 102.085501, 2.298574 ], [ 102.086515, 2.296357 ], [ 102.087306, 2.292099 ], [ 102.087021, 2.291228 ], [ 102.084349, 2.291327 ], [ 102.082668, 2.293566 ], [ 102.08024, 2.294966 ], [ 102.077999, 2.295152 ], [ 102.071555, 2.317454 ], [ 102.069221, 2.322119 ], [ 102.065181, 2.329641 ], [ 102.065112, 2.329771 ], [ 102.060442, 2.336395 ], [ 102.055119, 2.341714 ], [ 102.050076, 2.34442 ], [ 102.045034, 2.34554 ], [ 102.041858, 2.348059 ], [ 102.038963, 2.348526 ], [ 102.022247, 2.361775 ], [ 102.011414, 2.366441 ], [ 102.002543, 2.368307 ], [ 101.997687, 2.367747 ], [ 101.996286, 2.364854 ], [ 101.986947, 2.36896 ], [ 101.976208, 2.370453 ], [ 101.971258, 2.375864 ], [ 101.972379, 2.377077 ], [ 101.967336, 2.386781 ], [ 101.971165, 2.390793 ], [ 101.976675, 2.389674 ], [ 101.984332, 2.398164 ], [ 101.993951, 2.399751 ], [ 101.997667, 2.402113 ], [ 102.000001, 2.403505 ], [ 102.005531, 2.407215 ], [ 102.011601, 2.408708 ], [ 102.017671, 2.417665 ], [ 102.02729, 2.427648 ], [ 102.026917, 2.433526 ], [ 102.030092, 2.439778 ], [ 102.038216, 2.43418 ], [ 102.035321, 2.430914 ], [ 102.034574, 2.426249 ], [ 102.040738, 2.421024 ], [ 102.044193, 2.42121 ], [ 102.042518, 2.419023 ] ] ] } },
{ "type": "Feature", "properties": { "state": "Melaka", "parlimen": "P.110 Alor Gajah", "code_parlimen": "P.110", "dun": "N.02 Sungai Bahru", "code_dun": "N.02" }, "geometry": { "type": "Polygon", "coordinates": [ [ [ 102.064508, 2.336 ], [ 102.064128, 2.337774 ], [ 102.065648, 2.3398 ], [ 102.066788, 2.343093 ], [ 102.069005, 2.347906 ], [ 102.068435, 2.354999 ], [ 102.067105, 2.362408 ], [ 102.060835, 2.367094 ], [ 102.058429, 2.368171 ], [ 102.053046, 2.369564 ], [ 102.049246, 2.365511 ], [ 102.04627, 2.363548 ], [ 102.044608, 2.365828 ], [ 102.041631, 2.367474 ], [ 102.041568, 2.370261 ], [ 102.039288, 2.370767 ], [ 102.036312, 2.370007 ], [ 102.036502, 2.372224 ], [ 102.031752, 2.37444 ], [ 102.031309, 2.376657 ], [ 102.030169, 2.376594 ], [ 102.030042, 2.380267 ], [ 102.028079, 2.380203 ], [ 102.026243, 2.3771 ], [ 102.025293, 2.378113 ], [ 102.026116, 2.380203 ], [ 102.025103, 2.384193 ], [ 102.026179, 2.386283 ], [ 102.022696, 2.385523 ], [ 102.024913, 2.387866 ], [ 102.025736, 2.391412 ], [ 102.024089, 2.391792 ], [ 102.024089, 2.393249 ], [ 102.022633, 2.394325 ], [ 102.023393, 2.395275 ], [ 102.022126, 2.396985 ], [ 102.022949, 2.398568 ], [ 102.025293, 2.397555 ], [ 102.025926, 2.395909 ], [ 102.027889, 2.396668 ], [ 102.023899, 2.400531 ], [ 102.025736, 2.405914 ], [ 102.029029, 2.410031 ], [ 102.029662, 2.413134 ], [ 102.032195, 2.41535 ], [ 102.033525, 2.41459 ], [ 102.035552, 2.417757 ], [ 102.038971, 2.417187 ], [ 102.040365, 2.415793 ], [ 102.040681, 2.41706 ], [ 102.042518, 2.417883 ], [ 102.042518, 2.419023 ], [ 102.044193, 2.42121 ], [ 102.047275, 2.419624 ], [ 102.050076, 2.420651 ], [ 102.051944, 2.42345 ], [ 102.048769, 2.427648 ], [ 102.050637, 2.430261 ], [ 102.050917, 2.43306 ], [ 102.056894, 2.435579 ], [ 102.059602, 2.434459 ], [ 102.062497, 2.436699 ], [ 102.063244, 2.440524 ], [ 102.064831, 2.442483 ], [ 102.064364, 2.444163 ], [ 102.062777, 2.44267 ], [ 102.060722, 2.44211 ], [ 102.059322, 2.444256 ], [ 102.06259, 2.448361 ], [ 102.060442, 2.45088 ], [ 102.064364, 2.457785 ], [ 102.069688, 2.457505 ], [ 102.076691, 2.454239 ], [ 102.083789, 2.453866 ], [ 102.087042, 2.449186 ], [ 102.088458, 2.447148 ], [ 102.12161, 2.46273 ], [ 102.141322, 2.456827 ], [ 102.143302, 2.459192 ], [ 102.145615, 2.461928 ], [ 102.148592, 2.457241 ], [ 102.152328, 2.452619 ], [ 102.153405, 2.453125 ], [ 102.156761, 2.448502 ], [ 102.166323, 2.450719 ], [ 102.163157, 2.446602 ], [ 102.166133, 2.444006 ], [ 102.166133, 2.441979 ], [ 102.168793, 2.440143 ], [ 102.169427, 2.43799 ], [ 102.17196, 2.43761 ], [ 102.17025, 2.43533 ], [ 102.168603, 2.434443 ], [ 102.169363, 2.431784 ], [ 102.16645, 2.430264 ], [ 102.168033, 2.426084 ], [ 102.16398, 2.423741 ], [ 102.164107, 2.421651 ], [ 102.16246, 2.421271 ], [ 102.161764, 2.419435 ], [ 102.159824, 2.418991 ], [ 102.159729, 2.420511 ], [ 102.15745, 2.420036 ], [ 102.155423, 2.420416 ], [ 102.154632, 2.418928 ], [ 102.153774, 2.41862 ], [ 102.153017, 2.416395 ], [ 102.151465, 2.417282 ], [ 102.150167, 2.417947 ], [ 102.149565, 2.417028 ], [ 102.148362, 2.416142 ], [ 102.149882, 2.414907 ], [ 102.136354, 2.405293 ], [ 102.111793, 2.407749 ], [ 102.121859, 2.388816 ], [ 102.122049, 2.387708 ], [ 102.119073, 2.386219 ], [ 102.116705, 2.388282 ], [ 102.116097, 2.388752 ], [ 102.115653, 2.387898 ], [ 102.11426, 2.388246 ], [ 102.113817, 2.386156 ], [ 102.113112, 2.385417 ], [ 102.111793, 2.384143 ], [ 102.110793, 2.382597 ], [ 102.110065, 2.381551 ], [ 102.11103, 2.380425 ], [ 102.110492, 2.379665 ], [ 102.109257, 2.379633 ], [ 102.108518, 2.378231 ], [ 102.109004, 2.376625 ], [ 102.108624, 2.37577 ], [ 102.106882, 2.375739 ], [ 102.105331, 2.374979 ], [ 102.104761, 2.375105 ], [ 102.104243, 2.375547 ], [ 102.104652, 2.377503 ], [ 102.104379, 2.378503 ], [ 102.103606, 2.379322 ], [ 102.102924, 2.379686 ], [ 102.102151, 2.380232 ], [ 102.101241, 2.380687 ], [ 102.099467, 2.380823 ], [ 102.099058, 2.381232 ], [ 102.097573, 2.382578 ], [ 102.096338, 2.38394 ], [ 102.094534, 2.385238 ], [ 102.093172, 2.384351 ], [ 102.091874, 2.382578 ], [ 102.090892, 2.377892 ], [ 102.089562, 2.380077 ], [ 102.088422, 2.377923 ], [ 102.087378, 2.374029 ], [ 102.086143, 2.372446 ], [ 102.086364, 2.370736 ], [ 102.085435, 2.369753 ], [ 102.086491, 2.368266 ], [ 102.087188, 2.367189 ], [ 102.087029, 2.365828 ], [ 102.08372, 2.365005 ], [ 102.084385, 2.363073 ], [ 102.083467, 2.361553 ], [ 102.082517, 2.360635 ], [ 102.084259, 2.359558 ], [ 102.082866, 2.357299 ], [ 102.083161, 2.356191 ], [ 102.08239, 2.35522 ], [ 102.085589, 2.352244 ], [ 102.085779, 2.350819 ], [ 102.084639, 2.349838 ], [ 102.082792, 2.350577 ], [ 102.081555, 2.351205 ], [ 102.079249, 2.348813 ], [ 102.075556, 2.347968 ], [ 102.075334, 2.347156 ], [ 102.074448, 2.347008 ], [ 102.07393, 2.345309 ], [ 102.07354, 2.343505 ], [ 102.072084, 2.343347 ], [ 102.071229, 2.341415 ], [ 102.067781, 2.341831 ], [ 102.067714, 2.339009 ], [ 102.066321, 2.339294 ], [ 102.065498, 2.33847 ], [ 102.066321, 2.336634 ], [ 102.067577, 2.334196 ], [ 102.067281, 2.332645 ], [ 102.064508, 2.336 ] ] ] } },
{ "type": "Feature", "properties": { "state": "Melaka", "parlimen": "P.110 Alor Gajah", "code_parlimen": "P.110", "dun": "N.03 Masjid Tanah", "code_dun": "N.03" }, "geometry": { "type": "Polygon", "coordinates": [ [ [ 102.087306, 2.292099 ], [ 102.086515, 2.296357 ], [ 102.085501, 2.298574 ], [ 102.088478, 2.299777 ], [ 102.093544, 2.29965 ], [ 102.094241, 2.306173 ], [ 102.102663, 2.305856 ], [ 102.1007, 2.313076 ], [ 102.100004, 2.314089 ], [ 102.099624, 2.315862 ], [ 102.098674, 2.316749 ], [ 102.099054, 2.319219 ], [ 102.09766, 2.320422 ], [ 102.098357, 2.321878 ], [ 102.096837, 2.323335 ], [ 102.097787, 2.325108 ], [ 102.099307, 2.325805 ], [ 102.099307, 2.327451 ], [ 102.103613, 2.327578 ], [ 102.1045, 2.330744 ], [ 102.107793, 2.332264 ], [ 102.1064, 2.334417 ], [ 102.103107, 2.335431 ], [ 102.100447, 2.332644 ], [ 102.095254, 2.330998 ], [ 102.092341, 2.329984 ], [ 102.089554, 2.326945 ], [ 102.083728, 2.327198 ], [ 102.079422, 2.325678 ], [ 102.074229, 2.327198 ], [ 102.067281, 2.332645 ], [ 102.067577, 2.334196 ], [ 102.066321, 2.336634 ], [ 102.065498, 2.33847 ], [ 102.066321, 2.339294 ], [ 102.067714, 2.339009 ], [ 102.067781, 2.341831 ], [ 102.071229, 2.341415 ], [ 102.072084, 2.343347 ], [ 102.07354, 2.343505 ], [ 102.07393, 2.345309 ], [ 102.074448, 2.347008 ], [ 102.075334, 2.347156 ], [ 102.075556, 2.347968 ], [ 102.079249, 2.348813 ], [ 102.081555, 2.351205 ], [ 102.082792, 2.350577 ], [ 102.084639, 2.349838 ], [ 102.085779, 2.350819 ], [ 102.085589, 2.352244 ], [ 102.08239, 2.35522 ], [ 102.083161, 2.356191 ], [ 102.082866, 2.357299 ], [ 102.084259, 2.359558 ], [ 102.082517, 2.360635 ], [ 102.083467, 2.361553 ], [ 102.084385, 2.363073 ], [ 102.08372, 2.365005 ], [ 102.087029, 2.365828 ], [ 102.087188, 2.367189 ], [ 102.086491, 2.368266 ], [ 102.085435, 2.369753 ], [ 102.086364, 2.370736 ], [ 102.086143, 2.372446 ], [ 102.087378, 2.374029 ], [ 102.088422, 2.377923 ], [ 102.089562, 2.380077 ], [ 102.090892, 2.377892 ], [ 102.091874, 2.382578 ], [ 102.093172, 2.384351 ], [ 102.094534, 2.385238 ], [ 102.096338, 2.38394 ], [ 102.097573, 2.382578 ], [ 102.099058, 2.381232 ], [ 102.099467, 2.380823 ], [ 102.101241, 2.380687 ], [ 102.102151, 2.380232 ], [ 102.102924, 2.379686 ], [ 102.103606, 2.379322 ], [ 102.104379, 2.378503 ], [ 102.104652, 2.377503 ], [ 102.104243, 2.375547 ], [ 102.104761, 2.375105 ], [ 102.105331, 2.374979 ], [ 102.106882, 2.375739 ], [ 102.108624, 2.37577 ], [ 102.109004, 2.376625 ], [ 102.108518, 2.378231 ], [ 102.109257, 2.379633 ], [ 102.110492, 2.379665 ], [ 102.11103, 2.380425 ], [ 102.110065, 2.381551 ], [ 102.110793, 2.382597 ], [ 102.111793, 2.384143 ], [ 102.113112, 2.385417 ], [ 102.113817, 2.386156 ], [ 102.11426, 2.388246 ], [ 102.115653, 2.387898 ], [ 102.116097, 2.388752 ], [ 102.116705, 2.388282 ], [ 102.119073, 2.386219 ], [ 102.122049, 2.387708 ], [ 102.123036, 2.387777 ], [ 102.127084, 2.384763 ], [ 102.141301, 2.377164 ], [ 102.143138, 2.378525 ], [ 102.145964, 2.377322 ], [ 102.149003, 2.374915 ], [ 102.15198, 2.371622 ], [ 102.155209, 2.368076 ], [ 102.155589, 2.366429 ], [ 102.158313, 2.365796 ], [ 102.161669, 2.367063 ], [ 102.163949, 2.370229 ], [ 102.166039, 2.370166 ], [ 102.166798, 2.372572 ], [ 102.168572, 2.373459 ], [ 102.170661, 2.374029 ], [ 102.172625, 2.373775 ], [ 102.173954, 2.377385 ], [ 102.173828, 2.382705 ], [ 102.176171, 2.381881 ], [ 102.177501, 2.380678 ], [ 102.176678, 2.37672 ], [ 102.177406, 2.375929 ], [ 102.177216, 2.373902 ], [ 102.176044, 2.372382 ], [ 102.177184, 2.370926 ], [ 102.176519, 2.369976 ], [ 102.177501, 2.366524 ], [ 102.178894, 2.365068 ], [ 102.178482, 2.361743 ], [ 102.177517, 2.360947 ], [ 102.177105, 2.359432 ], [ 102.175807, 2.359052 ], [ 102.17663, 2.355252 ], [ 102.178878, 2.351832 ], [ 102.178752, 2.350313 ], [ 102.180176, 2.347779 ], [ 102.181348, 2.346165 ], [ 102.181633, 2.343093 ], [ 102.181063, 2.341953 ], [ 102.182551, 2.340402 ], [ 102.181886, 2.338914 ], [ 102.184324, 2.334892 ], [ 102.184514, 2.332137 ], [ 102.185243, 2.330238 ], [ 102.184641, 2.325741 ], [ 102.183279, 2.325678 ], [ 102.181833, 2.324639 ], [ 102.181332, 2.320409 ], [ 102.181696, 2.316907 ], [ 102.184483, 2.316147 ], [ 102.187522, 2.316781 ], [ 102.187966, 2.315799 ], [ 102.189296, 2.315799 ], [ 102.189961, 2.314152 ], [ 102.189866, 2.312664 ], [ 102.185765, 2.312633 ], [ 102.185385, 2.310068 ], [ 102.184815, 2.308548 ], [ 102.183707, 2.309466 ], [ 102.180889, 2.309616 ], [ 102.180256, 2.309181 ], [ 102.178166, 2.310163 ], [ 102.175601, 2.308991 ], [ 102.175048, 2.30929 ], [ 102.171865, 2.308643 ], [ 102.171168, 2.307471 ], [ 102.169585, 2.307725 ], [ 102.166703, 2.307082 ], [ 102.163803, 2.306287 ], [ 102.160212, 2.305508 ], [ 102.159642, 2.306616 ], [ 102.157985, 2.308046 ], [ 102.156824, 2.307471 ], [ 102.156824, 2.306744 ], [ 102.157299, 2.305223 ], [ 102.156254, 2.304273 ], [ 102.150935, 2.303387 ], [ 102.150143, 2.302753 ], [ 102.148117, 2.302595 ], [ 102.146884, 2.302012 ], [ 102.145069, 2.301645 ], [ 102.144214, 2.298795 ], [ 102.144942, 2.296579 ], [ 102.146336, 2.294869 ], [ 102.145797, 2.293254 ], [ 102.14652, 2.29246 ], [ 102.145246, 2.290732 ], [ 102.134968, 2.294236 ], [ 102.133693, 2.294098 ], [ 102.131965, 2.291915 ], [ 102.130203, 2.29012 ], [ 102.125485, 2.290025 ], [ 102.12273, 2.286921 ], [ 102.1214, 2.287713 ], [ 102.120102, 2.2848 ], [ 102.117917, 2.283977 ], [ 102.116429, 2.284768 ], [ 102.114118, 2.287681 ], [ 102.108719, 2.287523 ], [ 102.108624, 2.289613 ], [ 102.106995, 2.289868 ], [ 102.105039, 2.289777 ], [ 102.103114, 2.289645 ], [ 102.101563, 2.289835 ], [ 102.099885, 2.288378 ], [ 102.098935, 2.289581 ], [ 102.096386, 2.288758 ], [ 102.093853, 2.288948 ], [ 102.092491, 2.288441 ], [ 102.091225, 2.289106 ], [ 102.091415, 2.290626 ], [ 102.090116, 2.290088 ], [ 102.088738, 2.29114 ], [ 102.087021, 2.291228 ], [ 102.087306, 2.292099 ] ] ] } },
{ "type": "Feature", "properties": { "state": "Melaka", "parlimen": "P.110 Alor Gajah", "code_parlimen": "P.110", "dun": "N.04 Kelemak", "code_dun": "N.04" }, "geometry": { "type": "Polygon", "coordinates": [ [ [ 102.2047, 2.480356 ], [ 102.202325, 2.479058 ], [ 102.202705, 2.474118 ], [ 102.20128, 2.471047 ], [ 102.203497, 2.471522 ], [ 102.203339, 2.46978 ], [ 102.202642, 2.467152 ], [ 102.202262, 2.464334 ], [ 102.204415, 2.464777 ], [ 102.204383, 2.462973 ], [ 102.205618, 2.461231 ], [ 102.205935, 2.459205 ], [ 102.209481, 2.455975 ], [ 102.20926, 2.449959 ], [ 102.20584, 2.448154 ], [ 102.203529, 2.446286 ], [ 102.197576, 2.443721 ], [ 102.193301, 2.441821 ], [ 102.190926, 2.440618 ], [ 102.190831, 2.43723 ], [ 102.190641, 2.434507 ], [ 102.189786, 2.433367 ], [ 102.189628, 2.431594 ], [ 102.187887, 2.428364 ], [ 102.188647, 2.427066 ], [ 102.19156, 2.425768 ], [ 102.192953, 2.425324 ], [ 102.193428, 2.422506 ], [ 102.192921, 2.417978 ], [ 102.195138, 2.418042 ], [ 102.196436, 2.418991 ], [ 102.198336, 2.41953 ], [ 102.198654, 2.418529 ], [ 102.195518, 2.416427 ], [ 102.194251, 2.414654 ], [ 102.194473, 2.411076 ], [ 102.190434, 2.407022 ], [ 102.189121, 2.405218 ], [ 102.190293, 2.404584 ], [ 102.190356, 2.402875 ], [ 102.193839, 2.397175 ], [ 102.194726, 2.39689 ], [ 102.194758, 2.398378 ], [ 102.193016, 2.401386 ], [ 102.193238, 2.402463 ], [ 102.196911, 2.403065 ], [ 102.198716, 2.402716 ], [ 102.20204, 2.399613 ], [ 102.201597, 2.394135 ], [ 102.20071, 2.391887 ], [ 102.203655, 2.39404 ], [ 102.206917, 2.394135 ], [ 102.20736, 2.396225 ], [ 102.209291, 2.394895 ], [ 102.211904, 2.391571 ], [ 102.212949, 2.391634 ], [ 102.214088, 2.389829 ], [ 102.218806, 2.390557 ], [ 102.220516, 2.389924 ], [ 102.224902, 2.391317 ], [ 102.227118, 2.391634 ], [ 102.22921, 2.391679 ], [ 102.231266, 2.392615 ], [ 102.233704, 2.392742 ], [ 102.233166, 2.390906 ], [ 102.232818, 2.389101 ], [ 102.233894, 2.388404 ], [ 102.233958, 2.386979 ], [ 102.235699, 2.386631 ], [ 102.235731, 2.385744 ], [ 102.236871, 2.385174 ], [ 102.236776, 2.38413 ], [ 102.236047, 2.383718 ], [ 102.234274, 2.384541 ], [ 102.233894, 2.382895 ], [ 102.231203, 2.381755 ], [ 102.229461, 2.37824 ], [ 102.229715, 2.374694 ], [ 102.2262, 2.373364 ], [ 102.222432, 2.372952 ], [ 102.223287, 2.369628 ], [ 102.220912, 2.368519 ], [ 102.219638, 2.366556 ], [ 102.218624, 2.366429 ], [ 102.217041, 2.367348 ], [ 102.214983, 2.366714 ], [ 102.21283, 2.366524 ], [ 102.212292, 2.36548 ], [ 102.21283, 2.363453 ], [ 102.213036, 2.361933 ], [ 102.209798, 2.362566 ], [ 102.206853, 2.361047 ], [ 102.204478, 2.361648 ], [ 102.200932, 2.360825 ], [ 102.200584, 2.358862 ], [ 102.199032, 2.35788 ], [ 102.197565, 2.358008 ], [ 102.196383, 2.36015 ], [ 102.192684, 2.360033 ], [ 102.19262, 2.35902 ], [ 102.190341, 2.358292 ], [ 102.190246, 2.356075 ], [ 102.18907, 2.356235 ], [ 102.187427, 2.357247 ], [ 102.186794, 2.36016 ], [ 102.183754, 2.36149 ], [ 102.181981, 2.360413 ], [ 102.178729, 2.360446 ], [ 102.177517, 2.360947 ], [ 102.178482, 2.361743 ], [ 102.178894, 2.365068 ], [ 102.177501, 2.366524 ], [ 102.176519, 2.369976 ], [ 102.177184, 2.370926 ], [ 102.176044, 2.372382 ], [ 102.177216, 2.373902 ], [ 102.177406, 2.375929 ], [ 102.176678, 2.37672 ], [ 102.177501, 2.380678 ], [ 102.176171, 2.381881 ], [ 102.173828, 2.382705 ], [ 102.173954, 2.377385 ], [ 102.172625, 2.373775 ], [ 102.170661, 2.374029 ], [ 102.168572, 2.373459 ], [ 102.166798, 2.372572 ], [ 102.166039, 2.370166 ], [ 102.163949, 2.370229 ], [ 102.161669, 2.367063 ], [ 102.158313, 2.365796 ], [ 102.155589, 2.366429 ], [ 102.155209, 2.368076 ], [ 102.15198, 2.371622 ], [ 102.149003, 2.374915 ], [ 102.145964, 2.377322 ], [ 102.143138, 2.378525 ], [ 102.141301, 2.377164 ], [ 102.127084, 2.384763 ], [ 102.123036, 2.387777 ], [ 102.122049, 2.387708 ], [ 102.121859, 2.388816 ], [ 102.111793, 2.407749 ], [ 102.136354, 2.405293 ], [ 102.149882, 2.414907 ], [ 102.148362, 2.416142 ], [ 102.149565, 2.417028 ], [ 102.150167, 2.417947 ], [ 102.151465, 2.417282 ], [ 102.153017, 2.416395 ], [ 102.153774, 2.41862 ], [ 102.154632, 2.418928 ], [ 102.155423, 2.420416 ], [ 102.15745, 2.420036 ], [ 102.159729, 2.420511 ], [ 102.159824, 2.418991 ], [ 102.161764, 2.419435 ], [ 102.16246, 2.421271 ], [ 102.164107, 2.421651 ], [ 102.16398, 2.423741 ], [ 102.168033, 2.426084 ], [ 102.16645, 2.430264 ], [ 102.169363, 2.431784 ], [ 102.168603, 2.434443 ], [ 102.17025, 2.43533 ], [ 102.17196, 2.43761 ], [ 102.169427, 2.43799 ], [ 102.168793, 2.440143 ], [ 102.166133, 2.441979 ], [ 102.166133, 2.444006 ], [ 102.163157, 2.446602 ], [ 102.166323, 2.450719 ], [ 102.156761, 2.448502 ], [ 102.153405, 2.453125 ], [ 102.152328, 2.452619 ], [ 102.148592, 2.457241 ], [ 102.145615, 2.461928 ], [ 102.176241, 2.499489 ], [ 102.19249, 2.490533 ], [ 102.193611, 2.486801 ], [ 102.20227, 2.48368 ], [ 102.2047, 2.480356 ] ] ] } },
{ "type": "Feature", "properties": { "state": "Melaka", "parlimen": "P.111 Selandar", "code_parlimen": "P.111", "dun": "N.05 Pulau Sebang", "code_dun": "N.05" }, "geometry": { "type": "Polygon", "coordinates": [ [ [ 102.209481, 2.455975 ], [ 102.205935, 2.459205 ], [ 102.205618, 2.461231 ], [ 102.204383, 2.462973 ], [ 102.204415, 2.464777 ], [ 102.202262, 2.464334 ], [ 102.202642, 2.467152 ], [ 102.203339, 2.46978 ], [ 102.203497, 2.471522 ], [ 102.20128, 2.471047 ], [ 102.202705, 2.474118 ], [ 102.202325, 2.479058 ], [ 102.2047, 2.480356 ], [ 102.20227, 2.48368 ], [ 102.20671, 2.48245 ], [ 102.231433, 2.466462 ], [ 102.271051, 2.459676 ], [ 102.267738, 2.451228 ], [ 102.267738, 2.443398 ], [ 102.269363, 2.437784 ], [ 102.261533, 2.441773 ], [ 102.253556, 2.437489 ], [ 102.255506, 2.434343 ], [ 102.261665, 2.435805 ], [ 102.262357, 2.437114 ], [ 102.264436, 2.436344 ], [ 102.265282, 2.434573 ], [ 102.265744, 2.429339 ], [ 102.266745, 2.428569 ], [ 102.266437, 2.425336 ], [ 102.26559, 2.425029 ], [ 102.265513, 2.422565 ], [ 102.267746, 2.42041 ], [ 102.270055, 2.420487 ], [ 102.270132, 2.416638 ], [ 102.267515, 2.415561 ], [ 102.266668, 2.414021 ], [ 102.263281, 2.41456 ], [ 102.260741, 2.41379 ], [ 102.260125, 2.411635 ], [ 102.258893, 2.411712 ], [ 102.258355, 2.410018 ], [ 102.254891, 2.410172 ], [ 102.25466, 2.411327 ], [ 102.252889, 2.410865 ], [ 102.253659, 2.413559 ], [ 102.252274, 2.414252 ], [ 102.249118, 2.414252 ], [ 102.246808, 2.415176 ], [ 102.246346, 2.416869 ], [ 102.24219, 2.414098 ], [ 102.239111, 2.41533 ], [ 102.236955, 2.416792 ], [ 102.236186, 2.415561 ], [ 102.232799, 2.418332 ], [ 102.230567, 2.418101 ], [ 102.231952, 2.421873 ], [ 102.230336, 2.422758 ], [ 102.228719, 2.422604 ], [ 102.227372, 2.42091 ], [ 102.227026, 2.419178 ], [ 102.225871, 2.419525 ], [ 102.225028, 2.418232 ], [ 102.225408, 2.415952 ], [ 102.224363, 2.414147 ], [ 102.225092, 2.412405 ], [ 102.22468, 2.410189 ], [ 102.220405, 2.406294 ], [ 102.219359, 2.403292 ], [ 102.216701, 2.39803 ], [ 102.216928, 2.396756 ], [ 102.217678, 2.394438 ], [ 102.219867, 2.396415 ], [ 102.223233, 2.396279 ], [ 102.22506, 2.395465 ], [ 102.225693, 2.393534 ], [ 102.227498, 2.394104 ], [ 102.227118, 2.391634 ], [ 102.224902, 2.391317 ], [ 102.220516, 2.389924 ], [ 102.218806, 2.390557 ], [ 102.214088, 2.389829 ], [ 102.212949, 2.391634 ], [ 102.211904, 2.391571 ], [ 102.209291, 2.394895 ], [ 102.20736, 2.396225 ], [ 102.206917, 2.394135 ], [ 102.203655, 2.39404 ], [ 102.20071, 2.391887 ], [ 102.201597, 2.394135 ], [ 102.20204, 2.399613 ], [ 102.198716, 2.402716 ], [ 102.196911, 2.403065 ], [ 102.193238, 2.402463 ], [ 102.193016, 2.401386 ], [ 102.194758, 2.398378 ], [ 102.194726, 2.39689 ], [ 102.193839, 2.397175 ], [ 102.190356, 2.402875 ], [ 102.190293, 2.404584 ], [ 102.189121, 2.405218 ], [ 102.190434, 2.407022 ], [ 102.194473, 2.411076 ], [ 102.194251, 2.414654 ], [ 102.195518, 2.416427 ], [ 102.198654, 2.418529 ], [ 102.198336, 2.41953 ], [ 102.196436, 2.418991 ], [ 102.195138, 2.418042 ], [ 102.192921, 2.417978 ], [ 102.193428, 2.422506 ], [ 102.192953, 2.425324 ], [ 102.19156, 2.425768 ], [ 102.188647, 2.427066 ], [ 102.187887, 2.428364 ], [ 102.189628, 2.431594 ], [ 102.189786, 2.433367 ], [ 102.190641, 2.434507 ], [ 102.190831, 2.43723 ], [ 102.190926, 2.440618 ], [ 102.193301, 2.441821 ], [ 102.197576, 2.443721 ], [ 102.203529, 2.446286 ], [ 102.20584, 2.448154 ], [ 102.20926, 2.449959 ], [ 102.209481, 2.455975 ] ] ] } },
{ "type": "Feature", "properties": { "state": "Melaka", "parlimen": "P.111 Selandar", "code_parlimen": "P.111", "dun": "N.06 Kemuning", "code_dun": "N.06" }, "geometry": { "type": "Polygon", "coordinates": [ [ [ 102.258494, 2.307776 ], [ 102.255877, 2.308392 ], [ 102.256955, 2.310393 ], [ 102.255877, 2.317013 ], [ 102.254799, 2.319399 ], [ 102.257801, 2.325634 ], [ 102.258186, 2.330561 ], [ 102.257339, 2.331869 ], [ 102.253645, 2.332947 ], [ 102.249103, 2.332331 ], [ 102.239096, 2.338797 ], [ 102.237942, 2.347572 ], [ 102.239182, 2.350313 ], [ 102.235652, 2.352307 ], [ 102.23334, 2.352086 ], [ 102.230237, 2.353194 ], [ 102.22973, 2.355284 ], [ 102.225338, 2.356088 ], [ 102.225012, 2.358355 ], [ 102.222408, 2.358355 ], [ 102.221648, 2.360667 ], [ 102.220463, 2.361332 ], [ 102.219134, 2.360298 ], [ 102.217435, 2.360815 ], [ 102.21544, 2.360741 ], [ 102.213889, 2.361849 ], [ 102.213036, 2.361933 ], [ 102.21283, 2.363453 ], [ 102.212292, 2.36548 ], [ 102.21283, 2.366524 ], [ 102.214983, 2.366714 ], [ 102.217041, 2.367348 ], [ 102.218624, 2.366429 ], [ 102.219638, 2.366556 ], [ 102.220912, 2.368519 ], [ 102.223287, 2.369628 ], [ 102.222432, 2.372952 ], [ 102.2262, 2.373364 ], [ 102.229715, 2.374694 ], [ 102.229461, 2.37824 ], [ 102.231203, 2.381755 ], [ 102.233894, 2.382895 ], [ 102.234274, 2.384541 ], [ 102.236047, 2.383718 ], [ 102.236776, 2.38413 ], [ 102.236871, 2.385174 ], [ 102.235731, 2.385744 ], [ 102.235699, 2.386631 ], [ 102.233958, 2.386979 ], [ 102.233894, 2.388404 ], [ 102.232818, 2.389101 ], [ 102.233166, 2.390906 ], [ 102.233704, 2.392742 ], [ 102.231266, 2.392615 ], [ 102.22921, 2.391679 ], [ 102.227118, 2.391634 ], [ 102.227498, 2.394104 ], [ 102.225693, 2.393534 ], [ 102.22506, 2.395465 ], [ 102.223233, 2.396279 ], [ 102.219867, 2.396415 ], [ 102.217678, 2.394438 ], [ 102.216928, 2.396756 ], [ 102.216701, 2.39803 ], [ 102.219359, 2.403292 ], [ 102.220405, 2.406294 ], [ 102.22468, 2.410189 ], [ 102.225092, 2.412405 ], [ 102.224363, 2.414147 ], [ 102.225408, 2.415952 ], [ 102.225028, 2.418232 ], [ 102.225871, 2.419525 ], [ 102.227026, 2.419178 ], [ 102.227372, 2.42091 ], [ 102.228719, 2.422604 ], [ 102.230336, 2.422758 ], [ 102.231952, 2.421873 ], [ 102.230567, 2.418101 ], [ 102.232799, 2.418332 ], [ 102.236186, 2.415561 ], [ 102.236955, 2.416792 ], [ 102.239111, 2.41533 ], [ 102.24219, 2.414098 ], [ 102.246346, 2.416869 ], [ 102.246808, 2.415176 ], [ 102.249118, 2.414252 ], [ 102.252274, 2.414252 ], [ 102.253659, 2.413559 ], [ 102.252889, 2.410865 ], [ 102.25466, 2.411327 ], [ 102.254891, 2.410172 ], [ 102.258355, 2.410018 ], [ 102.258893, 2.411712 ], [ 102.260125, 2.411635 ], [ 102.260741, 2.41379 ], [ 102.263281, 2.41456 ], [ 102.266668, 2.414021 ], [ 102.267515, 2.415561 ], [ 102.270132, 2.416638 ], [ 102.270055, 2.420487 ], [ 102.267746, 2.42041 ], [ 102.265513, 2.422565 ], [ 102.26559, 2.425029 ], [ 102.266437, 2.425336 ], [ 102.266745, 2.428569 ], [ 102.265744, 2.429339 ], [ 102.265282, 2.434573 ], [ 102.264436, 2.436344 ], [ 102.262357, 2.437114 ], [ 102.261665, 2.435805 ], [ 102.255506, 2.434343 ], [ 102.253556, 2.437489 ], [ 102.261533, 2.441773 ], [ 102.269363, 2.437784 ], [ 102.267738, 2.443398 ], [ 102.267738, 2.451228 ], [ 102.271051, 2.459676 ], [ 102.277192, 2.458624 ], [ 102.31988, 2.482026 ], [ 102.3137, 2.466903 ], [ 102.308696, 2.466364 ], [ 102.30554, 2.455203 ], [ 102.302077, 2.455626 ], [ 102.301191, 2.452393 ], [ 102.301114, 2.448506 ], [ 102.301846, 2.446312 ], [ 102.302846, 2.443772 ], [ 102.303385, 2.436267 ], [ 102.304501, 2.433111 ], [ 102.307234, 2.430763 ], [ 102.311006, 2.429955 ], [ 102.31343, 2.42984 ], [ 102.317241, 2.429339 ], [ 102.318665, 2.429301 ], [ 102.319935, 2.428877 ], [ 102.319627, 2.428069 ], [ 102.318896, 2.427299 ], [ 102.316779, 2.427954 ], [ 102.313469, 2.426414 ], [ 102.311621, 2.428146 ], [ 102.310159, 2.427954 ], [ 102.310043, 2.426991 ], [ 102.30681, 2.424413 ], [ 102.306195, 2.423027 ], [ 102.303962, 2.423066 ], [ 102.302885, 2.421873 ], [ 102.302885, 2.420526 ], [ 102.301538, 2.419217 ], [ 102.299594, 2.420218 ], [ 102.297439, 2.419332 ], [ 102.29536, 2.419987 ], [ 102.293359, 2.419563 ], [ 102.290126, 2.416792 ], [ 102.287163, 2.41252 ], [ 102.28901, 2.410827 ], [ 102.289626, 2.409287 ], [ 102.289356, 2.406708 ], [ 102.292127, 2.395855 ], [ 102.294629, 2.386041 ], [ 102.298478, 2.386195 ], [ 102.301518, 2.386387 ], [ 102.306618, 2.376688 ], [ 102.316779, 2.373224 ], [ 102.326016, 2.370145 ], [ 102.323014, 2.365065 ], [ 102.32032, 2.362063 ], [ 102.319588, 2.359561 ], [ 102.316702, 2.357637 ], [ 102.311467, 2.351132 ], [ 102.309928, 2.347207 ], [ 102.308465, 2.339971 ], [ 102.30658, 2.337392 ], [ 102.304992, 2.336661 ], [ 102.303789, 2.336911 ], [ 102.303733, 2.337386 ], [ 102.303187, 2.345346 ], [ 102.301641, 2.340616 ], [ 102.300686, 2.339706 ], [ 102.299815, 2.339124 ], [ 102.297064, 2.339086 ], [ 102.296024, 2.339778 ], [ 102.295947, 2.341414 ], [ 102.295014, 2.342011 ], [ 102.294706, 2.34305 ], [ 102.293378, 2.343088 ], [ 102.291377, 2.34382 ], [ 102.289972, 2.342838 ], [ 102.290631, 2.346071 ], [ 102.287359, 2.346483 ], [ 102.282525, 2.347168 ], [ 102.281928, 2.348534 ], [ 102.278907, 2.348053 ], [ 102.280408, 2.343146 ], [ 102.278965, 2.341991 ], [ 102.277618, 2.340144 ], [ 102.279316, 2.336873 ], [ 102.275967, 2.337411 ], [ 102.273928, 2.337488 ], [ 102.275159, 2.335256 ], [ 102.270541, 2.33185 ], [ 102.271772, 2.329522 ], [ 102.271811, 2.328078 ], [ 102.273312, 2.325519 ], [ 102.265075, 2.321304 ], [ 102.264729, 2.314511 ], [ 102.261804, 2.31199 ], [ 102.260842, 2.306718 ], [ 102.258494, 2.307776 ] ] ] } },
{ "type": "Feature", "properties": { "state": "Melaka", "parlimen": "P.111 Selandar", "code_parlimen": "P.111", "dun": "N.07 Tebong", "code_dun": "N.07" }, "geometry": { "type": "Polygon", "coordinates": [ [ [ 102.363739, 2.490323 ], [ 102.361583, 2.475082 ], [ 102.362507, 2.473388 ], [ 102.361275, 2.465383 ], [ 102.366818, 2.466153 ], [ 102.366125, 2.461303 ], [ 102.367048, 2.460072 ], [ 102.361968, 2.455145 ], [ 102.356272, 2.446986 ], [ 102.375824, 2.446139 ], [ 102.399994, 2.443753 ], [ 102.400302, 2.440751 ], [ 102.398608, 2.438365 ], [ 102.405805, 2.438172 ], [ 102.418198, 2.437325 ], [ 102.424087, 2.438711 ], [ 102.42859, 2.438826 ], [ 102.428552, 2.430859 ], [ 102.43263, 2.431779 ], [ 102.434361, 2.427671 ], [ 102.428539, 2.425488 ], [ 102.422535, 2.420212 ], [ 102.422172, 2.418938 ], [ 102.425992, 2.41248 ], [ 102.428812, 2.411843 ], [ 102.432269, 2.413025 ], [ 102.433724, 2.413025 ], [ 102.433997, 2.412389 ], [ 102.433451, 2.410478 ], [ 102.429813, 2.402109 ], [ 102.428903, 2.39938 ], [ 102.435726, 2.398471 ], [ 102.434179, 2.393558 ], [ 102.432542, 2.390011 ], [ 102.431905, 2.385371 ], [ 102.431359, 2.382642 ], [ 102.429722, 2.381642 ], [ 102.427448, 2.380823 ], [ 102.426538, 2.379095 ], [ 102.42581, 2.374546 ], [ 102.425083, 2.372818 ], [ 102.423627, 2.371635 ], [ 102.424446, 2.369543 ], [ 102.423991, 2.36827 ], [ 102.424628, 2.366359 ], [ 102.41384, 2.370934 ], [ 102.408673, 2.373513 ], [ 102.394394, 2.375476 ], [ 102.396549, 2.370395 ], [ 102.396819, 2.356617 ], [ 102.399243, 2.338528 ], [ 102.396626, 2.338451 ], [ 102.395683, 2.340298 ], [ 102.385984, 2.339836 ], [ 102.384551, 2.337027 ], [ 102.382011, 2.331869 ], [ 102.376853, 2.33083 ], [ 102.370965, 2.338297 ], [ 102.369117, 2.337912 ], [ 102.367299, 2.337681 ], [ 102.366683, 2.33618 ], [ 102.367222, 2.334486 ], [ 102.366644, 2.333178 ], [ 102.365066, 2.333909 ], [ 102.363565, 2.333486 ], [ 102.362334, 2.33464 ], [ 102.360756, 2.334871 ], [ 102.359755, 2.334409 ], [ 102.359332, 2.335064 ], [ 102.35479, 2.334717 ], [ 102.351172, 2.330638 ], [ 102.35098, 2.32956 ], [ 102.348825, 2.328983 ], [ 102.348709, 2.329868 ], [ 102.34563, 2.329675 ], [ 102.344781, 2.326541 ], [ 102.344552, 2.32498 ], [ 102.344745, 2.322979 ], [ 102.344706, 2.321285 ], [ 102.344398, 2.315127 ], [ 102.34232, 2.313626 ], [ 102.34105, 2.309469 ], [ 102.340423, 2.304085 ], [ 102.338279, 2.295306 ], [ 102.334959, 2.286531 ], [ 102.333458, 2.28451 ], [ 102.331091, 2.283182 ], [ 102.328628, 2.283336 ], [ 102.325318, 2.283105 ], [ 102.321931, 2.283875 ], [ 102.31381, 2.28503 ], [ 102.3105, 2.288263 ], [ 102.304727, 2.291034 ], [ 102.29703, 2.290418 ], [ 102.290795, 2.287647 ], [ 102.285156, 2.285954 ], [ 102.277844, 2.284106 ], [ 102.275842, 2.281181 ], [ 102.272994, 2.282105 ], [ 102.269838, 2.282182 ], [ 102.26776, 2.278025 ], [ 102.268145, 2.27587 ], [ 102.265066, 2.275639 ], [ 102.264142, 2.273484 ], [ 102.262064, 2.274022 ], [ 102.262141, 2.272021 ], [ 102.260139, 2.272021 ], [ 102.259601, 2.270866 ], [ 102.258215, 2.270635 ], [ 102.250287, 2.274561 ], [ 102.24256, 2.278756 ], [ 102.244177, 2.280142 ], [ 102.24664, 2.28122 ], [ 102.248526, 2.282798 ], [ 102.249642, 2.282451 ], [ 102.25045, 2.283952 ], [ 102.253221, 2.285453 ], [ 102.256772, 2.292381 ], [ 102.259851, 2.294613 ], [ 102.262785, 2.299848 ], [ 102.262959, 2.302426 ], [ 102.260842, 2.306718 ], [ 102.261804, 2.31199 ], [ 102.264729, 2.314511 ], [ 102.265075, 2.321304 ], [ 102.273312, 2.325519 ], [ 102.271811, 2.328078 ], [ 102.271772, 2.329522 ], [ 102.270541, 2.33185 ], [ 102.275159, 2.335256 ], [ 102.273928, 2.337488 ], [ 102.275967, 2.337411 ], [ 102.279316, 2.336873 ], [ 102.277618, 2.340144 ], [ 102.278965, 2.341991 ], [ 102.280408, 2.343146 ], [ 102.278907, 2.348053 ], [ 102.281928, 2.348534 ], [ 102.282525, 2.347168 ], [ 102.287359, 2.346483 ], [ 102.290631, 2.346071 ], [ 102.289972, 2.342838 ], [ 102.291377, 2.34382 ], [ 102.293378, 2.343088 ], [ 102.294706, 2.34305 ], [ 102.295014, 2.342011 ], [ 102.295947, 2.341414 ], [ 102.296024, 2.339778 ], [ 102.297064, 2.339086 ], [ 102.299815, 2.339124 ], [ 102.300686, 2.339706 ], [ 102.301641, 2.340616 ], [ 102.303187, 2.345346 ], [ 102.303733, 2.337386 ], [ 102.303789, 2.336911 ], [ 102.304992, 2.336661 ], [ 102.30658, 2.337392 ], [ 102.308465, 2.339971 ], [ 102.309928, 2.347207 ], [ 102.311467, 2.351132 ], [ 102.316702, 2.357637 ], [ 102.319588, 2.359561 ], [ 102.32032, 2.362063 ], [ 102.323014, 2.365065 ], [ 102.326016, 2.370145 ], [ 102.316779, 2.373224 ], [ 102.306618, 2.376688 ], [ 102.301518, 2.386387 ], [ 102.298478, 2.386195 ], [ 102.294629, 2.386041 ], [ 102.292127, 2.395855 ], [ 102.289356, 2.406708 ], [ 102.289626, 2.409287 ], [ 102.28901, 2.410827 ], [ 102.287163, 2.41252 ], [ 102.290126, 2.416792 ], [ 102.293359, 2.419563 ], [ 102.29536, 2.419987 ], [ 102.297439, 2.419332 ], [ 102.299594, 2.420218 ], [ 102.301538, 2.419217 ], [ 102.302885, 2.420526 ], [ 102.302885, 2.421873 ], [ 102.303962, 2.423066 ], [ 102.306195, 2.423027 ], [ 102.30681, 2.424413 ], [ 102.310043, 2.426991 ], [ 102.310159, 2.427954 ], [ 102.311621, 2.428146 ], [ 102.313469, 2.426414 ], [ 102.316779, 2.427954 ], [ 102.318896, 2.427299 ], [ 102.319627, 2.428069 ], [ 102.319935, 2.428877 ], [ 102.318665, 2.429301 ], [ 102.317241, 2.429339 ], [ 102.31343, 2.42984 ], [ 102.311006, 2.429955 ], [ 102.307234, 2.430763 ], [ 102.304501, 2.433111 ], [ 102.303385, 2.436267 ], [ 102.302846, 2.443772 ], [ 102.301846, 2.446312 ], [ 102.301114, 2.448506 ], [ 102.301191, 2.452393 ], [ 102.302077, 2.455626 ], [ 102.30554, 2.455203 ], [ 102.308696, 2.466364 ], [ 102.3137, 2.466903 ], [ 102.31988, 2.482026 ], [ 102.331823, 2.488573 ], [ 102.365068, 2.495198 ], [ 102.363739, 2.490323 ] ] ] } },
{ "type": "Feature", "properties": { "state": "Melaka", "parlimen": "P.111 Selandar", "code_parlimen": "P.111", "dun": "N.08 Bukit Asahan", "code_dun": "N.08" }, "geometry": { "type": "Polygon", "coordinates": [ [ [ 102.43263, 2.431779 ], [ 102.428552, 2.430859 ], [ 102.42859, 2.438826 ], [ 102.424087, 2.438711 ], [ 102.418198, 2.437325 ], [ 102.405805, 2.438172 ], [ 102.398608, 2.438365 ], [ 102.400302, 2.440751 ], [ 102.399994, 2.443753 ], [ 102.375824, 2.446139 ], [ 102.356272, 2.446986 ], [ 102.361968, 2.455145 ], [ 102.367048, 2.460072 ], [ 102.366125, 2.461303 ], [ 102.366818, 2.466153 ], [ 102.361275, 2.465383 ], [ 102.362507, 2.473388 ], [ 102.361583, 2.475082 ], [ 102.363739, 2.490323 ], [ 102.365068, 2.495198 ], [ 102.369257, 2.493563 ], [ 102.414283, 2.478497 ], [ 102.431559, 2.471127 ], [ 102.429878, 2.46105 ], [ 102.465777, 2.450308 ], [ 102.525599, 2.432407 ], [ 102.563047, 2.419158 ], [ 102.585553, 2.415706 ], [ 102.594057, 2.410906 ], [ 102.563053, 2.395978 ], [ 102.557637, 2.397284 ], [ 102.537092, 2.38982 ], [ 102.534471, 2.374465 ], [ 102.53429, 2.371718 ], [ 102.524204, 2.365187 ], [ 102.525325, 2.359402 ], [ 102.512998, 2.35511 ], [ 102.511435, 2.34995 ], [ 102.508702, 2.340927 ], [ 102.514119, 2.329543 ], [ 102.513932, 2.321892 ], [ 102.51001, 2.320212 ], [ 102.509635, 2.320823 ], [ 102.508019, 2.3204 ], [ 102.506672, 2.319438 ], [ 102.505017, 2.319746 ], [ 102.503785, 2.321785 ], [ 102.501053, 2.322093 ], [ 102.500745, 2.322748 ], [ 102.498436, 2.322825 ], [ 102.497512, 2.329945 ], [ 102.49782, 2.331523 ], [ 102.499744, 2.332754 ], [ 102.499475, 2.334063 ], [ 102.497897, 2.334563 ], [ 102.501322, 2.336565 ], [ 102.502053, 2.338759 ], [ 102.503516, 2.337565 ], [ 102.504555, 2.338027 ], [ 102.504748, 2.341337 ], [ 102.503824, 2.343185 ], [ 102.505171, 2.346302 ], [ 102.502592, 2.345725 ], [ 102.501784, 2.342434 ], [ 102.499667, 2.344782 ], [ 102.498667, 2.34407 ], [ 102.497801, 2.344455 ], [ 102.497396, 2.348823 ], [ 102.501033, 2.350132 ], [ 102.50342, 2.349554 ], [ 102.503766, 2.350824 ], [ 102.502939, 2.353865 ], [ 102.50113, 2.353519 ], [ 102.499263, 2.354846 ], [ 102.4968, 2.362698 ], [ 102.491643, 2.364699 ], [ 102.487255, 2.361004 ], [ 102.459923, 2.363176 ], [ 102.42581, 2.366359 ], [ 102.424628, 2.366359 ], [ 102.423991, 2.36827 ], [ 102.424446, 2.369543 ], [ 102.423627, 2.371635 ], [ 102.425083, 2.372818 ], [ 102.42581, 2.374546 ], [ 102.426538, 2.379095 ], [ 102.427448, 2.380823 ], [ 102.429722, 2.381642 ], [ 102.431359, 2.382642 ], [ 102.431905, 2.385371 ], [ 102.432542, 2.390011 ], [ 102.434179, 2.393558 ], [ 102.435726, 2.398471 ], [ 102.428903, 2.39938 ], [ 102.429813, 2.402109 ], [ 102.433451, 2.410478 ], [ 102.433997, 2.412389 ], [ 102.433724, 2.413025 ], [ 102.432269, 2.413025 ], [ 102.428812, 2.411843 ], [ 102.425992, 2.41248 ], [ 102.422172, 2.418938 ], [ 102.422535, 2.420212 ], [ 102.428539, 2.425488 ], [ 102.434361, 2.427671 ], [ 102.43263, 2.431779 ] ] ] } },
{ "type": "Feature", "properties": { "state": "Melaka", "parlimen": "P.112 Batu Berendam", "code_parlimen": "P.112", "dun": "N.09 Ayer Molek", "code_dun": "N.09" }, "geometry": { "type": "Polygon", "coordinates": [ [ [ 102.285467, 2.216701 ], [ 102.282396, 2.216859 ], [ 102.281319, 2.214199 ], [ 102.280654, 2.21135 ], [ 102.278628, 2.210542 ], [ 102.277551, 2.211049 ], [ 102.276284, 2.212062 ], [ 102.276158, 2.216432 ], [ 102.274068, 2.218395 ], [ 102.272865, 2.221308 ], [ 102.274068, 2.223651 ], [ 102.277044, 2.226881 ], [ 102.277614, 2.230142 ], [ 102.277139, 2.231187 ], [ 102.275334, 2.231345 ], [ 102.272231, 2.227989 ], [ 102.270268, 2.227546 ], [ 102.268273, 2.226263 ], [ 102.266611, 2.228179 ], [ 102.265265, 2.226833 ], [ 102.263777, 2.226089 ], [ 102.263429, 2.229287 ], [ 102.262384, 2.229319 ], [ 102.262067, 2.232564 ], [ 102.262321, 2.234337 ], [ 102.261877, 2.235541 ], [ 102.262479, 2.24029 ], [ 102.266215, 2.243298 ], [ 102.26802, 2.24751 ], [ 102.270585, 2.249979 ], [ 102.271092, 2.251974 ], [ 102.272041, 2.252924 ], [ 102.273023, 2.252544 ], [ 102.27334, 2.254729 ], [ 102.273751, 2.257325 ], [ 102.272991, 2.258212 ], [ 102.27334, 2.259384 ], [ 102.27486, 2.259985 ], [ 102.275746, 2.261157 ], [ 102.275968, 2.264545 ], [ 102.277646, 2.266381 ], [ 102.276569, 2.267585 ], [ 102.2741, 2.26711 ], [ 102.27429, 2.265115 ], [ 102.267007, 2.267996 ], [ 102.268463, 2.271353 ], [ 102.268622, 2.274582 ], [ 102.268145, 2.27587 ], [ 102.26776, 2.278025 ], [ 102.269838, 2.282182 ], [ 102.272994, 2.282105 ], [ 102.275842, 2.281181 ], [ 102.277844, 2.284106 ], [ 102.285156, 2.285954 ], [ 102.290795, 2.287647 ], [ 102.29703, 2.290418 ], [ 102.304727, 2.291034 ], [ 102.3105, 2.288263 ], [ 102.31381, 2.28503 ], [ 102.321931, 2.283875 ], [ 102.325318, 2.283105 ], [ 102.328628, 2.283336 ], [ 102.331091, 2.283182 ], [ 102.328128, 2.279911 ], [ 102.329167, 2.275562 ], [ 102.329401, 2.273727 ], [ 102.329527, 2.271479 ], [ 102.329179, 2.267775 ], [ 102.328546, 2.264197 ], [ 102.326076, 2.260967 ], [ 102.321643, 2.253716 ], [ 102.32063, 2.249283 ], [ 102.315627, 2.244723 ], [ 102.314962, 2.24257 ], [ 102.316038, 2.240322 ], [ 102.315437, 2.239119 ], [ 102.313505, 2.237789 ], [ 102.31208, 2.234939 ], [ 102.312231, 2.231108 ], [ 102.312706, 2.229715 ], [ 102.315714, 2.229208 ], [ 102.319545, 2.228765 ], [ 102.321603, 2.229651 ], [ 102.32268, 2.231804 ], [ 102.326452, 2.234378 ], [ 102.330034, 2.236396 ], [ 102.333612, 2.235731 ], [ 102.336937, 2.235952 ], [ 102.337641, 2.234378 ], [ 102.33947, 2.232691 ], [ 102.341433, 2.230949 ], [ 102.342034, 2.22924 ], [ 102.344599, 2.230316 ], [ 102.348177, 2.232849 ], [ 102.353338, 2.235794 ], [ 102.356885, 2.235446 ], [ 102.360843, 2.237504 ], [ 102.365022, 2.239087 ], [ 102.366447, 2.23801 ], [ 102.367999, 2.2382 ], [ 102.368917, 2.237187 ], [ 102.3705, 2.237409 ], [ 102.371798, 2.236839 ], [ 102.37221, 2.235636 ], [ 102.373888, 2.235636 ], [ 102.375376, 2.236332 ], [ 102.376975, 2.236142 ], [ 102.38072, 2.239182 ], [ 102.382841, 2.242982 ], [ 102.387622, 2.246623 ], [ 102.388731, 2.246528 ], [ 102.389237, 2.244375 ], [ 102.391739, 2.24466 ], [ 102.390694, 2.24162 ], [ 102.391612, 2.239879 ], [ 102.393734, 2.241557 ], [ 102.395222, 2.241272 ], [ 102.394462, 2.237757 ], [ 102.394114, 2.233736 ], [ 102.391707, 2.226232 ], [ 102.391865, 2.223413 ], [ 102.393797, 2.221545 ], [ 102.394779, 2.218379 ], [ 102.397217, 2.216289 ], [ 102.399021, 2.214358 ], [ 102.399243, 2.212078 ], [ 102.394905, 2.20698 ], [ 102.393765, 2.20489 ], [ 102.39158, 2.204098 ], [ 102.391042, 2.202452 ], [ 102.390409, 2.200267 ], [ 102.385596, 2.198336 ], [ 102.386103, 2.195169 ], [ 102.383728, 2.193364 ], [ 102.380846, 2.192415 ], [ 102.380561, 2.188647 ], [ 102.37749, 2.182884 ], [ 102.372812, 2.178451 ], [ 102.373825, 2.174778 ], [ 102.371102, 2.174081 ], [ 102.367207, 2.175823 ], [ 102.365022, 2.177532 ], [ 102.363328, 2.177944 ], [ 102.3626, 2.176741 ], [ 102.362188, 2.174461 ], [ 102.360954, 2.173701 ], [ 102.36032, 2.175094 ], [ 102.361072, 2.178704 ], [ 102.359616, 2.180636 ], [ 102.359172, 2.182725 ], [ 102.359141, 2.184055 ], [ 102.357969, 2.184119 ], [ 102.356893, 2.183295 ], [ 102.357558, 2.180129 ], [ 102.35474, 2.181744 ], [ 102.347738, 2.183437 ], [ 102.347077, 2.18434 ], [ 102.346159, 2.183707 ], [ 102.345905, 2.182504 ], [ 102.343879, 2.181016 ], [ 102.343238, 2.182947 ], [ 102.342161, 2.18263 ], [ 102.340578, 2.18396 ], [ 102.338298, 2.18567 ], [ 102.335512, 2.184467 ], [ 102.334435, 2.186303 ], [ 102.332979, 2.18757 ], [ 102.330699, 2.187507 ], [ 102.330192, 2.19118 ], [ 102.330319, 2.193269 ], [ 102.328356, 2.195043 ], [ 102.327532, 2.196626 ], [ 102.324619, 2.194409 ], [ 102.321073, 2.192446 ], [ 102.316577, 2.194726 ], [ 102.311988, 2.197639 ], [ 102.311178, 2.197449 ], [ 102.310925, 2.193871 ], [ 102.309816, 2.193016 ], [ 102.308233, 2.193301 ], [ 102.307758, 2.192256 ], [ 102.305984, 2.192454 ], [ 102.30462, 2.193091 ], [ 102.303452, 2.194536 ], [ 102.303294, 2.196183 ], [ 102.301891, 2.196729 ], [ 102.301436, 2.197457 ], [ 102.300526, 2.198867 ], [ 102.299708, 2.198867 ], [ 102.297836, 2.198853 ], [ 102.296881, 2.198444 ], [ 102.295971, 2.197671 ], [ 102.29557, 2.19604 ], [ 102.295433, 2.193903 ], [ 102.294642, 2.193174 ], [ 102.294768, 2.191971 ], [ 102.293565, 2.191876 ], [ 102.292686, 2.190626 ], [ 102.291288, 2.192402 ], [ 102.289647, 2.192668 ], [ 102.28819, 2.19433 ], [ 102.289143, 2.198748 ], [ 102.287525, 2.204494 ], [ 102.28629, 2.205001 ], [ 102.285815, 2.206077 ], [ 102.286449, 2.206774 ], [ 102.285879, 2.208579 ], [ 102.28686, 2.210289 ], [ 102.285942, 2.211555 ], [ 102.287018, 2.212854 ], [ 102.287208, 2.213803 ], [ 102.288063, 2.214563 ], [ 102.287715, 2.216083 ], [ 102.285467, 2.216701 ] ] ] } },
{ "type": "Feature", "properties": { "state": "Melaka", "parlimen": "P.112 Batu Berendam", "code_parlimen": "P.112", "dun": "N.10 Krubong", "code_dun": "N.10" }, "geometry": { "type": "Polygon", "coordinates": [ [ [ 102.236942, 2.263452 ], [ 102.235755, 2.265083 ], [ 102.234567, 2.266603 ], [ 102.234124, 2.271099 ], [ 102.232161, 2.273696 ], [ 102.232414, 2.275975 ], [ 102.230388, 2.279648 ], [ 102.231464, 2.282942 ], [ 102.233047, 2.283955 ], [ 102.233047, 2.285538 ], [ 102.23615, 2.288388 ], [ 102.23596, 2.293771 ], [ 102.236594, 2.296684 ], [ 102.23748, 2.29757 ], [ 102.237037, 2.302066 ], [ 102.23862, 2.305106 ], [ 102.23995, 2.307513 ], [ 102.237797, 2.311724 ], [ 102.240615, 2.313877 ], [ 102.239697, 2.317455 ], [ 102.239823, 2.319767 ], [ 102.23862, 2.32002 ], [ 102.238494, 2.321476 ], [ 102.237037, 2.321413 ], [ 102.235327, 2.321856 ], [ 102.23653, 2.323313 ], [ 102.23596, 2.324136 ], [ 102.23843, 2.327239 ], [ 102.23672, 2.329899 ], [ 102.23938, 2.332875 ], [ 102.239823, 2.335345 ], [ 102.239317, 2.336168 ], [ 102.239096, 2.338797 ], [ 102.249103, 2.332331 ], [ 102.253645, 2.332947 ], [ 102.257339, 2.331869 ], [ 102.258186, 2.330561 ], [ 102.257801, 2.325634 ], [ 102.254799, 2.319399 ], [ 102.255877, 2.317013 ], [ 102.256955, 2.310393 ], [ 102.255877, 2.308392 ], [ 102.258494, 2.307776 ], [ 102.260842, 2.306718 ], [ 102.262959, 2.302426 ], [ 102.262785, 2.299848 ], [ 102.259851, 2.294613 ], [ 102.256772, 2.292381 ], [ 102.253221, 2.285453 ], [ 102.25045, 2.283952 ], [ 102.249642, 2.282451 ], [ 102.248526, 2.282798 ], [ 102.24664, 2.28122 ], [ 102.244177, 2.280142 ], [ 102.24256, 2.278756 ], [ 102.250287, 2.274561 ], [ 102.258215, 2.270635 ], [ 102.259601, 2.270866 ], [ 102.260139, 2.272021 ], [ 102.262141, 2.272021 ], [ 102.262064, 2.274022 ], [ 102.264142, 2.273484 ], [ 102.265066, 2.275639 ], [ 102.268145, 2.27587 ], [ 102.268622, 2.274582 ], [ 102.268463, 2.271353 ], [ 102.267007, 2.267996 ], [ 102.27429, 2.265115 ], [ 102.2741, 2.26711 ], [ 102.276569, 2.267585 ], [ 102.277646, 2.266381 ], [ 102.275968, 2.264545 ], [ 102.275746, 2.261157 ], [ 102.27486, 2.259985 ], [ 102.27334, 2.259384 ], [ 102.272991, 2.258212 ], [ 102.273751, 2.257325 ], [ 102.27334, 2.254729 ], [ 102.273023, 2.252544 ], [ 102.272041, 2.252924 ], [ 102.271092, 2.251974 ], [ 102.270585, 2.249979 ], [ 102.26802, 2.24751 ], [ 102.266215, 2.243298 ], [ 102.262479, 2.24029 ], [ 102.261877, 2.235541 ], [ 102.262321, 2.234337 ], [ 102.262067, 2.232564 ], [ 102.262384, 2.229319 ], [ 102.263429, 2.229287 ], [ 102.263777, 2.226089 ], [ 102.265265, 2.226833 ], [ 102.266611, 2.228179 ], [ 102.268273, 2.226263 ], [ 102.270268, 2.227546 ], [ 102.272231, 2.227989 ], [ 102.275334, 2.231345 ], [ 102.277139, 2.231187 ], [ 102.277614, 2.230142 ], [ 102.277044, 2.226881 ], [ 102.274068, 2.223651 ], [ 102.272865, 2.221308 ], [ 102.274068, 2.218395 ], [ 102.276158, 2.216432 ], [ 102.276284, 2.212062 ], [ 102.277551, 2.211049 ], [ 102.278628, 2.210542 ], [ 102.275588, 2.208009 ], [ 102.273435, 2.208009 ], [ 102.272041, 2.206299 ], [ 102.269952, 2.206742 ], [ 102.266279, 2.204526 ], [ 102.265677, 2.202943 ], [ 102.264965, 2.202404 ], [ 102.264426, 2.203861 ], [ 102.26449, 2.206172 ], [ 102.263639, 2.207179 ], [ 102.26183, 2.212125 ], [ 102.259645, 2.211555 ], [ 102.256669, 2.21336 ], [ 102.253566, 2.214025 ], [ 102.253186, 2.215387 ], [ 102.248246, 2.215767 ], [ 102.246473, 2.217381 ], [ 102.243053, 2.217951 ], [ 102.243512, 2.21917 ], [ 102.243401, 2.220975 ], [ 102.242673, 2.223746 ], [ 102.23957, 2.224063 ], [ 102.238019, 2.225297 ], [ 102.234852, 2.2262 ], [ 102.231559, 2.228923 ], [ 102.229216, 2.231614 ], [ 102.231148, 2.233514 ], [ 102.228994, 2.235604 ], [ 102.227696, 2.2382 ], [ 102.227728, 2.241509 ], [ 102.229818, 2.245372 ], [ 102.230768, 2.248285 ], [ 102.233301, 2.250755 ], [ 102.235549, 2.253652 ], [ 102.235897, 2.255077 ], [ 102.236689, 2.256186 ], [ 102.237164, 2.259099 ], [ 102.237037, 2.262265 ], [ 102.236942, 2.263452 ] ] ] } },
{ "type": "Feature", "properties": { "state": "Melaka", "parlimen": "P.112 Batu Berendam", "code_parlimen": "P.112", "dun": "N.11 Tanjong Minyak", "code_dun": "N.11" }, "geometry": { "type": "Polygon", "coordinates": [ [ [ 102.233301, 2.250755 ], [ 102.230768, 2.248285 ], [ 102.229818, 2.245372 ], [ 102.227728, 2.241509 ], [ 102.227696, 2.2382 ], [ 102.225226, 2.236269 ], [ 102.224656, 2.238264 ], [ 102.219274, 2.238169 ], [ 102.217374, 2.236269 ], [ 102.213495, 2.234337 ], [ 102.212007, 2.234686 ], [ 102.210756, 2.234274 ], [ 102.207875, 2.229873 ], [ 102.206038, 2.224933 ], [ 102.206196, 2.223888 ], [ 102.208793, 2.223002 ], [ 102.20816, 2.220279 ], [ 102.210091, 2.219915 ], [ 102.209933, 2.218506 ], [ 102.209426, 2.217476 ], [ 102.208302, 2.215767 ], [ 102.209021, 2.211409 ], [ 102.20595, 2.213081 ], [ 102.205691, 2.212909 ], [ 102.203145, 2.214246 ], [ 102.203232, 2.214893 ], [ 102.198788, 2.216964 ], [ 102.195121, 2.218431 ], [ 102.191152, 2.219423 ], [ 102.191599, 2.221007 ], [ 102.193119, 2.222337 ], [ 102.194133, 2.225915 ], [ 102.195747, 2.226485 ], [ 102.197267, 2.228448 ], [ 102.199595, 2.228638 ], [ 102.200038, 2.230981 ], [ 102.199215, 2.233071 ], [ 102.199531, 2.235287 ], [ 102.201178, 2.236237 ], [ 102.203584, 2.235541 ], [ 102.203647, 2.237314 ], [ 102.205484, 2.239119 ], [ 102.207099, 2.238454 ], [ 102.20998, 2.240259 ], [ 102.207331, 2.246317 ], [ 102.20583, 2.248728 ], [ 102.204193, 2.249274 ], [ 102.202328, 2.250184 ], [ 102.201373, 2.251639 ], [ 102.200463, 2.253276 ], [ 102.199508, 2.253777 ], [ 102.197416, 2.254504 ], [ 102.192594, 2.256142 ], [ 102.186454, 2.259235 ], [ 102.174628, 2.268763 ], [ 102.174856, 2.272539 ], [ 102.174651, 2.273448 ], [ 102.173901, 2.273539 ], [ 102.172832, 2.272652 ], [ 102.172241, 2.272561 ], [ 102.165054, 2.278338 ], [ 102.163849, 2.279038 ], [ 102.163849, 2.279998 ], [ 102.162939, 2.284364 ], [ 102.163121, 2.28582 ], [ 102.163667, 2.289004 ], [ 102.163576, 2.29246 ], [ 102.166487, 2.295007 ], [ 102.167488, 2.296372 ], [ 102.167488, 2.298282 ], [ 102.16585, 2.2981 ], [ 102.164486, 2.299465 ], [ 102.165771, 2.300859 ], [ 102.16759, 2.302405 ], [ 102.166226, 2.303042 ], [ 102.167368, 2.305698 ], [ 102.166703, 2.307082 ], [ 102.169585, 2.307725 ], [ 102.171168, 2.307471 ], [ 102.171865, 2.308643 ], [ 102.175048, 2.30929 ], [ 102.175601, 2.308991 ], [ 102.178166, 2.310163 ], [ 102.180256, 2.309181 ], [ 102.180889, 2.309616 ], [ 102.183707, 2.309466 ], [ 102.184815, 2.308548 ], [ 102.185385, 2.310068 ], [ 102.185765, 2.312633 ], [ 102.189866, 2.312664 ], [ 102.189961, 2.314152 ], [ 102.189296, 2.315799 ], [ 102.187966, 2.315799 ], [ 102.187522, 2.316781 ], [ 102.184483, 2.316147 ], [ 102.181696, 2.316907 ], [ 102.181332, 2.320409 ], [ 102.181833, 2.324639 ], [ 102.183279, 2.325678 ], [ 102.184641, 2.325741 ], [ 102.185243, 2.330238 ], [ 102.184514, 2.332137 ], [ 102.184324, 2.334892 ], [ 102.181886, 2.338914 ], [ 102.182551, 2.340402 ], [ 102.181063, 2.341953 ], [ 102.181633, 2.343093 ], [ 102.181348, 2.346165 ], [ 102.180176, 2.347779 ], [ 102.178752, 2.350313 ], [ 102.178878, 2.351832 ], [ 102.17663, 2.355252 ], [ 102.175807, 2.359052 ], [ 102.177105, 2.359432 ], [ 102.177517, 2.360947 ], [ 102.178729, 2.360446 ], [ 102.181981, 2.360413 ], [ 102.183754, 2.36149 ], [ 102.186794, 2.36016 ], [ 102.187427, 2.357247 ], [ 102.18907, 2.356235 ], [ 102.190246, 2.356075 ], [ 102.190341, 2.358292 ], [ 102.19262, 2.35902 ], [ 102.192684, 2.360033 ], [ 102.196383, 2.36015 ], [ 102.197565, 2.358008 ], [ 102.199032, 2.35788 ], [ 102.200584, 2.358862 ], [ 102.200932, 2.360825 ], [ 102.204478, 2.361648 ], [ 102.206853, 2.361047 ], [ 102.209798, 2.362566 ], [ 102.213036, 2.361933 ], [ 102.213889, 2.361849 ], [ 102.21544, 2.360741 ], [ 102.217435, 2.360815 ], [ 102.219134, 2.360298 ], [ 102.220463, 2.361332 ], [ 102.221648, 2.360667 ], [ 102.222408, 2.358355 ], [ 102.225012, 2.358355 ], [ 102.225338, 2.356088 ], [ 102.22973, 2.355284 ], [ 102.230237, 2.353194 ], [ 102.23334, 2.352086 ], [ 102.235652, 2.352307 ], [ 102.239182, 2.350313 ], [ 102.237942, 2.347572 ], [ 102.239096, 2.338797 ], [ 102.239317, 2.336168 ], [ 102.239823, 2.335345 ], [ 102.23938, 2.332875 ], [ 102.23672, 2.329899 ], [ 102.23843, 2.327239 ], [ 102.23596, 2.324136 ], [ 102.23653, 2.323313 ], [ 102.235327, 2.321856 ], [ 102.237037, 2.321413 ], [ 102.238494, 2.321476 ], [ 102.23862, 2.32002 ], [ 102.239823, 2.319767 ], [ 102.239697, 2.317455 ], [ 102.240615, 2.313877 ], [ 102.237797, 2.311724 ], [ 102.23995, 2.307513 ], [ 102.23862, 2.305106 ], [ 102.237037, 2.302066 ], [ 102.23748, 2.29757 ], [ 102.236594, 2.296684 ], [ 102.23596, 2.293771 ], [ 102.23615, 2.288388 ], [ 102.233047, 2.285538 ], [ 102.233047, 2.283955 ], [ 102.231464, 2.282942 ], [ 102.230388, 2.279648 ], [ 102.232414, 2.275975 ], [ 102.232161, 2.273696 ], [ 102.234124, 2.271099 ], [ 102.234567, 2.266603 ], [ 102.235755, 2.265083 ], [ 102.236942, 2.263452 ], [ 102.237037, 2.262265 ], [ 102.237164, 2.259099 ], [ 102.236689, 2.256186 ], [ 102.235897, 2.255077 ], [ 102.235549, 2.253652 ], [ 102.233301, 2.250755 ] ] ] } },
{ "type": "Feature", "properties": { "state": "Melaka", "parlimen": "P.112 Batu Berendam", "code_parlimen": "P.112", "dun": "N.12 Sungai Udang", "code_dun": "N.12" }, "geometry": { "type": "Polygon", "coordinates": [ [ [ 102.167368, 2.305698 ], [ 102.166226, 2.303042 ], [ 102.16759, 2.302405 ], [ 102.165771, 2.300859 ], [ 102.164486, 2.299465 ], [ 102.16585, 2.2981 ], [ 102.167488, 2.298282 ], [ 102.167488, 2.296372 ], [ 102.166487, 2.295007 ], [ 102.163576, 2.29246 ], [ 102.163667, 2.289004 ], [ 102.163121, 2.28582 ], [ 102.162939, 2.284364 ], [ 102.163849, 2.279998 ], [ 102.163849, 2.279038 ], [ 102.165054, 2.278338 ], [ 102.172241, 2.272561 ], [ 102.172832, 2.272652 ], [ 102.173901, 2.273539 ], [ 102.174651, 2.273448 ], [ 102.174856, 2.272539 ], [ 102.174628, 2.268763 ], [ 102.186454, 2.259235 ], [ 102.192594, 2.256142 ], [ 102.197416, 2.254504 ], [ 102.199508, 2.253777 ], [ 102.200463, 2.253276 ], [ 102.201373, 2.251639 ], [ 102.202328, 2.250184 ], [ 102.204193, 2.249274 ], [ 102.20583, 2.248728 ], [ 102.207331, 2.246317 ], [ 102.20998, 2.240259 ], [ 102.207099, 2.238454 ], [ 102.205484, 2.239119 ], [ 102.203647, 2.237314 ], [ 102.203584, 2.235541 ], [ 102.201178, 2.236237 ], [ 102.199531, 2.235287 ], [ 102.199215, 2.233071 ], [ 102.200038, 2.230981 ], [ 102.199595, 2.228638 ], [ 102.197267, 2.228448 ], [ 102.195747, 2.226485 ], [ 102.194133, 2.225915 ], [ 102.193119, 2.222337 ], [ 102.191599, 2.221007 ], [ 102.191152, 2.219423 ], [ 102.189642, 2.219639 ], [ 102.184982, 2.220329 ], [ 102.184853, 2.219337 ], [ 102.182911, 2.219294 ], [ 102.183041, 2.22007 ], [ 102.18015, 2.220329 ], [ 102.178036, 2.220459 ], [ 102.175691, 2.220205 ], [ 102.175038, 2.220214 ], [ 102.169928, 2.220287 ], [ 102.164895, 2.218262 ], [ 102.164335, 2.216209 ], [ 102.160833, 2.216395 ], [ 102.159572, 2.215416 ], [ 102.154155, 2.216909 ], [ 102.141175, 2.242571 ], [ 102.137028, 2.249242 ], [ 102.121003, 2.267252 ], [ 102.113766, 2.272338 ], [ 102.10989, 2.274017 ], [ 102.105454, 2.274437 ], [ 102.101906, 2.271451 ], [ 102.096163, 2.280922 ], [ 102.09238, 2.283069 ], [ 102.088738, 2.29114 ], [ 102.090116, 2.290088 ], [ 102.091415, 2.290626 ], [ 102.091225, 2.289106 ], [ 102.092491, 2.288441 ], [ 102.093853, 2.288948 ], [ 102.096386, 2.288758 ], [ 102.098935, 2.289581 ], [ 102.099885, 2.288378 ], [ 102.101563, 2.289835 ], [ 102.103114, 2.289645 ], [ 102.105039, 2.289777 ], [ 102.106995, 2.289868 ], [ 102.108624, 2.289613 ], [ 102.108719, 2.287523 ], [ 102.114118, 2.287681 ], [ 102.116429, 2.284768 ], [ 102.117917, 2.283977 ], [ 102.120102, 2.2848 ], [ 102.1214, 2.287713 ], [ 102.12273, 2.286921 ], [ 102.125485, 2.290025 ], [ 102.130203, 2.29012 ], [ 102.131965, 2.291915 ], [ 102.133693, 2.294098 ], [ 102.134968, 2.294236 ], [ 102.145246, 2.290732 ], [ 102.14652, 2.29246 ], [ 102.145797, 2.293254 ], [ 102.146336, 2.294869 ], [ 102.144942, 2.296579 ], [ 102.144214, 2.298795 ], [ 102.145069, 2.301645 ], [ 102.146884, 2.302012 ], [ 102.148117, 2.302595 ], [ 102.150143, 2.302753 ], [ 102.150935, 2.303387 ], [ 102.156254, 2.304273 ], [ 102.157299, 2.305223 ], [ 102.156824, 2.306744 ], [ 102.156824, 2.307471 ], [ 102.157985, 2.308046 ], [ 102.159642, 2.306616 ], [ 102.160212, 2.305508 ], [ 102.163803, 2.306287 ], [ 102.166703, 2.307082 ], [ 102.167368, 2.305698 ] ] ] } },
{ "type": "Feature", "properties": { "state": "Melaka", "parlimen": "P.113 Kota Melaka", "code_parlimen": "P.113", "dun": "N.13 Tranquerah", "code_dun": "N.13" }, "geometry": { "type": "Polygon", "coordinates": [ [ [ 102.20816, 2.220279 ], [ 102.208793, 2.223002 ], [ 102.206196, 2.223888 ], [ 102.206038, 2.224933 ], [ 102.207875, 2.229873 ], [ 102.210756, 2.234274 ], [ 102.212007, 2.234686 ], [ 102.213495, 2.234337 ], [ 102.217374, 2.236269 ], [ 102.219274, 2.238169 ], [ 102.224656, 2.238264 ], [ 102.225226, 2.236269 ], [ 102.227696, 2.2382 ], [ 102.228994, 2.235604 ], [ 102.231148, 2.233514 ], [ 102.229216, 2.231614 ], [ 102.231559, 2.228923 ], [ 102.234852, 2.2262 ], [ 102.238019, 2.225297 ], [ 102.23957, 2.224063 ], [ 102.242673, 2.223746 ], [ 102.243401, 2.220975 ], [ 102.243512, 2.21917 ], [ 102.243053, 2.217951 ], [ 102.242832, 2.215672 ], [ 102.241945, 2.21412 ], [ 102.242483, 2.213518 ], [ 102.243781, 2.21374 ], [ 102.244605, 2.2126 ], [ 102.246746, 2.208981 ], [ 102.246299, 2.20764 ], [ 102.244869, 2.207462 ], [ 102.244197, 2.208772 ], [ 102.24305, 2.209121 ], [ 102.243033, 2.206827 ], [ 102.242352, 2.203735 ], [ 102.240573, 2.199396 ], [ 102.238512, 2.19938 ], [ 102.236607, 2.200552 ], [ 102.227848, 2.202343 ], [ 102.216117, 2.206691 ], [ 102.214622, 2.207645 ], [ 102.21419, 2.208594 ], [ 102.209021, 2.211409 ], [ 102.208302, 2.215767 ], [ 102.209426, 2.217476 ], [ 102.209933, 2.218506 ], [ 102.210091, 2.219915 ], [ 102.20816, 2.220279 ] ] ] } },
{ "type": "Feature", "properties": { "state": "Melaka", "parlimen": "P.113 Kota Melaka", "code_parlimen": "P.113", "dun": "N.14 Kubu", "code_dun": "N.14" }, "geometry": { "type": "Polygon", "coordinates": [ [ [ 102.244197, 2.208772 ], [ 102.244869, 2.207462 ], [ 102.246299, 2.20764 ], [ 102.246746, 2.208981 ], [ 102.244605, 2.2126 ], [ 102.243781, 2.21374 ], [ 102.242483, 2.213518 ], [ 102.241945, 2.21412 ], [ 102.242832, 2.215672 ], [ 102.243053, 2.217951 ], [ 102.246473, 2.217381 ], [ 102.248246, 2.215767 ], [ 102.253186, 2.215387 ], [ 102.253566, 2.214025 ], [ 102.256669, 2.21336 ], [ 102.254022, 2.208323 ], [ 102.253024, 2.206561 ], [ 102.252692, 2.201774 ], [ 102.25222, 2.198323 ], [ 102.251628, 2.19662 ], [ 102.250198, 2.195756 ], [ 102.249034, 2.194127 ], [ 102.247738, 2.192464 ], [ 102.244079, 2.195494 ], [ 102.240856, 2.197884 ], [ 102.238512, 2.19938 ], [ 102.240573, 2.199396 ], [ 102.242352, 2.203735 ], [ 102.243033, 2.206827 ], [ 102.24305, 2.209121 ], [ 102.244197, 2.208772 ] ] ] } },
{ "type": "Feature", "properties": { "state": "Melaka", "parlimen": "P.113 Kota Melaka", "code_parlimen": "P.113", "dun": "N.15 Durian Daun", "code_dun": "N.15" }, "geometry": { "type": "Polygon", "coordinates": [ [ [ 102.259645, 2.211555 ], [ 102.26183, 2.212125 ], [ 102.263639, 2.207179 ], [ 102.26449, 2.206172 ], [ 102.264426, 2.203861 ], [ 102.264965, 2.202404 ], [ 102.265595, 2.200038 ], [ 102.265914, 2.197673 ], [ 102.265608, 2.196072 ], [ 102.266273, 2.195523 ], [ 102.267237, 2.195656 ], [ 102.267786, 2.194941 ], [ 102.266398, 2.192847 ], [ 102.264755, 2.192715 ], [ 102.262789, 2.19343 ], [ 102.259399, 2.194975 ], [ 102.256889, 2.194343 ], [ 102.255476, 2.192198 ], [ 102.254878, 2.190852 ], [ 102.254778, 2.189505 ], [ 102.253465, 2.189456 ], [ 102.253132, 2.188508 ], [ 102.251686, 2.188957 ], [ 102.249403, 2.189759 ], [ 102.245537, 2.189077 ], [ 102.247129, 2.191624 ], [ 102.247738, 2.192464 ], [ 102.249034, 2.194127 ], [ 102.250198, 2.195756 ], [ 102.251628, 2.19662 ], [ 102.25222, 2.198323 ], [ 102.252692, 2.201774 ], [ 102.253024, 2.206561 ], [ 102.254022, 2.208323 ], [ 102.256669, 2.21336 ], [ 102.259645, 2.211555 ] ] ] } },
{ "type": "Feature", "properties": { "state": "Melaka", "parlimen": "P.113 Kota Melaka", "code_parlimen": "P.113", "dun": "N.16 Bandar Hilir", "code_dun": "N.16" }, "geometry": { "type": "Polygon", "coordinates": [ [ [ 102.280654, 2.21135 ], [ 102.281319, 2.214199 ], [ 102.282396, 2.216859 ], [ 102.285467, 2.216701 ], [ 102.287715, 2.216083 ], [ 102.288063, 2.214563 ], [ 102.287208, 2.213803 ], [ 102.287018, 2.212854 ], [ 102.285942, 2.211555 ], [ 102.28686, 2.210289 ], [ 102.285879, 2.208579 ], [ 102.286449, 2.206774 ], [ 102.285815, 2.206077 ], [ 102.28629, 2.205001 ], [ 102.287525, 2.204494 ], [ 102.289143, 2.198748 ], [ 102.28819, 2.19433 ], [ 102.289647, 2.192668 ], [ 102.291288, 2.192402 ], [ 102.292686, 2.190626 ], [ 102.293565, 2.191876 ], [ 102.294768, 2.191971 ], [ 102.294642, 2.193174 ], [ 102.295433, 2.193903 ], [ 102.29557, 2.19604 ], [ 102.295971, 2.197671 ], [ 102.296881, 2.198444 ], [ 102.297836, 2.198853 ], [ 102.299708, 2.198867 ], [ 102.300526, 2.198867 ], [ 102.301436, 2.197457 ], [ 102.301891, 2.196729 ], [ 102.303294, 2.196183 ], [ 102.303452, 2.194536 ], [ 102.30462, 2.193091 ], [ 102.305984, 2.192454 ], [ 102.307758, 2.192256 ], [ 102.308233, 2.193301 ], [ 102.309816, 2.193016 ], [ 102.310925, 2.193871 ], [ 102.311178, 2.197449 ], [ 102.311988, 2.197639 ], [ 102.316577, 2.194726 ], [ 102.321073, 2.192446 ], [ 102.324619, 2.194409 ], [ 102.327532, 2.196626 ], [ 102.328356, 2.195043 ], [ 102.330319, 2.193269 ], [ 102.330192, 2.19118 ], [ 102.328246, 2.189638 ], [ 102.324389, 2.18791 ], [ 102.316875, 2.170887 ], [ 102.314947, 2.169823 ], [ 102.314016, 2.166964 ], [ 102.311315, 2.164271 ], [ 102.306982, 2.167124 ], [ 102.300538, 2.16871 ], [ 102.296429, 2.168617 ], [ 102.289425, 2.16983 ], [ 102.287457, 2.170953 ], [ 102.273269, 2.179045 ], [ 102.273158, 2.179109 ], [ 102.264094, 2.183573 ], [ 102.262138, 2.184892 ], [ 102.260547, 2.186166 ], [ 102.259182, 2.186075 ], [ 102.258363, 2.186939 ], [ 102.257545, 2.186848 ], [ 102.256908, 2.187803 ], [ 102.255816, 2.18753 ], [ 102.254778, 2.188591 ], [ 102.253132, 2.188508 ], [ 102.253465, 2.189456 ], [ 102.254778, 2.189505 ], [ 102.254878, 2.190852 ], [ 102.255476, 2.192198 ], [ 102.256889, 2.194343 ], [ 102.259399, 2.194975 ], [ 102.262789, 2.19343 ], [ 102.264755, 2.192715 ], [ 102.266398, 2.192847 ], [ 102.267786, 2.194941 ], [ 102.267237, 2.195656 ], [ 102.266273, 2.195523 ], [ 102.265608, 2.196072 ], [ 102.265914, 2.197673 ], [ 102.265595, 2.200038 ], [ 102.264965, 2.202404 ], [ 102.265677, 2.202943 ], [ 102.266279, 2.204526 ], [ 102.269952, 2.206742 ], [ 102.272041, 2.206299 ], [ 102.273435, 2.208009 ], [ 102.275588, 2.208009 ], [ 102.278628, 2.210542 ], [ 102.280654, 2.21135 ] ] ] } },
{ "type": "Feature", "properties": { "state": "Melaka", "parlimen": "P.114 Jasin", "code_parlimen": "P.114", "dun": "N.17 Serkam", "code_dun": "N.17" }, "geometry": { "type": "Polygon", "coordinates": [ [ [ 102.445812, 2.229102 ], [ 102.444584, 2.226646 ], [ 102.443265, 2.22237 ], [ 102.442309, 2.218641 ], [ 102.4424, 2.215912 ], [ 102.442355, 2.212546 ], [ 102.442764, 2.206588 ], [ 102.442537, 2.204177 ], [ 102.442355, 2.200584 ], [ 102.440808, 2.196854 ], [ 102.440899, 2.195399 ], [ 102.44141, 2.194193 ], [ 102.442082, 2.189941 ], [ 102.441011, 2.18884 ], [ 102.439353, 2.186848 ], [ 102.438443, 2.183164 ], [ 102.437579, 2.179707 ], [ 102.435942, 2.175068 ], [ 102.431712, 2.168336 ], [ 102.429983, 2.163288 ], [ 102.428028, 2.160013 ], [ 102.427482, 2.157966 ], [ 102.427709, 2.15319 ], [ 102.425799, 2.149097 ], [ 102.425253, 2.145686 ], [ 102.42398, 2.139227 ], [ 102.423525, 2.135816 ], [ 102.422524, 2.133678 ], [ 102.420295, 2.126446 ], [ 102.419268, 2.124449 ], [ 102.41559, 2.126716 ], [ 102.406812, 2.130729 ], [ 102.400462, 2.132502 ], [ 102.394205, 2.133155 ], [ 102.382812, 2.131568 ], [ 102.371045, 2.133715 ], [ 102.353769, 2.144353 ], [ 102.347325, 2.150419 ], [ 102.336492, 2.154805 ], [ 102.335706, 2.154927 ], [ 102.331076, 2.155645 ], [ 102.318749, 2.156952 ], [ 102.312959, 2.163204 ], [ 102.311315, 2.164271 ], [ 102.314016, 2.166964 ], [ 102.314947, 2.169823 ], [ 102.316875, 2.170887 ], [ 102.324389, 2.18791 ], [ 102.328246, 2.189638 ], [ 102.330192, 2.19118 ], [ 102.330699, 2.187507 ], [ 102.332979, 2.18757 ], [ 102.334435, 2.186303 ], [ 102.335512, 2.184467 ], [ 102.338298, 2.18567 ], [ 102.340578, 2.18396 ], [ 102.342161, 2.18263 ], [ 102.343238, 2.182947 ], [ 102.343879, 2.181016 ], [ 102.345905, 2.182504 ], [ 102.346159, 2.183707 ], [ 102.347077, 2.18434 ], [ 102.347738, 2.183437 ], [ 102.35474, 2.181744 ], [ 102.357558, 2.180129 ], [ 102.356893, 2.183295 ], [ 102.357969, 2.184119 ], [ 102.359141, 2.184055 ], [ 102.359172, 2.182725 ], [ 102.359616, 2.180636 ], [ 102.361072, 2.178704 ], [ 102.36032, 2.175094 ], [ 102.360954, 2.173701 ], [ 102.362188, 2.174461 ], [ 102.3626, 2.176741 ], [ 102.363328, 2.177944 ], [ 102.365022, 2.177532 ], [ 102.367207, 2.175823 ], [ 102.371102, 2.174081 ], [ 102.373825, 2.174778 ], [ 102.372812, 2.178451 ], [ 102.37749, 2.182884 ], [ 102.380561, 2.188647 ], [ 102.380846, 2.192415 ], [ 102.383728, 2.193364 ], [ 102.386103, 2.195169 ], [ 102.385596, 2.198336 ], [ 102.390409, 2.200267 ], [ 102.391042, 2.202452 ], [ 102.39158, 2.204098 ], [ 102.393765, 2.20489 ], [ 102.394905, 2.20698 ], [ 102.397217, 2.20622 ], [ 102.410119, 2.205439 ], [ 102.409072, 2.208214 ], [ 102.410528, 2.214945 ], [ 102.412074, 2.218993 ], [ 102.412938, 2.219084 ], [ 102.414849, 2.216446 ], [ 102.415713, 2.214809 ], [ 102.415577, 2.21349 ], [ 102.415349, 2.212899 ], [ 102.417441, 2.213308 ], [ 102.417532, 2.218675 ], [ 102.420443, 2.232365 ], [ 102.447961, 2.232866 ], [ 102.445812, 2.229102 ] ] ] } },
{ "type": "Feature", "properties": { "state": "Melaka", "parlimen": "P.114 Jasin", "code_parlimen": "P.114", "dun": "N.18 Ayer Panas", "code_dun": "N.18" }, "geometry": { "type": "Polygon", "coordinates": [ [ [ 102.40318, 2.337496 ], [ 102.408433, 2.336499 ], [ 102.413786, 2.334637 ], [ 102.411991, 2.329351 ], [ 102.410362, 2.327057 ], [ 102.410927, 2.323998 ], [ 102.409398, 2.322834 ], [ 102.409431, 2.320374 ], [ 102.408334, 2.318546 ], [ 102.407203, 2.317448 ], [ 102.407344, 2.316555 ], [ 102.408072, 2.316146 ], [ 102.408022, 2.31429 ], [ 102.409368, 2.314007 ], [ 102.410466, 2.315237 ], [ 102.411496, 2.31557 ], [ 102.412544, 2.315437 ], [ 102.413292, 2.315636 ], [ 102.414267, 2.315889 ], [ 102.414904, 2.315753 ], [ 102.415835, 2.31434 ], [ 102.417314, 2.314556 ], [ 102.418661, 2.313193 ], [ 102.419883, 2.31316 ], [ 102.420332, 2.312777 ], [ 102.421046, 2.313426 ], [ 102.422193, 2.313575 ], [ 102.423041, 2.314739 ], [ 102.423856, 2.314223 ], [ 102.426466, 2.313342 ], [ 102.428481, 2.313575 ], [ 102.429263, 2.312628 ], [ 102.430626, 2.312079 ], [ 102.431378, 2.311065 ], [ 102.433207, 2.310683 ], [ 102.435235, 2.308106 ], [ 102.43634, 2.30799 ], [ 102.437022, 2.308472 ], [ 102.4391, 2.307158 ], [ 102.441926, 2.307308 ], [ 102.443542, 2.306942 ], [ 102.445288, 2.306577 ], [ 102.446372, 2.305147 ], [ 102.447204, 2.303535 ], [ 102.447902, 2.301274 ], [ 102.448144, 2.300015 ], [ 102.448417, 2.299379 ], [ 102.449236, 2.297195 ], [ 102.450163, 2.295904 ], [ 102.449664, 2.293993 ], [ 102.450046, 2.292879 ], [ 102.450675, 2.291307 ], [ 102.454283, 2.29022 ], [ 102.45628, 2.290635 ], [ 102.457843, 2.290352 ], [ 102.458823, 2.291765 ], [ 102.46027, 2.292347 ], [ 102.460619, 2.293178 ], [ 102.461649, 2.293776 ], [ 102.462576, 2.293843 ], [ 102.463906, 2.291017 ], [ 102.462443, 2.28593 ], [ 102.460415, 2.285265 ], [ 102.459251, 2.284002 ], [ 102.456558, 2.284999 ], [ 102.453699, 2.285298 ], [ 102.451704, 2.285166 ], [ 102.449643, 2.286894 ], [ 102.447482, 2.285564 ], [ 102.448114, 2.282871 ], [ 102.451671, 2.27825 ], [ 102.4533, 2.27958 ], [ 102.453832, 2.278516 ], [ 102.451605, 2.27579 ], [ 102.449078, 2.274726 ], [ 102.444457, 2.276588 ], [ 102.441863, 2.276455 ], [ 102.444324, 2.273396 ], [ 102.446917, 2.269972 ], [ 102.447682, 2.267877 ], [ 102.447715, 2.265915 ], [ 102.446817, 2.264453 ], [ 102.444157, 2.263721 ], [ 102.441298, 2.263322 ], [ 102.439802, 2.261859 ], [ 102.441365, 2.259333 ], [ 102.441664, 2.255975 ], [ 102.442927, 2.252982 ], [ 102.443592, 2.25245 ], [ 102.443426, 2.251054 ], [ 102.446019, 2.246732 ], [ 102.445653, 2.244538 ], [ 102.445687, 2.241911 ], [ 102.446917, 2.240382 ], [ 102.448546, 2.241013 ], [ 102.449371, 2.240371 ], [ 102.449189, 2.239097 ], [ 102.448052, 2.236277 ], [ 102.447961, 2.232866 ], [ 102.420443, 2.232365 ], [ 102.417532, 2.218675 ], [ 102.417441, 2.213308 ], [ 102.415349, 2.212899 ], [ 102.415577, 2.21349 ], [ 102.415713, 2.214809 ], [ 102.414849, 2.216446 ], [ 102.412938, 2.219084 ], [ 102.412074, 2.218993 ], [ 102.410528, 2.214945 ], [ 102.409072, 2.208214 ], [ 102.410119, 2.205439 ], [ 102.397217, 2.20622 ], [ 102.394905, 2.20698 ], [ 102.399243, 2.212078 ], [ 102.399021, 2.214358 ], [ 102.397217, 2.216289 ], [ 102.394779, 2.218379 ], [ 102.393797, 2.221545 ], [ 102.391865, 2.223413 ], [ 102.391707, 2.226232 ], [ 102.394114, 2.233736 ], [ 102.394462, 2.237757 ], [ 102.395222, 2.241272 ], [ 102.393734, 2.241557 ], [ 102.391612, 2.239879 ], [ 102.390694, 2.24162 ], [ 102.391739, 2.24466 ], [ 102.389237, 2.244375 ], [ 102.388731, 2.246528 ], [ 102.387622, 2.246623 ], [ 102.382841, 2.242982 ], [ 102.38072, 2.239182 ], [ 102.376975, 2.236142 ], [ 102.375376, 2.236332 ], [ 102.373888, 2.235636 ], [ 102.37221, 2.235636 ], [ 102.371798, 2.236839 ], [ 102.3705, 2.237409 ], [ 102.368917, 2.237187 ], [ 102.367999, 2.2382 ], [ 102.366447, 2.23801 ], [ 102.365022, 2.239087 ], [ 102.360843, 2.237504 ], [ 102.356885, 2.235446 ], [ 102.353338, 2.235794 ], [ 102.348177, 2.232849 ], [ 102.344599, 2.230316 ], [ 102.342034, 2.22924 ], [ 102.341433, 2.230949 ], [ 102.33947, 2.232691 ], [ 102.337641, 2.234378 ], [ 102.336937, 2.235952 ], [ 102.333612, 2.235731 ], [ 102.330034, 2.236396 ], [ 102.326452, 2.234378 ], [ 102.32268, 2.231804 ], [ 102.321603, 2.229651 ], [ 102.319545, 2.228765 ], [ 102.315714, 2.229208 ], [ 102.312706, 2.229715 ], [ 102.312231, 2.231108 ], [ 102.31208, 2.234939 ], [ 102.313505, 2.237789 ], [ 102.315437, 2.239119 ], [ 102.316038, 2.240322 ], [ 102.314962, 2.24257 ], [ 102.315627, 2.244723 ], [ 102.32063, 2.249283 ], [ 102.321643, 2.253716 ], [ 102.326076, 2.260967 ], [ 102.328546, 2.264197 ], [ 102.329179, 2.267775 ], [ 102.329527, 2.271479 ], [ 102.329401, 2.273727 ], [ 102.329167, 2.275562 ], [ 102.328128, 2.279911 ], [ 102.331091, 2.283182 ], [ 102.333458, 2.28451 ], [ 102.334959, 2.286531 ], [ 102.338279, 2.295306 ], [ 102.340423, 2.304085 ], [ 102.34105, 2.309469 ], [ 102.34232, 2.313626 ], [ 102.344398, 2.315127 ], [ 102.344706, 2.321285 ], [ 102.344745, 2.322979 ], [ 102.344552, 2.32498 ], [ 102.344781, 2.326541 ], [ 102.34563, 2.329675 ], [ 102.348709, 2.329868 ], [ 102.348825, 2.328983 ], [ 102.35098, 2.32956 ], [ 102.351172, 2.330638 ], [ 102.35479, 2.334717 ], [ 102.359332, 2.335064 ], [ 102.359755, 2.334409 ], [ 102.360756, 2.334871 ], [ 102.362334, 2.33464 ], [ 102.363565, 2.333486 ], [ 102.365066, 2.333909 ], [ 102.366644, 2.333178 ], [ 102.367222, 2.334486 ], [ 102.366683, 2.33618 ], [ 102.367299, 2.337681 ], [ 102.369117, 2.337912 ], [ 102.370965, 2.338297 ], [ 102.376853, 2.33083 ], [ 102.382011, 2.331869 ], [ 102.384551, 2.337027 ], [ 102.385984, 2.339836 ], [ 102.395683, 2.340298 ], [ 102.396626, 2.338451 ], [ 102.399243, 2.338528 ], [ 102.40318, 2.337496 ] ] ] } },
{ "type": "Feature", "properties": { "state": "Melaka", "parlimen": "P.114 Jasin", "code_parlimen": "P.114", "dun": "N.19 Rim", "code_dun": "N.19" }, "geometry": { "type": "Polygon", "coordinates": [ [ [ 102.407203, 2.317448 ], [ 102.408334, 2.318546 ], [ 102.409431, 2.320374 ], [ 102.409398, 2.322834 ], [ 102.410927, 2.323998 ], [ 102.410362, 2.327057 ], [ 102.411991, 2.329351 ], [ 102.413786, 2.334637 ], [ 102.408433, 2.336499 ], [ 102.40318, 2.337496 ], [ 102.399243, 2.338528 ], [ 102.396819, 2.356617 ], [ 102.396549, 2.370395 ], [ 102.394394, 2.375476 ], [ 102.408673, 2.373513 ], [ 102.41384, 2.370934 ], [ 102.424628, 2.366359 ], [ 102.42581, 2.366359 ], [ 102.459923, 2.363176 ], [ 102.487255, 2.361004 ], [ 102.491643, 2.364699 ], [ 102.4968, 2.362698 ], [ 102.499263, 2.354846 ], [ 102.50113, 2.353519 ], [ 102.502939, 2.353865 ], [ 102.503766, 2.350824 ], [ 102.50342, 2.349554 ], [ 102.501033, 2.350132 ], [ 102.497396, 2.348823 ], [ 102.497801, 2.344455 ], [ 102.498667, 2.34407 ], [ 102.499667, 2.344782 ], [ 102.501784, 2.342434 ], [ 102.502592, 2.345725 ], [ 102.505171, 2.346302 ], [ 102.503824, 2.343185 ], [ 102.504748, 2.341337 ], [ 102.504555, 2.338027 ], [ 102.503516, 2.337565 ], [ 102.502053, 2.338759 ], [ 102.501322, 2.336565 ], [ 102.497897, 2.334563 ], [ 102.499475, 2.334063 ], [ 102.499744, 2.332754 ], [ 102.49782, 2.331523 ], [ 102.497512, 2.329945 ], [ 102.498436, 2.322825 ], [ 102.500745, 2.322748 ], [ 102.501053, 2.322093 ], [ 102.503785, 2.321785 ], [ 102.505017, 2.319746 ], [ 102.506672, 2.319438 ], [ 102.508019, 2.3204 ], [ 102.509635, 2.320823 ], [ 102.51001, 2.320212 ], [ 102.506461, 2.310508 ], [ 102.509263, 2.306029 ], [ 102.501979, 2.294085 ], [ 102.495628, 2.271424 ], [ 102.491519, 2.25676 ], [ 102.493947, 2.247429 ], [ 102.48741, 2.245936 ], [ 102.489091, 2.242203 ], [ 102.495442, 2.236977 ], [ 102.495362, 2.23524 ], [ 102.487031, 2.237323 ], [ 102.449371, 2.240371 ], [ 102.448546, 2.241013 ], [ 102.446917, 2.240382 ], [ 102.445687, 2.241911 ], [ 102.445653, 2.244538 ], [ 102.446019, 2.246732 ], [ 102.443426, 2.251054 ], [ 102.443592, 2.25245 ], [ 102.442927, 2.252982 ], [ 102.441664, 2.255975 ], [ 102.441365, 2.259333 ], [ 102.439802, 2.261859 ], [ 102.441298, 2.263322 ], [ 102.444157, 2.263721 ], [ 102.446817, 2.264453 ], [ 102.447715, 2.265915 ], [ 102.447682, 2.267877 ], [ 102.446917, 2.269972 ], [ 102.444324, 2.273396 ], [ 102.441863, 2.276455 ], [ 102.444457, 2.276588 ], [ 102.449078, 2.274726 ], [ 102.451605, 2.27579 ], [ 102.453832, 2.278516 ], [ 102.4533, 2.27958 ], [ 102.451671, 2.27825 ], [ 102.448114, 2.282871 ], [ 102.447482, 2.285564 ], [ 102.449643, 2.286894 ], [ 102.451704, 2.285166 ], [ 102.453699, 2.285298 ], [ 102.456558, 2.284999 ], [ 102.459251, 2.284002 ], [ 102.460415, 2.285265 ], [ 102.462443, 2.28593 ], [ 102.463906, 2.291017 ], [ 102.462576, 2.293843 ], [ 102.461649, 2.293776 ], [ 102.460619, 2.293178 ], [ 102.46027, 2.292347 ], [ 102.458823, 2.291765 ], [ 102.457843, 2.290352 ], [ 102.45628, 2.290635 ], [ 102.454283, 2.29022 ], [ 102.450675, 2.291307 ], [ 102.450046, 2.292879 ], [ 102.449664, 2.293993 ], [ 102.450163, 2.295904 ], [ 102.449236, 2.297195 ], [ 102.448417, 2.299379 ], [ 102.448144, 2.300015 ], [ 102.447902, 2.301274 ], [ 102.447204, 2.303535 ], [ 102.446372, 2.305147 ], [ 102.445288, 2.306577 ], [ 102.443542, 2.306942 ], [ 102.441926, 2.307308 ], [ 102.4391, 2.307158 ], [ 102.437022, 2.308472 ], [ 102.43634, 2.30799 ], [ 102.435235, 2.308106 ], [ 102.433207, 2.310683 ], [ 102.431378, 2.311065 ], [ 102.430626, 2.312079 ], [ 102.429263, 2.312628 ], [ 102.428481, 2.313575 ], [ 102.426466, 2.313342 ], [ 102.423856, 2.314223 ], [ 102.423041, 2.314739 ], [ 102.422193, 2.313575 ], [ 102.421046, 2.313426 ], [ 102.420332, 2.312777 ], [ 102.419883, 2.31316 ], [ 102.418661, 2.313193 ], [ 102.417314, 2.314556 ], [ 102.415835, 2.31434 ], [ 102.414904, 2.315753 ], [ 102.414267, 2.315889 ], [ 102.413292, 2.315636 ], [ 102.412544, 2.315437 ], [ 102.411496, 2.31557 ], [ 102.410466, 2.315237 ], [ 102.409368, 2.314007 ], [ 102.408022, 2.31429 ], [ 102.408072, 2.316146 ], [ 102.407344, 2.316555 ], [ 102.407203, 2.317448 ] ] ] } },
{ "type": "Feature", "properties": { "state": "Melaka", "parlimen": "P.114 Jasin", "code_parlimen": "P.114", "dun": "N.20 Sungai Rambai", "code_dun": "N.20" }, "geometry": { "type": "Polygon", "coordinates": [ [ [ 102.419372, 2.12438 ], [ 102.420295, 2.126446 ], [ 102.422524, 2.133678 ], [ 102.423525, 2.135816 ], [ 102.42398, 2.139227 ], [ 102.425253, 2.145686 ], [ 102.425799, 2.149097 ], [ 102.427709, 2.15319 ], [ 102.427482, 2.157966 ], [ 102.428028, 2.160013 ], [ 102.429983, 2.163288 ], [ 102.431712, 2.168336 ], [ 102.435942, 2.175068 ], [ 102.437579, 2.179707 ], [ 102.438443, 2.183164 ], [ 102.439353, 2.186848 ], [ 102.441011, 2.18884 ], [ 102.442082, 2.189941 ], [ 102.44141, 2.194193 ], [ 102.440899, 2.195399 ], [ 102.440808, 2.196854 ], [ 102.442355, 2.200584 ], [ 102.442537, 2.204177 ], [ 102.442764, 2.206588 ], [ 102.442355, 2.212546 ], [ 102.4424, 2.215912 ], [ 102.442309, 2.218641 ], [ 102.443265, 2.22237 ], [ 102.444584, 2.226646 ], [ 102.445812, 2.229102 ], [ 102.447961, 2.232866 ], [ 102.448052, 2.236277 ], [ 102.449189, 2.239097 ], [ 102.449371, 2.240371 ], [ 102.487031, 2.237323 ], [ 102.495362, 2.23524 ], [ 102.495349, 2.234968 ], [ 102.494918, 2.225606 ], [ 102.494841, 2.223937 ], [ 102.494694, 2.220741 ], [ 102.46892, 2.203944 ], [ 102.467799, 2.196665 ], [ 102.472842, 2.197598 ], [ 102.477325, 2.187146 ], [ 102.474897, 2.183974 ], [ 102.478258, 2.180427 ], [ 102.485543, 2.178188 ], [ 102.490399, 2.180614 ], [ 102.495442, 2.172962 ], [ 102.502539, 2.172775 ], [ 102.504593, 2.167923 ], [ 102.512251, 2.167176 ], [ 102.51636, 2.169976 ], [ 102.516547, 2.16475 ], [ 102.524952, 2.167923 ], [ 102.524765, 2.16475 ], [ 102.530742, 2.168296 ], [ 102.529247, 2.16083 ], [ 102.534477, 2.158591 ], [ 102.530928, 2.154671 ], [ 102.537279, 2.144593 ], [ 102.534477, 2.134514 ], [ 102.52271, 2.126115 ], [ 102.522337, 2.121449 ], [ 102.516734, 2.119769 ], [ 102.506835, 2.122009 ], [ 102.504407, 2.127421 ], [ 102.499177, 2.126115 ], [ 102.502726, 2.119396 ], [ 102.488718, 2.121076 ], [ 102.481247, 2.116783 ], [ 102.481434, 2.11193 ], [ 102.48685, 2.10745 ], [ 102.489278, 2.098305 ], [ 102.475451, 2.107678 ], [ 102.465645, 2.111504 ], [ 102.446314, 2.115424 ], [ 102.440525, 2.114677 ], [ 102.423902, 2.121583 ], [ 102.421894, 2.122853 ], [ 102.419372, 2.12438 ] ] ] } }
]
}
