{
"type": "FeatureCollection",
"name": "NSN_SE-13",
"crs": { "type": "name", "properties": { "name": "urn:ogc:def:crs:OGC:1.3:CRS84" } },
"features": [
{ "type": "Feature", "properties": { "state": "Negeri Sembilan", "parlimen": "P.126 Jelebu", "code_parlimen": "P.126", "dun": "N.01 Chennah", "code_dun": "N.01" }, "geometry": { "type": "Polygon", "coordinates": [ [ [ 102.126819, 3.026156 ], [ 102.124803, 3.02825 ], [ 102.124038, 3.025049 ], [ 102.113384, 3.016119 ], [ 102.110428, 3.007614 ], [ 102.105607, 2.996153 ], [ 102.101105, 2.992444 ], [ 102.096374, 2.99353 ], [ 102.088278, 2.992878 ], [ 102.08364, 2.998121 ], [ 102.080563, 2.996117 ], [ 102.075482, 2.997009 ], [ 102.064546, 2.993325 ], [ 102.06218, 2.990494 ], [ 102.059038, 2.990726 ], [ 102.054851, 2.988704 ], [ 102.053958, 2.987081 ], [ 102.05388, 2.983939 ], [ 102.0507, 2.983319 ], [ 102.0488, 2.981535 ], [ 102.058367, 2.968606 ], [ 102.06147, 2.959104 ], [ 102.060998, 2.952129 ], [ 102.058322, 2.949336 ], [ 102.061035, 2.944076 ], [ 102.057177, 2.942326 ], [ 102.052678, 2.944924 ], [ 102.049382, 2.943644 ], [ 102.03822, 2.935077 ], [ 102.036746, 2.931083 ], [ 102.034101, 2.928752 ], [ 102.030766, 2.928984 ], [ 102.026461, 2.933755 ], [ 102.022875, 2.930432 ], [ 102.014172, 2.932044 ], [ 102.006221, 2.928787 ], [ 102.002454, 2.927588 ], [ 101.997219, 2.926076 ], [ 101.992293, 2.929139 ], [ 101.987329, 2.92945 ], [ 101.985196, 2.930691 ], [ 101.982093, 2.930868 ], [ 101.975457, 2.93921 ], [ 101.97147, 2.942512 ], [ 101.968484, 2.944092 ], [ 101.962147, 2.947268 ], [ 101.958087, 2.94632 ], [ 101.95518, 2.948848 ], [ 101.950253, 2.948298 ], [ 101.949429, 2.951186 ], [ 101.951261, 2.958769 ], [ 101.947334, 2.958563 ], [ 101.943542, 2.96027 ], [ 101.939006, 2.959274 ], [ 101.938374, 2.962181 ], [ 101.935973, 2.963887 ], [ 101.932956, 2.964315 ], [ 101.930601, 2.96572 ], [ 101.92741, 2.965673 ], [ 101.925102, 2.965929 ], [ 101.923351, 2.967567 ], [ 101.924321, 2.974535 ], [ 101.928207, 2.977826 ], [ 101.930822, 2.99853 ], [ 101.93904, 2.99853 ], [ 101.943336, 3.006363 ], [ 101.939787, 3.010094 ], [ 101.9396, 3.015502 ], [ 101.944456, 3.016062 ], [ 101.955103, 3.026134 ], [ 101.960145, 3.024455 ], [ 101.968177, 3.025947 ], [ 101.96743, 3.043852 ], [ 101.964068, 3.05094 ], [ 101.965562, 3.055789 ], [ 101.958838, 3.061384 ], [ 101.9622, 3.077983 ], [ 101.957904, 3.08078 ], [ 101.955289, 3.094954 ], [ 101.948752, 3.102041 ], [ 101.948248, 3.112176 ], [ 101.954753, 3.113088 ], [ 101.958766, 3.116736 ], [ 101.96062, 3.120729 ], [ 101.962474, 3.124761 ], [ 101.961684, 3.128774 ], [ 101.964068, 3.139527 ], [ 101.957157, 3.145681 ], [ 101.95641, 3.156311 ], [ 101.950433, 3.160041 ], [ 101.940413, 3.185685 ], [ 101.947258, 3.191184 ], [ 101.945017, 3.204051 ], [ 101.947632, 3.207408 ], [ 101.947258, 3.218783 ], [ 101.939227, 3.236312 ], [ 101.934558, 3.238177 ], [ 101.931382, 3.243957 ], [ 101.933997, 3.250298 ], [ 101.931569, 3.254027 ], [ 101.927834, 3.253841 ], [ 101.925779, 3.259621 ], [ 101.909536, 3.25944 ], [ 101.929334, 3.272493 ], [ 101.932322, 3.287784 ], [ 101.936003, 3.288395 ], [ 101.943528, 3.284427 ], [ 101.948758, 3.27212 ], [ 101.961282, 3.275163 ], [ 101.970024, 3.273546 ], [ 101.977148, 3.252355 ], [ 101.973039, 3.243031 ], [ 102.008899, 3.226248 ], [ 102.042891, 3.224756 ], [ 102.05223, 3.198276 ], [ 102.055218, 3.166947 ], [ 102.075763, 3.164709 ], [ 102.07539, 3.176644 ], [ 102.096308, 3.191936 ], [ 102.113865, 3.188206 ], [ 102.115359, 3.197903 ], [ 102.12171, 3.198276 ], [ 102.126939, 3.192682 ], [ 102.14076, 3.196411 ], [ 102.154581, 3.178136 ], [ 102.245866, 3.150604 ], [ 102.246176, 3.138581 ], [ 102.247231, 3.12673 ], [ 102.246145, 3.125412 ], [ 102.242499, 3.124636 ], [ 102.240483, 3.121766 ], [ 102.241763, 3.116033 ], [ 102.24187, 3.111767 ], [ 102.24218, 3.107864 ], [ 102.239465, 3.102512 ], [ 102.236905, 3.098711 ], [ 102.233027, 3.097858 ], [ 102.233027, 3.095531 ], [ 102.237681, 3.078699 ], [ 102.240551, 3.06815 ], [ 102.219143, 3.068693 ], [ 102.219453, 3.070865 ], [ 102.217873, 3.073217 ], [ 102.213925, 3.074003 ], [ 102.210357, 3.077882 ], [ 102.206393, 3.077949 ], [ 102.204066, 3.080819 ], [ 102.201584, 3.080043 ], [ 102.200576, 3.081594 ], [ 102.196155, 3.081206 ], [ 102.194991, 3.082913 ], [ 102.193285, 3.081517 ], [ 102.189949, 3.081129 ], [ 102.186071, 3.078259 ], [ 102.17878, 3.076785 ], [ 102.176065, 3.07407 ], [ 102.170908, 3.072415 ], [ 102.170598, 3.067839 ], [ 102.167496, 3.069002 ], [ 102.16672, 3.060237 ], [ 102.169008, 3.057871 ], [ 102.169842, 3.05473 ], [ 102.167437, 3.047749 ], [ 102.162058, 3.043893 ], [ 102.160468, 3.042109 ], [ 102.162717, 3.040442 ], [ 102.160003, 3.037223 ], [ 102.15615, 3.038799 ], [ 102.152232, 3.037346 ], [ 102.150097, 3.03429 ], [ 102.147607, 3.03198 ], [ 102.146313, 3.026398 ], [ 102.143401, 3.026601 ], [ 102.140999, 3.028166 ], [ 102.137447, 3.02643 ], [ 102.135165, 3.027429 ], [ 102.133225, 3.029058 ], [ 102.126819, 3.026156 ] ] ] } },
{ "type": "Feature", "properties": { "state": "Negeri Sembilan", "parlimen": "P.126 Jelebu", "code_parlimen": "P.126", "dun": "N.02 Pertang", "code_dun": "N.02" }, "geometry": { "type": "Polygon", "coordinates": [ [ [ 102.309592, 2.956902 ], [ 102.272297, 2.954719 ], [ 102.268385, 2.950307 ], [ 102.262427, 2.946259 ], [ 102.261077, 2.942403 ], [ 102.251833, 2.931195 ], [ 102.249296, 2.928819 ], [ 102.248772, 2.923955 ], [ 102.245971, 2.92379 ], [ 102.238893, 2.924486 ], [ 102.237105, 2.91965 ], [ 102.238273, 2.913083 ], [ 102.241276, 2.908717 ], [ 102.241453, 2.905055 ], [ 102.238597, 2.903244 ], [ 102.236836, 2.903283 ], [ 102.232258, 2.907088 ], [ 102.228076, 2.904477 ], [ 102.225323, 2.903705 ], [ 102.219609, 2.906991 ], [ 102.212584, 2.909135 ], [ 102.205321, 2.91053 ], [ 102.201162, 2.909908 ], [ 102.197758, 2.905065 ], [ 102.194662, 2.898998 ], [ 102.191383, 2.894488 ], [ 102.187767, 2.894032 ], [ 102.183785, 2.896623 ], [ 102.177098, 2.898431 ], [ 102.171537, 2.90159 ], [ 102.167443, 2.902692 ], [ 102.163398, 2.898458 ], [ 102.157635, 2.899299 ], [ 102.153634, 2.89621 ], [ 102.152097, 2.900634 ], [ 102.148277, 2.906646 ], [ 102.148277, 2.909671 ], [ 102.14628, 2.912047 ], [ 102.144903, 2.915449 ], [ 102.142109, 2.918366 ], [ 102.135625, 2.925838 ], [ 102.134942, 2.930978 ], [ 102.147541, 2.939574 ], [ 102.150455, 2.95334 ], [ 102.150566, 2.96199 ], [ 102.15394, 2.967612 ], [ 102.151535, 2.96914 ], [ 102.148122, 2.966991 ], [ 102.140802, 2.967099 ], [ 102.136583, 2.977866 ], [ 102.137626, 2.987648 ], [ 102.137197, 3.020839 ], [ 102.137447, 3.02643 ], [ 102.140999, 3.028166 ], [ 102.143401, 3.026601 ], [ 102.146313, 3.026398 ], [ 102.147607, 3.03198 ], [ 102.150097, 3.03429 ], [ 102.152232, 3.037346 ], [ 102.15615, 3.038799 ], [ 102.160003, 3.037223 ], [ 102.162717, 3.040442 ], [ 102.160468, 3.042109 ], [ 102.162058, 3.043893 ], [ 102.167437, 3.047749 ], [ 102.169842, 3.05473 ], [ 102.169008, 3.057871 ], [ 102.16672, 3.060237 ], [ 102.167496, 3.069002 ], [ 102.170598, 3.067839 ], [ 102.170908, 3.072415 ], [ 102.176065, 3.07407 ], [ 102.17878, 3.076785 ], [ 102.186071, 3.078259 ], [ 102.189949, 3.081129 ], [ 102.193285, 3.081517 ], [ 102.194991, 3.082913 ], [ 102.196155, 3.081206 ], [ 102.200576, 3.081594 ], [ 102.201584, 3.080043 ], [ 102.204066, 3.080819 ], [ 102.206393, 3.077949 ], [ 102.210357, 3.077882 ], [ 102.213925, 3.074003 ], [ 102.217873, 3.073217 ], [ 102.219453, 3.070865 ], [ 102.219143, 3.068693 ], [ 102.240551, 3.06815 ], [ 102.237681, 3.078699 ], [ 102.233027, 3.095531 ], [ 102.233027, 3.097858 ], [ 102.236905, 3.098711 ], [ 102.239465, 3.102512 ], [ 102.24218, 3.107864 ], [ 102.24187, 3.111767 ], [ 102.241763, 3.116033 ], [ 102.240483, 3.121766 ], [ 102.242499, 3.124636 ], [ 102.246145, 3.125412 ], [ 102.247231, 3.12673 ], [ 102.246176, 3.138581 ], [ 102.245866, 3.150604 ], [ 102.283726, 3.138838 ], [ 102.286324, 3.138178 ], [ 102.291081, 3.137191 ], [ 102.295593, 3.130344 ], [ 102.297688, 3.122859 ], [ 102.302848, 3.119126 ], [ 102.306071, 3.114512 ], [ 102.308741, 3.115839 ], [ 102.310215, 3.115335 ], [ 102.318302, 3.103671 ], [ 102.316028, 3.094029 ], [ 102.312968, 3.088614 ], [ 102.313666, 3.086752 ], [ 102.321733, 3.083068 ], [ 102.324198, 3.080035 ], [ 102.325146, 3.070366 ], [ 102.327628, 3.066081 ], [ 102.327938, 3.057976 ], [ 102.329253, 3.055767 ], [ 102.334144, 3.051887 ], [ 102.337169, 3.047078 ], [ 102.338132, 3.037405 ], [ 102.343544, 3.035358 ], [ 102.344436, 3.032732 ], [ 102.3438, 3.027803 ], [ 102.339651, 3.019891 ], [ 102.339728, 3.014772 ], [ 102.338148, 3.012307 ], [ 102.338865, 3.002786 ], [ 102.340951, 2.996403 ], [ 102.34114, 2.99002 ], [ 102.344111, 2.980604 ], [ 102.344522, 2.969569 ], [ 102.346092, 2.967663 ], [ 102.348774, 2.964316 ], [ 102.352959, 2.959222 ], [ 102.339263, 2.958925 ], [ 102.309592, 2.956902 ] ] ] } },
{ "type": "Feature", "properties": { "state": "Negeri Sembilan", "parlimen": "P.126 Jelebu", "code_parlimen": "P.126", "dun": "N.03 Sungai Lui", "code_dun": "N.03" }, "geometry": { "type": "Polygon", "coordinates": [ [ [ 102.268385, 2.950307 ], [ 102.272297, 2.954719 ], [ 102.309592, 2.956902 ], [ 102.339263, 2.958925 ], [ 102.352959, 2.959222 ], [ 102.348774, 2.964316 ], [ 102.346092, 2.967663 ], [ 102.344522, 2.969569 ], [ 102.344111, 2.980604 ], [ 102.34114, 2.99002 ], [ 102.340951, 2.996403 ], [ 102.338865, 3.002786 ], [ 102.338148, 3.012307 ], [ 102.339728, 3.014772 ], [ 102.339651, 3.019891 ], [ 102.3438, 3.027803 ], [ 102.344436, 3.032732 ], [ 102.343544, 3.035358 ], [ 102.338132, 3.037405 ], [ 102.337169, 3.047078 ], [ 102.334144, 3.051887 ], [ 102.329253, 3.055767 ], [ 102.327938, 3.057976 ], [ 102.327628, 3.066081 ], [ 102.325146, 3.070366 ], [ 102.324198, 3.080035 ], [ 102.321733, 3.083068 ], [ 102.313666, 3.086752 ], [ 102.312968, 3.088614 ], [ 102.316028, 3.094029 ], [ 102.318302, 3.103671 ], [ 102.310215, 3.115335 ], [ 102.308741, 3.115839 ], [ 102.306071, 3.114512 ], [ 102.302848, 3.119126 ], [ 102.297688, 3.122859 ], [ 102.295593, 3.130344 ], [ 102.291081, 3.137191 ], [ 102.318387, 3.132284 ], [ 102.388047, 3.118086 ], [ 102.466471, 3.01948 ], [ 102.468303, 3.018406 ], [ 102.46647, 3.013608 ], [ 102.468952, 3.009265 ], [ 102.46864, 3.003603 ], [ 102.472558, 2.997916 ], [ 102.471673, 2.993365 ], [ 102.47597, 2.984581 ], [ 102.476476, 2.98041 ], [ 102.485015, 2.975332 ], [ 102.485078, 2.970086 ], [ 102.484312, 2.966318 ], [ 102.485551, 2.961252 ], [ 102.482992, 2.955434 ], [ 102.483806, 2.949151 ], [ 102.481789, 2.9457 ], [ 102.47823, 2.941397 ], [ 102.476747, 2.93806 ], [ 102.469337, 2.940186 ], [ 102.468073, 2.937785 ], [ 102.463309, 2.938276 ], [ 102.456989, 2.935432 ], [ 102.456387, 2.933328 ], [ 102.456616, 2.929939 ], [ 102.45542, 2.9281 ], [ 102.452646, 2.927487 ], [ 102.451571, 2.925781 ], [ 102.452456, 2.922368 ], [ 102.450687, 2.920093 ], [ 102.448048, 2.918513 ], [ 102.444636, 2.919714 ], [ 102.438452, 2.91896 ], [ 102.428657, 2.918707 ], [ 102.420567, 2.919334 ], [ 102.410652, 2.918606 ], [ 102.406195, 2.921881 ], [ 102.39437, 2.923064 ], [ 102.38959, 2.928622 ], [ 102.385215, 2.927616 ], [ 102.377821, 2.928564 ], [ 102.361912, 2.920258 ], [ 102.357685, 2.918552 ], [ 102.318952, 2.925216 ], [ 102.297198, 2.929752 ], [ 102.290944, 2.929795 ], [ 102.285456, 2.928371 ], [ 102.282407, 2.923012 ], [ 102.274496, 2.926114 ], [ 102.271471, 2.932436 ], [ 102.266274, 2.937012 ], [ 102.261077, 2.942403 ], [ 102.262427, 2.946259 ], [ 102.268385, 2.950307 ] ] ] } },
{ "type": "Feature", "properties": { "state": "Negeri Sembilan", "parlimen": "P.126 Jelebu", "code_parlimen": "P.126", "dun": "N.04 Klawang", "code_dun": "N.04" }, "geometry": { "type": "Polygon", "coordinates": [ [ [ 102.06218, 2.990494 ], [ 102.064546, 2.993325 ], [ 102.075482, 2.997009 ], [ 102.080563, 2.996117 ], [ 102.08364, 2.998121 ], [ 102.088278, 2.992878 ], [ 102.096374, 2.99353 ], [ 102.101105, 2.992444 ], [ 102.105607, 2.996153 ], [ 102.110428, 3.007614 ], [ 102.113384, 3.016119 ], [ 102.124038, 3.025049 ], [ 102.124803, 3.02825 ], [ 102.126819, 3.026156 ], [ 102.133225, 3.029058 ], [ 102.135165, 3.027429 ], [ 102.137447, 3.02643 ], [ 102.137197, 3.020839 ], [ 102.137626, 2.987648 ], [ 102.136583, 2.977866 ], [ 102.140802, 2.967099 ], [ 102.148122, 2.966991 ], [ 102.151535, 2.96914 ], [ 102.15394, 2.967612 ], [ 102.150566, 2.96199 ], [ 102.150455, 2.95334 ], [ 102.147541, 2.939574 ], [ 102.134942, 2.930978 ], [ 102.135625, 2.925838 ], [ 102.142109, 2.918366 ], [ 102.144903, 2.915449 ], [ 102.14628, 2.912047 ], [ 102.148277, 2.909671 ], [ 102.148277, 2.906646 ], [ 102.152097, 2.900634 ], [ 102.153634, 2.89621 ], [ 102.151205, 2.894972 ], [ 102.147587, 2.893772 ], [ 102.143459, 2.895469 ], [ 102.141256, 2.899445 ], [ 102.133911, 2.895899 ], [ 102.130062, 2.895773 ], [ 102.125858, 2.891037 ], [ 102.119425, 2.886655 ], [ 102.114866, 2.884376 ], [ 102.111295, 2.879868 ], [ 102.107091, 2.878311 ], [ 102.106582, 2.873093 ], [ 102.106227, 2.869192 ], [ 102.100051, 2.866505 ], [ 102.096766, 2.861855 ], [ 102.093818, 2.854098 ], [ 102.095846, 2.849388 ], [ 102.092624, 2.846959 ], [ 102.083699, 2.845067 ], [ 102.079266, 2.838979 ], [ 102.077887, 2.836332 ], [ 102.075812, 2.834083 ], [ 102.07306, 2.832123 ], [ 102.067697, 2.832813 ], [ 102.067595, 2.836763 ], [ 102.068133, 2.839648 ], [ 102.06536, 2.84184 ], [ 102.061568, 2.838553 ], [ 102.054996, 2.837542 ], [ 102.049554, 2.831862 ], [ 102.046899, 2.831989 ], [ 102.045256, 2.835528 ], [ 102.042223, 2.83616 ], [ 102.036893, 2.830399 ], [ 102.034272, 2.829493 ], [ 102.027067, 2.832652 ], [ 102.023164, 2.834355 ], [ 102.022866, 2.841645 ], [ 102.021097, 2.842909 ], [ 102.014669, 2.841215 ], [ 102.008729, 2.842985 ], [ 102.006876, 2.845253 ], [ 102.005298, 2.84588 ], [ 102.000156, 2.850431 ], [ 101.99687, 2.850178 ], [ 101.995479, 2.854159 ], [ 101.994026, 2.854286 ], [ 101.992523, 2.856246 ], [ 101.991877, 2.86168 ], [ 101.989476, 2.866609 ], [ 101.989413, 2.871791 ], [ 101.985623, 2.87973 ], [ 101.986737, 2.884055 ], [ 101.986547, 2.887468 ], [ 101.987527, 2.893508 ], [ 101.984809, 2.89553 ], [ 101.983609, 2.89692 ], [ 101.984304, 2.900838 ], [ 101.98283, 2.906258 ], [ 101.986705, 2.912403 ], [ 101.989802, 2.915373 ], [ 101.9874, 2.917459 ], [ 101.986389, 2.920998 ], [ 101.983043, 2.922783 ], [ 101.981589, 2.925374 ], [ 101.982093, 2.930868 ], [ 101.985196, 2.930691 ], [ 101.987329, 2.92945 ], [ 101.992293, 2.929139 ], [ 101.997219, 2.926076 ], [ 102.002454, 2.927588 ], [ 102.006221, 2.928787 ], [ 102.014172, 2.932044 ], [ 102.022875, 2.930432 ], [ 102.026461, 2.933755 ], [ 102.030766, 2.928984 ], [ 102.034101, 2.928752 ], [ 102.036746, 2.931083 ], [ 102.03822, 2.935077 ], [ 102.049382, 2.943644 ], [ 102.052678, 2.944924 ], [ 102.057177, 2.942326 ], [ 102.061035, 2.944076 ], [ 102.058322, 2.949336 ], [ 102.060998, 2.952129 ], [ 102.06147, 2.959104 ], [ 102.058367, 2.968606 ], [ 102.0488, 2.981535 ], [ 102.0507, 2.983319 ], [ 102.05388, 2.983939 ], [ 102.053958, 2.987081 ], [ 102.054851, 2.988704 ], [ 102.059038, 2.990726 ], [ 102.06218, 2.990494 ] ] ] } },
{ "type": "Feature", "properties": { "state": "Negeri Sembilan", "parlimen": "P.127 Jempol", "code_parlimen": "P.127", "dun": "N.05 Serting", "code_dun": "N.05" }, "geometry": { "type": "Polygon", "coordinates": [ [ [ 102.39437, 2.923064 ], [ 102.406195, 2.921881 ], [ 102.410652, 2.918606 ], [ 102.420567, 2.919334 ], [ 102.428657, 2.918707 ], [ 102.438452, 2.91896 ], [ 102.444636, 2.919714 ], [ 102.448048, 2.918513 ], [ 102.450687, 2.920093 ], [ 102.452456, 2.922368 ], [ 102.451571, 2.925781 ], [ 102.452646, 2.927487 ], [ 102.45542, 2.9281 ], [ 102.456616, 2.929939 ], [ 102.456387, 2.933328 ], [ 102.456989, 2.935432 ], [ 102.463309, 2.938276 ], [ 102.468073, 2.937785 ], [ 102.469337, 2.940186 ], [ 102.476747, 2.93806 ], [ 102.47823, 2.941397 ], [ 102.481789, 2.9457 ], [ 102.483806, 2.949151 ], [ 102.482992, 2.955434 ], [ 102.485551, 2.961252 ], [ 102.484312, 2.966318 ], [ 102.485078, 2.970086 ], [ 102.485015, 2.975332 ], [ 102.476476, 2.98041 ], [ 102.47597, 2.984581 ], [ 102.471673, 2.993365 ], [ 102.472558, 2.997916 ], [ 102.46864, 3.003603 ], [ 102.468952, 3.009265 ], [ 102.46647, 3.013608 ], [ 102.468303, 3.018406 ], [ 102.550939, 2.962903 ], [ 102.595673, 2.933964 ], [ 102.594623, 2.92939 ], [ 102.594102, 2.886593 ], [ 102.592979, 2.855087 ], [ 102.583101, 2.857332 ], [ 102.550546, 2.857593 ], [ 102.550794, 2.839443 ], [ 102.550405, 2.833269 ], [ 102.548078, 2.829119 ], [ 102.546139, 2.830399 ], [ 102.54292, 2.827025 ], [ 102.540127, 2.825939 ], [ 102.538499, 2.822908 ], [ 102.534499, 2.82565 ], [ 102.525103, 2.82433 ], [ 102.516507, 2.82464 ], [ 102.512486, 2.817242 ], [ 102.505893, 2.807585 ], [ 102.475991, 2.829691 ], [ 102.469359, 2.828372 ], [ 102.462407, 2.82842 ], [ 102.456053, 2.834567 ], [ 102.430418, 2.835088 ], [ 102.416823, 2.834504 ], [ 102.415078, 2.833495 ], [ 102.414508, 2.831812 ], [ 102.413103, 2.830006 ], [ 102.411448, 2.8287 ], [ 102.408354, 2.829865 ], [ 102.405102, 2.828204 ], [ 102.400526, 2.828747 ], [ 102.395338, 2.829306 ], [ 102.392302, 2.828885 ], [ 102.393776, 2.824619 ], [ 102.396161, 2.817557 ], [ 102.399753, 2.813741 ], [ 102.397808, 2.812506 ], [ 102.394877, 2.812278 ], [ 102.390999, 2.80964 ], [ 102.387031, 2.807828 ], [ 102.380915, 2.806227 ], [ 102.378433, 2.806615 ], [ 102.373636, 2.807454 ], [ 102.369669, 2.809325 ], [ 102.364206, 2.812244 ], [ 102.35217, 2.81875 ], [ 102.343304, 2.823538 ], [ 102.33285, 2.828857 ], [ 102.330484, 2.83227 ], [ 102.333044, 2.837739 ], [ 102.331609, 2.840298 ], [ 102.329455, 2.84206 ], [ 102.327485, 2.846341 ], [ 102.32134, 2.84582 ], [ 102.321138, 2.849024 ], [ 102.320822, 2.850537 ], [ 102.31797, 2.851725 ], [ 102.312447, 2.855465 ], [ 102.307364, 2.857711 ], [ 102.300286, 2.86095 ], [ 102.300732, 2.86223 ], [ 102.295458, 2.865652 ], [ 102.294417, 2.863275 ], [ 102.288884, 2.86636 ], [ 102.282853, 2.87018 ], [ 102.280877, 2.870728 ], [ 102.277089, 2.86928 ], [ 102.271821, 2.874537 ], [ 102.268177, 2.879626 ], [ 102.264664, 2.880894 ], [ 102.260515, 2.883919 ], [ 102.258033, 2.891648 ], [ 102.253895, 2.892712 ], [ 102.250381, 2.8975 ], [ 102.245816, 2.898548 ], [ 102.238597, 2.903244 ], [ 102.241453, 2.905055 ], [ 102.241276, 2.908717 ], [ 102.238273, 2.913083 ], [ 102.237105, 2.91965 ], [ 102.238893, 2.924486 ], [ 102.245971, 2.92379 ], [ 102.248772, 2.923955 ], [ 102.249296, 2.928819 ], [ 102.251833, 2.931195 ], [ 102.261077, 2.942403 ], [ 102.266274, 2.937012 ], [ 102.271471, 2.932436 ], [ 102.274496, 2.926114 ], [ 102.282407, 2.923012 ], [ 102.285456, 2.928371 ], [ 102.290944, 2.929795 ], [ 102.297198, 2.929752 ], [ 102.318952, 2.925216 ], [ 102.357685, 2.918552 ], [ 102.361912, 2.920258 ], [ 102.377821, 2.928564 ], [ 102.385215, 2.927616 ], [ 102.38959, 2.928622 ], [ 102.39437, 2.923064 ] ] ] } },
{ "type": "Feature", "properties": { "state": "Negeri Sembilan", "parlimen": "P.127 Jempol", "code_parlimen": "P.127", "dun": "N.06 Palong", "code_dun": "N.06" }, "geometry": { "type": "Polygon", "coordinates": [ [ [ 102.551296, 2.754059 ], [ 102.551894, 2.772918 ], [ 102.541268, 2.782048 ], [ 102.539472, 2.793572 ], [ 102.538723, 2.807043 ], [ 102.525103, 2.82433 ], [ 102.534499, 2.82565 ], [ 102.538499, 2.822908 ], [ 102.540127, 2.825939 ], [ 102.54292, 2.827025 ], [ 102.546139, 2.830399 ], [ 102.548078, 2.829119 ], [ 102.550405, 2.833269 ], [ 102.550794, 2.839443 ], [ 102.550546, 2.857593 ], [ 102.583101, 2.857332 ], [ 102.592979, 2.855087 ], [ 102.594102, 2.886593 ], [ 102.594623, 2.92939 ], [ 102.595673, 2.933964 ], [ 102.667459, 2.885687 ], [ 102.679039, 2.896506 ], [ 102.69174, 2.880091 ], [ 102.69809, 2.833456 ], [ 102.70258, 2.831474 ], [ 102.631902, 2.649016 ], [ 102.615182, 2.650961 ], [ 102.604167, 2.650973 ], [ 102.604167, 2.654266 ], [ 102.604429, 2.657034 ], [ 102.604354, 2.662273 ], [ 102.599714, 2.682479 ], [ 102.597668, 2.685925 ], [ 102.60364, 2.69469 ], [ 102.600238, 2.695425 ], [ 102.597095, 2.696174 ], [ 102.595461, 2.714623 ], [ 102.595849, 2.731609 ], [ 102.593057, 2.737117 ], [ 102.583361, 2.75612 ], [ 102.574364, 2.772486 ], [ 102.572025, 2.771982 ], [ 102.56428, 2.762636 ], [ 102.556989, 2.75007 ], [ 102.551296, 2.754059 ] ] ] } },
{ "type": "Feature", "properties": { "state": "Negeri Sembilan", "parlimen": "P.127 Jempol", "code_parlimen": "P.127", "dun": "N.07 Jeram Padang", "code_dun": "N.07" }, "geometry": { "type": "Polygon", "coordinates": [ [ [ 102.539472, 2.793572 ], [ 102.541268, 2.782048 ], [ 102.551894, 2.772918 ], [ 102.551296, 2.754059 ], [ 102.556989, 2.75007 ], [ 102.56428, 2.762636 ], [ 102.572025, 2.771982 ], [ 102.574364, 2.772486 ], [ 102.583361, 2.75612 ], [ 102.593057, 2.737117 ], [ 102.595849, 2.731609 ], [ 102.595461, 2.714623 ], [ 102.597095, 2.696174 ], [ 102.600238, 2.695425 ], [ 102.60364, 2.69469 ], [ 102.597668, 2.685925 ], [ 102.599714, 2.682479 ], [ 102.604354, 2.662273 ], [ 102.604429, 2.657034 ], [ 102.604167, 2.654266 ], [ 102.604167, 2.650973 ], [ 102.600687, 2.653929 ], [ 102.598667, 2.651048 ], [ 102.59265, 2.65577 ], [ 102.584414, 2.662515 ], [ 102.583647, 2.663818 ], [ 102.579072, 2.662133 ], [ 102.573022, 2.659441 ], [ 102.570257, 2.658632 ], [ 102.568096, 2.65754 ], [ 102.562895, 2.663003 ], [ 102.555384, 2.670514 ], [ 102.555711, 2.673405 ], [ 102.55369, 2.673779 ], [ 102.552886, 2.67159 ], [ 102.551071, 2.672133 ], [ 102.551296, 2.684705 ], [ 102.501305, 2.687249 ], [ 102.463513, 2.689045 ], [ 102.45722, 2.68796 ], [ 102.428405, 2.689588 ], [ 102.42379, 2.684663 ], [ 102.347814, 2.598216 ], [ 102.347543, 2.627303 ], [ 102.348168, 2.643869 ], [ 102.333986, 2.644401 ], [ 102.339302, 2.64693 ], [ 102.348202, 2.652318 ], [ 102.349359, 2.656747 ], [ 102.346661, 2.661964 ], [ 102.347273, 2.665716 ], [ 102.354057, 2.670322 ], [ 102.357946, 2.677301 ], [ 102.356817, 2.684555 ], [ 102.354664, 2.688227 ], [ 102.3555, 2.692659 ], [ 102.354588, 2.696103 ], [ 102.355267, 2.700075 ], [ 102.357707, 2.704104 ], [ 102.365301, 2.704664 ], [ 102.371396, 2.709004 ], [ 102.373526, 2.714655 ], [ 102.378298, 2.717124 ], [ 102.384193, 2.721972 ], [ 102.388497, 2.72682 ], [ 102.389583, 2.731396 ], [ 102.394431, 2.733452 ], [ 102.395827, 2.738028 ], [ 102.393772, 2.747375 ], [ 102.392647, 2.751641 ], [ 102.394199, 2.75548 ], [ 102.398581, 2.75866 ], [ 102.397922, 2.762694 ], [ 102.395672, 2.76281 ], [ 102.394548, 2.767425 ], [ 102.392649, 2.772315 ], [ 102.389545, 2.783339 ], [ 102.390433, 2.784084 ], [ 102.390511, 2.787885 ], [ 102.387719, 2.791143 ], [ 102.387951, 2.792849 ], [ 102.395362, 2.791742 ], [ 102.395672, 2.797327 ], [ 102.400192, 2.795894 ], [ 102.405001, 2.793645 ], [ 102.411335, 2.793254 ], [ 102.417463, 2.801088 ], [ 102.412426, 2.806169 ], [ 102.414986, 2.812374 ], [ 102.418136, 2.820538 ], [ 102.417205, 2.823175 ], [ 102.411728, 2.822923 ], [ 102.411448, 2.8287 ], [ 102.413103, 2.830006 ], [ 102.414508, 2.831812 ], [ 102.415078, 2.833495 ], [ 102.416823, 2.834504 ], [ 102.430418, 2.835088 ], [ 102.456053, 2.834567 ], [ 102.462407, 2.82842 ], [ 102.469359, 2.828372 ], [ 102.475991, 2.829691 ], [ 102.505893, 2.807585 ], [ 102.512486, 2.817242 ], [ 102.516507, 2.82464 ], [ 102.525103, 2.82433 ], [ 102.538723, 2.807043 ], [ 102.539472, 2.793572 ] ] ] } },
{ "type": "Feature", "properties": { "state": "Negeri Sembilan", "parlimen": "P.127 Jempol", "code_parlimen": "P.127", "dun": "N.08 Bahau", "code_dun": "N.08" }, "geometry": { "type": "Polygon", "coordinates": [ [ [ 102.373636, 2.807454 ], [ 102.378433, 2.806615 ], [ 102.380915, 2.806227 ], [ 102.387031, 2.807828 ], [ 102.390999, 2.80964 ], [ 102.394877, 2.812278 ], [ 102.397808, 2.812506 ], [ 102.399753, 2.813741 ], [ 102.396161, 2.817557 ], [ 102.393776, 2.824619 ], [ 102.392302, 2.828885 ], [ 102.395338, 2.829306 ], [ 102.400526, 2.828747 ], [ 102.405102, 2.828204 ], [ 102.408354, 2.829865 ], [ 102.411448, 2.8287 ], [ 102.411728, 2.822923 ], [ 102.417205, 2.823175 ], [ 102.418136, 2.820538 ], [ 102.414986, 2.812374 ], [ 102.412426, 2.806169 ], [ 102.417463, 2.801088 ], [ 102.411335, 2.793254 ], [ 102.405001, 2.793645 ], [ 102.400192, 2.795894 ], [ 102.395672, 2.797327 ], [ 102.395362, 2.791742 ], [ 102.387951, 2.792849 ], [ 102.387719, 2.791143 ], [ 102.390511, 2.787885 ], [ 102.390433, 2.784084 ], [ 102.389545, 2.783339 ], [ 102.384403, 2.783339 ], [ 102.377724, 2.783162 ], [ 102.372984, 2.782977 ], [ 102.368563, 2.783016 ], [ 102.368175, 2.780573 ], [ 102.368292, 2.77045 ], [ 102.34879, 2.768444 ], [ 102.341881, 2.779642 ], [ 102.341842, 2.787864 ], [ 102.341842, 2.793099 ], [ 102.336723, 2.792091 ], [ 102.324933, 2.80551 ], [ 102.315004, 2.817377 ], [ 102.315237, 2.822109 ], [ 102.311436, 2.82366 ], [ 102.308178, 2.828702 ], [ 102.302206, 2.829555 ], [ 102.292327, 2.831439 ], [ 102.294837, 2.835528 ], [ 102.29319, 2.83993 ], [ 102.296913, 2.842567 ], [ 102.298126, 2.845695 ], [ 102.297319, 2.84949 ], [ 102.29779, 2.857033 ], [ 102.300286, 2.86095 ], [ 102.307364, 2.857711 ], [ 102.312447, 2.855465 ], [ 102.31797, 2.851725 ], [ 102.320822, 2.850537 ], [ 102.321138, 2.849024 ], [ 102.32134, 2.84582 ], [ 102.327485, 2.846341 ], [ 102.329455, 2.84206 ], [ 102.331609, 2.840298 ], [ 102.333044, 2.837739 ], [ 102.330484, 2.83227 ], [ 102.33285, 2.828857 ], [ 102.343304, 2.823538 ], [ 102.35217, 2.81875 ], [ 102.364206, 2.812244 ], [ 102.369669, 2.809325 ], [ 102.373636, 2.807454 ] ] ] } },
{ "type": "Feature", "properties": { "state": "Negeri Sembilan", "parlimen": "P.128 Seremban", "code_parlimen": "P.128", "dun": "N.09 Lenggeng", "code_dun": "N.09" }, "geometry": { "type": "Polygon", "coordinates": [ [ [ 102.007168, 2.718264 ], [ 102.003318, 2.721607 ], [ 101.997341, 2.72262 ], [ 101.992631, 2.722417 ], [ 101.992529, 2.725861 ], [ 101.992276, 2.729356 ], [ 101.992429, 2.735313 ], [ 101.992403, 2.73936 ], [ 101.991136, 2.740728 ], [ 101.994707, 2.747996 ], [ 101.990301, 2.746781 ], [ 101.993998, 2.752859 ], [ 101.991668, 2.75605 ], [ 101.987414, 2.756506 ], [ 101.983615, 2.7561 ], [ 101.980674, 2.753603 ], [ 101.973382, 2.75624 ], [ 101.968368, 2.760659 ], [ 101.965684, 2.762938 ], [ 101.963101, 2.758785 ], [ 101.957022, 2.758582 ], [ 101.953477, 2.759292 ], [ 101.95915, 2.766737 ], [ 101.953781, 2.774234 ], [ 101.944663, 2.785681 ], [ 101.945195, 2.790366 ], [ 101.947123, 2.794136 ], [ 101.947278, 2.800108 ], [ 101.951977, 2.804515 ], [ 101.957098, 2.80855 ], [ 101.954306, 2.812972 ], [ 101.949602, 2.816807 ], [ 101.943621, 2.818444 ], [ 101.931823, 2.817617 ], [ 101.927518, 2.818073 ], [ 101.92435, 2.821646 ], [ 101.919515, 2.825671 ], [ 101.916128, 2.827541 ], [ 101.913741, 2.829875 ], [ 101.913614, 2.833036 ], [ 101.913149, 2.834492 ], [ 101.909131, 2.83185 ], [ 101.906347, 2.832092 ], [ 101.902091, 2.834737 ], [ 101.898908, 2.836383 ], [ 101.896773, 2.836588 ], [ 101.894911, 2.838604 ], [ 101.895202, 2.840461 ], [ 101.896737, 2.841735 ], [ 101.896671, 2.843753 ], [ 101.882387, 2.863609 ], [ 101.881607, 2.866654 ], [ 101.923351, 2.967567 ], [ 101.925102, 2.965929 ], [ 101.92741, 2.965673 ], [ 101.930601, 2.96572 ], [ 101.932956, 2.964315 ], [ 101.935973, 2.963887 ], [ 101.938374, 2.962181 ], [ 101.939006, 2.959274 ], [ 101.943542, 2.96027 ], [ 101.947334, 2.958563 ], [ 101.951261, 2.958769 ], [ 101.949429, 2.951186 ], [ 101.950253, 2.948298 ], [ 101.95518, 2.948848 ], [ 101.958087, 2.94632 ], [ 101.962147, 2.947268 ], [ 101.968484, 2.944092 ], [ 101.97147, 2.942512 ], [ 101.975457, 2.93921 ], [ 101.982093, 2.930868 ], [ 101.981589, 2.925374 ], [ 101.983043, 2.922783 ], [ 101.986389, 2.920998 ], [ 101.9874, 2.917459 ], [ 101.989802, 2.915373 ], [ 101.986705, 2.912403 ], [ 101.98283, 2.906258 ], [ 101.984304, 2.900838 ], [ 101.983609, 2.89692 ], [ 101.984809, 2.89553 ], [ 101.987527, 2.893508 ], [ 101.986547, 2.887468 ], [ 101.986737, 2.884055 ], [ 101.985623, 2.87973 ], [ 101.989413, 2.871791 ], [ 101.989476, 2.866609 ], [ 101.991877, 2.86168 ], [ 101.992523, 2.856246 ], [ 101.994026, 2.854286 ], [ 101.995479, 2.854159 ], [ 101.99687, 2.850178 ], [ 102.000156, 2.850431 ], [ 102.005298, 2.84588 ], [ 102.006876, 2.845253 ], [ 102.008729, 2.842985 ], [ 102.014669, 2.841215 ], [ 102.021097, 2.842909 ], [ 102.022866, 2.841645 ], [ 102.023164, 2.834355 ], [ 102.027067, 2.832652 ], [ 102.034272, 2.829493 ], [ 102.036893, 2.830399 ], [ 102.042223, 2.83616 ], [ 102.045256, 2.835528 ], [ 102.046899, 2.831989 ], [ 102.049554, 2.831862 ], [ 102.054996, 2.837542 ], [ 102.061568, 2.838553 ], [ 102.06536, 2.84184 ], [ 102.068133, 2.839648 ], [ 102.067595, 2.836763 ], [ 102.067697, 2.832813 ], [ 102.066515, 2.829838 ], [ 102.062078, 2.824197 ], [ 102.065122, 2.819527 ], [ 102.065234, 2.816466 ], [ 102.062907, 2.814411 ], [ 102.059766, 2.81189 ], [ 102.060257, 2.806391 ], [ 102.057432, 2.803936 ], [ 102.052707, 2.802892 ], [ 102.050458, 2.798548 ], [ 102.050914, 2.79202 ], [ 102.053727, 2.786152 ], [ 102.051589, 2.779476 ], [ 102.052653, 2.774512 ], [ 102.054617, 2.769643 ], [ 102.050622, 2.761809 ], [ 102.050841, 2.758557 ], [ 102.053076, 2.755106 ], [ 102.053677, 2.750342 ], [ 102.058098, 2.745688 ], [ 102.054173, 2.733079 ], [ 102.055236, 2.727457 ], [ 102.05164, 2.724848 ], [ 102.045258, 2.7211 ], [ 102.040497, 2.720796 ], [ 102.036773, 2.722503 ], [ 102.030995, 2.723395 ], [ 102.024906, 2.721455 ], [ 102.020252, 2.717073 ], [ 102.016374, 2.715638 ], [ 102.011726, 2.715427 ], [ 102.007168, 2.718264 ] ] ] } },
{ "type": "Feature", "properties": { "state": "Negeri Sembilan", "parlimen": "P.128 Seremban", "code_parlimen": "P.128", "dun": "N.10 Nilai", "code_dun": "N.10" }, "geometry": { "type": "Polygon", "coordinates": [ [ [ 101.882387, 2.863609 ], [ 101.896671, 2.843753 ], [ 101.896737, 2.841735 ], [ 101.895202, 2.840461 ], [ 101.894911, 2.838604 ], [ 101.896773, 2.836588 ], [ 101.898908, 2.836383 ], [ 101.902091, 2.834737 ], [ 101.906347, 2.832092 ], [ 101.909131, 2.83185 ], [ 101.913149, 2.834492 ], [ 101.913614, 2.833036 ], [ 101.913741, 2.829875 ], [ 101.916128, 2.827541 ], [ 101.919515, 2.825671 ], [ 101.92435, 2.821646 ], [ 101.927518, 2.818073 ], [ 101.931823, 2.817617 ], [ 101.943621, 2.818444 ], [ 101.949602, 2.816807 ], [ 101.954306, 2.812972 ], [ 101.957098, 2.80855 ], [ 101.951977, 2.804515 ], [ 101.947278, 2.800108 ], [ 101.947123, 2.794136 ], [ 101.945195, 2.790366 ], [ 101.944213, 2.790317 ], [ 101.937393, 2.789913 ], [ 101.934197, 2.782272 ], [ 101.929182, 2.782632 ], [ 101.927231, 2.780159 ], [ 101.916909, 2.78066 ], [ 101.91338, 2.778061 ], [ 101.907181, 2.773018 ], [ 101.906725, 2.769219 ], [ 101.902559, 2.769402 ], [ 101.897633, 2.769751 ], [ 101.895586, 2.768634 ], [ 101.894754, 2.767607 ], [ 101.893134, 2.766299 ], [ 101.879576, 2.765674 ], [ 101.874919, 2.769291 ], [ 101.866348, 2.775302 ], [ 101.858463, 2.778173 ], [ 101.854003, 2.779724 ], [ 101.850159, 2.780758 ], [ 101.84427, 2.772074 ], [ 101.839135, 2.763736 ], [ 101.830716, 2.76748 ], [ 101.825682, 2.780109 ], [ 101.827201, 2.784362 ], [ 101.820263, 2.796014 ], [ 101.811044, 2.791354 ], [ 101.804257, 2.797838 ], [ 101.794785, 2.797027 ], [ 101.799901, 2.805587 ], [ 101.783287, 2.80579 ], [ 101.780856, 2.816629 ], [ 101.754567, 2.817592 ], [ 101.750867, 2.870945 ], [ 101.789819, 2.869666 ], [ 101.798156, 2.869476 ], [ 101.81862, 2.86878 ], [ 101.881607, 2.866654 ], [ 101.882387, 2.863609 ] ] ] } },
{ "type": "Feature", "properties": { "state": "Negeri Sembilan", "parlimen": "P.128 Seremban", "code_parlimen": "P.128", "dun": "N.11 Lobak", "code_dun": "N.11" }, "geometry": { "type": "Polygon", "coordinates": [ [ [ 101.938395, 2.722874 ], [ 101.935495, 2.721936 ], [ 101.927695, 2.723379 ], [ 101.925365, 2.720543 ], [ 101.913107, 2.720796 ], [ 101.90708, 2.722721 ], [ 101.9009, 2.733155 ], [ 101.906573, 2.741969 ], [ 101.893606, 2.741867 ], [ 101.891074, 2.744197 ], [ 101.89271, 2.74955 ], [ 101.894061, 2.752044 ], [ 101.894555, 2.75615 ], [ 101.897633, 2.769751 ], [ 101.902559, 2.769402 ], [ 101.906725, 2.769219 ], [ 101.907181, 2.773018 ], [ 101.91338, 2.778061 ], [ 101.916909, 2.78066 ], [ 101.927231, 2.780159 ], [ 101.929182, 2.782632 ], [ 101.934197, 2.782272 ], [ 101.937393, 2.789913 ], [ 101.944213, 2.790317 ], [ 101.945195, 2.790366 ], [ 101.944663, 2.785681 ], [ 101.94284, 2.774892 ], [ 101.939396, 2.763698 ], [ 101.93886, 2.759329 ], [ 101.938788, 2.754809 ], [ 101.941194, 2.75296 ], [ 101.942789, 2.748908 ], [ 101.943119, 2.746983 ], [ 101.940282, 2.74131 ], [ 101.940485, 2.736296 ], [ 101.940155, 2.732598 ], [ 101.940586, 2.723734 ], [ 101.938395, 2.722874 ] ] ] } },
{ "type": "Feature", "properties": { "state": "Negeri Sembilan", "parlimen": "P.128 Seremban", "code_parlimen": "P.128", "dun": "N.12 Temiang", "code_dun": "N.12" }, "geometry": { "type": "Polygon", "coordinates": [ [ [ 101.952312, 2.744856 ], [ 101.955351, 2.742627 ], [ 101.955098, 2.739791 ], [ 101.950343, 2.734783 ], [ 101.950336, 2.734776 ], [ 101.946234, 2.729458 ], [ 101.948969, 2.727634 ], [ 101.94923, 2.726682 ], [ 101.946761, 2.720315 ], [ 101.944891, 2.71525 ], [ 101.943422, 2.7114 ], [ 101.942002, 2.709688 ], [ 101.938864, 2.713224 ], [ 101.939066, 2.716769 ], [ 101.941548, 2.71839 ], [ 101.941447, 2.720973 ], [ 101.940586, 2.723734 ], [ 101.940155, 2.732598 ], [ 101.940485, 2.736296 ], [ 101.940282, 2.74131 ], [ 101.943119, 2.746983 ], [ 101.942789, 2.748908 ], [ 101.941194, 2.75296 ], [ 101.938788, 2.754809 ], [ 101.93886, 2.759329 ], [ 101.939396, 2.763698 ], [ 101.94284, 2.774892 ], [ 101.944663, 2.785681 ], [ 101.953781, 2.774234 ], [ 101.95915, 2.766737 ], [ 101.953477, 2.759292 ], [ 101.957022, 2.758582 ], [ 101.956617, 2.756506 ], [ 101.954237, 2.750276 ], [ 101.952312, 2.744856 ] ] ] } },
{ "type": "Feature", "properties": { "state": "Negeri Sembilan", "parlimen": "P.128 Seremban", "code_parlimen": "P.128", "dun": "N.13 Sikamat", "code_dun": "N.13" }, "geometry": { "type": "Polygon", "coordinates": [ [ [ 101.965887, 2.733054 ], [ 101.96619, 2.729255 ], [ 101.964519, 2.725963 ], [ 101.961922, 2.723438 ], [ 101.960517, 2.721632 ], [ 101.95915, 2.718821 ], [ 101.95877, 2.716567 ], [ 101.959403, 2.713882 ], [ 101.958086, 2.71021 ], [ 101.955756, 2.707399 ], [ 101.954451, 2.704297 ], [ 101.947981, 2.71059 ], [ 101.942002, 2.709688 ], [ 101.943422, 2.7114 ], [ 101.944891, 2.71525 ], [ 101.946761, 2.720315 ], [ 101.94923, 2.726682 ], [ 101.948969, 2.727634 ], [ 101.946234, 2.729458 ], [ 101.950336, 2.734776 ], [ 101.950343, 2.734783 ], [ 101.955098, 2.739791 ], [ 101.955351, 2.742627 ], [ 101.952312, 2.744856 ], [ 101.954237, 2.750276 ], [ 101.956617, 2.756506 ], [ 101.957022, 2.758582 ], [ 101.963101, 2.758785 ], [ 101.965684, 2.762938 ], [ 101.968368, 2.760659 ], [ 101.973382, 2.75624 ], [ 101.980674, 2.753603 ], [ 101.983615, 2.7561 ], [ 101.987414, 2.756506 ], [ 101.991668, 2.75605 ], [ 101.993998, 2.752859 ], [ 101.990301, 2.746781 ], [ 101.994707, 2.747996 ], [ 101.991136, 2.740728 ], [ 101.992403, 2.73936 ], [ 101.992429, 2.735313 ], [ 101.992276, 2.729356 ], [ 101.992529, 2.725861 ], [ 101.992631, 2.722417 ], [ 101.992783, 2.718922 ], [ 101.995265, 2.716541 ], [ 101.993846, 2.712895 ], [ 101.989693, 2.713046 ], [ 101.986299, 2.71563 ], [ 101.984628, 2.715326 ], [ 101.982804, 2.716541 ], [ 101.979765, 2.718669 ], [ 101.980651, 2.725449 ], [ 101.980424, 2.729964 ], [ 101.975358, 2.733966 ], [ 101.972826, 2.736802 ], [ 101.969584, 2.735485 ], [ 101.965887, 2.733054 ] ] ] } },
{ "type": "Feature", "properties": { "state": "Negeri Sembilan", "parlimen": "P.128 Seremban", "code_parlimen": "P.128", "dun": "N.14 Ampangan", "code_dun": "N.14" }, "geometry": { "type": "Polygon", "coordinates": [ [ [ 101.969584, 2.735485 ], [ 101.972826, 2.736802 ], [ 101.975358, 2.733966 ], [ 101.980424, 2.729964 ], [ 101.980651, 2.725449 ], [ 101.979765, 2.718669 ], [ 101.982804, 2.716541 ], [ 101.984628, 2.715326 ], [ 101.982298, 2.711983 ], [ 101.979664, 2.708488 ], [ 101.977638, 2.705702 ], [ 101.975409, 2.700839 ], [ 101.975054, 2.699016 ], [ 101.972167, 2.695825 ], [ 101.971686, 2.694381 ], [ 101.9689, 2.696661 ], [ 101.964392, 2.701827 ], [ 101.962113, 2.69818 ], [ 101.959378, 2.693672 ], [ 101.957611, 2.69459 ], [ 101.95492, 2.696509 ], [ 101.952738, 2.699708 ], [ 101.954451, 2.704297 ], [ 101.955756, 2.707399 ], [ 101.958086, 2.71021 ], [ 101.959403, 2.713882 ], [ 101.95877, 2.716567 ], [ 101.95915, 2.718821 ], [ 101.960517, 2.721632 ], [ 101.961922, 2.723438 ], [ 101.964519, 2.725963 ], [ 101.96619, 2.729255 ], [ 101.965887, 2.733054 ], [ 101.969584, 2.735485 ] ] ] } },
{ "type": "Feature", "properties": { "state": "Negeri Sembilan", "parlimen": "P.129 Kuala Pilah", "code_parlimen": "P.129", "dun": "N.15 Juasseh", "code_dun": "N.15" }, "geometry": { "type": "Polygon", "coordinates": [ [ [ 102.3336, 2.783282 ], [ 102.327977, 2.783028 ], [ 102.316233, 2.778155 ], [ 102.3122, 2.777922 ], [ 102.306579, 2.775744 ], [ 102.303411, 2.775076 ], [ 102.297348, 2.772486 ], [ 102.292825, 2.772645 ], [ 102.285791, 2.770315 ], [ 102.278733, 2.765273 ], [ 102.26993, 2.765351 ], [ 102.265702, 2.76089 ], [ 102.258721, 2.754181 ], [ 102.254881, 2.754297 ], [ 102.251197, 2.751117 ], [ 102.247795, 2.748737 ], [ 102.245719, 2.752181 ], [ 102.242983, 2.756107 ], [ 102.239562, 2.75771 ], [ 102.237333, 2.760828 ], [ 102.23547, 2.765016 ], [ 102.233609, 2.766359 ], [ 102.231811, 2.767888 ], [ 102.229773, 2.770713 ], [ 102.225623, 2.769289 ], [ 102.223443, 2.76903 ], [ 102.219882, 2.771501 ], [ 102.217381, 2.771871 ], [ 102.215986, 2.775051 ], [ 102.212086, 2.775304 ], [ 102.21096, 2.773223 ], [ 102.209682, 2.769678 ], [ 102.207706, 2.769193 ], [ 102.205298, 2.771129 ], [ 102.197898, 2.775612 ], [ 102.192907, 2.780421 ], [ 102.195939, 2.783233 ], [ 102.193527, 2.785653 ], [ 102.193488, 2.788523 ], [ 102.188291, 2.790928 ], [ 102.184177, 2.787852 ], [ 102.179682, 2.79023 ], [ 102.175726, 2.794961 ], [ 102.176535, 2.79647 ], [ 102.182537, 2.796445 ], [ 102.184647, 2.800218 ], [ 102.178586, 2.805663 ], [ 102.181678, 2.810304 ], [ 102.184338, 2.813817 ], [ 102.193983, 2.818418 ], [ 102.193297, 2.825815 ], [ 102.190518, 2.828686 ], [ 102.189907, 2.832154 ], [ 102.190213, 2.83667 ], [ 102.191249, 2.838688 ], [ 102.190816, 2.840695 ], [ 102.184835, 2.845035 ], [ 102.180119, 2.846208 ], [ 102.177963, 2.848982 ], [ 102.17489, 2.850932 ], [ 102.16876, 2.851503 ], [ 102.165999, 2.855809 ], [ 102.163275, 2.8622 ], [ 102.159433, 2.866278 ], [ 102.160494, 2.869965 ], [ 102.159889, 2.874258 ], [ 102.15836, 2.875525 ], [ 102.157395, 2.88085 ], [ 102.1547, 2.882891 ], [ 102.153055, 2.886127 ], [ 102.151273, 2.888175 ], [ 102.150604, 2.88937 ], [ 102.148316, 2.890922 ], [ 102.147587, 2.893772 ], [ 102.151205, 2.894972 ], [ 102.153634, 2.89621 ], [ 102.157635, 2.899299 ], [ 102.163398, 2.898458 ], [ 102.167443, 2.902692 ], [ 102.171537, 2.90159 ], [ 102.177098, 2.898431 ], [ 102.183785, 2.896623 ], [ 102.187767, 2.894032 ], [ 102.191383, 2.894488 ], [ 102.194662, 2.898998 ], [ 102.197758, 2.905065 ], [ 102.201162, 2.909908 ], [ 102.205321, 2.91053 ], [ 102.212584, 2.909135 ], [ 102.219609, 2.906991 ], [ 102.225323, 2.903705 ], [ 102.228076, 2.904477 ], [ 102.232258, 2.907088 ], [ 102.236836, 2.903283 ], [ 102.238597, 2.903244 ], [ 102.245816, 2.898548 ], [ 102.250381, 2.8975 ], [ 102.253895, 2.892712 ], [ 102.258033, 2.891648 ], [ 102.260515, 2.883919 ], [ 102.264664, 2.880894 ], [ 102.268177, 2.879626 ], [ 102.271821, 2.874537 ], [ 102.277089, 2.86928 ], [ 102.280877, 2.870728 ], [ 102.282853, 2.87018 ], [ 102.288884, 2.86636 ], [ 102.294417, 2.863275 ], [ 102.295458, 2.865652 ], [ 102.300732, 2.86223 ], [ 102.300286, 2.86095 ], [ 102.29779, 2.857033 ], [ 102.297319, 2.84949 ], [ 102.298126, 2.845695 ], [ 102.296913, 2.842567 ], [ 102.29319, 2.83993 ], [ 102.294837, 2.835528 ], [ 102.292327, 2.831439 ], [ 102.302206, 2.829555 ], [ 102.308178, 2.828702 ], [ 102.311436, 2.82366 ], [ 102.315237, 2.822109 ], [ 102.315004, 2.817377 ], [ 102.324933, 2.80551 ], [ 102.336723, 2.792091 ], [ 102.341842, 2.793099 ], [ 102.341842, 2.787864 ], [ 102.338923, 2.786371 ], [ 102.3336, 2.783282 ] ] ] } },
{ "type": "Feature", "properties": { "state": "Negeri Sembilan", "parlimen": "P.129 Kuala Pilah", "code_parlimen": "P.129", "dun": "N.16 Seri Menanti", "code_dun": "N.16" }, "geometry": { "type": "Polygon", "coordinates": [ [ [ 102.053076, 2.755106 ], [ 102.050841, 2.758557 ], [ 102.050622, 2.761809 ], [ 102.054617, 2.769643 ], [ 102.052653, 2.774512 ], [ 102.051589, 2.779476 ], [ 102.053727, 2.786152 ], [ 102.050914, 2.79202 ], [ 102.050458, 2.798548 ], [ 102.052707, 2.802892 ], [ 102.057432, 2.803936 ], [ 102.060257, 2.806391 ], [ 102.059766, 2.81189 ], [ 102.062907, 2.814411 ], [ 102.065234, 2.816466 ], [ 102.065122, 2.819527 ], [ 102.062078, 2.824197 ], [ 102.066515, 2.829838 ], [ 102.067697, 2.832813 ], [ 102.07306, 2.832123 ], [ 102.075812, 2.834083 ], [ 102.077887, 2.836332 ], [ 102.079266, 2.838979 ], [ 102.083699, 2.845067 ], [ 102.092624, 2.846959 ], [ 102.095846, 2.849388 ], [ 102.093818, 2.854098 ], [ 102.096766, 2.861855 ], [ 102.100051, 2.866505 ], [ 102.106227, 2.869192 ], [ 102.106582, 2.873093 ], [ 102.107091, 2.878311 ], [ 102.111295, 2.879868 ], [ 102.114866, 2.884376 ], [ 102.119425, 2.886655 ], [ 102.125858, 2.891037 ], [ 102.130062, 2.895773 ], [ 102.133911, 2.895899 ], [ 102.141256, 2.899445 ], [ 102.143459, 2.895469 ], [ 102.147587, 2.893772 ], [ 102.148316, 2.890922 ], [ 102.150604, 2.88937 ], [ 102.151273, 2.888175 ], [ 102.153055, 2.886127 ], [ 102.1547, 2.882891 ], [ 102.157395, 2.88085 ], [ 102.15836, 2.875525 ], [ 102.159889, 2.874258 ], [ 102.160494, 2.869965 ], [ 102.159433, 2.866278 ], [ 102.163275, 2.8622 ], [ 102.165999, 2.855809 ], [ 102.16876, 2.851503 ], [ 102.17489, 2.850932 ], [ 102.177963, 2.848982 ], [ 102.180119, 2.846208 ], [ 102.184835, 2.845035 ], [ 102.190816, 2.840695 ], [ 102.191249, 2.838688 ], [ 102.190213, 2.83667 ], [ 102.189907, 2.832154 ], [ 102.190518, 2.828686 ], [ 102.193297, 2.825815 ], [ 102.193983, 2.818418 ], [ 102.184338, 2.813817 ], [ 102.181678, 2.810304 ], [ 102.178586, 2.805663 ], [ 102.184647, 2.800218 ], [ 102.182537, 2.796445 ], [ 102.176535, 2.79647 ], [ 102.175726, 2.794961 ], [ 102.179682, 2.79023 ], [ 102.184177, 2.787852 ], [ 102.188291, 2.790928 ], [ 102.193488, 2.788523 ], [ 102.193527, 2.785653 ], [ 102.195939, 2.783233 ], [ 102.192907, 2.780421 ], [ 102.190717, 2.77664 ], [ 102.195269, 2.772175 ], [ 102.200042, 2.768878 ], [ 102.202357, 2.765362 ], [ 102.201737, 2.763182 ], [ 102.197536, 2.760779 ], [ 102.194276, 2.762323 ], [ 102.190436, 2.761157 ], [ 102.183688, 2.751733 ], [ 102.181783, 2.746597 ], [ 102.182746, 2.741633 ], [ 102.186072, 2.740196 ], [ 102.192954, 2.739489 ], [ 102.197941, 2.739607 ], [ 102.200493, 2.737546 ], [ 102.204753, 2.737083 ], [ 102.206008, 2.735618 ], [ 102.205817, 2.727933 ], [ 102.205692, 2.721742 ], [ 102.205933, 2.716968 ], [ 102.203373, 2.710685 ], [ 102.209074, 2.707776 ], [ 102.205002, 2.701493 ], [ 102.198493, 2.698259 ], [ 102.193841, 2.69861 ], [ 102.186073, 2.692108 ], [ 102.184145, 2.686774 ], [ 102.178444, 2.683478 ], [ 102.17439, 2.680062 ], [ 102.171355, 2.677597 ], [ 102.173777, 2.674949 ], [ 102.173591, 2.672151 ], [ 102.174806, 2.669973 ], [ 102.176103, 2.666842 ], [ 102.173028, 2.664118 ], [ 102.169499, 2.661015 ], [ 102.1672, 2.655328 ], [ 102.16433, 2.652807 ], [ 102.161558, 2.653326 ], [ 102.159658, 2.651659 ], [ 102.159541, 2.633536 ], [ 102.15883, 2.612175 ], [ 102.155679, 2.613186 ], [ 102.153754, 2.61344 ], [ 102.148666, 2.612015 ], [ 102.145485, 2.615242 ], [ 102.143352, 2.618655 ], [ 102.142033, 2.62071 ], [ 102.140705, 2.623882 ], [ 102.135621, 2.629699 ], [ 102.131293, 2.62941 ], [ 102.128346, 2.63321 ], [ 102.122198, 2.63289 ], [ 102.120425, 2.638208 ], [ 102.115765, 2.642058 ], [ 102.117082, 2.646262 ], [ 102.117893, 2.651986 ], [ 102.115461, 2.655075 ], [ 102.114246, 2.664041 ], [ 102.116162, 2.670277 ], [ 102.118218, 2.676755 ], [ 102.1185, 2.681161 ], [ 102.123093, 2.684173 ], [ 102.124254, 2.687905 ], [ 102.125316, 2.694517 ], [ 102.126557, 2.698745 ], [ 102.121854, 2.704544 ], [ 102.119226, 2.705443 ], [ 102.115673, 2.703709 ], [ 102.112578, 2.705716 ], [ 102.106882, 2.705531 ], [ 102.102271, 2.704811 ], [ 102.095288, 2.70533 ], [ 102.093235, 2.707254 ], [ 102.092459, 2.70896 ], [ 102.090016, 2.708883 ], [ 102.089085, 2.705935 ], [ 102.084121, 2.700389 ], [ 102.08061, 2.702634 ], [ 102.078776, 2.700124 ], [ 102.079014, 2.692042 ], [ 102.074839, 2.686378 ], [ 102.068558, 2.685973 ], [ 102.06407, 2.680145 ], [ 102.058874, 2.683829 ], [ 102.057009, 2.687087 ], [ 102.052754, 2.687797 ], [ 102.048588, 2.693147 ], [ 102.047495, 2.696389 ], [ 102.048297, 2.703701 ], [ 102.05007, 2.707044 ], [ 102.051285, 2.715706 ], [ 102.054173, 2.720822 ], [ 102.055236, 2.727457 ], [ 102.054173, 2.733079 ], [ 102.058098, 2.745688 ], [ 102.053677, 2.750342 ], [ 102.053076, 2.755106 ] ] ] } },
{ "type": "Feature", "properties": { "state": "Negeri Sembilan", "parlimen": "P.129 Kuala Pilah", "code_parlimen": "P.129", "dun": "N.17 Senaling", "code_dun": "N.17" }, "geometry": { "type": "Polygon", "coordinates": [ [ [ 102.251197, 2.751117 ], [ 102.254881, 2.754297 ], [ 102.258721, 2.754181 ], [ 102.265702, 2.76089 ], [ 102.26993, 2.765351 ], [ 102.278733, 2.765273 ], [ 102.285791, 2.770315 ], [ 102.292825, 2.772645 ], [ 102.297348, 2.772486 ], [ 102.303411, 2.775076 ], [ 102.306579, 2.775744 ], [ 102.3122, 2.777922 ], [ 102.316233, 2.778155 ], [ 102.327977, 2.783028 ], [ 102.3336, 2.783282 ], [ 102.338923, 2.786371 ], [ 102.341842, 2.787864 ], [ 102.341881, 2.779642 ], [ 102.34879, 2.768444 ], [ 102.368292, 2.77045 ], [ 102.368175, 2.780573 ], [ 102.368563, 2.783016 ], [ 102.372984, 2.782977 ], [ 102.377724, 2.783162 ], [ 102.384403, 2.783339 ], [ 102.389545, 2.783339 ], [ 102.392649, 2.772315 ], [ 102.394548, 2.767425 ], [ 102.395672, 2.76281 ], [ 102.397922, 2.762694 ], [ 102.398581, 2.75866 ], [ 102.394199, 2.75548 ], [ 102.392647, 2.751641 ], [ 102.393772, 2.747375 ], [ 102.395827, 2.738028 ], [ 102.394431, 2.733452 ], [ 102.389583, 2.731396 ], [ 102.388497, 2.72682 ], [ 102.384193, 2.721972 ], [ 102.378298, 2.717124 ], [ 102.373526, 2.714655 ], [ 102.362874, 2.71873 ], [ 102.352615, 2.72303 ], [ 102.346409, 2.713304 ], [ 102.339466, 2.713828 ], [ 102.331481, 2.713513 ], [ 102.331574, 2.715921 ], [ 102.324768, 2.721351 ], [ 102.324729, 2.714603 ], [ 102.316306, 2.714282 ], [ 102.313712, 2.721043 ], [ 102.305144, 2.719374 ], [ 102.295721, 2.717619 ], [ 102.287498, 2.716271 ], [ 102.287885, 2.705489 ], [ 102.287791, 2.69951 ], [ 102.284314, 2.699987 ], [ 102.283233, 2.697092 ], [ 102.282197, 2.696516 ], [ 102.279487, 2.693177 ], [ 102.276544, 2.691628 ], [ 102.272538, 2.691644 ], [ 102.268396, 2.687279 ], [ 102.265469, 2.690868 ], [ 102.260272, 2.689356 ], [ 102.25779, 2.692963 ], [ 102.253449, 2.691709 ], [ 102.25236, 2.697287 ], [ 102.249093, 2.701029 ], [ 102.252994, 2.705031 ], [ 102.251662, 2.707196 ], [ 102.251468, 2.71024 ], [ 102.248375, 2.71602 ], [ 102.248676, 2.720537 ], [ 102.251216, 2.726762 ], [ 102.25048, 2.731532 ], [ 102.25013, 2.73607 ], [ 102.249859, 2.739482 ], [ 102.248036, 2.744098 ], [ 102.247795, 2.748737 ], [ 102.251197, 2.751117 ] ] ] } },
{ "type": "Feature", "properties": { "state": "Negeri Sembilan", "parlimen": "P.129 Kuala Pilah", "code_parlimen": "P.129", "dun": "N.18 Pilah", "code_dun": "N.18" }, "geometry": { "type": "Polygon", "coordinates": [ [ [ 102.204753, 2.737083 ], [ 102.200493, 2.737546 ], [ 102.197941, 2.739607 ], [ 102.192954, 2.739489 ], [ 102.186072, 2.740196 ], [ 102.182746, 2.741633 ], [ 102.181783, 2.746597 ], [ 102.183688, 2.751733 ], [ 102.190436, 2.761157 ], [ 102.194276, 2.762323 ], [ 102.197536, 2.760779 ], [ 102.201737, 2.763182 ], [ 102.202357, 2.765362 ], [ 102.200042, 2.768878 ], [ 102.195269, 2.772175 ], [ 102.190717, 2.77664 ], [ 102.192907, 2.780421 ], [ 102.197898, 2.775612 ], [ 102.205298, 2.771129 ], [ 102.207706, 2.769193 ], [ 102.209682, 2.769678 ], [ 102.21096, 2.773223 ], [ 102.212086, 2.775304 ], [ 102.215986, 2.775051 ], [ 102.217381, 2.771871 ], [ 102.219882, 2.771501 ], [ 102.223443, 2.76903 ], [ 102.225623, 2.769289 ], [ 102.229773, 2.770713 ], [ 102.231811, 2.767888 ], [ 102.233609, 2.766359 ], [ 102.23547, 2.765016 ], [ 102.237333, 2.760828 ], [ 102.239562, 2.75771 ], [ 102.242983, 2.756107 ], [ 102.245719, 2.752181 ], [ 102.247795, 2.748737 ], [ 102.248036, 2.744098 ], [ 102.249859, 2.739482 ], [ 102.25013, 2.73607 ], [ 102.25048, 2.731532 ], [ 102.251216, 2.726762 ], [ 102.248676, 2.720537 ], [ 102.248375, 2.71602 ], [ 102.251468, 2.71024 ], [ 102.251662, 2.707196 ], [ 102.252994, 2.705031 ], [ 102.249093, 2.701029 ], [ 102.243983, 2.69814 ], [ 102.239216, 2.695559 ], [ 102.23456, 2.692891 ], [ 102.227899, 2.688845 ], [ 102.221455, 2.685561 ], [ 102.209624, 2.677865 ], [ 102.205367, 2.684134 ], [ 102.202449, 2.688673 ], [ 102.19742, 2.68174 ], [ 102.192145, 2.67569 ], [ 102.188064, 2.669189 ], [ 102.183707, 2.663719 ], [ 102.180251, 2.666456 ], [ 102.176103, 2.666842 ], [ 102.174806, 2.669973 ], [ 102.173591, 2.672151 ], [ 102.173777, 2.674949 ], [ 102.171355, 2.677597 ], [ 102.17439, 2.680062 ], [ 102.178444, 2.683478 ], [ 102.184145, 2.686774 ], [ 102.186073, 2.692108 ], [ 102.193841, 2.69861 ], [ 102.198493, 2.698259 ], [ 102.205002, 2.701493 ], [ 102.209074, 2.707776 ], [ 102.203373, 2.710685 ], [ 102.205933, 2.716968 ], [ 102.205692, 2.721742 ], [ 102.205817, 2.727933 ], [ 102.206008, 2.735618 ], [ 102.204753, 2.737083 ] ] ] } },
{ "type": "Feature", "properties": { "state": "Negeri Sembilan", "parlimen": "P.129 Kuala Pilah", "code_parlimen": "P.129", "dun": "N.19 Johol", "code_dun": "N.19" }, "geometry": { "type": "Polygon", "coordinates": [ [ [ 102.235151, 2.544705 ], [ 102.230098, 2.539609 ], [ 102.227733, 2.535117 ], [ 102.221764, 2.537895 ], [ 102.217153, 2.541737 ], [ 102.21447, 2.539034 ], [ 102.210785, 2.541671 ], [ 102.206752, 2.541555 ], [ 102.203747, 2.543895 ], [ 102.202379, 2.547101 ], [ 102.199938, 2.550286 ], [ 102.20047, 2.55531 ], [ 102.195631, 2.559589 ], [ 102.190202, 2.561024 ], [ 102.185937, 2.56522 ], [ 102.183137, 2.567171 ], [ 102.181492, 2.570745 ], [ 102.181612, 2.574792 ], [ 102.177326, 2.579523 ], [ 102.177049, 2.582349 ], [ 102.178573, 2.585328 ], [ 102.179885, 2.590188 ], [ 102.176142, 2.593483 ], [ 102.171319, 2.595553 ], [ 102.169861, 2.600017 ], [ 102.165802, 2.604901 ], [ 102.162546, 2.608119 ], [ 102.16689, 2.611881 ], [ 102.167329, 2.613035 ], [ 102.164137, 2.616357 ], [ 102.161435, 2.615327 ], [ 102.15883, 2.612175 ], [ 102.159541, 2.633536 ], [ 102.159658, 2.651659 ], [ 102.161558, 2.653326 ], [ 102.16433, 2.652807 ], [ 102.1672, 2.655328 ], [ 102.169499, 2.661015 ], [ 102.173028, 2.664118 ], [ 102.176103, 2.666842 ], [ 102.180251, 2.666456 ], [ 102.183707, 2.663719 ], [ 102.188064, 2.669189 ], [ 102.192145, 2.67569 ], [ 102.19742, 2.68174 ], [ 102.202449, 2.688673 ], [ 102.205367, 2.684134 ], [ 102.209624, 2.677865 ], [ 102.221455, 2.685561 ], [ 102.227899, 2.688845 ], [ 102.23456, 2.692891 ], [ 102.239216, 2.695559 ], [ 102.243983, 2.69814 ], [ 102.249093, 2.701029 ], [ 102.25236, 2.697287 ], [ 102.253449, 2.691709 ], [ 102.25779, 2.692963 ], [ 102.260272, 2.689356 ], [ 102.265469, 2.690868 ], [ 102.268396, 2.687279 ], [ 102.272538, 2.691644 ], [ 102.276544, 2.691628 ], [ 102.279487, 2.693177 ], [ 102.282197, 2.696516 ], [ 102.283233, 2.697092 ], [ 102.284314, 2.699987 ], [ 102.287791, 2.69951 ], [ 102.287885, 2.705489 ], [ 102.287498, 2.716271 ], [ 102.295721, 2.717619 ], [ 102.305144, 2.719374 ], [ 102.313712, 2.721043 ], [ 102.316306, 2.714282 ], [ 102.324729, 2.714603 ], [ 102.324768, 2.721351 ], [ 102.331574, 2.715921 ], [ 102.331481, 2.713513 ], [ 102.339466, 2.713828 ], [ 102.346409, 2.713304 ], [ 102.352615, 2.72303 ], [ 102.362874, 2.71873 ], [ 102.373526, 2.714655 ], [ 102.371396, 2.709004 ], [ 102.365301, 2.704664 ], [ 102.357707, 2.704104 ], [ 102.355267, 2.700075 ], [ 102.354588, 2.696103 ], [ 102.3555, 2.692659 ], [ 102.354664, 2.688227 ], [ 102.356817, 2.684555 ], [ 102.357946, 2.677301 ], [ 102.354057, 2.670322 ], [ 102.347273, 2.665716 ], [ 102.346661, 2.661964 ], [ 102.349359, 2.656747 ], [ 102.348202, 2.652318 ], [ 102.339302, 2.64693 ], [ 102.333986, 2.644401 ], [ 102.348168, 2.643869 ], [ 102.347543, 2.627303 ], [ 102.347814, 2.598216 ], [ 102.3293, 2.576727 ], [ 102.324985, 2.571408 ], [ 102.329418, 2.571171 ], [ 102.327909, 2.555633 ], [ 102.32756, 2.541173 ], [ 102.32642, 2.539537 ], [ 102.316108, 2.538777 ], [ 102.309369, 2.537476 ], [ 102.297931, 2.537857 ], [ 102.281736, 2.540103 ], [ 102.269708, 2.539248 ], [ 102.264569, 2.541354 ], [ 102.241587, 2.542482 ], [ 102.23815, 2.541407 ], [ 102.235151, 2.544705 ] ] ] } },
{ "type": "Feature", "properties": { "state": "Negeri Sembilan", "parlimen": "P.130 Rasah", "code_parlimen": "P.130", "dun": "N.20 Labu", "code_dun": "N.20" }, "geometry": { "type": "Polygon", "coordinates": [ [ [ 101.885205, 2.74428 ], [ 101.884495, 2.742557 ], [ 101.878417, 2.742912 ], [ 101.878366, 2.739883 ], [ 101.877303, 2.739062 ], [ 101.877354, 2.735922 ], [ 101.872187, 2.73729 ], [ 101.867983, 2.738303 ], [ 101.865545, 2.738322 ], [ 101.865089, 2.711932 ], [ 101.864786, 2.693951 ], [ 101.85059, 2.695027 ], [ 101.833491, 2.694923 ], [ 101.830754, 2.682738 ], [ 101.827892, 2.668783 ], [ 101.812621, 2.669087 ], [ 101.797476, 2.669442 ], [ 101.79317, 2.669543 ], [ 101.793778, 2.678711 ], [ 101.783345, 2.711667 ], [ 101.779925, 2.722221 ], [ 101.763783, 2.723038 ], [ 101.760093, 2.722804 ], [ 101.759855, 2.726318 ], [ 101.758734, 2.742817 ], [ 101.755162, 2.798379 ], [ 101.754386, 2.811492 ], [ 101.754567, 2.817592 ], [ 101.780856, 2.816629 ], [ 101.783287, 2.80579 ], [ 101.799901, 2.805587 ], [ 101.794785, 2.797027 ], [ 101.804257, 2.797838 ], [ 101.811044, 2.791354 ], [ 101.820263, 2.796014 ], [ 101.827201, 2.784362 ], [ 101.825682, 2.780109 ], [ 101.830716, 2.76748 ], [ 101.839135, 2.763736 ], [ 101.84427, 2.772074 ], [ 101.850159, 2.780758 ], [ 101.854003, 2.779724 ], [ 101.858463, 2.778173 ], [ 101.866348, 2.775302 ], [ 101.874919, 2.769291 ], [ 101.879576, 2.765674 ], [ 101.893134, 2.766299 ], [ 101.894754, 2.767607 ], [ 101.895586, 2.768634 ], [ 101.897633, 2.769751 ], [ 101.894555, 2.75615 ], [ 101.894061, 2.752044 ], [ 101.89271, 2.74955 ], [ 101.891074, 2.744197 ], [ 101.888396, 2.742861 ], [ 101.885205, 2.74428 ] ] ] } },
{ "type": "Feature", "properties": { "state": "Negeri Sembilan", "parlimen": "P.130 Rasah", "code_parlimen": "P.130", "dun": "N.21 Bukit Kepayang", "code_dun": "N.21" }, "geometry": { "type": "Polygon", "coordinates": [ [ [ 101.867983, 2.738303 ], [ 101.872187, 2.73729 ], [ 101.877354, 2.735922 ], [ 101.877303, 2.739062 ], [ 101.878366, 2.739883 ], [ 101.878417, 2.742912 ], [ 101.884495, 2.742557 ], [ 101.885205, 2.74428 ], [ 101.888396, 2.742861 ], [ 101.891074, 2.744197 ], [ 101.893606, 2.741867 ], [ 101.906573, 2.741969 ], [ 101.9009, 2.733155 ], [ 101.90708, 2.722721 ], [ 101.913107, 2.720796 ], [ 101.925365, 2.720543 ], [ 101.927695, 2.723379 ], [ 101.935495, 2.721936 ], [ 101.938395, 2.722874 ], [ 101.940586, 2.723734 ], [ 101.941447, 2.720973 ], [ 101.941548, 2.71839 ], [ 101.939066, 2.716769 ], [ 101.938864, 2.713224 ], [ 101.942002, 2.709688 ], [ 101.940637, 2.706791 ], [ 101.939269, 2.703701 ], [ 101.931773, 2.703954 ], [ 101.929645, 2.701169 ], [ 101.926707, 2.70127 ], [ 101.925492, 2.699801 ], [ 101.925164, 2.696367 ], [ 101.929626, 2.691779 ], [ 101.928259, 2.690386 ], [ 101.923719, 2.694508 ], [ 101.921389, 2.692482 ], [ 101.91871, 2.692089 ], [ 101.916164, 2.689865 ], [ 101.913513, 2.687619 ], [ 101.888534, 2.688086 ], [ 101.888716, 2.704301 ], [ 101.890086, 2.710682 ], [ 101.881451, 2.710312 ], [ 101.872586, 2.711679 ], [ 101.865089, 2.711932 ], [ 101.865545, 2.738322 ], [ 101.867983, 2.738303 ] ] ] } },
{ "type": "Feature", "properties": { "state": "Negeri Sembilan", "parlimen": "P.130 Rasah", "code_parlimen": "P.130", "dun": "N.22 Rahang", "code_dun": "N.22" }, "geometry": { "type": "Polygon", "coordinates": [ [ [ 101.952738, 2.699708 ], [ 101.95492, 2.696509 ], [ 101.953755, 2.694837 ], [ 101.951476, 2.694331 ], [ 101.949754, 2.691747 ], [ 101.947475, 2.691595 ], [ 101.944233, 2.690532 ], [ 101.940637, 2.68653 ], [ 101.932482, 2.686378 ], [ 101.926479, 2.682048 ], [ 101.922426, 2.68579 ], [ 101.918489, 2.686905 ], [ 101.918654, 2.689873 ], [ 101.91871, 2.692089 ], [ 101.921389, 2.692482 ], [ 101.923719, 2.694508 ], [ 101.928259, 2.690386 ], [ 101.929626, 2.691779 ], [ 101.925164, 2.696367 ], [ 101.925492, 2.699801 ], [ 101.926707, 2.70127 ], [ 101.929645, 2.701169 ], [ 101.931773, 2.703954 ], [ 101.939269, 2.703701 ], [ 101.940637, 2.706791 ], [ 101.942002, 2.709688 ], [ 101.947981, 2.71059 ], [ 101.954451, 2.704297 ], [ 101.952738, 2.699708 ] ] ] } },
{ "type": "Feature", "properties": { "state": "Negeri Sembilan", "parlimen": "P.130 Rasah", "code_parlimen": "P.130", "dun": "N.23 Mambau", "code_dun": "N.23" }, "geometry": { "type": "Polygon", "coordinates": [ [ [ 101.952799, 2.686992 ], [ 101.953002, 2.684916 ], [ 101.949811, 2.685068 ], [ 101.951381, 2.681927 ], [ 101.952597, 2.677419 ], [ 101.956902, 2.678382 ], [ 101.966982, 2.678534 ], [ 101.967864, 2.674758 ], [ 101.960362, 2.667811 ], [ 101.960543, 2.662369 ], [ 101.945094, 2.663078 ], [ 101.944739, 2.6686 ], [ 101.933647, 2.668194 ], [ 101.933039, 2.662623 ], [ 101.929493, 2.662977 ], [ 101.926353, 2.662927 ], [ 101.926201, 2.658976 ], [ 101.926093, 2.654663 ], [ 101.924529, 2.65543 ], [ 101.922108, 2.657297 ], [ 101.920021, 2.657102 ], [ 101.918106, 2.656933 ], [ 101.916932, 2.659533 ], [ 101.915106, 2.663071 ], [ 101.912871, 2.666449 ], [ 101.907612, 2.664953 ], [ 101.902496, 2.663078 ], [ 101.901128, 2.658976 ], [ 101.891086, 2.659546 ], [ 101.890566, 2.661002 ], [ 101.890878, 2.665575 ], [ 101.880466, 2.665807 ], [ 101.87688, 2.667782 ], [ 101.877365, 2.673683 ], [ 101.872182, 2.680501 ], [ 101.86475, 2.684087 ], [ 101.867318, 2.689392 ], [ 101.867571, 2.693596 ], [ 101.864786, 2.693951 ], [ 101.865089, 2.711932 ], [ 101.872586, 2.711679 ], [ 101.881451, 2.710312 ], [ 101.890086, 2.710682 ], [ 101.888716, 2.704301 ], [ 101.888534, 2.688086 ], [ 101.913513, 2.687619 ], [ 101.916164, 2.689865 ], [ 101.91871, 2.692089 ], [ 101.918654, 2.689873 ], [ 101.918489, 2.686905 ], [ 101.922426, 2.68579 ], [ 101.926479, 2.682048 ], [ 101.932482, 2.686378 ], [ 101.940637, 2.68653 ], [ 101.944233, 2.690532 ], [ 101.947475, 2.691595 ], [ 101.949754, 2.691747 ], [ 101.951476, 2.694331 ], [ 101.953755, 2.694837 ], [ 101.95492, 2.696509 ], [ 101.957611, 2.69459 ], [ 101.952799, 2.686992 ] ] ] } },
{ "type": "Feature", "properties": { "state": "Negeri Sembilan", "parlimen": "P.130 Rasah", "code_parlimen": "P.130", "dun": "N.24 Senawang", "code_dun": "N.24" }, "geometry": { "type": "Polygon", "coordinates": [ [ [ 101.984735, 2.681269 ], [ 101.989142, 2.676609 ], [ 101.984938, 2.672911 ], [ 101.98818, 2.670683 ], [ 101.988281, 2.662173 ], [ 101.984077, 2.661059 ], [ 101.966855, 2.664858 ], [ 101.960543, 2.662369 ], [ 101.960362, 2.667811 ], [ 101.967864, 2.674758 ], [ 101.966982, 2.678534 ], [ 101.956902, 2.678382 ], [ 101.952597, 2.677419 ], [ 101.951381, 2.681927 ], [ 101.949811, 2.685068 ], [ 101.953002, 2.684916 ], [ 101.952799, 2.686992 ], [ 101.957611, 2.69459 ], [ 101.959378, 2.693672 ], [ 101.962113, 2.69818 ], [ 101.964392, 2.701827 ], [ 101.9689, 2.696661 ], [ 101.971686, 2.694381 ], [ 101.976074, 2.691146 ], [ 101.984735, 2.681269 ] ] ] } },
{ "type": "Feature", "properties": { "state": "Negeri Sembilan", "parlimen": "P.131 Rembau", "code_parlimen": "P.131", "dun": "N.25 Paroi", "code_dun": "N.25" }, "geometry": { "type": "Polygon", "coordinates": [ [ [ 101.966855, 2.664858 ], [ 101.984077, 2.661059 ], [ 101.988281, 2.662173 ], [ 101.98818, 2.670683 ], [ 101.984938, 2.672911 ], [ 101.989142, 2.676609 ], [ 101.984735, 2.681269 ], [ 101.976074, 2.691146 ], [ 101.971686, 2.694381 ], [ 101.972167, 2.695825 ], [ 101.975054, 2.699016 ], [ 101.975409, 2.700839 ], [ 101.977638, 2.705702 ], [ 101.979664, 2.708488 ], [ 101.982298, 2.711983 ], [ 101.984628, 2.715326 ], [ 101.986299, 2.71563 ], [ 101.989693, 2.713046 ], [ 101.993846, 2.712895 ], [ 101.995265, 2.716541 ], [ 101.992783, 2.718922 ], [ 101.992631, 2.722417 ], [ 101.997341, 2.72262 ], [ 102.003318, 2.721607 ], [ 102.007168, 2.718264 ], [ 102.011726, 2.715427 ], [ 102.016374, 2.715638 ], [ 102.020252, 2.717073 ], [ 102.024906, 2.721455 ], [ 102.030995, 2.723395 ], [ 102.036773, 2.722503 ], [ 102.040497, 2.720796 ], [ 102.045258, 2.7211 ], [ 102.05164, 2.724848 ], [ 102.055236, 2.727457 ], [ 102.054173, 2.720822 ], [ 102.051285, 2.715706 ], [ 102.05007, 2.707044 ], [ 102.048297, 2.703701 ], [ 102.047495, 2.696389 ], [ 102.048588, 2.693147 ], [ 102.052754, 2.687797 ], [ 102.050497, 2.684256 ], [ 102.043128, 2.677275 ], [ 102.040642, 2.673146 ], [ 102.03816, 2.668384 ], [ 102.032791, 2.665598 ], [ 102.026662, 2.652277 ], [ 102.026731, 2.645349 ], [ 102.02679, 2.639094 ], [ 102.027568, 2.630222 ], [ 102.027568, 2.623668 ], [ 102.031324, 2.623676 ], [ 102.030296, 2.593917 ], [ 102.031202, 2.571113 ], [ 102.020584, 2.570829 ], [ 102.011973, 2.570728 ], [ 101.983102, 2.570576 ], [ 101.983558, 2.589621 ], [ 101.99131, 2.589707 ], [ 101.991, 2.604366 ], [ 101.984165, 2.604563 ], [ 101.984654, 2.616407 ], [ 101.989028, 2.620924 ], [ 101.98685, 2.626039 ], [ 101.984294, 2.631434 ], [ 101.981967, 2.63314 ], [ 101.975282, 2.633397 ], [ 101.97513, 2.648491 ], [ 101.962375, 2.64874 ], [ 101.960204, 2.650059 ], [ 101.960543, 2.662369 ], [ 101.966855, 2.664858 ] ] ] } },
{ "type": "Feature", "properties": { "state": "Negeri Sembilan", "parlimen": "P.131 Rembau", "code_parlimen": "P.131", "dun": "N.26 Chembong", "code_dun": "N.26" }, "geometry": { "type": "Polygon", "coordinates": [ [ [ 102.070983, 2.516328 ], [ 102.074326, 2.511161 ], [ 102.074376, 2.503158 ], [ 102.041275, 2.496092 ], [ 102.03464, 2.496244 ], [ 102.031626, 2.499005 ], [ 102.031322, 2.528687 ], [ 102.028992, 2.528383 ], [ 102.028891, 2.53203 ], [ 102.031221, 2.53203 ], [ 102.031424, 2.543072 ], [ 102.012075, 2.543173 ], [ 102.011973, 2.570728 ], [ 102.020584, 2.570829 ], [ 102.031202, 2.571113 ], [ 102.030296, 2.593917 ], [ 102.031324, 2.623676 ], [ 102.027568, 2.623668 ], [ 102.027568, 2.630222 ], [ 102.02679, 2.639094 ], [ 102.026731, 2.645349 ], [ 102.026662, 2.652277 ], [ 102.032791, 2.665598 ], [ 102.03816, 2.668384 ], [ 102.040642, 2.673146 ], [ 102.043128, 2.677275 ], [ 102.050497, 2.684256 ], [ 102.052754, 2.687797 ], [ 102.057009, 2.687087 ], [ 102.058874, 2.683829 ], [ 102.06407, 2.680145 ], [ 102.068558, 2.685973 ], [ 102.074839, 2.686378 ], [ 102.079014, 2.692042 ], [ 102.078776, 2.700124 ], [ 102.08061, 2.702634 ], [ 102.084121, 2.700389 ], [ 102.089085, 2.705935 ], [ 102.090016, 2.708883 ], [ 102.092459, 2.70896 ], [ 102.093235, 2.707254 ], [ 102.095288, 2.70533 ], [ 102.102271, 2.704811 ], [ 102.106882, 2.705531 ], [ 102.112578, 2.705716 ], [ 102.115673, 2.703709 ], [ 102.119226, 2.705443 ], [ 102.121854, 2.704544 ], [ 102.126557, 2.698745 ], [ 102.125316, 2.694517 ], [ 102.124254, 2.687905 ], [ 102.123093, 2.684173 ], [ 102.1185, 2.681161 ], [ 102.118218, 2.676755 ], [ 102.116162, 2.670277 ], [ 102.114246, 2.664041 ], [ 102.115461, 2.655075 ], [ 102.117893, 2.651986 ], [ 102.117082, 2.646262 ], [ 102.115765, 2.642058 ], [ 102.120425, 2.638208 ], [ 102.122198, 2.63289 ], [ 102.117278, 2.625381 ], [ 102.118393, 2.617277 ], [ 102.11919, 2.608184 ], [ 102.111921, 2.595903 ], [ 102.115257, 2.59187 ], [ 102.115622, 2.589684 ], [ 102.109275, 2.584049 ], [ 102.106276, 2.578903 ], [ 102.11039, 2.573716 ], [ 102.108465, 2.570322 ], [ 102.116265, 2.564852 ], [ 102.107857, 2.555127 ], [ 102.102589, 2.554671 ], [ 102.10345, 2.549201 ], [ 102.10148, 2.547383 ], [ 102.099813, 2.544591 ], [ 102.098286, 2.543223 ], [ 102.095903, 2.540995 ], [ 102.095373, 2.536227 ], [ 102.093085, 2.532659 ], [ 102.094807, 2.529029 ], [ 102.09473, 2.523367 ], [ 102.091952, 2.519975 ], [ 102.077162, 2.520228 ], [ 102.070983, 2.516328 ] ] ] } },
{ "type": "Feature", "properties": { "state": "Negeri Sembilan", "parlimen": "P.131 Rembau", "code_parlimen": "P.131", "dun": "N.27 Rantau", "code_dun": "N.27" }, "geometry": { "type": "Polygon", "coordinates": [ [ [ 101.869186, 2.627344 ], [ 101.874682, 2.648833 ], [ 101.877949, 2.65676 ], [ 101.870629, 2.658203 ], [ 101.869971, 2.663294 ], [ 101.854193, 2.672019 ], [ 101.846595, 2.646085 ], [ 101.83592, 2.651486 ], [ 101.831007, 2.662046 ], [ 101.827892, 2.668783 ], [ 101.830754, 2.682738 ], [ 101.833491, 2.694923 ], [ 101.85059, 2.695027 ], [ 101.864786, 2.693951 ], [ 101.867571, 2.693596 ], [ 101.867318, 2.689392 ], [ 101.86475, 2.684087 ], [ 101.872182, 2.680501 ], [ 101.877365, 2.673683 ], [ 101.87688, 2.667782 ], [ 101.880466, 2.665807 ], [ 101.890878, 2.665575 ], [ 101.890566, 2.661002 ], [ 101.891086, 2.659546 ], [ 101.901128, 2.658976 ], [ 101.902496, 2.663078 ], [ 101.907612, 2.664953 ], [ 101.912871, 2.666449 ], [ 101.915106, 2.663071 ], [ 101.916932, 2.659533 ], [ 101.918106, 2.656933 ], [ 101.920021, 2.657102 ], [ 101.922108, 2.657297 ], [ 101.924529, 2.65543 ], [ 101.926093, 2.654663 ], [ 101.926201, 2.658976 ], [ 101.926353, 2.662927 ], [ 101.929493, 2.662977 ], [ 101.933039, 2.662623 ], [ 101.933647, 2.668194 ], [ 101.944739, 2.6686 ], [ 101.945094, 2.663078 ], [ 101.960543, 2.662369 ], [ 101.960204, 2.650059 ], [ 101.962375, 2.64874 ], [ 101.97513, 2.648491 ], [ 101.975282, 2.633397 ], [ 101.981967, 2.63314 ], [ 101.984294, 2.631434 ], [ 101.98685, 2.626039 ], [ 101.989028, 2.620924 ], [ 101.984654, 2.616407 ], [ 101.984165, 2.604563 ], [ 101.991, 2.604366 ], [ 101.99131, 2.589707 ], [ 101.983558, 2.589621 ], [ 101.983102, 2.570576 ], [ 101.964031, 2.571943 ], [ 101.96851, 2.569847 ], [ 101.976111, 2.566822 ], [ 101.980711, 2.551476 ], [ 101.974922, 2.551176 ], [ 101.975251, 2.554266 ], [ 101.971193, 2.552082 ], [ 101.971401, 2.54335 ], [ 101.950786, 2.542793 ], [ 101.941821, 2.54254 ], [ 101.94101, 2.540868 ], [ 101.940048, 2.542591 ], [ 101.931943, 2.542742 ], [ 101.932298, 2.550087 ], [ 101.935084, 2.551455 ], [ 101.936958, 2.561686 ], [ 101.928854, 2.569689 ], [ 101.926422, 2.570246 ], [ 101.927182, 2.581086 ], [ 101.927334, 2.598206 ], [ 101.918192, 2.598941 ], [ 101.922218, 2.605044 ], [ 101.909859, 2.605145 ], [ 101.909753, 2.613366 ], [ 101.91016, 2.625118 ], [ 101.889953, 2.625229 ], [ 101.889953, 2.627584 ], [ 101.881913, 2.62757 ], [ 101.869186, 2.627344 ] ] ] } },
{ "type": "Feature", "properties": { "state": "Negeri Sembilan", "parlimen": "P.131 Rembau", "code_parlimen": "P.131", "dun": "N.28 Kota", "code_dun": "N.28" }, "geometry": { "type": "Polygon", "coordinates": [ [ [ 102.041275, 2.496092 ], [ 102.074376, 2.503158 ], [ 102.074326, 2.511161 ], [ 102.070983, 2.516328 ], [ 102.077162, 2.520228 ], [ 102.091952, 2.519975 ], [ 102.09473, 2.523367 ], [ 102.094807, 2.529029 ], [ 102.093085, 2.532659 ], [ 102.095373, 2.536227 ], [ 102.095903, 2.540995 ], [ 102.098286, 2.543223 ], [ 102.099813, 2.544591 ], [ 102.10148, 2.547383 ], [ 102.10345, 2.549201 ], [ 102.102589, 2.554671 ], [ 102.107857, 2.555127 ], [ 102.116265, 2.564852 ], [ 102.108465, 2.570322 ], [ 102.11039, 2.573716 ], [ 102.106276, 2.578903 ], [ 102.109275, 2.584049 ], [ 102.115622, 2.589684 ], [ 102.115257, 2.59187 ], [ 102.111921, 2.595903 ], [ 102.11919, 2.608184 ], [ 102.118393, 2.617277 ], [ 102.117278, 2.625381 ], [ 102.122198, 2.63289 ], [ 102.128346, 2.63321 ], [ 102.131293, 2.62941 ], [ 102.135621, 2.629699 ], [ 102.140705, 2.623882 ], [ 102.142033, 2.62071 ], [ 102.143352, 2.618655 ], [ 102.145485, 2.615242 ], [ 102.148666, 2.612015 ], [ 102.153754, 2.61344 ], [ 102.155679, 2.613186 ], [ 102.15883, 2.612175 ], [ 102.161435, 2.615327 ], [ 102.164137, 2.616357 ], [ 102.167329, 2.613035 ], [ 102.16689, 2.611881 ], [ 102.162546, 2.608119 ], [ 102.165802, 2.604901 ], [ 102.169861, 2.600017 ], [ 102.171319, 2.595553 ], [ 102.176142, 2.593483 ], [ 102.179885, 2.590188 ], [ 102.178573, 2.585328 ], [ 102.177049, 2.582349 ], [ 102.177326, 2.579523 ], [ 102.181612, 2.574792 ], [ 102.181492, 2.570745 ], [ 102.183137, 2.567171 ], [ 102.185937, 2.56522 ], [ 102.190202, 2.561024 ], [ 102.195631, 2.559589 ], [ 102.20047, 2.55531 ], [ 102.199938, 2.550286 ], [ 102.202379, 2.547101 ], [ 102.203747, 2.543895 ], [ 102.198462, 2.537715 ], [ 102.197197, 2.531532 ], [ 102.198734, 2.525266 ], [ 102.197788, 2.521188 ], [ 102.198438, 2.517168 ], [ 102.200563, 2.515551 ], [ 102.203459, 2.51496 ], [ 102.208032, 2.50894 ], [ 102.214363, 2.506844 ], [ 102.214567, 2.501938 ], [ 102.209603, 2.496683 ], [ 102.208652, 2.492941 ], [ 102.211265, 2.488574 ], [ 102.209373, 2.485796 ], [ 102.207353, 2.481791 ], [ 102.205189, 2.48262 ], [ 102.193611, 2.486801 ], [ 102.19249, 2.490533 ], [ 102.176241, 2.499489 ], [ 102.145615, 2.461928 ], [ 102.141597, 2.457028 ], [ 102.140172, 2.457425 ], [ 102.12161, 2.46273 ], [ 102.088458, 2.447148 ], [ 102.087042, 2.449186 ], [ 102.083789, 2.453866 ], [ 102.076691, 2.454239 ], [ 102.069688, 2.457505 ], [ 102.064364, 2.457785 ], [ 102.060442, 2.45088 ], [ 102.06259, 2.448361 ], [ 102.059322, 2.444256 ], [ 102.060722, 2.44211 ], [ 102.062777, 2.44267 ], [ 102.064364, 2.444163 ], [ 102.064831, 2.442483 ], [ 102.063244, 2.440524 ], [ 102.062497, 2.436699 ], [ 102.059602, 2.434459 ], [ 102.056894, 2.435579 ], [ 102.050917, 2.43306 ], [ 102.050637, 2.430261 ], [ 102.048769, 2.427648 ], [ 102.051944, 2.42345 ], [ 102.050076, 2.420651 ], [ 102.047275, 2.419624 ], [ 102.044193, 2.42121 ], [ 102.042043, 2.421045 ], [ 102.040738, 2.421024 ], [ 102.034574, 2.426249 ], [ 102.035321, 2.430914 ], [ 102.038216, 2.43418 ], [ 102.030092, 2.439778 ], [ 102.031322, 2.442477 ], [ 102.031626, 2.499005 ], [ 102.03464, 2.496244 ], [ 102.041275, 2.496092 ] ] ] } },
{ "type": "Feature", "properties": { "state": "Negeri Sembilan", "parlimen": "P.132 Telok Kemang", "code_parlimen": "P.132", "dun": "N.29 Chuah", "code_dun": "N.29" }, "geometry": { "type": "Polygon", "coordinates": [ [ [ 101.831349, 2.640323 ], [ 101.834388, 2.637081 ], [ 101.832362, 2.628167 ], [ 101.822637, 2.626546 ], [ 101.816457, 2.597472 ], [ 101.812101, 2.600308 ], [ 101.789713, 2.598586 ], [ 101.789815, 2.596053 ], [ 101.793664, 2.59271 ], [ 101.798223, 2.585113 ], [ 101.80268, 2.589266 ], [ 101.807137, 2.583796 ], [ 101.802376, 2.577616 ], [ 101.792955, 2.582783 ], [ 101.788244, 2.580149 ], [ 101.788128, 2.578323 ], [ 101.783085, 2.576457 ], [ 101.780657, 2.588212 ], [ 101.761233, 2.6009 ], [ 101.746664, 2.602579 ], [ 101.731909, 2.596049 ], [ 101.729294, 2.59325 ], [ 101.7151, 2.594183 ], [ 101.710057, 2.600713 ], [ 101.702399, 2.604072 ], [ 101.702399, 2.608549 ], [ 101.72145, 2.621423 ], [ 101.725372, 2.620304 ], [ 101.728361, 2.616572 ], [ 101.730042, 2.623849 ], [ 101.724252, 2.635976 ], [ 101.731349, 2.647917 ], [ 101.740501, 2.651648 ], [ 101.746851, 2.655753 ], [ 101.744049, 2.665268 ], [ 101.739754, 2.668067 ], [ 101.73882, 2.67385 ], [ 101.74573, 2.682433 ], [ 101.75152, 2.682433 ], [ 101.751894, 2.685977 ], [ 101.750213, 2.688403 ], [ 101.754322, 2.698291 ], [ 101.760485, 2.700903 ], [ 101.760114, 2.717946 ], [ 101.760093, 2.722804 ], [ 101.763783, 2.723038 ], [ 101.779925, 2.722221 ], [ 101.783345, 2.711667 ], [ 101.793778, 2.678711 ], [ 101.79317, 2.669543 ], [ 101.797476, 2.669442 ], [ 101.812621, 2.669087 ], [ 101.827892, 2.668783 ], [ 101.831007, 2.662046 ], [ 101.83592, 2.651486 ], [ 101.831349, 2.640323 ] ] ] } },
{ "type": "Feature", "properties": { "state": "Negeri Sembilan", "parlimen": "P.132 Telok Kemang", "code_parlimen": "P.132", "dun": "N.30 Lukut", "code_dun": "N.30" }, "geometry": { "type": "Polygon", "coordinates": [ [ [ 101.788244, 2.580149 ], [ 101.792955, 2.582783 ], [ 101.802376, 2.577616 ], [ 101.807137, 2.583796 ], [ 101.80268, 2.589266 ], [ 101.798223, 2.585113 ], [ 101.793664, 2.59271 ], [ 101.789815, 2.596053 ], [ 101.789713, 2.598586 ], [ 101.812101, 2.600308 ], [ 101.816457, 2.597472 ], [ 101.822637, 2.626546 ], [ 101.832362, 2.628167 ], [ 101.834388, 2.637081 ], [ 101.831349, 2.640323 ], [ 101.83592, 2.651486 ], [ 101.846595, 2.646085 ], [ 101.854193, 2.672019 ], [ 101.869971, 2.663294 ], [ 101.870629, 2.658203 ], [ 101.877949, 2.65676 ], [ 101.874682, 2.648833 ], [ 101.869186, 2.627344 ], [ 101.881913, 2.62757 ], [ 101.889953, 2.627584 ], [ 101.889953, 2.625229 ], [ 101.91016, 2.625118 ], [ 101.909753, 2.613366 ], [ 101.909859, 2.605145 ], [ 101.922218, 2.605044 ], [ 101.918192, 2.598941 ], [ 101.914215, 2.595598 ], [ 101.910113, 2.596965 ], [ 101.901046, 2.60198 ], [ 101.89674, 2.599447 ], [ 101.887117, 2.599346 ], [ 101.881943, 2.592811 ], [ 101.874048, 2.586024 ], [ 101.863412, 2.587392 ], [ 101.858956, 2.588321 ], [ 101.856402, 2.585711 ], [ 101.858108, 2.58149 ], [ 101.858462, 2.576873 ], [ 101.861021, 2.57189 ], [ 101.868923, 2.57153 ], [ 101.869282, 2.567265 ], [ 101.866248, 2.565764 ], [ 101.862312, 2.565796 ], [ 101.862491, 2.559735 ], [ 101.862691, 2.55271 ], [ 101.862376, 2.545796 ], [ 101.842189, 2.544439 ], [ 101.839605, 2.54682 ], [ 101.839707, 2.552341 ], [ 101.832288, 2.552695 ], [ 101.824687, 2.552427 ], [ 101.819152, 2.553699 ], [ 101.812166, 2.555044 ], [ 101.807294, 2.559407 ], [ 101.80336, 2.565077 ], [ 101.800388, 2.569801 ], [ 101.797965, 2.572361 ], [ 101.794733, 2.571553 ], [ 101.79149, 2.577017 ], [ 101.788128, 2.578323 ], [ 101.788244, 2.580149 ] ] ] } },
{ "type": "Feature", "properties": { "state": "Negeri Sembilan", "parlimen": "P.132 Telok Kemang", "code_parlimen": "P.132", "dun": "N.31 Bagan Pinang", "code_dun": "N.31" }, "geometry": { "type": "Polygon", "coordinates": [ [ [ 101.878253, 2.476996 ], [ 101.870452, 2.486316 ], [ 101.863158, 2.489457 ], [ 101.857891, 2.483581 ], [ 101.861841, 2.478111 ], [ 101.872377, 2.472438 ], [ 101.870452, 2.467677 ], [ 101.862247, 2.460383 ], [ 101.854992, 2.45368 ], [ 101.851817, 2.46133 ], [ 101.848082, 2.461517 ], [ 101.846588, 2.48111 ], [ 101.839677, 2.48876 ], [ 101.836502, 2.500516 ], [ 101.829405, 2.507046 ], [ 101.822307, 2.516563 ], [ 101.824614, 2.517405 ], [ 101.825828, 2.518986 ], [ 101.826131, 2.521747 ], [ 101.829659, 2.523233 ], [ 101.831994, 2.52155 ], [ 101.835164, 2.51969 ], [ 101.838015, 2.51767 ], [ 101.840732, 2.511531 ], [ 101.844341, 2.513238 ], [ 101.850774, 2.515872 ], [ 101.85204, 2.519063 ], [ 101.85734, 2.522325 ], [ 101.859537, 2.523621 ], [ 101.860043, 2.520228 ], [ 101.871056, 2.520035 ], [ 101.881114, 2.520126 ], [ 101.881165, 2.535474 ], [ 101.878481, 2.535373 ], [ 101.874074, 2.541552 ], [ 101.868502, 2.548441 ], [ 101.864906, 2.545807 ], [ 101.862376, 2.545796 ], [ 101.862691, 2.55271 ], [ 101.862491, 2.559735 ], [ 101.862312, 2.565796 ], [ 101.866248, 2.565764 ], [ 101.869282, 2.567265 ], [ 101.868923, 2.57153 ], [ 101.861021, 2.57189 ], [ 101.858462, 2.576873 ], [ 101.858108, 2.58149 ], [ 101.856402, 2.585711 ], [ 101.858956, 2.588321 ], [ 101.863412, 2.587392 ], [ 101.874048, 2.586024 ], [ 101.881943, 2.592811 ], [ 101.887117, 2.599346 ], [ 101.89674, 2.599447 ], [ 101.901046, 2.60198 ], [ 101.910113, 2.596965 ], [ 101.914215, 2.595598 ], [ 101.918192, 2.598941 ], [ 101.927334, 2.598206 ], [ 101.927182, 2.581086 ], [ 101.926422, 2.570246 ], [ 101.928854, 2.569689 ], [ 101.936958, 2.561686 ], [ 101.935084, 2.551455 ], [ 101.932298, 2.550087 ], [ 101.931943, 2.542742 ], [ 101.940048, 2.542591 ], [ 101.94101, 2.540868 ], [ 101.941821, 2.54254 ], [ 101.950786, 2.542793 ], [ 101.950694, 2.528725 ], [ 101.951277, 2.51813 ], [ 101.955594, 2.516353 ], [ 101.959979, 2.515973 ], [ 101.961464, 2.514365 ], [ 101.964248, 2.510774 ], [ 101.962664, 2.507033 ], [ 101.964487, 2.504272 ], [ 101.964335, 2.480213 ], [ 101.95629, 2.48019 ], [ 101.937718, 2.479478 ], [ 101.937616, 2.473299 ], [ 101.915634, 2.473704 ], [ 101.915431, 2.465853 ], [ 101.909555, 2.466106 ], [ 101.909403, 2.461092 ], [ 101.906314, 2.459977 ], [ 101.897652, 2.460332 ], [ 101.897602, 2.469399 ], [ 101.89768, 2.476491 ], [ 101.893819, 2.478735 ], [ 101.896234, 2.481707 ], [ 101.8954, 2.48517 ], [ 101.889295, 2.488089 ], [ 101.879266, 2.479732 ], [ 101.878253, 2.476996 ] ] ] } },
{ "type": "Feature", "properties": { "state": "Negeri Sembilan", "parlimen": "P.132 Telok Kemang", "code_parlimen": "P.132", "dun": "N.32 Linggi", "code_dun": "N.32" }, "geometry": { "type": "Polygon", "coordinates": [ [ [ 101.870452, 2.467677 ], [ 101.872377, 2.472438 ], [ 101.861841, 2.478111 ], [ 101.857891, 2.483581 ], [ 101.863158, 2.489457 ], [ 101.870452, 2.486316 ], [ 101.878253, 2.476996 ], [ 101.879266, 2.479732 ], [ 101.889295, 2.488089 ], [ 101.8954, 2.48517 ], [ 101.896234, 2.481707 ], [ 101.893819, 2.478735 ], [ 101.89768, 2.476491 ], [ 101.897602, 2.469399 ], [ 101.897652, 2.460332 ], [ 101.906314, 2.459977 ], [ 101.909403, 2.461092 ], [ 101.909555, 2.466106 ], [ 101.915431, 2.465853 ], [ 101.915634, 2.473704 ], [ 101.937616, 2.473299 ], [ 101.937718, 2.479478 ], [ 101.95629, 2.48019 ], [ 101.964335, 2.480213 ], [ 101.964487, 2.504272 ], [ 101.962664, 2.507033 ], [ 101.964248, 2.510774 ], [ 101.961464, 2.514365 ], [ 101.959979, 2.515973 ], [ 101.955594, 2.516353 ], [ 101.951277, 2.51813 ], [ 101.950694, 2.528725 ], [ 101.950786, 2.542793 ], [ 101.971401, 2.54335 ], [ 101.971193, 2.552082 ], [ 101.975251, 2.554266 ], [ 101.974922, 2.551176 ], [ 101.980711, 2.551476 ], [ 101.976111, 2.566822 ], [ 101.96851, 2.569847 ], [ 101.964031, 2.571943 ], [ 101.983102, 2.570576 ], [ 102.011973, 2.570728 ], [ 102.012075, 2.543173 ], [ 102.031424, 2.543072 ], [ 102.031221, 2.53203 ], [ 102.028891, 2.53203 ], [ 102.028992, 2.528383 ], [ 102.031322, 2.528687 ], [ 102.031626, 2.499005 ], [ 102.031322, 2.442477 ], [ 102.030092, 2.439778 ], [ 102.026917, 2.433526 ], [ 102.02729, 2.427648 ], [ 102.017671, 2.417665 ], [ 102.011601, 2.408708 ], [ 102.005531, 2.407215 ], [ 102.000001, 2.403505 ], [ 101.997667, 2.402113 ], [ 101.993951, 2.399751 ], [ 101.984332, 2.398164 ], [ 101.976675, 2.389674 ], [ 101.969484, 2.400124 ], [ 101.960892, 2.403296 ], [ 101.955476, 2.401803 ], [ 101.940161, 2.413186 ], [ 101.940534, 2.417292 ], [ 101.936425, 2.42233 ], [ 101.930822, 2.424569 ], [ 101.905941, 2.419205 ], [ 101.895335, 2.416919 ], [ 101.878713, 2.419531 ], [ 101.871428, 2.414679 ], [ 101.864564, 2.417665 ], [ 101.860742, 2.414811 ], [ 101.858927, 2.409489 ], [ 101.855968, 2.406817 ], [ 101.857874, 2.404406 ], [ 101.854744, 2.403887 ], [ 101.853404, 2.402702 ], [ 101.850903, 2.406006 ], [ 101.847662, 2.411694 ], [ 101.855179, 2.418598 ], [ 101.857234, 2.42401 ], [ 101.8563, 2.432593 ], [ 101.853498, 2.446402 ], [ 101.854992, 2.45368 ], [ 101.862247, 2.460383 ], [ 101.870452, 2.467677 ] ] ] } },
{ "type": "Feature", "properties": { "state": "Negeri Sembilan", "parlimen": "P.132 Telok Kemang", "code_parlimen": "P.132", "dun": "N.33 Port Dickson", "code_dun": "N.33" }, "geometry": { "type": "Polygon", "coordinates": [ [ [ 101.864906, 2.545807 ], [ 101.868502, 2.548441 ], [ 101.874074, 2.541552 ], [ 101.878481, 2.535373 ], [ 101.881165, 2.535474 ], [ 101.881114, 2.520126 ], [ 101.871056, 2.520035 ], [ 101.860043, 2.520228 ], [ 101.859537, 2.523621 ], [ 101.85734, 2.522325 ], [ 101.85204, 2.519063 ], [ 101.850774, 2.515872 ], [ 101.844341, 2.513238 ], [ 101.840732, 2.511531 ], [ 101.838015, 2.51767 ], [ 101.835164, 2.51969 ], [ 101.831994, 2.52155 ], [ 101.829659, 2.523233 ], [ 101.826131, 2.521747 ], [ 101.825828, 2.518986 ], [ 101.824614, 2.517405 ], [ 101.822307, 2.516563 ], [ 101.817451, 2.521601 ], [ 101.803817, 2.52272 ], [ 101.795972, 2.518615 ], [ 101.789248, 2.521974 ], [ 101.789248, 2.531863 ], [ 101.798027, 2.541752 ], [ 101.798214, 2.545857 ], [ 101.795972, 2.551642 ], [ 101.791676, 2.551642 ], [ 101.79261, 2.556493 ], [ 101.79728, 2.559665 ], [ 101.794733, 2.571553 ], [ 101.797965, 2.572361 ], [ 101.800388, 2.569801 ], [ 101.80336, 2.565077 ], [ 101.807294, 2.559407 ], [ 101.812166, 2.555044 ], [ 101.819152, 2.553699 ], [ 101.824687, 2.552427 ], [ 101.832288, 2.552695 ], [ 101.839707, 2.552341 ], [ 101.839605, 2.54682 ], [ 101.842189, 2.544439 ], [ 101.862376, 2.545796 ], [ 101.864906, 2.545807 ] ] ] } },
{ "type": "Feature", "properties": { "state": "Negeri Sembilan", "parlimen": "P.133 Tampin", "code_parlimen": "P.133", "dun": "N.34 Gemas", "code_dun": "N.34" }, "geometry": { "type": "Polygon", "coordinates": [ [ [ 102.501305, 2.687249 ], [ 102.551296, 2.684705 ], [ 102.551071, 2.672133 ], [ 102.552886, 2.67159 ], [ 102.55369, 2.673779 ], [ 102.555711, 2.673405 ], [ 102.555384, 2.670514 ], [ 102.562895, 2.663003 ], [ 102.568096, 2.65754 ], [ 102.570257, 2.658632 ], [ 102.573022, 2.659441 ], [ 102.579072, 2.662133 ], [ 102.583647, 2.663818 ], [ 102.584414, 2.662515 ], [ 102.59265, 2.65577 ], [ 102.598667, 2.651048 ], [ 102.600687, 2.653929 ], [ 102.604167, 2.650973 ], [ 102.615182, 2.650961 ], [ 102.631902, 2.649016 ], [ 102.628371, 2.639529 ], [ 102.625435, 2.631085 ], [ 102.627303, 2.615599 ], [ 102.638509, 2.610374 ], [ 102.638883, 2.602538 ], [ 102.632719, 2.589664 ], [ 102.625248, 2.589291 ], [ 102.623568, 2.584999 ], [ 102.616657, 2.582014 ], [ 102.606945, 2.567274 ], [ 102.614862, 2.556273 ], [ 102.610907, 2.550649 ], [ 102.610519, 2.534826 ], [ 102.619085, 2.520067 ], [ 102.612548, 2.51279 ], [ 102.608269, 2.508609 ], [ 102.607765, 2.49965 ], [ 102.60443, 2.49934 ], [ 102.594206, 2.499533 ], [ 102.570689, 2.499844 ], [ 102.560954, 2.509928 ], [ 102.549242, 2.522144 ], [ 102.537956, 2.526527 ], [ 102.529347, 2.534477 ], [ 102.510653, 2.548245 ], [ 102.498359, 2.570118 ], [ 102.492154, 2.581094 ], [ 102.486996, 2.589432 ], [ 102.482611, 2.586308 ], [ 102.476257, 2.580811 ], [ 102.463765, 2.573415 ], [ 102.455884, 2.568919 ], [ 102.45341, 2.568761 ], [ 102.44034, 2.587415 ], [ 102.422578, 2.612973 ], [ 102.422074, 2.617899 ], [ 102.414627, 2.627633 ], [ 102.41455, 2.637484 ], [ 102.415674, 2.640974 ], [ 102.41614, 2.648343 ], [ 102.424556, 2.653967 ], [ 102.428046, 2.659396 ], [ 102.427775, 2.663585 ], [ 102.427736, 2.668859 ], [ 102.424827, 2.672505 ], [ 102.424052, 2.676732 ], [ 102.424711, 2.682937 ], [ 102.42379, 2.684663 ], [ 102.428405, 2.689588 ], [ 102.45722, 2.68796 ], [ 102.463513, 2.689045 ], [ 102.501305, 2.687249 ] ] ] } },
{ "type": "Feature", "properties": { "state": "Negeri Sembilan", "parlimen": "P.133 Tampin", "code_parlimen": "P.133", "dun": "N.35 Gemencheh", "code_dun": "N.35" }, "geometry": { "type": "Polygon", "coordinates": [ [ [ 102.425393, 2.479757 ], [ 102.434711, 2.480987 ], [ 102.437651, 2.48391 ], [ 102.44275, 2.491115 ], [ 102.445545, 2.495137 ], [ 102.441323, 2.502145 ], [ 102.441425, 2.505488 ], [ 102.444139, 2.50735 ], [ 102.448483, 2.51053 ], [ 102.450238, 2.512985 ], [ 102.446743, 2.514504 ], [ 102.442026, 2.515181 ], [ 102.439001, 2.521774 ], [ 102.439558, 2.525692 ], [ 102.441808, 2.530966 ], [ 102.435144, 2.537546 ], [ 102.432351, 2.533901 ], [ 102.430534, 2.533549 ], [ 102.428197, 2.533676 ], [ 102.42587, 2.53515 ], [ 102.41853, 2.535879 ], [ 102.415997, 2.5375 ], [ 102.407893, 2.533499 ], [ 102.40374, 2.533549 ], [ 102.404094, 2.52818 ], [ 102.395686, 2.521241 ], [ 102.392638, 2.522765 ], [ 102.389152, 2.525749 ], [ 102.38713, 2.530133 ], [ 102.381623, 2.529668 ], [ 102.373872, 2.530025 ], [ 102.371196, 2.533166 ], [ 102.37088, 2.536145 ], [ 102.370259, 2.539222 ], [ 102.36701, 2.537818 ], [ 102.365429, 2.539736 ], [ 102.365194, 2.543072 ], [ 102.362637, 2.5454 ], [ 102.355342, 2.545655 ], [ 102.355833, 2.548555 ], [ 102.35405, 2.549454 ], [ 102.353481, 2.551932 ], [ 102.351954, 2.552754 ], [ 102.348251, 2.549732 ], [ 102.347389, 2.553379 ], [ 102.343228, 2.556389 ], [ 102.336984, 2.556276 ], [ 102.327909, 2.555633 ], [ 102.329418, 2.571171 ], [ 102.324985, 2.571408 ], [ 102.3293, 2.576727 ], [ 102.347814, 2.598216 ], [ 102.42379, 2.684663 ], [ 102.424711, 2.682937 ], [ 102.424052, 2.676732 ], [ 102.424827, 2.672505 ], [ 102.427736, 2.668859 ], [ 102.427775, 2.663585 ], [ 102.428046, 2.659396 ], [ 102.424556, 2.653967 ], [ 102.41614, 2.648343 ], [ 102.415674, 2.640974 ], [ 102.41455, 2.637484 ], [ 102.414627, 2.627633 ], [ 102.422074, 2.617899 ], [ 102.422578, 2.612973 ], [ 102.44034, 2.587415 ], [ 102.45341, 2.568761 ], [ 102.455884, 2.568919 ], [ 102.463765, 2.573415 ], [ 102.476257, 2.580811 ], [ 102.482611, 2.586308 ], [ 102.486996, 2.589432 ], [ 102.492154, 2.581094 ], [ 102.498359, 2.570118 ], [ 102.510653, 2.548245 ], [ 102.529347, 2.534477 ], [ 102.537956, 2.526527 ], [ 102.549242, 2.522144 ], [ 102.560954, 2.509928 ], [ 102.570689, 2.499844 ], [ 102.594206, 2.499533 ], [ 102.60443, 2.49934 ], [ 102.607765, 2.49965 ], [ 102.614519, 2.480765 ], [ 102.615872, 2.476508 ], [ 102.615536, 2.468007 ], [ 102.608812, 2.467261 ], [ 102.596557, 2.454662 ], [ 102.590696, 2.420983 ], [ 102.594057, 2.419863 ], [ 102.594277, 2.409653 ], [ 102.587493, 2.416004 ], [ 102.563047, 2.419158 ], [ 102.525599, 2.432407 ], [ 102.510053, 2.437655 ], [ 102.471172, 2.446634 ], [ 102.431886, 2.457532 ], [ 102.433359, 2.466918 ], [ 102.415769, 2.474793 ], [ 102.420733, 2.478491 ], [ 102.425393, 2.479757 ] ] ] } },
{ "type": "Feature", "properties": { "state": "Negeri Sembilan", "parlimen": "P.133 Tampin", "code_parlimen": "P.133", "dun": "N.36 Repah", "code_dun": "N.36" }, "geometry": { "type": "Polygon", "coordinates": [ [ [ 102.210785, 2.541671 ], [ 102.21447, 2.539034 ], [ 102.217153, 2.541737 ], [ 102.221764, 2.537895 ], [ 102.227733, 2.535117 ], [ 102.230098, 2.539609 ], [ 102.235151, 2.544705 ], [ 102.23815, 2.541407 ], [ 102.241587, 2.542482 ], [ 102.264569, 2.541354 ], [ 102.269708, 2.539248 ], [ 102.281736, 2.540103 ], [ 102.297931, 2.537857 ], [ 102.309369, 2.537476 ], [ 102.316108, 2.538777 ], [ 102.32642, 2.539537 ], [ 102.32756, 2.541173 ], [ 102.327909, 2.555633 ], [ 102.336984, 2.556276 ], [ 102.343228, 2.556389 ], [ 102.347389, 2.553379 ], [ 102.348251, 2.549732 ], [ 102.351954, 2.552754 ], [ 102.353481, 2.551932 ], [ 102.35405, 2.549454 ], [ 102.355833, 2.548555 ], [ 102.355342, 2.545655 ], [ 102.362637, 2.5454 ], [ 102.365194, 2.543072 ], [ 102.365429, 2.539736 ], [ 102.36701, 2.537818 ], [ 102.370259, 2.539222 ], [ 102.37088, 2.536145 ], [ 102.371196, 2.533166 ], [ 102.373872, 2.530025 ], [ 102.381623, 2.529668 ], [ 102.38713, 2.530133 ], [ 102.389152, 2.525749 ], [ 102.392638, 2.522765 ], [ 102.395686, 2.521241 ], [ 102.404094, 2.52818 ], [ 102.40374, 2.533549 ], [ 102.407893, 2.533499 ], [ 102.415997, 2.5375 ], [ 102.41853, 2.535879 ], [ 102.42587, 2.53515 ], [ 102.428197, 2.533676 ], [ 102.430534, 2.533549 ], [ 102.432351, 2.533901 ], [ 102.435144, 2.537546 ], [ 102.441808, 2.530966 ], [ 102.439558, 2.525692 ], [ 102.439001, 2.521774 ], [ 102.442026, 2.515181 ], [ 102.446743, 2.514504 ], [ 102.450238, 2.512985 ], [ 102.448483, 2.51053 ], [ 102.444139, 2.50735 ], [ 102.441425, 2.505488 ], [ 102.441323, 2.502145 ], [ 102.445545, 2.495137 ], [ 102.44275, 2.491115 ], [ 102.437651, 2.48391 ], [ 102.434711, 2.480987 ], [ 102.425393, 2.479757 ], [ 102.420733, 2.478491 ], [ 102.415769, 2.474793 ], [ 102.367933, 2.48883 ], [ 102.36476, 2.489912 ], [ 102.334347, 2.483555 ], [ 102.319028, 2.479755 ], [ 102.278229, 2.458657 ], [ 102.276253, 2.458666 ], [ 102.231433, 2.466462 ], [ 102.207353, 2.481791 ], [ 102.209373, 2.485796 ], [ 102.211265, 2.488574 ], [ 102.208652, 2.492941 ], [ 102.209603, 2.496683 ], [ 102.214567, 2.501938 ], [ 102.214363, 2.506844 ], [ 102.208032, 2.50894 ], [ 102.203459, 2.51496 ], [ 102.200563, 2.515551 ], [ 102.198438, 2.517168 ], [ 102.197788, 2.521188 ], [ 102.198734, 2.525266 ], [ 102.197197, 2.531532 ], [ 102.198462, 2.537715 ], [ 102.203747, 2.543895 ], [ 102.206752, 2.541555 ], [ 102.210785, 2.541671 ] ] ] } }
]
}
