{
"type": "FeatureCollection",
"name": "PLS_SE-06",
"crs": { "type": "name", "properties": { "name": "urn:ogc:def:crs:OGC:1.3:CRS84" } },
"features": [
{ "type": "Feature", "properties": { "state": "Perlis", "parlimen": "P.001 Kangar", "code_parlimen": "P.001", "dun": "N.01 Titi Tinggi", "code_dun": "N.01" }, "geometry": { "type": "Polygon", "coordinates": [ [ [ 100.303203, 6.599876 ], [ 100.28446, 6.595442 ], [ 100.276158, 6.593257 ], [ 100.265314, 6.590404 ], [ 100.262918, 6.587323 ], [ 100.262039, 6.58039 ], [ 100.259724, 6.571901 ], [ 100.259692, 6.571905 ], [ 100.258566, 6.572055 ], [ 100.253241, 6.578538 ], [ 100.252006, 6.587491 ], [ 100.249459, 6.592507 ], [ 100.243516, 6.594746 ], [ 100.236493, 6.592121 ], [ 100.230705, 6.591273 ], [ 100.22893, 6.590038 ], [ 100.227618, 6.586719 ], [ 100.224608, 6.585021 ], [ 100.219746, 6.584635 ], [ 100.214498, 6.578693 ], [ 100.189415, 6.577535 ], [ 100.183266, 6.577326 ], [ 100.183506, 6.57995 ], [ 100.181707, 6.582453 ], [ 100.180807, 6.587816 ], [ 100.178108, 6.591748 ], [ 100.178108, 6.596039 ], [ 100.180267, 6.597469 ], [ 100.180447, 6.60015 ], [ 100.178108, 6.604797 ], [ 100.176128, 6.604261 ], [ 100.16947, 6.609266 ], [ 100.165511, 6.631609 ], [ 100.16875, 6.632861 ], [ 100.166951, 6.647875 ], [ 100.17091, 6.651092 ], [ 100.174149, 6.650913 ], [ 100.181347, 6.65556 ], [ 100.178647, 6.667714 ], [ 100.180494, 6.67522 ], [ 100.179187, 6.682727 ], [ 100.175228, 6.682905 ], [ 100.17109, 6.693271 ], [ 100.178288, 6.696131 ], [ 100.185665, 6.717576 ], [ 100.20438, 6.726869 ], [ 100.20474, 6.723474 ], [ 100.206539, 6.720793 ], [ 100.211218, 6.721508 ], [ 100.214457, 6.719721 ], [ 100.215176, 6.71293 ], [ 100.218235, 6.710785 ], [ 100.217876, 6.703637 ], [ 100.221627, 6.700099 ], [ 100.226873, 6.697203 ], [ 100.228492, 6.693271 ], [ 100.231191, 6.695058 ], [ 100.240729, 6.692378 ], [ 100.243428, 6.69345 ], [ 100.244148, 6.696488 ], [ 100.246667, 6.695416 ], [ 100.249186, 6.69756 ], [ 100.250985, 6.703458 ], [ 100.253145, 6.703994 ], [ 100.252785, 6.707926 ], [ 100.257284, 6.711321 ], [ 100.261602, 6.70739 ], [ 100.264121, 6.699169 ], [ 100.266641, 6.699169 ], [ 100.26952, 6.703101 ], [ 100.274918, 6.70453 ], [ 100.274918, 6.706318 ], [ 100.284275, 6.708998 ], [ 100.285535, 6.707747 ], [ 100.290213, 6.710785 ], [ 100.295432, 6.704888 ], [ 100.291113, 6.698275 ], [ 100.290753, 6.69059 ], [ 100.294352, 6.680046 ], [ 100.298311, 6.67808 ], [ 100.30047, 6.680403 ], [ 100.30281, 6.680046 ], [ 100.305689, 6.668429 ], [ 100.311987, 6.666463 ], [ 100.315406, 6.667714 ], [ 100.318285, 6.664318 ], [ 100.321524, 6.66539 ], [ 100.327282, 6.664318 ], [ 100.325843, 6.660207 ], [ 100.323323, 6.656096 ], [ 100.319725, 6.654666 ], [ 100.322424, 6.649662 ], [ 100.321704, 6.641976 ], [ 100.317925, 6.640189 ], [ 100.316845, 6.635005 ], [ 100.320984, 6.635899 ], [ 100.326023, 6.622851 ], [ 100.317025, 6.613914 ], [ 100.310367, 6.610875 ], [ 100.305689, 6.610696 ], [ 100.305509, 6.606585 ], [ 100.311447, 6.603546 ], [ 100.309048, 6.60169 ], [ 100.303203, 6.599876 ] ] ] } },
{ "type": "Feature", "properties": { "state": "Perlis", "parlimen": "P.001 Kangar", "code_parlimen": "P.001", "dun": "N.02 Chuping", "code_dun": "N.02" }, "geometry": { "type": "Polygon", "coordinates": [ [ [ 100.241124, 6.496344 ], [ 100.247144, 6.499277 ], [ 100.248687, 6.501669 ], [ 100.251564, 6.50833 ], [ 100.25162, 6.508461 ], [ 100.251674, 6.508837 ], [ 100.251972, 6.510926 ], [ 100.251836, 6.51276 ], [ 100.243902, 6.51232 ], [ 100.233946, 6.512937 ], [ 100.23001, 6.513555 ], [ 100.227618, 6.514326 ], [ 100.224685, 6.5134 ], [ 100.219669, 6.515793 ], [ 100.217276, 6.514481 ], [ 100.211025, 6.517105 ], [ 100.210793, 6.515098 ], [ 100.201841, 6.518417 ], [ 100.198136, 6.505528 ], [ 100.187022, 6.507226 ], [ 100.175139, 6.567348 ], [ 100.176488, 6.571102 ], [ 100.178468, 6.573873 ], [ 100.182966, 6.574051 ], [ 100.183266, 6.577326 ], [ 100.189415, 6.577535 ], [ 100.214498, 6.578693 ], [ 100.219746, 6.584635 ], [ 100.224608, 6.585021 ], [ 100.227618, 6.586719 ], [ 100.22893, 6.590038 ], [ 100.230705, 6.591273 ], [ 100.236493, 6.592121 ], [ 100.243516, 6.594746 ], [ 100.249459, 6.592507 ], [ 100.252006, 6.587491 ], [ 100.253241, 6.578538 ], [ 100.258566, 6.572055 ], [ 100.259692, 6.571905 ], [ 100.259724, 6.571901 ], [ 100.262039, 6.58039 ], [ 100.262918, 6.587323 ], [ 100.265314, 6.590404 ], [ 100.276158, 6.593257 ], [ 100.28446, 6.595442 ], [ 100.303203, 6.599876 ], [ 100.309048, 6.60169 ], [ 100.311447, 6.603546 ], [ 100.315226, 6.604261 ], [ 100.317025, 6.601937 ], [ 100.317141, 6.599399 ], [ 100.317205, 6.598005 ], [ 100.319545, 6.593 ], [ 100.324943, 6.588531 ], [ 100.325483, 6.585492 ], [ 100.33394, 6.585313 ], [ 100.341498, 6.580487 ], [ 100.341318, 6.575839 ], [ 100.345097, 6.571906 ], [ 100.350855, 6.573515 ], [ 100.353914, 6.568152 ], [ 100.353014, 6.562432 ], [ 100.359672, 6.557247 ], [ 100.358233, 6.554923 ], [ 100.360932, 6.546342 ], [ 100.363271, 6.545449 ], [ 100.366761, 6.539764 ], [ 100.32355, 6.541493 ], [ 100.299022, 6.504886 ], [ 100.287662, 6.487932 ], [ 100.286582, 6.485153 ], [ 100.286273, 6.481603 ], [ 100.281025, 6.482761 ], [ 100.276471, 6.48361 ], [ 100.271995, 6.483301 ], [ 100.269525, 6.489321 ], [ 100.263583, 6.488395 ], [ 100.263042, 6.484613 ], [ 100.259878, 6.484536 ], [ 100.259029, 6.487932 ], [ 100.253009, 6.487623 ], [ 100.252932, 6.484999 ], [ 100.250308, 6.485539 ], [ 100.244057, 6.490478 ], [ 100.239889, 6.49179 ], [ 100.241124, 6.496344 ] ] ] } },
{ "type": "Feature", "properties": { "state": "Perlis", "parlimen": "P.001 Kangar", "code_parlimen": "P.001", "dun": "N.03 Bintong", "code_dun": "N.03" }, "geometry": { "type": "Polygon", "coordinates": [ [ [ 100.158312, 6.434216 ], [ 100.154145, 6.432827 ], [ 100.15207, 6.440357 ], [ 100.150903, 6.444558 ], [ 100.151366, 6.45706 ], [ 100.145836, 6.456646 ], [ 100.144908, 6.459184 ], [ 100.144278, 6.464011 ], [ 100.145358, 6.469018 ], [ 100.146977, 6.468392 ], [ 100.151296, 6.471878 ], [ 100.150576, 6.47608 ], [ 100.152915, 6.477153 ], [ 100.153815, 6.478762 ], [ 100.155345, 6.477421 ], [ 100.157684, 6.478673 ], [ 100.158404, 6.480461 ], [ 100.156244, 6.483053 ], [ 100.154085, 6.483053 ], [ 100.154355, 6.486897 ], [ 100.159663, 6.487702 ], [ 100.159843, 6.49691 ], [ 100.159933, 6.503435 ], [ 100.157594, 6.507994 ], [ 100.158314, 6.50871 ], [ 100.154175, 6.522565 ], [ 100.156334, 6.522386 ], [ 100.157144, 6.533381 ], [ 100.155704, 6.537493 ], [ 100.153095, 6.555549 ], [ 100.153995, 6.559303 ], [ 100.157594, 6.560465 ], [ 100.159573, 6.563057 ], [ 100.158224, 6.568867 ], [ 100.159213, 6.570655 ], [ 100.156244, 6.575035 ], [ 100.156874, 6.580397 ], [ 100.162992, 6.57566 ], [ 100.163082, 6.571996 ], [ 100.165871, 6.570119 ], [ 100.167941, 6.57137 ], [ 100.16875, 6.574409 ], [ 100.17073, 6.574766 ], [ 100.172889, 6.573158 ], [ 100.173069, 6.571281 ], [ 100.175139, 6.567348 ], [ 100.187022, 6.507226 ], [ 100.198136, 6.505528 ], [ 100.206548, 6.50329 ], [ 100.214112, 6.499663 ], [ 100.213417, 6.497579 ], [ 100.213031, 6.493566 ], [ 100.211642, 6.493257 ], [ 100.209665, 6.49048 ], [ 100.209378, 6.490078 ], [ 100.205465, 6.484582 ], [ 100.204387, 6.483069 ], [ 100.204907, 6.479349 ], [ 100.205313, 6.476432 ], [ 100.204964, 6.475594 ], [ 100.20377, 6.472728 ], [ 100.197287, 6.475197 ], [ 100.192039, 6.477049 ], [ 100.189106, 6.47103 ], [ 100.187717, 6.467171 ], [ 100.184167, 6.464238 ], [ 100.183549, 6.458836 ], [ 100.184012, 6.450192 ], [ 100.184476, 6.448648 ], [ 100.187871, 6.447259 ], [ 100.187794, 6.446024 ], [ 100.182469, 6.44587 ], [ 100.18216, 6.440159 ], [ 100.183704, 6.439541 ], [ 100.183318, 6.434293 ], [ 100.179768, 6.433135 ], [ 100.177838, 6.433907 ], [ 100.177684, 6.432055 ], [ 100.17506, 6.43329 ], [ 100.170969, 6.432132 ], [ 100.16904, 6.431437 ], [ 100.166647, 6.432595 ], [ 100.166107, 6.430125 ], [ 100.164486, 6.431283 ], [ 100.163174, 6.42835 ], [ 100.161477, 6.429122 ], [ 100.159789, 6.428538 ], [ 100.15754, 6.430974 ], [ 100.158312, 6.434216 ] ] ] } },
{ "type": "Feature", "properties": { "state": "Perlis", "parlimen": "P.001 Kangar", "code_parlimen": "P.001", "dun": "N.04 Bandar Kangar", "code_dun": "N.04" }, "geometry": { "type": "Polygon", "coordinates": [ [ [ 100.187177, 6.406586 ], [ 100.185942, 6.397325 ], [ 100.18409, 6.394392 ], [ 100.184553, 6.388835 ], [ 100.17915, 6.38899 ], [ 100.175754, 6.398868 ], [ 100.174365, 6.401647 ], [ 100.175832, 6.403885 ], [ 100.177144, 6.405814 ], [ 100.176063, 6.407435 ], [ 100.174828, 6.404811 ], [ 100.173748, 6.404657 ], [ 100.174134, 6.408284 ], [ 100.173902, 6.411834 ], [ 100.172204, 6.412915 ], [ 100.16958, 6.411063 ], [ 100.168654, 6.413069 ], [ 100.168654, 6.416002 ], [ 100.165104, 6.419552 ], [ 100.164641, 6.423257 ], [ 100.161245, 6.424646 ], [ 100.161245, 6.426961 ], [ 100.159789, 6.428538 ], [ 100.161477, 6.429122 ], [ 100.163174, 6.42835 ], [ 100.164486, 6.431283 ], [ 100.166107, 6.430125 ], [ 100.166647, 6.432595 ], [ 100.16904, 6.431437 ], [ 100.170969, 6.432132 ], [ 100.17506, 6.43329 ], [ 100.177684, 6.432055 ], [ 100.177838, 6.433907 ], [ 100.179768, 6.433135 ], [ 100.183318, 6.434293 ], [ 100.183704, 6.439541 ], [ 100.18216, 6.440159 ], [ 100.182469, 6.44587 ], [ 100.187794, 6.446024 ], [ 100.187871, 6.447259 ], [ 100.184476, 6.448648 ], [ 100.184012, 6.450192 ], [ 100.183549, 6.458836 ], [ 100.184167, 6.464238 ], [ 100.187717, 6.467171 ], [ 100.189106, 6.47103 ], [ 100.192039, 6.477049 ], [ 100.197287, 6.475197 ], [ 100.20377, 6.472728 ], [ 100.204964, 6.475594 ], [ 100.205313, 6.476432 ], [ 100.204907, 6.479349 ], [ 100.204387, 6.483069 ], [ 100.205465, 6.484582 ], [ 100.209378, 6.490078 ], [ 100.209665, 6.49048 ], [ 100.211642, 6.493257 ], [ 100.213031, 6.493566 ], [ 100.213417, 6.497579 ], [ 100.214112, 6.499663 ], [ 100.215501, 6.500589 ], [ 100.216581, 6.499971 ], [ 100.215192, 6.496112 ], [ 100.214961, 6.493411 ], [ 100.214189, 6.48662 ], [ 100.211642, 6.475043 ], [ 100.206471, 6.461305 ], [ 100.201377, 6.448031 ], [ 100.20732, 6.448262 ], [ 100.208246, 6.446256 ], [ 100.212568, 6.447027 ], [ 100.21635, 6.446641 ], [ 100.215578, 6.444712 ], [ 100.213803, 6.442705 ], [ 100.211719, 6.443246 ], [ 100.207089, 6.440313 ], [ 100.206162, 6.438692 ], [ 100.201532, 6.439232 ], [ 100.200374, 6.436454 ], [ 100.198985, 6.435528 ], [ 100.200104, 6.433405 ], [ 100.200644, 6.431978 ], [ 100.205082, 6.430357 ], [ 100.203693, 6.424646 ], [ 100.207243, 6.417854 ], [ 100.212182, 6.409828 ], [ 100.215424, 6.408284 ], [ 100.214343, 6.399023 ], [ 100.206626, 6.40458 ], [ 100.196747, 6.406432 ], [ 100.190264, 6.405197 ], [ 100.187177, 6.406586 ] ] ] } },
{ "type": "Feature", "properties": { "state": "Perlis", "parlimen": "P.001 Kangar", "code_parlimen": "P.001", "dun": "N.05 Paya", "code_dun": "N.05" }, "geometry": { "type": "Polygon", "coordinates": [ [ [ 100.233483, 6.486002 ], [ 100.235181, 6.485462 ], [ 100.234255, 6.479056 ], [ 100.235413, 6.477358 ], [ 100.233715, 6.476201 ], [ 100.235104, 6.474194 ], [ 100.237651, 6.473576 ], [ 100.237728, 6.470489 ], [ 100.237651, 6.468637 ], [ 100.236262, 6.465859 ], [ 100.233329, 6.46447 ], [ 100.233792, 6.458913 ], [ 100.235644, 6.457215 ], [ 100.233483, 6.453665 ], [ 100.229161, 6.450886 ], [ 100.225303, 6.445021 ], [ 100.227, 6.436068 ], [ 100.226383, 6.432055 ], [ 100.224531, 6.422639 ], [ 100.219128, 6.422176 ], [ 100.217585, 6.424955 ], [ 100.212028, 6.425263 ], [ 100.205082, 6.430357 ], [ 100.200644, 6.431978 ], [ 100.200104, 6.433405 ], [ 100.198985, 6.435528 ], [ 100.200374, 6.436454 ], [ 100.201532, 6.439232 ], [ 100.206162, 6.438692 ], [ 100.207089, 6.440313 ], [ 100.211719, 6.443246 ], [ 100.213803, 6.442705 ], [ 100.215578, 6.444712 ], [ 100.21635, 6.446641 ], [ 100.212568, 6.447027 ], [ 100.208246, 6.446256 ], [ 100.20732, 6.448262 ], [ 100.201377, 6.448031 ], [ 100.206471, 6.461305 ], [ 100.211642, 6.475043 ], [ 100.214189, 6.48662 ], [ 100.214961, 6.493411 ], [ 100.215192, 6.496112 ], [ 100.216581, 6.499971 ], [ 100.215501, 6.500589 ], [ 100.214112, 6.499663 ], [ 100.206548, 6.50329 ], [ 100.198136, 6.505528 ], [ 100.201841, 6.518417 ], [ 100.210793, 6.515098 ], [ 100.211025, 6.517105 ], [ 100.217276, 6.514481 ], [ 100.219669, 6.515793 ], [ 100.224685, 6.5134 ], [ 100.227618, 6.514326 ], [ 100.23001, 6.513555 ], [ 100.233946, 6.512937 ], [ 100.243902, 6.51232 ], [ 100.251836, 6.51276 ], [ 100.251972, 6.510926 ], [ 100.251674, 6.508837 ], [ 100.25162, 6.508461 ], [ 100.251564, 6.50833 ], [ 100.248687, 6.501669 ], [ 100.247144, 6.499277 ], [ 100.241124, 6.496344 ], [ 100.239889, 6.49179 ], [ 100.235413, 6.491327 ], [ 100.233483, 6.486002 ] ] ] } },
{ "type": "Feature", "properties": { "state": "Perlis", "parlimen": "P.001 Kangar", "code_parlimen": "P.001", "dun": "N.06 Oran", "code_dun": "N.06" }, "geometry": { "type": "Polygon", "coordinates": [ [ [ 100.366761, 6.539764 ], [ 100.36714, 6.539147 ], [ 100.370739, 6.532175 ], [ 100.365701, 6.484841 ], [ 100.363001, 6.453328 ], [ 100.360055, 6.455363 ], [ 100.349404, 6.457832 ], [ 100.344465, 6.457215 ], [ 100.334432, 6.458604 ], [ 100.322546, 6.453665 ], [ 100.316681, 6.455054 ], [ 100.312668, 6.454282 ], [ 100.30603, 6.446101 ], [ 100.303406, 6.446256 ], [ 100.300782, 6.444095 ], [ 100.290595, 6.445175 ], [ 100.287353, 6.444403 ], [ 100.28936, 6.449343 ], [ 100.287353, 6.453356 ], [ 100.287508, 6.457832 ], [ 100.282568, 6.459376 ], [ 100.278555, 6.461074 ], [ 100.272844, 6.459684 ], [ 100.26775, 6.462463 ], [ 100.265589, 6.457832 ], [ 100.263737, 6.460456 ], [ 100.26065, 6.45953 ], [ 100.260033, 6.45706 ], [ 100.256791, 6.464315 ], [ 100.254476, 6.460611 ], [ 100.24398, 6.464624 ], [ 100.243362, 6.466785 ], [ 100.237651, 6.468637 ], [ 100.237728, 6.470489 ], [ 100.237651, 6.473576 ], [ 100.235104, 6.474194 ], [ 100.233715, 6.476201 ], [ 100.235413, 6.477358 ], [ 100.234255, 6.479056 ], [ 100.235181, 6.485462 ], [ 100.233483, 6.486002 ], [ 100.235413, 6.491327 ], [ 100.239889, 6.49179 ], [ 100.244057, 6.490478 ], [ 100.250308, 6.485539 ], [ 100.252932, 6.484999 ], [ 100.253009, 6.487623 ], [ 100.259029, 6.487932 ], [ 100.259878, 6.484536 ], [ 100.263042, 6.484613 ], [ 100.263583, 6.488395 ], [ 100.269525, 6.489321 ], [ 100.271995, 6.483301 ], [ 100.276471, 6.48361 ], [ 100.281025, 6.482761 ], [ 100.286273, 6.481603 ], [ 100.286582, 6.485153 ], [ 100.287662, 6.487932 ], [ 100.299022, 6.504886 ], [ 100.32355, 6.541493 ], [ 100.366761, 6.539764 ] ] ] } },
{ "type": "Feature", "properties": { "state": "Perlis", "parlimen": "P.002 Arau", "code_parlimen": "P.002", "dun": "N.07 Kuala Perlis", "code_dun": "N.07" }, "geometry": { "type": "Polygon", "coordinates": [ [ [ 100.144728, 6.358329 ], [ 100.139779, 6.372546 ], [ 100.127273, 6.396241 ], [ 100.121065, 6.410726 ], [ 100.118906, 6.422528 ], [ 100.123584, 6.422885 ], [ 100.124934, 6.425478 ], [ 100.128443, 6.426372 ], [ 100.129612, 6.428428 ], [ 100.133571, 6.429233 ], [ 100.134831, 6.433256 ], [ 100.134021, 6.439962 ], [ 100.13627, 6.440498 ], [ 100.135101, 6.444343 ], [ 100.139509, 6.448098 ], [ 100.141579, 6.447561 ], [ 100.144368, 6.451048 ], [ 100.147427, 6.4523 ], [ 100.145836, 6.456646 ], [ 100.151366, 6.45706 ], [ 100.150903, 6.444558 ], [ 100.15207, 6.440357 ], [ 100.154145, 6.432827 ], [ 100.154916, 6.431052 ], [ 100.154916, 6.428582 ], [ 100.153682, 6.42673 ], [ 100.153527, 6.42426 ], [ 100.152292, 6.42179 ], [ 100.149668, 6.42071 ], [ 100.148588, 6.417623 ], [ 100.145964, 6.420092 ], [ 100.145346, 6.418549 ], [ 100.146118, 6.410214 ], [ 100.148279, 6.396167 ], [ 100.151212, 6.38953 ], [ 100.152601, 6.384899 ], [ 100.155071, 6.381195 ], [ 100.158158, 6.376718 ], [ 100.156769, 6.375329 ], [ 100.160628, 6.367766 ], [ 100.163869, 6.362209 ], [ 100.163406, 6.353411 ], [ 100.154762, 6.351558 ], [ 100.147607, 6.349597 ], [ 100.144728, 6.358329 ] ] ] } },
{ "type": "Feature", "properties": { "state": "Perlis", "parlimen": "P.002 Arau", "code_parlimen": "P.002", "dun": "N.08 Kayang", "code_dun": "N.08" }, "geometry": { "type": "Polygon", "coordinates": [ [ [ 100.184398, 6.373014 ], [ 100.216041, 6.371316 ], [ 100.216659, 6.362363 ], [ 100.216919, 6.358324 ], [ 100.214035, 6.35588 ], [ 100.203538, 6.348471 ], [ 100.196592, 6.343995 ], [ 100.195821, 6.341988 ], [ 100.191962, 6.340136 ], [ 100.192425, 6.337049 ], [ 100.189338, 6.335814 ], [ 100.187331, 6.33921 ], [ 100.182855, 6.338284 ], [ 100.18162, 6.339673 ], [ 100.168345, 6.335814 ], [ 100.159393, 6.333345 ], [ 100.153568, 6.331609 ], [ 100.153455, 6.33186 ], [ 100.147607, 6.349597 ], [ 100.154762, 6.351558 ], [ 100.163406, 6.353411 ], [ 100.163869, 6.362209 ], [ 100.160628, 6.367766 ], [ 100.156769, 6.375329 ], [ 100.158158, 6.376718 ], [ 100.155071, 6.381195 ], [ 100.152601, 6.384899 ], [ 100.151212, 6.38953 ], [ 100.148279, 6.396167 ], [ 100.146118, 6.410214 ], [ 100.145346, 6.418549 ], [ 100.145964, 6.420092 ], [ 100.148588, 6.417623 ], [ 100.149668, 6.42071 ], [ 100.152292, 6.42179 ], [ 100.153527, 6.42426 ], [ 100.153682, 6.42673 ], [ 100.154916, 6.428582 ], [ 100.154916, 6.431052 ], [ 100.154145, 6.432827 ], [ 100.158312, 6.434216 ], [ 100.15754, 6.430974 ], [ 100.159789, 6.428538 ], [ 100.161245, 6.426961 ], [ 100.161245, 6.424646 ], [ 100.164641, 6.423257 ], [ 100.165104, 6.419552 ], [ 100.168654, 6.416002 ], [ 100.168654, 6.413069 ], [ 100.16958, 6.411063 ], [ 100.172204, 6.412915 ], [ 100.173902, 6.411834 ], [ 100.174134, 6.408284 ], [ 100.173748, 6.404657 ], [ 100.174828, 6.404811 ], [ 100.176063, 6.407435 ], [ 100.177144, 6.405814 ], [ 100.175832, 6.403885 ], [ 100.174365, 6.401647 ], [ 100.175754, 6.398868 ], [ 100.17915, 6.38899 ], [ 100.184553, 6.388835 ], [ 100.183935, 6.378879 ], [ 100.184398, 6.373014 ] ] ] } },
{ "type": "Feature", "properties": { "state": "Perlis", "parlimen": "P.002 Arau", "code_parlimen": "P.002", "dun": "N.09 Utan Aji", "code_dun": "N.09" }, "geometry": { "type": "Polygon", "coordinates": [ [ [ 100.185942, 6.397325 ], [ 100.187177, 6.406586 ], [ 100.190264, 6.405197 ], [ 100.196747, 6.406432 ], [ 100.206626, 6.40458 ], [ 100.214343, 6.399023 ], [ 100.215424, 6.408284 ], [ 100.212182, 6.409828 ], [ 100.207243, 6.417854 ], [ 100.203693, 6.424646 ], [ 100.205082, 6.430357 ], [ 100.212028, 6.425263 ], [ 100.217585, 6.424955 ], [ 100.219128, 6.422176 ], [ 100.224531, 6.422639 ], [ 100.226383, 6.432055 ], [ 100.227, 6.436068 ], [ 100.225303, 6.445021 ], [ 100.229161, 6.450886 ], [ 100.233483, 6.453665 ], [ 100.235644, 6.457215 ], [ 100.233792, 6.458913 ], [ 100.233329, 6.46447 ], [ 100.236262, 6.465859 ], [ 100.237651, 6.468637 ], [ 100.243362, 6.466785 ], [ 100.24398, 6.464624 ], [ 100.254476, 6.460611 ], [ 100.256791, 6.464315 ], [ 100.260033, 6.45706 ], [ 100.260496, 6.452507 ], [ 100.258335, 6.448031 ], [ 100.259569, 6.443091 ], [ 100.25463, 6.440159 ], [ 100.250617, 6.435065 ], [ 100.250154, 6.430897 ], [ 100.247993, 6.428582 ], [ 100.242899, 6.427193 ], [ 100.239966, 6.423488 ], [ 100.238886, 6.422099 ], [ 100.236725, 6.422408 ], [ 100.231631, 6.419012 ], [ 100.231014, 6.416079 ], [ 100.22947, 6.416388 ], [ 100.229301, 6.415373 ], [ 100.229007, 6.413609 ], [ 100.233483, 6.411603 ], [ 100.232249, 6.40157 ], [ 100.229933, 6.390456 ], [ 100.227618, 6.381503 ], [ 100.229161, 6.378725 ], [ 100.234255, 6.373014 ], [ 100.225148, 6.365296 ], [ 100.216919, 6.358324 ], [ 100.216659, 6.362363 ], [ 100.216041, 6.371316 ], [ 100.184398, 6.373014 ], [ 100.183935, 6.378879 ], [ 100.184553, 6.388835 ], [ 100.18409, 6.394392 ], [ 100.185942, 6.397325 ] ] ] } },
{ "type": "Feature", "properties": { "state": "Perlis", "parlimen": "P.002 Arau", "code_parlimen": "P.002", "dun": "N.10 Bandar Arau", "code_dun": "N.10" }, "geometry": { "type": "Polygon", "coordinates": [ [ [ 100.285038, 6.432904 ], [ 100.283803, 6.423025 ], [ 100.285192, 6.417005 ], [ 100.283958, 6.415925 ], [ 100.285038, 6.412375 ], [ 100.280253, 6.40867 ], [ 100.280407, 6.407126 ], [ 100.278864, 6.406663 ], [ 100.278555, 6.404811 ], [ 100.274696, 6.402959 ], [ 100.275005, 6.40157 ], [ 100.272072, 6.399254 ], [ 100.270066, 6.397093 ], [ 100.260804, 6.39308 ], [ 100.258798, 6.395395 ], [ 100.250154, 6.387986 ], [ 100.24259, 6.380423 ], [ 100.237034, 6.375021 ], [ 100.235642, 6.374016 ], [ 100.235184, 6.373684 ], [ 100.234255, 6.373014 ], [ 100.229161, 6.378725 ], [ 100.227618, 6.381503 ], [ 100.229933, 6.390456 ], [ 100.232249, 6.40157 ], [ 100.233483, 6.411603 ], [ 100.229007, 6.413609 ], [ 100.229301, 6.415373 ], [ 100.22947, 6.416388 ], [ 100.231014, 6.416079 ], [ 100.231631, 6.419012 ], [ 100.236725, 6.422408 ], [ 100.238886, 6.422099 ], [ 100.239966, 6.423488 ], [ 100.242899, 6.427193 ], [ 100.247993, 6.428582 ], [ 100.250154, 6.430897 ], [ 100.250617, 6.435065 ], [ 100.25463, 6.440159 ], [ 100.259569, 6.443091 ], [ 100.258335, 6.448031 ], [ 100.260496, 6.452507 ], [ 100.260033, 6.45706 ], [ 100.26065, 6.45953 ], [ 100.263737, 6.460456 ], [ 100.265589, 6.457832 ], [ 100.26775, 6.462463 ], [ 100.272844, 6.459684 ], [ 100.278555, 6.461074 ], [ 100.282568, 6.459376 ], [ 100.287508, 6.457832 ], [ 100.287353, 6.453356 ], [ 100.28936, 6.449343 ], [ 100.287353, 6.444403 ], [ 100.284112, 6.440313 ], [ 100.285038, 6.432904 ] ] ] } },
{ "type": "Feature", "properties": { "state": "Perlis", "parlimen": "P.002 Arau", "code_parlimen": "P.002", "dun": "N.11 Kurong Anai", "code_dun": "N.11" }, "geometry": { "type": "Polygon", "coordinates": [ [ [ 100.245926, 6.360689 ], [ 100.236719, 6.372829 ], [ 100.235642, 6.374016 ], [ 100.237034, 6.375021 ], [ 100.24259, 6.380423 ], [ 100.250154, 6.387986 ], [ 100.258798, 6.395395 ], [ 100.260804, 6.39308 ], [ 100.270066, 6.397093 ], [ 100.272072, 6.399254 ], [ 100.275005, 6.40157 ], [ 100.274696, 6.402959 ], [ 100.278555, 6.404811 ], [ 100.278864, 6.406663 ], [ 100.280407, 6.407126 ], [ 100.280253, 6.40867 ], [ 100.285038, 6.412375 ], [ 100.283958, 6.415925 ], [ 100.285192, 6.417005 ], [ 100.283803, 6.423025 ], [ 100.285038, 6.432904 ], [ 100.284112, 6.440313 ], [ 100.287353, 6.444403 ], [ 100.290595, 6.445175 ], [ 100.300782, 6.444095 ], [ 100.303406, 6.446256 ], [ 100.30603, 6.446101 ], [ 100.312668, 6.454282 ], [ 100.316681, 6.455054 ], [ 100.322546, 6.453665 ], [ 100.334432, 6.458604 ], [ 100.344465, 6.457215 ], [ 100.349404, 6.457832 ], [ 100.360055, 6.455363 ], [ 100.363001, 6.453328 ], [ 100.355804, 6.447606 ], [ 100.310277, 6.408446 ], [ 100.309738, 6.410592 ], [ 100.306315, 6.408929 ], [ 100.304699, 6.406479 ], [ 100.305239, 6.404333 ], [ 100.30092, 6.403439 ], [ 100.290367, 6.386694 ], [ 100.279507, 6.369461 ], [ 100.273569, 6.366779 ], [ 100.264031, 6.354797 ], [ 100.255929, 6.349327 ], [ 100.254494, 6.348358 ], [ 100.25334, 6.351075 ], [ 100.245926, 6.360689 ] ] ] } },
{ "type": "Feature", "properties": { "state": "Perlis", "parlimen": "P.002 Arau", "code_parlimen": "P.002", "dun": "N.12 Sanglang", "code_dun": "N.12" }, "geometry": { "type": "Polygon", "coordinates": [ [ [ 100.231101, 6.320458 ], [ 100.227514, 6.317094 ], [ 100.220125, 6.307223 ], [ 100.217965, 6.299532 ], [ 100.20411, 6.288979 ], [ 100.20429, 6.285223 ], [ 100.201231, 6.281646 ], [ 100.20393, 6.275922 ], [ 100.20177, 6.265906 ], [ 100.193133, 6.248018 ], [ 100.16893, 6.289561 ], [ 100.162297, 6.30902 ], [ 100.159663, 6.318088 ], [ 100.154779, 6.328924 ], [ 100.153568, 6.331609 ], [ 100.159393, 6.333345 ], [ 100.168345, 6.335814 ], [ 100.18162, 6.339673 ], [ 100.182855, 6.338284 ], [ 100.187331, 6.33921 ], [ 100.189338, 6.335814 ], [ 100.192425, 6.337049 ], [ 100.191962, 6.340136 ], [ 100.195821, 6.341988 ], [ 100.196592, 6.343995 ], [ 100.203538, 6.348471 ], [ 100.214035, 6.35588 ], [ 100.225148, 6.365296 ], [ 100.234255, 6.373014 ], [ 100.235184, 6.373684 ], [ 100.235642, 6.374016 ], [ 100.236719, 6.372829 ], [ 100.245926, 6.360689 ], [ 100.25334, 6.351075 ], [ 100.254494, 6.348358 ], [ 100.249636, 6.335124 ], [ 100.243158, 6.332083 ], [ 100.23722, 6.324572 ], [ 100.231101, 6.320458 ] ] ] } }
]
}
