{
"type": "FeatureCollection",
"name": "PLS_SE-08",
"crs": { "type": "name", "properties": { "name": "urn:ogc:def:crs:OGC:1.3:CRS84" } },
"features": [
{ "type": "Feature", "properties": { "state": "Perlis", "parlimen": "P.001 Kangar", "code_parlimen": "P.001", "dun": "N.01 Titi Tinggi", "code_dun": "N.01" }, "geometry": { "type": "Polygon", "coordinates": [ [ [ 100.229212, 6.592083 ], [ 100.230605, 6.592918 ], [ 100.230927, 6.594076 ], [ 100.231997, 6.594519 ], [ 100.232136, 6.595355 ], [ 100.23318, 6.595703 ], [ 100.233389, 6.597582 ], [ 100.234642, 6.598836 ], [ 100.234364, 6.600506 ], [ 100.235826, 6.605449 ], [ 100.237149, 6.606772 ], [ 100.238402, 6.608651 ], [ 100.238541, 6.611506 ], [ 100.239098, 6.61255 ], [ 100.239167, 6.61436 ], [ 100.240908, 6.615822 ], [ 100.240769, 6.616936 ], [ 100.245224, 6.617632 ], [ 100.245363, 6.618676 ], [ 100.246477, 6.619721 ], [ 100.246825, 6.620765 ], [ 100.246199, 6.622087 ], [ 100.245433, 6.623898 ], [ 100.245294, 6.625151 ], [ 100.246547, 6.626682 ], [ 100.246408, 6.628283 ], [ 100.222425, 6.628144 ], [ 100.167219, 6.629258 ], [ 100.165511, 6.631609 ], [ 100.16875, 6.632861 ], [ 100.166951, 6.647875 ], [ 100.17091, 6.651092 ], [ 100.174149, 6.650913 ], [ 100.181347, 6.65556 ], [ 100.178647, 6.667714 ], [ 100.180494, 6.67522 ], [ 100.179187, 6.682727 ], [ 100.175228, 6.682905 ], [ 100.17109, 6.693271 ], [ 100.178288, 6.696131 ], [ 100.185665, 6.717576 ], [ 100.20438, 6.726869 ], [ 100.20474, 6.723474 ], [ 100.206539, 6.720793 ], [ 100.211218, 6.721508 ], [ 100.214457, 6.719721 ], [ 100.215176, 6.71293 ], [ 100.218235, 6.710785 ], [ 100.217876, 6.703637 ], [ 100.221627, 6.700099 ], [ 100.226873, 6.697203 ], [ 100.228492, 6.693271 ], [ 100.231191, 6.695058 ], [ 100.240729, 6.692378 ], [ 100.243428, 6.69345 ], [ 100.244148, 6.696488 ], [ 100.246667, 6.695416 ], [ 100.249186, 6.69756 ], [ 100.250985, 6.703458 ], [ 100.253145, 6.703994 ], [ 100.252785, 6.707926 ], [ 100.257284, 6.711321 ], [ 100.261602, 6.70739 ], [ 100.264121, 6.699169 ], [ 100.266641, 6.699169 ], [ 100.26952, 6.703101 ], [ 100.274918, 6.70453 ], [ 100.274918, 6.706318 ], [ 100.284275, 6.708998 ], [ 100.285535, 6.707747 ], [ 100.290213, 6.710785 ], [ 100.295432, 6.704888 ], [ 100.291113, 6.698275 ], [ 100.290753, 6.69059 ], [ 100.294352, 6.680046 ], [ 100.298311, 6.67808 ], [ 100.30047, 6.680403 ], [ 100.30281, 6.680046 ], [ 100.305689, 6.668429 ], [ 100.311987, 6.666463 ], [ 100.315406, 6.667714 ], [ 100.318285, 6.664318 ], [ 100.321524, 6.66539 ], [ 100.327282, 6.664318 ], [ 100.325843, 6.660207 ], [ 100.323323, 6.656096 ], [ 100.319725, 6.654666 ], [ 100.322424, 6.649662 ], [ 100.321704, 6.641976 ], [ 100.317925, 6.640189 ], [ 100.316845, 6.635005 ], [ 100.320984, 6.635899 ], [ 100.326023, 6.622851 ], [ 100.317025, 6.613914 ], [ 100.310367, 6.610875 ], [ 100.305689, 6.610696 ], [ 100.305509, 6.606585 ], [ 100.311447, 6.603546 ], [ 100.315226, 6.604261 ], [ 100.317025, 6.601937 ], [ 100.317141, 6.599399 ], [ 100.317205, 6.598005 ], [ 100.316842, 6.597173 ], [ 100.276108, 6.592683 ], [ 100.262254, 6.591012 ], [ 100.261767, 6.585234 ], [ 100.261105, 6.578725 ], [ 100.259223, 6.572977 ], [ 100.259191, 6.572982 ], [ 100.256371, 6.576184 ], [ 100.253944, 6.580048 ], [ 100.253926, 6.581458 ], [ 100.251664, 6.586331 ], [ 100.253247, 6.586853 ], [ 100.254187, 6.590717 ], [ 100.253613, 6.593397 ], [ 100.251142, 6.596355 ], [ 100.245885, 6.596947 ], [ 100.243205, 6.595624 ], [ 100.236139, 6.593223 ], [ 100.231684, 6.592074 ], [ 100.229212, 6.591247 ], [ 100.229212, 6.592083 ] ] ] } },
{ "type": "Feature", "properties": { "state": "Perlis", "parlimen": "P.001 Kangar", "code_parlimen": "P.001", "dun": "N.02 Beseri", "code_dun": "N.02" }, "geometry": { "type": "Polygon", "coordinates": [ [ [ 100.22423, 6.500833 ], [ 100.221306, 6.496169 ], [ 100.219288, 6.496795 ], [ 100.217478, 6.497491 ], [ 100.215494, 6.49871 ], [ 100.216581, 6.499971 ], [ 100.215501, 6.500589 ], [ 100.214112, 6.499663 ], [ 100.207039, 6.503748 ], [ 100.195735, 6.507462 ], [ 100.185399, 6.509829 ], [ 100.177043, 6.571121 ], [ 100.178468, 6.573873 ], [ 100.182966, 6.574051 ], [ 100.183266, 6.577326 ], [ 100.183506, 6.57995 ], [ 100.181707, 6.582453 ], [ 100.180807, 6.587816 ], [ 100.178108, 6.591748 ], [ 100.178108, 6.596039 ], [ 100.180267, 6.597469 ], [ 100.180447, 6.60015 ], [ 100.178108, 6.604797 ], [ 100.176128, 6.604261 ], [ 100.16947, 6.609266 ], [ 100.165511, 6.631609 ], [ 100.167219, 6.629258 ], [ 100.222425, 6.628144 ], [ 100.246408, 6.628283 ], [ 100.246547, 6.626682 ], [ 100.245294, 6.625151 ], [ 100.245433, 6.623898 ], [ 100.246199, 6.622087 ], [ 100.246825, 6.620765 ], [ 100.246477, 6.619721 ], [ 100.245363, 6.618676 ], [ 100.245224, 6.617632 ], [ 100.240769, 6.616936 ], [ 100.240908, 6.615822 ], [ 100.239167, 6.61436 ], [ 100.239098, 6.61255 ], [ 100.238541, 6.611506 ], [ 100.238402, 6.608651 ], [ 100.237149, 6.606772 ], [ 100.235826, 6.605449 ], [ 100.234364, 6.600506 ], [ 100.234642, 6.598836 ], [ 100.233389, 6.597582 ], [ 100.23318, 6.595703 ], [ 100.232136, 6.595355 ], [ 100.231997, 6.594519 ], [ 100.230927, 6.594076 ], [ 100.230605, 6.592918 ], [ 100.229212, 6.592083 ], [ 100.229212, 6.591247 ], [ 100.231684, 6.592074 ], [ 100.236139, 6.593223 ], [ 100.243205, 6.595624 ], [ 100.245885, 6.596947 ], [ 100.251142, 6.596355 ], [ 100.253613, 6.593397 ], [ 100.254187, 6.590717 ], [ 100.253247, 6.586853 ], [ 100.251664, 6.586331 ], [ 100.253926, 6.581458 ], [ 100.253944, 6.580048 ], [ 100.256371, 6.576184 ], [ 100.259191, 6.572982 ], [ 100.259223, 6.572977 ], [ 100.258068, 6.568491 ], [ 100.258625, 6.549591 ], [ 100.258904, 6.542559 ], [ 100.256258, 6.52787 ], [ 100.254588, 6.515409 ], [ 100.250541, 6.514687 ], [ 100.243986, 6.514393 ], [ 100.23877, 6.514683 ], [ 100.230559, 6.515021 ], [ 100.227294, 6.507516 ], [ 100.22423, 6.500833 ] ] ] } },
{ "type": "Feature", "properties": { "state": "Perlis", "parlimen": "P.001 Kangar", "code_parlimen": "P.001", "dun": "N.03 Oran", "code_dun": "N.03" }, "geometry": { "type": "Polygon", "coordinates": [ [ [ 100.346129, 6.484448 ], [ 100.344865, 6.484313 ], [ 100.344007, 6.485261 ], [ 100.34315, 6.485215 ], [ 100.341164, 6.483952 ], [ 100.340306, 6.484177 ], [ 100.339031, 6.484538 ], [ 100.337586, 6.482959 ], [ 100.337451, 6.481875 ], [ 100.336909, 6.481288 ], [ 100.335871, 6.481243 ], [ 100.334156, 6.479438 ], [ 100.332802, 6.476459 ], [ 100.331403, 6.475827 ], [ 100.330094, 6.474969 ], [ 100.329416, 6.472893 ], [ 100.329055, 6.471719 ], [ 100.326302, 6.471132 ], [ 100.324135, 6.470455 ], [ 100.320818, 6.470049 ], [ 100.318516, 6.46883 ], [ 100.317252, 6.467386 ], [ 100.315221, 6.466483 ], [ 100.31328, 6.464542 ], [ 100.311068, 6.462737 ], [ 100.308134, 6.462782 ], [ 100.306915, 6.461563 ], [ 100.306148, 6.462962 ], [ 100.304794, 6.463008 ], [ 100.301905, 6.460344 ], [ 100.297617, 6.460119 ], [ 100.296443, 6.460976 ], [ 100.294728, 6.458945 ], [ 100.293058, 6.457049 ], [ 100.290079, 6.45723 ], [ 100.287551, 6.4582 ], [ 100.284933, 6.458494 ], [ 100.281062, 6.459803 ], [ 100.281288, 6.460909 ], [ 100.276413, 6.460751 ], [ 100.271629, 6.461247 ], [ 100.27243, 6.462511 ], [ 100.273964, 6.46364 ], [ 100.2741, 6.464949 ], [ 100.273242, 6.466122 ], [ 100.27076, 6.466528 ], [ 100.269992, 6.467973 ], [ 100.268774, 6.468921 ], [ 100.266697, 6.469282 ], [ 100.266944, 6.471333 ], [ 100.266612, 6.473041 ], [ 100.258625, 6.47508 ], [ 100.259624, 6.478662 ], [ 100.259457, 6.480977 ], [ 100.258792, 6.483952 ], [ 100.262746, 6.485674 ], [ 100.262641, 6.488041 ], [ 100.265078, 6.488946 ], [ 100.264939, 6.49267 ], [ 100.261179, 6.492531 ], [ 100.258534, 6.498936 ], [ 100.258255, 6.501651 ], [ 100.253104, 6.500119 ], [ 100.248166, 6.503446 ], [ 100.250846, 6.507734 ], [ 100.251934, 6.511616 ], [ 100.250541, 6.514687 ], [ 100.254588, 6.515409 ], [ 100.256258, 6.52787 ], [ 100.258904, 6.542559 ], [ 100.258625, 6.549591 ], [ 100.258068, 6.568491 ], [ 100.259223, 6.572977 ], [ 100.261105, 6.578725 ], [ 100.261767, 6.585234 ], [ 100.262254, 6.591012 ], [ 100.276108, 6.592683 ], [ 100.316842, 6.597173 ], [ 100.317205, 6.598005 ], [ 100.319545, 6.593 ], [ 100.324943, 6.588531 ], [ 100.325483, 6.585492 ], [ 100.33394, 6.585313 ], [ 100.341498, 6.580487 ], [ 100.341318, 6.575839 ], [ 100.345097, 6.571906 ], [ 100.350855, 6.573515 ], [ 100.353914, 6.568152 ], [ 100.353014, 6.562432 ], [ 100.359672, 6.557247 ], [ 100.358233, 6.554923 ], [ 100.360932, 6.546342 ], [ 100.363271, 6.545449 ], [ 100.366761, 6.539764 ], [ 100.36714, 6.539147 ], [ 100.370739, 6.532175 ], [ 100.366102, 6.488454 ], [ 100.365516, 6.48842 ], [ 100.360325, 6.488465 ], [ 100.354321, 6.488195 ], [ 100.350236, 6.487924 ], [ 100.346129, 6.484448 ] ] ] } },
{ "type": "Feature", "properties": { "state": "Perlis", "parlimen": "P.001 Kangar", "code_parlimen": "P.001", "dun": "N.04 Padang Pauh", "code_dun": "N.04" }, "geometry": { "type": "Polygon", "coordinates": [ [ [ 100.273242, 6.466122 ], [ 100.2741, 6.464949 ], [ 100.273964, 6.46364 ], [ 100.27243, 6.462511 ], [ 100.271629, 6.461247 ], [ 100.268965, 6.462218 ], [ 100.268187, 6.46312 ], [ 100.266765, 6.46206 ], [ 100.267261, 6.460999 ], [ 100.266223, 6.460322 ], [ 100.265749, 6.459126 ], [ 100.262748, 6.46136 ], [ 100.26101, 6.459848 ], [ 100.259084, 6.459637 ], [ 100.258595, 6.459667 ], [ 100.25649, 6.465716 ], [ 100.255678, 6.465896 ], [ 100.255272, 6.464181 ], [ 100.254013, 6.462478 ], [ 100.25194, 6.460708 ], [ 100.249144, 6.461733 ], [ 100.244507, 6.464901 ], [ 100.242597, 6.465717 ], [ 100.242783, 6.466812 ], [ 100.241851, 6.468373 ], [ 100.240803, 6.468163 ], [ 100.239871, 6.469002 ], [ 100.239032, 6.468815 ], [ 100.237355, 6.469864 ], [ 100.236563, 6.469281 ], [ 100.237724, 6.467634 ], [ 100.236819, 6.46772 ], [ 100.236516, 6.466858 ], [ 100.2357, 6.467208 ], [ 100.235165, 6.466439 ], [ 100.234396, 6.466672 ], [ 100.234023, 6.465577 ], [ 100.233068, 6.465973 ], [ 100.232835, 6.464459 ], [ 100.23325, 6.462195 ], [ 100.232223, 6.462003 ], [ 100.231546, 6.463606 ], [ 100.230937, 6.464102 ], [ 100.230508, 6.465885 ], [ 100.22956, 6.468345 ], [ 100.226468, 6.46988 ], [ 100.224741, 6.470038 ], [ 100.223432, 6.471234 ], [ 100.221469, 6.471369 ], [ 100.22007, 6.472362 ], [ 100.217271, 6.472611 ], [ 100.214946, 6.474258 ], [ 100.214179, 6.474145 ], [ 100.212837, 6.47432 ], [ 100.211629, 6.47454 ], [ 100.214293, 6.483063 ], [ 100.213805, 6.486266 ], [ 100.214554, 6.489868 ], [ 100.214536, 6.492844 ], [ 100.214693, 6.496012 ], [ 100.215494, 6.49871 ], [ 100.217478, 6.497491 ], [ 100.219288, 6.496795 ], [ 100.221306, 6.496169 ], [ 100.22423, 6.500833 ], [ 100.227294, 6.507516 ], [ 100.230559, 6.515021 ], [ 100.23877, 6.514683 ], [ 100.243986, 6.514393 ], [ 100.250541, 6.514687 ], [ 100.251934, 6.511616 ], [ 100.250846, 6.507734 ], [ 100.248166, 6.503446 ], [ 100.253104, 6.500119 ], [ 100.258255, 6.501651 ], [ 100.258534, 6.498936 ], [ 100.261179, 6.492531 ], [ 100.264939, 6.49267 ], [ 100.265078, 6.488946 ], [ 100.262641, 6.488041 ], [ 100.262746, 6.485674 ], [ 100.258792, 6.483952 ], [ 100.259457, 6.480977 ], [ 100.259624, 6.478662 ], [ 100.258625, 6.47508 ], [ 100.266612, 6.473041 ], [ 100.266944, 6.471333 ], [ 100.266697, 6.469282 ], [ 100.268774, 6.468921 ], [ 100.269992, 6.467973 ], [ 100.27076, 6.466528 ], [ 100.273242, 6.466122 ] ] ] } },
{ "type": "Feature", "properties": { "state": "Perlis", "parlimen": "P.001 Kangar", "code_parlimen": "P.001", "dun": "N.05 Bintong", "code_dun": "N.05" }, "geometry": { "type": "Polygon", "coordinates": [ [ [ 100.213805, 6.486266 ], [ 100.214293, 6.483063 ], [ 100.211629, 6.47454 ], [ 100.209378, 6.471387 ], [ 100.208664, 6.467019 ], [ 100.206471, 6.461305 ], [ 100.200602, 6.44734 ], [ 100.19663, 6.445613 ], [ 100.189502, 6.442337 ], [ 100.188866, 6.44321 ], [ 100.188787, 6.444839 ], [ 100.187615, 6.445057 ], [ 100.183068, 6.444302 ], [ 100.183088, 6.440252 ], [ 100.18422, 6.439398 ], [ 100.183575, 6.435595 ], [ 100.182095, 6.434255 ], [ 100.179573, 6.4335 ], [ 100.179593, 6.435565 ], [ 100.178184, 6.43489 ], [ 100.178243, 6.433322 ], [ 100.177588, 6.432905 ], [ 100.176933, 6.434175 ], [ 100.174768, 6.433699 ], [ 100.172564, 6.432249 ], [ 100.17038, 6.432865 ], [ 100.169387, 6.432507 ], [ 100.168196, 6.433778 ], [ 100.167044, 6.433792 ], [ 100.167501, 6.431098 ], [ 100.166349, 6.4308 ], [ 100.165336, 6.432329 ], [ 100.164482, 6.43211 ], [ 100.165157, 6.430383 ], [ 100.164304, 6.42939 ], [ 100.162755, 6.429807 ], [ 100.161504, 6.42933 ], [ 100.163033, 6.427901 ], [ 100.162576, 6.427047 ], [ 100.161504, 6.427702 ], [ 100.159002, 6.429767 ], [ 100.158426, 6.431932 ], [ 100.160154, 6.433679 ], [ 100.159061, 6.43489 ], [ 100.157791, 6.434235 ], [ 100.156262, 6.432607 ], [ 100.154197, 6.440688 ], [ 100.153859, 6.442337 ], [ 100.15372, 6.444779 ], [ 100.152637, 6.446539 ], [ 100.15237, 6.451371 ], [ 100.149034, 6.452404 ], [ 100.147427, 6.4523 ], [ 100.145836, 6.456646 ], [ 100.144908, 6.459184 ], [ 100.144278, 6.464011 ], [ 100.145358, 6.469018 ], [ 100.146977, 6.468392 ], [ 100.151296, 6.471878 ], [ 100.150576, 6.47608 ], [ 100.152915, 6.477153 ], [ 100.153815, 6.478762 ], [ 100.155345, 6.477421 ], [ 100.157684, 6.478673 ], [ 100.158404, 6.480461 ], [ 100.156244, 6.483053 ], [ 100.154085, 6.483053 ], [ 100.154355, 6.486897 ], [ 100.159663, 6.487702 ], [ 100.159843, 6.49691 ], [ 100.159933, 6.503435 ], [ 100.157594, 6.507994 ], [ 100.158314, 6.50871 ], [ 100.154175, 6.522565 ], [ 100.156334, 6.522386 ], [ 100.157144, 6.533381 ], [ 100.155704, 6.537493 ], [ 100.153095, 6.555549 ], [ 100.153995, 6.559303 ], [ 100.157594, 6.560465 ], [ 100.159573, 6.563057 ], [ 100.158224, 6.568867 ], [ 100.159213, 6.570655 ], [ 100.156244, 6.575035 ], [ 100.156874, 6.580397 ], [ 100.162992, 6.57566 ], [ 100.163082, 6.571996 ], [ 100.165871, 6.570119 ], [ 100.167941, 6.57137 ], [ 100.16875, 6.574409 ], [ 100.17073, 6.574766 ], [ 100.172889, 6.573158 ], [ 100.173069, 6.571281 ], [ 100.174048, 6.571121 ], [ 100.174386, 6.56832 ], [ 100.17627, 6.566243 ], [ 100.177043, 6.571121 ], [ 100.185399, 6.509829 ], [ 100.195735, 6.507462 ], [ 100.207039, 6.503748 ], [ 100.214112, 6.499663 ], [ 100.215501, 6.500589 ], [ 100.216581, 6.499971 ], [ 100.215494, 6.49871 ], [ 100.214693, 6.496012 ], [ 100.214536, 6.492844 ], [ 100.214554, 6.489868 ], [ 100.213805, 6.486266 ] ] ] } },
{ "type": "Feature", "properties": { "state": "Perlis", "parlimen": "P.001 Kangar", "code_parlimen": "P.001", "dun": "N.06 Sena", "code_dun": "N.06" }, "geometry": { "type": "Polygon", "coordinates": [ [ [ 100.214946, 6.474258 ], [ 100.217271, 6.472611 ], [ 100.22007, 6.472362 ], [ 100.221469, 6.471369 ], [ 100.223432, 6.471234 ], [ 100.224741, 6.470038 ], [ 100.226468, 6.46988 ], [ 100.22956, 6.468345 ], [ 100.230508, 6.465885 ], [ 100.230937, 6.464102 ], [ 100.231546, 6.463606 ], [ 100.232223, 6.462003 ], [ 100.23325, 6.462195 ], [ 100.233588, 6.460638 ], [ 100.234649, 6.459487 ], [ 100.23562, 6.459442 ], [ 100.236094, 6.458516 ], [ 100.23492, 6.456011 ], [ 100.233483, 6.453665 ], [ 100.231529, 6.452976 ], [ 100.229949, 6.451486 ], [ 100.229859, 6.449545 ], [ 100.227986, 6.448936 ], [ 100.227421, 6.44792 ], [ 100.22644, 6.447243 ], [ 100.225988, 6.443136 ], [ 100.226417, 6.441962 ], [ 100.226259, 6.438193 ], [ 100.227546, 6.437674 ], [ 100.227455, 6.435936 ], [ 100.225966, 6.435327 ], [ 100.226237, 6.433453 ], [ 100.225198, 6.431648 ], [ 100.225718, 6.428353 ], [ 100.224567, 6.427179 ], [ 100.224809, 6.423275 ], [ 100.22359, 6.422395 ], [ 100.217361, 6.425351 ], [ 100.215285, 6.424764 ], [ 100.214111, 6.425803 ], [ 100.212678, 6.425735 ], [ 100.20988, 6.427789 ], [ 100.208029, 6.430407 ], [ 100.206178, 6.43061 ], [ 100.203928, 6.431276 ], [ 100.203956, 6.427392 ], [ 100.204385, 6.426173 ], [ 100.202935, 6.42528 ], [ 100.206494, 6.419686 ], [ 100.208852, 6.415311 ], [ 100.208538, 6.413941 ], [ 100.210163, 6.413445 ], [ 100.209627, 6.410764 ], [ 100.212635, 6.409632 ], [ 100.21335, 6.399108 ], [ 100.206626, 6.40458 ], [ 100.201304, 6.406055 ], [ 100.201146, 6.409192 ], [ 100.198437, 6.419483 ], [ 100.196271, 6.430768 ], [ 100.19758, 6.430948 ], [ 100.196406, 6.437629 ], [ 100.194781, 6.438125 ], [ 100.196587, 6.439525 ], [ 100.196451, 6.440743 ], [ 100.197653, 6.441522 ], [ 100.198348, 6.443012 ], [ 100.200602, 6.44734 ], [ 100.206471, 6.461305 ], [ 100.208664, 6.467019 ], [ 100.209378, 6.471387 ], [ 100.211629, 6.47454 ], [ 100.212837, 6.47432 ], [ 100.214179, 6.474145 ], [ 100.214946, 6.474258 ] ] ] } },
{ "type": "Feature", "properties": { "state": "Perlis", "parlimen": "P.001 Kangar", "code_parlimen": "P.001", "dun": "N.07 Indera Kayangan", "code_dun": "N.07" }, "geometry": { "type": "Polygon", "coordinates": [ [ [ 100.170192, 6.414496 ], [ 100.168928, 6.415579 ], [ 100.169622, 6.417068 ], [ 100.166937, 6.418107 ], [ 100.166147, 6.423252 ], [ 100.162671, 6.42499 ], [ 100.162079, 6.426435 ], [ 100.162576, 6.427047 ], [ 100.163033, 6.427901 ], [ 100.161504, 6.42933 ], [ 100.162755, 6.429807 ], [ 100.164304, 6.42939 ], [ 100.165157, 6.430383 ], [ 100.164482, 6.43211 ], [ 100.165336, 6.432329 ], [ 100.166349, 6.4308 ], [ 100.167501, 6.431098 ], [ 100.167044, 6.433792 ], [ 100.168196, 6.433778 ], [ 100.169387, 6.432507 ], [ 100.17038, 6.432865 ], [ 100.172564, 6.432249 ], [ 100.174768, 6.433699 ], [ 100.176933, 6.434175 ], [ 100.177588, 6.432905 ], [ 100.178243, 6.433322 ], [ 100.178184, 6.43489 ], [ 100.179593, 6.435565 ], [ 100.179573, 6.4335 ], [ 100.182095, 6.434255 ], [ 100.183575, 6.435595 ], [ 100.18422, 6.439398 ], [ 100.183088, 6.440252 ], [ 100.183068, 6.444302 ], [ 100.187615, 6.445057 ], [ 100.188787, 6.444839 ], [ 100.188866, 6.44321 ], [ 100.189502, 6.442337 ], [ 100.19663, 6.445613 ], [ 100.200602, 6.44734 ], [ 100.198348, 6.443012 ], [ 100.197653, 6.441522 ], [ 100.196451, 6.440743 ], [ 100.196587, 6.439525 ], [ 100.194781, 6.438125 ], [ 100.196406, 6.437629 ], [ 100.19758, 6.430948 ], [ 100.196271, 6.430768 ], [ 100.198437, 6.419483 ], [ 100.201146, 6.409192 ], [ 100.201304, 6.406055 ], [ 100.196184, 6.406833 ], [ 100.193563, 6.405343 ], [ 100.192039, 6.40522 ], [ 100.187457, 6.407657 ], [ 100.185968, 6.404588 ], [ 100.186983, 6.402399 ], [ 100.185945, 6.396463 ], [ 100.184478, 6.395357 ], [ 100.184501, 6.392378 ], [ 100.183011, 6.391069 ], [ 100.183011, 6.389015 ], [ 100.179626, 6.389218 ], [ 100.176963, 6.395673 ], [ 100.176748, 6.398088 ], [ 100.176128, 6.399284 ], [ 100.176105, 6.400661 ], [ 100.175022, 6.401744 ], [ 100.176218, 6.404046 ], [ 100.177144, 6.405814 ], [ 100.176963, 6.406845 ], [ 100.175654, 6.406732 ], [ 100.174909, 6.408041 ], [ 100.174864, 6.409666 ], [ 100.175518, 6.410997 ], [ 100.173961, 6.412284 ], [ 100.172314, 6.411945 ], [ 100.17017, 6.412735 ], [ 100.170192, 6.414496 ] ] ] } },
{ "type": "Feature", "properties": { "state": "Perlis", "parlimen": "P.002 Arau", "code_parlimen": "P.002", "dun": "N.08 Kuala Perlis", "code_dun": "N.08" }, "geometry": { "type": "Polygon", "coordinates": [ [ [ 100.153388, 6.421526 ], [ 100.151561, 6.420775 ], [ 100.150593, 6.418628 ], [ 100.149639, 6.414219 ], [ 100.14813, 6.407547 ], [ 100.148249, 6.405204 ], [ 100.150831, 6.397699 ], [ 100.151188, 6.39333 ], [ 100.153293, 6.389279 ], [ 100.154604, 6.385467 ], [ 100.157106, 6.382806 ], [ 100.155815, 6.381198 ], [ 100.159488, 6.377127 ], [ 100.158813, 6.376353 ], [ 100.159746, 6.37526 ], [ 100.158754, 6.374089 ], [ 100.152823, 6.371688 ], [ 100.149889, 6.371147 ], [ 100.147316, 6.370018 ], [ 100.144021, 6.370244 ], [ 100.142372, 6.370733 ], [ 100.14118, 6.37109 ], [ 100.140188, 6.371269 ], [ 100.127273, 6.396241 ], [ 100.121065, 6.410726 ], [ 100.118906, 6.422528 ], [ 100.123584, 6.422885 ], [ 100.124934, 6.425478 ], [ 100.128443, 6.426372 ], [ 100.129612, 6.428428 ], [ 100.133571, 6.429233 ], [ 100.134831, 6.433256 ], [ 100.134021, 6.439962 ], [ 100.13627, 6.440498 ], [ 100.135101, 6.444343 ], [ 100.139509, 6.448098 ], [ 100.141579, 6.447561 ], [ 100.144368, 6.451048 ], [ 100.147427, 6.4523 ], [ 100.149034, 6.452404 ], [ 100.15237, 6.451371 ], [ 100.152637, 6.446539 ], [ 100.15372, 6.444779 ], [ 100.153859, 6.442337 ], [ 100.154197, 6.440688 ], [ 100.156262, 6.432607 ], [ 100.156706, 6.430847 ], [ 100.156809, 6.428647 ], [ 100.155574, 6.426795 ], [ 100.155239, 6.423512 ], [ 100.153388, 6.421526 ] ] ] } },
{ "type": "Feature", "properties": { "state": "Perlis", "parlimen": "P.002 Arau", "code_parlimen": "P.002", "dun": "N.09 Kayang", "code_dun": "N.09" }, "geometry": { "type": "Polygon", "coordinates": [ [ [ 100.149639, 6.414219 ], [ 100.150593, 6.418628 ], [ 100.151561, 6.420775 ], [ 100.153388, 6.421526 ], [ 100.155239, 6.423512 ], [ 100.155574, 6.426795 ], [ 100.156809, 6.428647 ], [ 100.156706, 6.430847 ], [ 100.156262, 6.432607 ], [ 100.157791, 6.434235 ], [ 100.159061, 6.43489 ], [ 100.160154, 6.433679 ], [ 100.158426, 6.431932 ], [ 100.159002, 6.429767 ], [ 100.161504, 6.427702 ], [ 100.162576, 6.427047 ], [ 100.162079, 6.426435 ], [ 100.162671, 6.42499 ], [ 100.166147, 6.423252 ], [ 100.166937, 6.418107 ], [ 100.169622, 6.417068 ], [ 100.168928, 6.415579 ], [ 100.170192, 6.414496 ], [ 100.17017, 6.412735 ], [ 100.172314, 6.411945 ], [ 100.173961, 6.412284 ], [ 100.175518, 6.410997 ], [ 100.174864, 6.409666 ], [ 100.174909, 6.408041 ], [ 100.175654, 6.406732 ], [ 100.176963, 6.406845 ], [ 100.177144, 6.405814 ], [ 100.176218, 6.404046 ], [ 100.175022, 6.401744 ], [ 100.176105, 6.400661 ], [ 100.176128, 6.399284 ], [ 100.176748, 6.398088 ], [ 100.176963, 6.395673 ], [ 100.179626, 6.389218 ], [ 100.183011, 6.389015 ], [ 100.18344, 6.378385 ], [ 100.184398, 6.373014 ], [ 100.184275, 6.370915 ], [ 100.182921, 6.370102 ], [ 100.183372, 6.366672 ], [ 100.1859, 6.355478 ], [ 100.187615, 6.348075 ], [ 100.188879, 6.348346 ], [ 100.190324, 6.342388 ], [ 100.19574, 6.344374 ], [ 100.196487, 6.343682 ], [ 100.196536, 6.34244 ], [ 100.195821, 6.341988 ], [ 100.191929, 6.340512 ], [ 100.194183, 6.335546 ], [ 100.190687, 6.33419 ], [ 100.188155, 6.341002 ], [ 100.184545, 6.339957 ], [ 100.18162, 6.339673 ], [ 100.168345, 6.335814 ], [ 100.159393, 6.333345 ], [ 100.153568, 6.331609 ], [ 100.153455, 6.33186 ], [ 100.147607, 6.349597 ], [ 100.144728, 6.358329 ], [ 100.140188, 6.371269 ], [ 100.14118, 6.37109 ], [ 100.142372, 6.370733 ], [ 100.144021, 6.370244 ], [ 100.147316, 6.370018 ], [ 100.149889, 6.371147 ], [ 100.152823, 6.371688 ], [ 100.158754, 6.374089 ], [ 100.159746, 6.37526 ], [ 100.158813, 6.376353 ], [ 100.159488, 6.377127 ], [ 100.155815, 6.381198 ], [ 100.157106, 6.382806 ], [ 100.154604, 6.385467 ], [ 100.153293, 6.389279 ], [ 100.151188, 6.39333 ], [ 100.150831, 6.397699 ], [ 100.148249, 6.405204 ], [ 100.14813, 6.407547 ], [ 100.149639, 6.414219 ] ] ] } },
{ "type": "Feature", "properties": { "state": "Perlis", "parlimen": "P.002 Arau", "code_parlimen": "P.002", "dun": "N.10 Utan Aji", "code_dun": "N.10" }, "geometry": { "type": "Polygon", "coordinates": [ [ [ 100.196487, 6.343682 ], [ 100.19574, 6.344374 ], [ 100.190324, 6.342388 ], [ 100.188879, 6.348346 ], [ 100.187615, 6.348075 ], [ 100.1859, 6.355478 ], [ 100.183372, 6.366672 ], [ 100.182921, 6.370102 ], [ 100.184275, 6.370915 ], [ 100.184398, 6.373014 ], [ 100.18344, 6.378385 ], [ 100.183011, 6.389015 ], [ 100.183011, 6.391069 ], [ 100.184501, 6.392378 ], [ 100.184478, 6.395357 ], [ 100.185945, 6.396463 ], [ 100.186983, 6.402399 ], [ 100.185968, 6.404588 ], [ 100.187457, 6.407657 ], [ 100.192039, 6.40522 ], [ 100.193563, 6.405343 ], [ 100.196184, 6.406833 ], [ 100.201304, 6.406055 ], [ 100.206626, 6.40458 ], [ 100.21335, 6.399108 ], [ 100.212635, 6.409632 ], [ 100.217828, 6.409732 ], [ 100.226792, 6.409874 ], [ 100.228584, 6.390245 ], [ 100.229526, 6.376839 ], [ 100.230959, 6.377742 ], [ 100.233464, 6.373093 ], [ 100.225148, 6.365296 ], [ 100.213296, 6.356342 ], [ 100.203538, 6.348471 ], [ 100.196487, 6.343682 ] ] ] } },
{ "type": "Feature", "properties": { "state": "Perlis", "parlimen": "P.002 Arau", "code_parlimen": "P.002", "dun": "N.11 Kota Raja", "code_dun": "N.11" }, "geometry": { "type": "Polygon", "coordinates": [ [ [ 100.208852, 6.415311 ], [ 100.206494, 6.419686 ], [ 100.202935, 6.42528 ], [ 100.204385, 6.426173 ], [ 100.203956, 6.427392 ], [ 100.203928, 6.431276 ], [ 100.206178, 6.43061 ], [ 100.208029, 6.430407 ], [ 100.20988, 6.427789 ], [ 100.212678, 6.425735 ], [ 100.214111, 6.425803 ], [ 100.215285, 6.424764 ], [ 100.217361, 6.425351 ], [ 100.22359, 6.422395 ], [ 100.224809, 6.423275 ], [ 100.224567, 6.427179 ], [ 100.225718, 6.428353 ], [ 100.225198, 6.431648 ], [ 100.226237, 6.433453 ], [ 100.225966, 6.435327 ], [ 100.227455, 6.435936 ], [ 100.227546, 6.437674 ], [ 100.226259, 6.438193 ], [ 100.226417, 6.441962 ], [ 100.225988, 6.443136 ], [ 100.22644, 6.447243 ], [ 100.227421, 6.44792 ], [ 100.227986, 6.448936 ], [ 100.229859, 6.449545 ], [ 100.229949, 6.451486 ], [ 100.231529, 6.452976 ], [ 100.233483, 6.453665 ], [ 100.23492, 6.456011 ], [ 100.236094, 6.458516 ], [ 100.23562, 6.459442 ], [ 100.234649, 6.459487 ], [ 100.233588, 6.460638 ], [ 100.23325, 6.462195 ], [ 100.232835, 6.464459 ], [ 100.233068, 6.465973 ], [ 100.234023, 6.465577 ], [ 100.234396, 6.466672 ], [ 100.235165, 6.466439 ], [ 100.2357, 6.467208 ], [ 100.236516, 6.466858 ], [ 100.236819, 6.46772 ], [ 100.237724, 6.467634 ], [ 100.236563, 6.469281 ], [ 100.237355, 6.469864 ], [ 100.239032, 6.468815 ], [ 100.239871, 6.469002 ], [ 100.240803, 6.468163 ], [ 100.241851, 6.468373 ], [ 100.242783, 6.466812 ], [ 100.242597, 6.465717 ], [ 100.244507, 6.464901 ], [ 100.249144, 6.461733 ], [ 100.25194, 6.460708 ], [ 100.254013, 6.462478 ], [ 100.255272, 6.464181 ], [ 100.255678, 6.465896 ], [ 100.25649, 6.465716 ], [ 100.258595, 6.459667 ], [ 100.260496, 6.452507 ], [ 100.260959, 6.451746 ], [ 100.261772, 6.449128 ], [ 100.263171, 6.445426 ], [ 100.263983, 6.442763 ], [ 100.265067, 6.442312 ], [ 100.266511, 6.44344 ], [ 100.267594, 6.442538 ], [ 100.267594, 6.441319 ], [ 100.267323, 6.438972 ], [ 100.271702, 6.434322 ], [ 100.272153, 6.433329 ], [ 100.271521, 6.431704 ], [ 100.271612, 6.430621 ], [ 100.272785, 6.429086 ], [ 100.274365, 6.428274 ], [ 100.274275, 6.426694 ], [ 100.273688, 6.426243 ], [ 100.273103, 6.425322 ], [ 100.272091, 6.426596 ], [ 100.269999, 6.428001 ], [ 100.268987, 6.427151 ], [ 100.268903, 6.424979 ], [ 100.268136, 6.424166 ], [ 100.26817, 6.422071 ], [ 100.271274, 6.416549 ], [ 100.271731, 6.413707 ], [ 100.273528, 6.411093 ], [ 100.2745, 6.40742 ], [ 100.2759, 6.404622 ], [ 100.275292, 6.403872 ], [ 100.274525, 6.40348 ], [ 100.27459, 6.402435 ], [ 100.273316, 6.402222 ], [ 100.273201, 6.401291 ], [ 100.273593, 6.400409 ], [ 100.271698, 6.399037 ], [ 100.266046, 6.397077 ], [ 100.264282, 6.397077 ], [ 100.262354, 6.395966 ], [ 100.257078, 6.396105 ], [ 100.250154, 6.387986 ], [ 100.24259, 6.380423 ], [ 100.237177, 6.376275 ], [ 100.235304, 6.374469 ], [ 100.234627, 6.373815 ], [ 100.233464, 6.373093 ], [ 100.230959, 6.377742 ], [ 100.229526, 6.376839 ], [ 100.228584, 6.390245 ], [ 100.226792, 6.409874 ], [ 100.217828, 6.409732 ], [ 100.212635, 6.409632 ], [ 100.209627, 6.410764 ], [ 100.210163, 6.413445 ], [ 100.208538, 6.413941 ], [ 100.208852, 6.415311 ] ] ] } },
{ "type": "Feature", "properties": { "state": "Perlis", "parlimen": "P.002 Arau", "code_parlimen": "P.002", "dun": "N.12 Guar Sanji", "code_dun": "N.12" }, "geometry": { "type": "Polygon", "coordinates": [ [ [ 100.280645, 6.409429 ], [ 100.27956, 6.409505 ], [ 100.279714, 6.407962 ], [ 100.27817, 6.407499 ], [ 100.27836, 6.406066 ], [ 100.277141, 6.405885 ], [ 100.276825, 6.404757 ], [ 100.2759, 6.404622 ], [ 100.2745, 6.40742 ], [ 100.273528, 6.411093 ], [ 100.271731, 6.413707 ], [ 100.271274, 6.416549 ], [ 100.26817, 6.422071 ], [ 100.268136, 6.424166 ], [ 100.268903, 6.424979 ], [ 100.268987, 6.427151 ], [ 100.269999, 6.428001 ], [ 100.272091, 6.426596 ], [ 100.273103, 6.425322 ], [ 100.273688, 6.426243 ], [ 100.274275, 6.426694 ], [ 100.274365, 6.428274 ], [ 100.272785, 6.429086 ], [ 100.271612, 6.430621 ], [ 100.271521, 6.431704 ], [ 100.272153, 6.433329 ], [ 100.271702, 6.434322 ], [ 100.267323, 6.438972 ], [ 100.267594, 6.441319 ], [ 100.267594, 6.442538 ], [ 100.266511, 6.44344 ], [ 100.265067, 6.442312 ], [ 100.263983, 6.442763 ], [ 100.263171, 6.445426 ], [ 100.261772, 6.449128 ], [ 100.260959, 6.451746 ], [ 100.260496, 6.452507 ], [ 100.258595, 6.459667 ], [ 100.259084, 6.459637 ], [ 100.26101, 6.459848 ], [ 100.262748, 6.46136 ], [ 100.265749, 6.459126 ], [ 100.266223, 6.460322 ], [ 100.267261, 6.460999 ], [ 100.266765, 6.46206 ], [ 100.268187, 6.46312 ], [ 100.268965, 6.462218 ], [ 100.271629, 6.461247 ], [ 100.276413, 6.460751 ], [ 100.281288, 6.460909 ], [ 100.281062, 6.459803 ], [ 100.284933, 6.458494 ], [ 100.287551, 6.4582 ], [ 100.290079, 6.45723 ], [ 100.293058, 6.457049 ], [ 100.294728, 6.458945 ], [ 100.296443, 6.460976 ], [ 100.297617, 6.460119 ], [ 100.301905, 6.460344 ], [ 100.304794, 6.463008 ], [ 100.306148, 6.462962 ], [ 100.306915, 6.461563 ], [ 100.308134, 6.462782 ], [ 100.311068, 6.462737 ], [ 100.31328, 6.464542 ], [ 100.315221, 6.466483 ], [ 100.317252, 6.467386 ], [ 100.318516, 6.46883 ], [ 100.320818, 6.470049 ], [ 100.324135, 6.470455 ], [ 100.326302, 6.471132 ], [ 100.329055, 6.471719 ], [ 100.329416, 6.472893 ], [ 100.330094, 6.474969 ], [ 100.331403, 6.475827 ], [ 100.332802, 6.476459 ], [ 100.334156, 6.479438 ], [ 100.335871, 6.481243 ], [ 100.336909, 6.481288 ], [ 100.337451, 6.481875 ], [ 100.337586, 6.482959 ], [ 100.339031, 6.484538 ], [ 100.340306, 6.484177 ], [ 100.341164, 6.483952 ], [ 100.34315, 6.485215 ], [ 100.344007, 6.485261 ], [ 100.344865, 6.484313 ], [ 100.346129, 6.484448 ], [ 100.350236, 6.487924 ], [ 100.354321, 6.488195 ], [ 100.360325, 6.488465 ], [ 100.365516, 6.48842 ], [ 100.366102, 6.488454 ], [ 100.365701, 6.484841 ], [ 100.363001, 6.453328 ], [ 100.355804, 6.447606 ], [ 100.311999, 6.410377 ], [ 100.307605, 6.414687 ], [ 100.297032, 6.424617 ], [ 100.289636, 6.431366 ], [ 100.285097, 6.435496 ], [ 100.284239, 6.431817 ], [ 100.285232, 6.429944 ], [ 100.284058, 6.427642 ], [ 100.284239, 6.423128 ], [ 100.284645, 6.416786 ], [ 100.283765, 6.41471 ], [ 100.284623, 6.413627 ], [ 100.284527, 6.412543 ], [ 100.283556, 6.412453 ], [ 100.283511, 6.411392 ], [ 100.280645, 6.409429 ] ] ] } },
{ "type": "Feature", "properties": { "state": "Perlis", "parlimen": "P.002 Arau", "code_parlimen": "P.002", "dun": "N.13 Kurong Anai", "code_dun": "N.13" }, "geometry": { "type": "Polygon", "coordinates": [ [ [ 100.249636, 6.335124 ], [ 100.243158, 6.332083 ], [ 100.23722, 6.324572 ], [ 100.226976, 6.338145 ], [ 100.219212, 6.348436 ], [ 100.214337, 6.354575 ], [ 100.213296, 6.356342 ], [ 100.225148, 6.365296 ], [ 100.233464, 6.373093 ], [ 100.234627, 6.373815 ], [ 100.235304, 6.374469 ], [ 100.237177, 6.376275 ], [ 100.24259, 6.380423 ], [ 100.250154, 6.387986 ], [ 100.257078, 6.396105 ], [ 100.262354, 6.395966 ], [ 100.264282, 6.397077 ], [ 100.266046, 6.397077 ], [ 100.271698, 6.399037 ], [ 100.273593, 6.400409 ], [ 100.273201, 6.401291 ], [ 100.273316, 6.402222 ], [ 100.27459, 6.402435 ], [ 100.274525, 6.40348 ], [ 100.275292, 6.403872 ], [ 100.2759, 6.404622 ], [ 100.276825, 6.404757 ], [ 100.277141, 6.405885 ], [ 100.27836, 6.406066 ], [ 100.27817, 6.407499 ], [ 100.279714, 6.407962 ], [ 100.27956, 6.409505 ], [ 100.280645, 6.409429 ], [ 100.283511, 6.411392 ], [ 100.283556, 6.412453 ], [ 100.284527, 6.412543 ], [ 100.284623, 6.413627 ], [ 100.283765, 6.41471 ], [ 100.284645, 6.416786 ], [ 100.284239, 6.423128 ], [ 100.284058, 6.427642 ], [ 100.285232, 6.429944 ], [ 100.284239, 6.431817 ], [ 100.285097, 6.435496 ], [ 100.289636, 6.431366 ], [ 100.297032, 6.424617 ], [ 100.307605, 6.414687 ], [ 100.311999, 6.410377 ], [ 100.310709, 6.409492 ], [ 100.309738, 6.410592 ], [ 100.306315, 6.408929 ], [ 100.304699, 6.406479 ], [ 100.305239, 6.404333 ], [ 100.30092, 6.403439 ], [ 100.290367, 6.386694 ], [ 100.279507, 6.369461 ], [ 100.273569, 6.366779 ], [ 100.264031, 6.354797 ], [ 100.255929, 6.349327 ], [ 100.254494, 6.348358 ], [ 100.249636, 6.335124 ] ] ] } },
{ "type": "Feature", "properties": { "state": "Perlis", "parlimen": "P.002 Arau", "code_parlimen": "P.002", "dun": "N.14 Sanglang", "code_dun": "N.14" }, "geometry": { "type": "Polygon", "coordinates": [ [ [ 100.20411, 6.288979 ], [ 100.20429, 6.285223 ], [ 100.201231, 6.281646 ], [ 100.20393, 6.275922 ], [ 100.20177, 6.265906 ], [ 100.193133, 6.248018 ], [ 100.16893, 6.289561 ], [ 100.162297, 6.30902 ], [ 100.159663, 6.318088 ], [ 100.154779, 6.328924 ], [ 100.153568, 6.331609 ], [ 100.159393, 6.333345 ], [ 100.168345, 6.335814 ], [ 100.18162, 6.339673 ], [ 100.184545, 6.339957 ], [ 100.188155, 6.341002 ], [ 100.190687, 6.33419 ], [ 100.194183, 6.335546 ], [ 100.191929, 6.340512 ], [ 100.195821, 6.341988 ], [ 100.196536, 6.34244 ], [ 100.196487, 6.343682 ], [ 100.203538, 6.348471 ], [ 100.213296, 6.356342 ], [ 100.214337, 6.354575 ], [ 100.219212, 6.348436 ], [ 100.226976, 6.338145 ], [ 100.23722, 6.324572 ], [ 100.231101, 6.320458 ], [ 100.227514, 6.317094 ], [ 100.220125, 6.307223 ], [ 100.217965, 6.299532 ], [ 100.20411, 6.288979 ] ] ] } }
]
}
