{
"type": "FeatureCollection",
"name": "PNG_SE-02",
"crs": { "type": "name", "properties": { "name": "urn:ogc:def:crs:OGC:1.3:CRS84" } },
"features": [
{ "type": "Feature", "properties": { "state": "Pulau Pinang", "parlimen": "P.031 Bagan", "code_parlimen": "P.031", "dun": "N.01 Butterworth", "code_dun": "N.01" }, "geometry": { "type": "Polygon", "coordinates": [ [ [ 100.378581, 5.415981 ], [ 100.378581, 5.413236 ], [ 100.377103, 5.410069 ], [ 100.375414, 5.407113 ], [ 100.373936, 5.403101 ], [ 100.373936, 5.402046 ], [ 100.377526, 5.40289 ], [ 100.382171, 5.403946 ], [ 100.38576, 5.402046 ], [ 100.388293, 5.398668 ], [ 100.391697, 5.397118 ], [ 100.391177, 5.392459 ], [ 100.388992, 5.388109 ], [ 100.378149, 5.368849 ], [ 100.377028, 5.373592 ], [ 100.374379, 5.377547 ], [ 100.372403, 5.376512 ], [ 100.368762, 5.382518 ], [ 100.370114, 5.386453 ], [ 100.368762, 5.389973 ], [ 100.363458, 5.394737 ], [ 100.363562, 5.399603 ], [ 100.37001, 5.412236 ], [ 100.371108, 5.415151 ], [ 100.376259, 5.415769 ], [ 100.378581, 5.415981 ] ] ] } },
{ "type": "Feature", "properties": { "state": "Pulau Pinang", "parlimen": "P.031 Bagan", "code_parlimen": "P.031", "dun": "N.02 Bagan Ajam", "code_dun": "N.02" }, "geometry": { "type": "Polygon", "coordinates": [ [ [ 100.38576, 5.402046 ], [ 100.382171, 5.403946 ], [ 100.377526, 5.40289 ], [ 100.373936, 5.402046 ], [ 100.373936, 5.403101 ], [ 100.375414, 5.407113 ], [ 100.377103, 5.410069 ], [ 100.378581, 5.413236 ], [ 100.378581, 5.415981 ], [ 100.376259, 5.415769 ], [ 100.371108, 5.415151 ], [ 100.376875, 5.43046 ], [ 100.379891, 5.446095 ], [ 100.380463, 5.452774 ], [ 100.380827, 5.460902 ], [ 100.380034, 5.470608 ], [ 100.391021, 5.471488 ], [ 100.405998, 5.474077 ], [ 100.418531, 5.481609 ], [ 100.417712, 5.467761 ], [ 100.418024, 5.458339 ], [ 100.416828, 5.451971 ], [ 100.411979, 5.445888 ], [ 100.411628, 5.441721 ], [ 100.411875, 5.43921 ], [ 100.411147, 5.436932 ], [ 100.409743, 5.437967 ], [ 100.408806, 5.437294 ], [ 100.409014, 5.435016 ], [ 100.406843, 5.431988 ], [ 100.407194, 5.42725 ], [ 100.405218, 5.427302 ], [ 100.401422, 5.428338 ], [ 100.399705, 5.426111 ], [ 100.40033, 5.423264 ], [ 100.40215, 5.419692 ], [ 100.398925, 5.415498 ], [ 100.400564, 5.411926 ], [ 100.403996, 5.409958 ], [ 100.40449, 5.408405 ], [ 100.40189, 5.40592 ], [ 100.399081, 5.405506 ], [ 100.395857, 5.410062 ], [ 100.392425, 5.41234 ], [ 100.387744, 5.409751 ], [ 100.386912, 5.406541 ], [ 100.391073, 5.400018 ], [ 100.391697, 5.397118 ], [ 100.388293, 5.398668 ], [ 100.38576, 5.402046 ] ] ] } },
{ "type": "Feature", "properties": { "state": "Pulau Pinang", "parlimen": "P.032 Seberang Tengah", "code_parlimen": "P.032", "dun": "N.03 Permatang Pauh", "code_dun": "N.03" }, "geometry": { "type": "Polygon", "coordinates": [ [ [ 100.513992, 5.381705 ], [ 100.510275, 5.381472 ], [ 100.505165, 5.381472 ], [ 100.499126, 5.382169 ], [ 100.494481, 5.384492 ], [ 100.490067, 5.387512 ], [ 100.486119, 5.389602 ], [ 100.481938, 5.390067 ], [ 100.477292, 5.388905 ], [ 100.47195, 5.389137 ], [ 100.467072, 5.389137 ], [ 100.461962, 5.389137 ], [ 100.458014, 5.387976 ], [ 100.453368, 5.387976 ], [ 100.448258, 5.387976 ], [ 100.444542, 5.388441 ], [ 100.438038, 5.389602 ], [ 100.437574, 5.387976 ], [ 100.441987, 5.385886 ], [ 100.444542, 5.382634 ], [ 100.446168, 5.37915 ], [ 100.446865, 5.375433 ], [ 100.447329, 5.370788 ], [ 100.447794, 5.367304 ], [ 100.443613, 5.367304 ], [ 100.439199, 5.366839 ], [ 100.434554, 5.367536 ], [ 100.429444, 5.367536 ], [ 100.424799, 5.366607 ], [ 100.426192, 5.36289 ], [ 100.426424, 5.35778 ], [ 100.425263, 5.355458 ], [ 100.424246, 5.353423 ], [ 100.41848, 5.351049 ], [ 100.413732, 5.351049 ], [ 100.411357, 5.34664 ], [ 100.405175, 5.341066 ], [ 100.402037, 5.342903 ], [ 100.397561, 5.347544 ], [ 100.394516, 5.348187 ], [ 100.391747, 5.350346 ], [ 100.385864, 5.358248 ], [ 100.383788, 5.360499 ], [ 100.38125, 5.362704 ], [ 100.378149, 5.368849 ], [ 100.388992, 5.388109 ], [ 100.391177, 5.392459 ], [ 100.391697, 5.397118 ], [ 100.391073, 5.400018 ], [ 100.386912, 5.406541 ], [ 100.387744, 5.409751 ], [ 100.392425, 5.41234 ], [ 100.395857, 5.410062 ], [ 100.399081, 5.405506 ], [ 100.40189, 5.40592 ], [ 100.40449, 5.408405 ], [ 100.403996, 5.409958 ], [ 100.400564, 5.411926 ], [ 100.398925, 5.415498 ], [ 100.40215, 5.419692 ], [ 100.40033, 5.423264 ], [ 100.399705, 5.426111 ], [ 100.401422, 5.428338 ], [ 100.405218, 5.427302 ], [ 100.407194, 5.42725 ], [ 100.410419, 5.427043 ], [ 100.414059, 5.432842 ], [ 100.417751, 5.434499 ], [ 100.421236, 5.433256 ], [ 100.424252, 5.42927 ], [ 100.425916, 5.429943 ], [ 100.4255, 5.43367 ], [ 100.426072, 5.436466 ], [ 100.427892, 5.437605 ], [ 100.429245, 5.436 ], [ 100.428672, 5.432479 ], [ 100.430389, 5.431548 ], [ 100.432521, 5.433153 ], [ 100.433561, 5.436466 ], [ 100.435953, 5.438019 ], [ 100.436993, 5.436777 ], [ 100.435225, 5.432997 ], [ 100.436369, 5.431806 ], [ 100.439204, 5.433981 ], [ 100.438788, 5.43833 ], [ 100.440348, 5.438485 ], [ 100.442168, 5.436207 ], [ 100.445808, 5.44009 ], [ 100.44612, 5.442989 ], [ 100.44378, 5.444076 ], [ 100.442896, 5.442627 ], [ 100.442844, 5.440038 ], [ 100.440036, 5.441281 ], [ 100.437955, 5.441384 ], [ 100.436135, 5.44506 ], [ 100.437227, 5.445836 ], [ 100.439412, 5.44418 ], [ 100.440504, 5.444646 ], [ 100.43884, 5.452049 ], [ 100.442116, 5.453602 ], [ 100.444352, 5.451997 ], [ 100.441804, 5.450651 ], [ 100.443208, 5.449098 ], [ 100.445444, 5.449202 ], [ 100.44612, 5.447234 ], [ 100.448201, 5.445836 ], [ 100.451113, 5.446406 ], [ 100.453076, 5.445086 ], [ 100.453501, 5.443832 ], [ 100.45383, 5.44286 ], [ 100.456092, 5.442963 ], [ 100.457444, 5.445448 ], [ 100.459135, 5.445966 ], [ 100.460325, 5.445392 ], [ 100.461709, 5.444723 ], [ 100.461969, 5.441203 ], [ 100.463373, 5.439339 ], [ 100.469484, 5.438511 ], [ 100.477077, 5.434317 ], [ 100.483681, 5.431884 ], [ 100.488778, 5.428985 ], [ 100.492496, 5.430383 ], [ 100.496293, 5.435456 ], [ 100.499725, 5.436181 ], [ 100.504041, 5.433748 ], [ 100.507786, 5.433696 ], [ 100.51101, 5.435301 ], [ 100.512778, 5.434939 ], [ 100.513714, 5.432971 ], [ 100.517225, 5.432195 ], [ 100.519045, 5.433696 ], [ 100.520709, 5.43292 ], [ 100.523933, 5.428622 ], [ 100.525537, 5.428733 ], [ 100.524474, 5.383693 ], [ 100.52096, 5.382866 ], [ 100.513992, 5.381705 ] ] ] } },
{ "type": "Feature", "properties": { "state": "Pulau Pinang", "parlimen": "P.032 Seberang Tengah", "code_parlimen": "P.032", "dun": "N.04 Bukit Mertajam", "code_dun": "N.04" }, "geometry": { "type": "Polygon", "coordinates": [ [ [ 100.488674, 5.382169 ], [ 100.489603, 5.377756 ], [ 100.48519, 5.377988 ], [ 100.482867, 5.377988 ], [ 100.479847, 5.374272 ], [ 100.477292, 5.371949 ], [ 100.474273, 5.369859 ], [ 100.469163, 5.367071 ], [ 100.477525, 5.366607 ], [ 100.481009, 5.364284 ], [ 100.484261, 5.362658 ], [ 100.488906, 5.360335 ], [ 100.485654, 5.357316 ], [ 100.481938, 5.357316 ], [ 100.478221, 5.357548 ], [ 100.472879, 5.358013 ], [ 100.469163, 5.356155 ], [ 100.466376, 5.35569 ], [ 100.461498, 5.356851 ], [ 100.458246, 5.358245 ], [ 100.455226, 5.360103 ], [ 100.451045, 5.364284 ], [ 100.448723, 5.364284 ], [ 100.447794, 5.367304 ], [ 100.447329, 5.370788 ], [ 100.446865, 5.375433 ], [ 100.446168, 5.37915 ], [ 100.444542, 5.382634 ], [ 100.441987, 5.385886 ], [ 100.437574, 5.387976 ], [ 100.438038, 5.389602 ], [ 100.444542, 5.388441 ], [ 100.448258, 5.387976 ], [ 100.453368, 5.387976 ], [ 100.458014, 5.387976 ], [ 100.461962, 5.389137 ], [ 100.467072, 5.389137 ], [ 100.47195, 5.389137 ], [ 100.477292, 5.388905 ], [ 100.481938, 5.390067 ], [ 100.486119, 5.389602 ], [ 100.486816, 5.384956 ], [ 100.488674, 5.382169 ] ] ] } },
{ "type": "Feature", "properties": { "state": "Pulau Pinang", "parlimen": "P.032 Seberang Tengah", "code_parlimen": "P.032", "dun": "N.05 Alma", "code_dun": "N.05" }, "geometry": { "type": "Polygon", "coordinates": [ [ [ 100.451045, 5.364284 ], [ 100.455226, 5.360103 ], [ 100.458246, 5.358245 ], [ 100.461498, 5.356851 ], [ 100.466376, 5.35569 ], [ 100.469163, 5.356155 ], [ 100.472879, 5.358013 ], [ 100.478221, 5.357548 ], [ 100.481938, 5.357316 ], [ 100.485654, 5.357316 ], [ 100.488906, 5.360335 ], [ 100.484261, 5.362658 ], [ 100.481009, 5.364284 ], [ 100.477525, 5.366607 ], [ 100.469163, 5.367071 ], [ 100.474273, 5.369859 ], [ 100.477292, 5.371949 ], [ 100.479847, 5.374272 ], [ 100.482867, 5.377988 ], [ 100.48519, 5.377988 ], [ 100.489603, 5.377756 ], [ 100.488674, 5.382169 ], [ 100.486816, 5.384956 ], [ 100.486119, 5.389602 ], [ 100.490067, 5.387512 ], [ 100.494481, 5.384492 ], [ 100.499126, 5.382169 ], [ 100.505165, 5.381472 ], [ 100.510275, 5.381472 ], [ 100.513992, 5.381705 ], [ 100.52096, 5.382866 ], [ 100.524474, 5.383693 ], [ 100.524369, 5.379266 ], [ 100.524277, 5.375348 ], [ 100.524547, 5.363792 ], [ 100.534031, 5.285001 ], [ 100.532253, 5.285978 ], [ 100.531976, 5.289746 ], [ 100.530592, 5.290664 ], [ 100.52607, 5.2948 ], [ 100.52284, 5.297465 ], [ 100.51961, 5.298108 ], [ 100.516288, 5.297465 ], [ 100.511027, 5.297281 ], [ 100.50789, 5.298108 ], [ 100.505029, 5.298935 ], [ 100.503183, 5.298567 ], [ 100.501153, 5.296086 ], [ 100.493862, 5.2914 ], [ 100.492109, 5.29094 ], [ 100.486664, 5.292135 ], [ 100.481726, 5.29241 ], [ 100.479788, 5.293146 ], [ 100.478681, 5.29241 ], [ 100.478035, 5.290205 ], [ 100.47702, 5.289654 ], [ 100.474528, 5.289562 ], [ 100.471944, 5.287264 ], [ 100.470744, 5.288643 ], [ 100.471944, 5.290481 ], [ 100.472406, 5.293697 ], [ 100.471021, 5.294432 ], [ 100.470191, 5.29241 ], [ 100.469268, 5.290664 ], [ 100.466222, 5.291767 ], [ 100.465761, 5.290481 ], [ 100.467514, 5.288367 ], [ 100.46936, 5.286805 ], [ 100.469176, 5.285702 ], [ 100.466776, 5.285978 ], [ 100.461516, 5.285978 ], [ 100.459947, 5.285978 ], [ 100.457547, 5.284783 ], [ 100.455425, 5.284232 ], [ 100.453948, 5.284691 ], [ 100.452841, 5.286529 ], [ 100.451733, 5.287356 ], [ 100.450626, 5.286162 ], [ 100.449519, 5.285427 ], [ 100.447027, 5.285243 ], [ 100.444904, 5.285427 ], [ 100.443612, 5.284324 ], [ 100.443151, 5.281475 ], [ 100.443243, 5.278902 ], [ 100.441305, 5.276145 ], [ 100.437337, 5.27541 ], [ 100.43503, 5.276329 ], [ 100.433599, 5.282302 ], [ 100.431938, 5.284416 ], [ 100.4288, 5.285059 ], [ 100.424647, 5.284416 ], [ 100.420613, 5.281998 ], [ 100.420056, 5.281984 ], [ 100.419779, 5.283589 ], [ 100.418072, 5.284921 ], [ 100.416642, 5.288505 ], [ 100.413642, 5.304173 ], [ 100.410551, 5.312948 ], [ 100.407275, 5.317589 ], [ 100.405636, 5.317083 ], [ 100.404667, 5.317313 ], [ 100.403422, 5.320713 ], [ 100.403145, 5.325169 ], [ 100.404298, 5.325767 ], [ 100.405175, 5.328431 ], [ 100.405683, 5.336563 ], [ 100.406236, 5.338631 ], [ 100.406006, 5.339596 ], [ 100.405175, 5.341066 ], [ 100.411357, 5.34664 ], [ 100.413732, 5.351049 ], [ 100.41848, 5.351049 ], [ 100.424246, 5.353423 ], [ 100.425263, 5.355458 ], [ 100.426424, 5.35778 ], [ 100.426192, 5.36289 ], [ 100.424799, 5.366607 ], [ 100.429444, 5.367536 ], [ 100.434554, 5.367536 ], [ 100.439199, 5.366839 ], [ 100.443613, 5.367304 ], [ 100.447794, 5.367304 ], [ 100.448723, 5.364284 ], [ 100.451045, 5.364284 ] ] ] } },
{ "type": "Feature", "properties": { "state": "Pulau Pinang", "parlimen": "P.033 Seberang Selatan", "code_parlimen": "P.033", "dun": "N.06 Sungei Bakap", "code_dun": "N.06" }, "geometry": { "type": "MultiPolygon", "coordinates": [ [ [ [ 100.528665, 5.200089 ], [ 100.523371, 5.199777 ], [ 100.519011, 5.197286 ], [ 100.513717, 5.196663 ], [ 100.508735, 5.197286 ], [ 100.503441, 5.196352 ], [ 100.49877, 5.195418 ], [ 100.498148, 5.196663 ], [ 100.496591, 5.20258 ], [ 100.496591, 5.208496 ], [ 100.496591, 5.214413 ], [ 100.49192, 5.216904 ], [ 100.490985, 5.212233 ], [ 100.48974, 5.208808 ], [ 100.48756, 5.204137 ], [ 100.484446, 5.199466 ], [ 100.482266, 5.195418 ], [ 100.480709, 5.191992 ], [ 100.479152, 5.185453 ], [ 100.479152, 5.180782 ], [ 100.479152, 5.175177 ], [ 100.479152, 5.169572 ], [ 100.476973, 5.164901 ], [ 100.475727, 5.162721 ], [ 100.473236, 5.157116 ], [ 100.47199, 5.152756 ], [ 100.470433, 5.148708 ], [ 100.469188, 5.143726 ], [ 100.464205, 5.144037 ], [ 100.46296, 5.149954 ], [ 100.461091, 5.154313 ], [ 100.453618, 5.15369 ], [ 100.448013, 5.15369 ], [ 100.444276, 5.154002 ], [ 100.444276, 5.156804 ], [ 100.445833, 5.161164 ], [ 100.447701, 5.165524 ], [ 100.447701, 5.166769 ], [ 100.444587, 5.170195 ], [ 100.439916, 5.172374 ], [ 100.435245, 5.170195 ], [ 100.432443, 5.166146 ], [ 100.427772, 5.164278 ], [ 100.422825, 5.16724 ], [ 100.423148, 5.168481 ], [ 100.424925, 5.168935 ], [ 100.424947, 5.16894 ], [ 100.425916, 5.169997 ], [ 100.422502, 5.173444 ], [ 100.421833, 5.173122 ], [ 100.416757, 5.17565 ], [ 100.416619, 5.176477 ], [ 100.418372, 5.180291 ], [ 100.420864, 5.189482 ], [ 100.421602, 5.197018 ], [ 100.421879, 5.198167 ], [ 100.422156, 5.20189 ], [ 100.423263, 5.20699 ], [ 100.424371, 5.208323 ], [ 100.42677, 5.207404 ], [ 100.428477, 5.207496 ], [ 100.429077, 5.206944 ], [ 100.431015, 5.208323 ], [ 100.431523, 5.209242 ], [ 100.431154, 5.210253 ], [ 100.429677, 5.21131 ], [ 100.426574, 5.214664 ], [ 100.424174, 5.216548 ], [ 100.424128, 5.218478 ], [ 100.424867, 5.219949 ], [ 100.424867, 5.222844 ], [ 100.421498, 5.233183 ], [ 100.420898, 5.238375 ], [ 100.417807, 5.246554 ], [ 100.412362, 5.258501 ], [ 100.41167, 5.261074 ], [ 100.406732, 5.262682 ], [ 100.406133, 5.265807 ], [ 100.408947, 5.26691 ], [ 100.409397, 5.269896 ], [ 100.416088, 5.27734 ], [ 100.420287, 5.280648 ], [ 100.420056, 5.281984 ], [ 100.420613, 5.281998 ], [ 100.424647, 5.284416 ], [ 100.4288, 5.285059 ], [ 100.431938, 5.284416 ], [ 100.433599, 5.282302 ], [ 100.43503, 5.276329 ], [ 100.437337, 5.27541 ], [ 100.441305, 5.276145 ], [ 100.443243, 5.278902 ], [ 100.443151, 5.281475 ], [ 100.443612, 5.284324 ], [ 100.444904, 5.285427 ], [ 100.447027, 5.285243 ], [ 100.449519, 5.285427 ], [ 100.450626, 5.286162 ], [ 100.451733, 5.287356 ], [ 100.452841, 5.286529 ], [ 100.453948, 5.284691 ], [ 100.455425, 5.284232 ], [ 100.457547, 5.284783 ], [ 100.459947, 5.285978 ], [ 100.461516, 5.285978 ], [ 100.466776, 5.285978 ], [ 100.469176, 5.285702 ], [ 100.46936, 5.286805 ], [ 100.467514, 5.288367 ], [ 100.465761, 5.290481 ], [ 100.466222, 5.291767 ], [ 100.469268, 5.290664 ], [ 100.470191, 5.29241 ], [ 100.471021, 5.294432 ], [ 100.472406, 5.293697 ], [ 100.471944, 5.290481 ], [ 100.470744, 5.288643 ], [ 100.471944, 5.287264 ], [ 100.474528, 5.289562 ], [ 100.47702, 5.289654 ], [ 100.478035, 5.290205 ], [ 100.478681, 5.29241 ], [ 100.479788, 5.293146 ], [ 100.481726, 5.29241 ], [ 100.486664, 5.292135 ], [ 100.492109, 5.29094 ], [ 100.493862, 5.2914 ], [ 100.501153, 5.296086 ], [ 100.503183, 5.298567 ], [ 100.505029, 5.298935 ], [ 100.50789, 5.298108 ], [ 100.511027, 5.297281 ], [ 100.516288, 5.297465 ], [ 100.51961, 5.298108 ], [ 100.52284, 5.297465 ], [ 100.52607, 5.2948 ], [ 100.530592, 5.290664 ], [ 100.531976, 5.289746 ], [ 100.532253, 5.285978 ], [ 100.534031, 5.285001 ], [ 100.537909, 5.251882 ], [ 100.538373, 5.247922 ], [ 100.543434, 5.204686 ], [ 100.533647, 5.201957 ], [ 100.528665, 5.200089 ] ] ], [ [ [ 100.386737, 5.257083 ], [ 100.386061, 5.256348 ], [ 100.384523, 5.257144 ], [ 100.3844, 5.258369 ], [ 100.385076, 5.260146 ], [ 100.384523, 5.26131 ], [ 100.385384, 5.262413 ], [ 100.386061, 5.263332 ], [ 100.388399, 5.264802 ], [ 100.389383, 5.267375 ], [ 100.38926, 5.269765 ], [ 100.390244, 5.269397 ], [ 100.392213, 5.268294 ], [ 100.392521, 5.26615 ], [ 100.391413, 5.262352 ], [ 100.390613, 5.261862 ], [ 100.388152, 5.259779 ], [ 100.387906, 5.258308 ], [ 100.386737, 5.257083 ] ] ], [ [ [ 100.388891, 5.271603 ], [ 100.388029, 5.270316 ], [ 100.387476, 5.268784 ], [ 100.386122, 5.267253 ], [ 100.385445, 5.267804 ], [ 100.384707, 5.269642 ], [ 100.38563, 5.271664 ], [ 100.385199, 5.27246 ], [ 100.385199, 5.273195 ], [ 100.384646, 5.273686 ], [ 100.384769, 5.274543 ], [ 100.385999, 5.275891 ], [ 100.38563, 5.27681 ], [ 100.386368, 5.277668 ], [ 100.38723, 5.278219 ], [ 100.387353, 5.279444 ], [ 100.386061, 5.280425 ], [ 100.386799, 5.281527 ], [ 100.386614, 5.282385 ], [ 100.387168, 5.28361 ], [ 100.386553, 5.285142 ], [ 100.38766, 5.286183 ], [ 100.388214, 5.283978 ], [ 100.389137, 5.282507 ], [ 100.388214, 5.280179 ], [ 100.388091, 5.277729 ], [ 100.388583, 5.276687 ], [ 100.388522, 5.275401 ], [ 100.388214, 5.273134 ], [ 100.388891, 5.271603 ] ] ] ] } },
{ "type": "Feature", "properties": { "state": "Pulau Pinang", "parlimen": "P.033 Seberang Selatan", "code_parlimen": "P.033", "dun": "N.07 Nibong Tebal", "code_dun": "N.07" }, "geometry": { "type": "Polygon", "coordinates": [ [ [ 100.432443, 5.166146 ], [ 100.435245, 5.170195 ], [ 100.439916, 5.172374 ], [ 100.444587, 5.170195 ], [ 100.447701, 5.166769 ], [ 100.447701, 5.165524 ], [ 100.445833, 5.161164 ], [ 100.444276, 5.156804 ], [ 100.444276, 5.154002 ], [ 100.448013, 5.15369 ], [ 100.453618, 5.15369 ], [ 100.461091, 5.154313 ], [ 100.46296, 5.149954 ], [ 100.464205, 5.144037 ], [ 100.469188, 5.143726 ], [ 100.470433, 5.148708 ], [ 100.47199, 5.152756 ], [ 100.473236, 5.157116 ], [ 100.475727, 5.162721 ], [ 100.476973, 5.164901 ], [ 100.479152, 5.169572 ], [ 100.479152, 5.175177 ], [ 100.479152, 5.180782 ], [ 100.479152, 5.185453 ], [ 100.480709, 5.191992 ], [ 100.482266, 5.195418 ], [ 100.484446, 5.199466 ], [ 100.48756, 5.204137 ], [ 100.48974, 5.208808 ], [ 100.490985, 5.212233 ], [ 100.49192, 5.216904 ], [ 100.496591, 5.214413 ], [ 100.496591, 5.208496 ], [ 100.496591, 5.20258 ], [ 100.498148, 5.196663 ], [ 100.49877, 5.195418 ], [ 100.503441, 5.196352 ], [ 100.508735, 5.197286 ], [ 100.513717, 5.196663 ], [ 100.519011, 5.197286 ], [ 100.523371, 5.199777 ], [ 100.528665, 5.200089 ], [ 100.533647, 5.201957 ], [ 100.543434, 5.204686 ], [ 100.550684, 5.142762 ], [ 100.543711, 5.138461 ], [ 100.539078, 5.137744 ], [ 100.514335, 5.144017 ], [ 100.507812, 5.145002 ], [ 100.503134, 5.142404 ], [ 100.501514, 5.142986 ], [ 100.498365, 5.142493 ], [ 100.495396, 5.13985 ], [ 100.491482, 5.133308 ], [ 100.407898, 5.122823 ], [ 100.400688, 5.126016 ], [ 100.400411, 5.127028 ], [ 100.403133, 5.132359 ], [ 100.404564, 5.136955 ], [ 100.406836, 5.140447 ], [ 100.411785, 5.150006 ], [ 100.412708, 5.153729 ], [ 100.417657, 5.162966 ], [ 100.422825, 5.16724 ], [ 100.427772, 5.164278 ], [ 100.432443, 5.166146 ] ] ] } },
{ "type": "Feature", "properties": { "state": "Pulau Pinang", "parlimen": "P.034 Penang Utara", "code_parlimen": "P.034", "dun": "N.08 Kelawai", "code_dun": "N.08" }, "geometry": { "type": "Polygon", "coordinates": [ [ [ 100.308169, 5.416071 ], [ 100.305451, 5.420272 ], [ 100.302979, 5.425215 ], [ 100.301002, 5.429416 ], [ 100.299519, 5.433123 ], [ 100.301002, 5.439302 ], [ 100.303474, 5.443998 ], [ 100.306934, 5.442021 ], [ 100.309294, 5.440729 ], [ 100.31397, 5.435339 ], [ 100.321845, 5.429582 ], [ 100.319784, 5.426213 ], [ 100.318676, 5.423733 ], [ 100.31843, 5.419353 ], [ 100.318246, 5.415617 ], [ 100.31843, 5.412677 ], [ 100.317754, 5.409125 ], [ 100.312618, 5.412364 ], [ 100.308169, 5.416071 ] ] ] } },
{ "type": "Feature", "properties": { "state": "Pulau Pinang", "parlimen": "P.034 Penang Utara", "code_parlimen": "P.034", "dun": "N.09 Dhoby Ghaut", "code_dun": "N.09" }, "geometry": { "type": "Polygon", "coordinates": [ [ [ 100.295071, 5.398277 ], [ 100.296059, 5.399512 ], [ 100.294577, 5.40322 ], [ 100.289387, 5.40668 ], [ 100.296554, 5.40841 ], [ 100.291858, 5.411869 ], [ 100.286421, 5.415082 ], [ 100.286421, 5.419531 ], [ 100.288645, 5.423979 ], [ 100.293094, 5.426451 ], [ 100.298284, 5.428428 ], [ 100.301002, 5.429416 ], [ 100.302979, 5.425215 ], [ 100.305451, 5.420272 ], [ 100.308169, 5.416071 ], [ 100.312618, 5.412364 ], [ 100.317754, 5.409125 ], [ 100.316277, 5.40594 ], [ 100.315723, 5.403857 ], [ 100.314047, 5.403122 ], [ 100.310355, 5.399202 ], [ 100.307402, 5.397426 ], [ 100.304141, 5.396201 ], [ 100.301127, 5.394731 ], [ 100.29842, 5.391117 ], [ 100.292847, 5.394817 ], [ 100.295071, 5.398277 ] ] ] } },
{ "type": "Feature", "properties": { "state": "Pulau Pinang", "parlimen": "P.034 Penang Utara", "code_parlimen": "P.034", "dun": "N.10 Tanjong Bungah", "code_dun": "N.10" }, "geometry": { "type": "Polygon", "coordinates": [ [ [ 100.23182, 5.391607 ], [ 100.23102, 5.390382 ], [ 100.229297, 5.389218 ], [ 100.228805, 5.388177 ], [ 100.228497, 5.384563 ], [ 100.227636, 5.381745 ], [ 100.22579, 5.378744 ], [ 100.224068, 5.377335 ], [ 100.222591, 5.375436 ], [ 100.220622, 5.373599 ], [ 100.218038, 5.372986 ], [ 100.216254, 5.37268 ], [ 100.215577, 5.3717 ], [ 100.216439, 5.369678 ], [ 100.217054, 5.367289 ], [ 100.2165, 5.365513 ], [ 100.214762, 5.363982 ], [ 100.212178, 5.362879 ], [ 100.210086, 5.362266 ], [ 100.208241, 5.361899 ], [ 100.205718, 5.362879 ], [ 100.203196, 5.362695 ], [ 100.201288, 5.36147 ], [ 100.200735, 5.36 ], [ 100.200796, 5.358101 ], [ 100.200119, 5.356325 ], [ 100.199012, 5.355161 ], [ 100.198581, 5.354058 ], [ 100.196859, 5.352527 ], [ 100.195013, 5.351179 ], [ 100.193659, 5.349709 ], [ 100.193075, 5.348882 ], [ 100.192029, 5.34925 ], [ 100.189814, 5.355008 ], [ 100.189999, 5.357519 ], [ 100.189753, 5.360888 ], [ 100.189076, 5.364196 ], [ 100.187907, 5.365054 ], [ 100.188215, 5.373017 ], [ 100.18926, 5.376876 ], [ 100.190799, 5.381837 ], [ 100.190799, 5.384103 ], [ 100.19166, 5.386737 ], [ 100.191291, 5.389249 ], [ 100.192521, 5.392005 ], [ 100.191721, 5.39274 ], [ 100.191168, 5.393904 ], [ 100.192152, 5.395986 ], [ 100.192706, 5.399723 ], [ 100.191475, 5.403091 ], [ 100.192829, 5.405542 ], [ 100.193506, 5.404071 ], [ 100.193875, 5.405113 ], [ 100.193383, 5.40646 ], [ 100.194921, 5.413565 ], [ 100.196459, 5.417118 ], [ 100.196766, 5.41969 ], [ 100.195967, 5.42165 ], [ 100.194859, 5.422201 ], [ 100.19246, 5.421956 ], [ 100.191844, 5.422998 ], [ 100.189876, 5.423243 ], [ 100.188522, 5.424468 ], [ 100.189322, 5.426611 ], [ 100.189383, 5.429061 ], [ 100.187968, 5.431082 ], [ 100.185754, 5.430531 ], [ 100.182677, 5.431511 ], [ 100.179786, 5.433042 ], [ 100.178309, 5.432859 ], [ 100.177017, 5.433716 ], [ 100.177632, 5.434757 ], [ 100.179047, 5.435431 ], [ 100.180832, 5.43831 ], [ 100.180955, 5.440943 ], [ 100.180709, 5.442658 ], [ 100.178309, 5.442964 ], [ 100.177694, 5.444006 ], [ 100.178801, 5.446945 ], [ 100.17997, 5.448905 ], [ 100.18157, 5.449028 ], [ 100.182985, 5.450804 ], [ 100.183908, 5.452948 ], [ 100.183539, 5.45601 ], [ 100.182431, 5.457357 ], [ 100.182354, 5.459899 ], [ 100.181616, 5.460756 ], [ 100.181616, 5.462471 ], [ 100.181985, 5.465105 ], [ 100.180816, 5.466452 ], [ 100.178232, 5.467861 ], [ 100.177555, 5.468106 ], [ 100.177002, 5.469514 ], [ 100.175894, 5.47031 ], [ 100.175402, 5.472209 ], [ 100.176079, 5.475455 ], [ 100.177063, 5.476741 ], [ 100.179032, 5.476619 ], [ 100.18057, 5.476619 ], [ 100.184139, 5.478517 ], [ 100.185123, 5.478517 ], [ 100.186415, 5.477353 ], [ 100.18703, 5.474659 ], [ 100.185677, 5.472393 ], [ 100.186538, 5.471168 ], [ 100.189491, 5.470004 ], [ 100.192567, 5.470555 ], [ 100.195767, 5.472821 ], [ 100.197059, 5.471168 ], [ 100.196628, 5.470004 ], [ 100.197197, 5.468412 ], [ 100.198797, 5.467493 ], [ 100.200704, 5.467554 ], [ 100.202796, 5.468351 ], [ 100.204026, 5.467371 ], [ 100.202427, 5.465778 ], [ 100.203472, 5.465043 ], [ 100.202734, 5.463696 ], [ 100.202611, 5.463022 ], [ 100.205318, 5.461001 ], [ 100.205687, 5.460021 ], [ 100.209133, 5.458796 ], [ 100.209748, 5.459409 ], [ 100.214178, 5.45996 ], [ 100.217992, 5.461246 ], [ 100.220638, 5.463206 ], [ 100.22153, 5.465105 ], [ 100.223252, 5.465105 ], [ 100.228051, 5.463451 ], [ 100.229528, 5.464492 ], [ 100.23162, 5.46339 ], [ 100.233158, 5.463512 ], [ 100.235434, 5.465411 ], [ 100.236726, 5.464921 ], [ 100.23888, 5.465778 ], [ 100.242325, 5.469208 ], [ 100.247185, 5.474353 ], [ 100.248816, 5.475455 ], [ 100.251338, 5.47864 ], [ 100.254168, 5.480661 ], [ 100.254599, 5.481824 ], [ 100.256506, 5.482314 ], [ 100.257245, 5.481824 ], [ 100.259644, 5.481947 ], [ 100.261428, 5.481151 ], [ 100.262797, 5.479007 ], [ 100.26575, 5.478395 ], [ 100.267411, 5.478027 ], [ 100.271287, 5.479252 ], [ 100.272826, 5.478211 ], [ 100.275102, 5.477537 ], [ 100.276455, 5.475761 ], [ 100.277932, 5.474965 ], [ 100.277994, 5.471964 ], [ 100.277994, 5.467861 ], [ 100.280762, 5.46682 ], [ 100.284454, 5.466697 ], [ 100.291344, 5.468841 ], [ 100.292513, 5.468412 ], [ 100.294559, 5.467126 ], [ 100.295666, 5.465595 ], [ 100.296958, 5.46535 ], [ 100.300788, 5.465778 ], [ 100.301403, 5.464309 ], [ 100.302449, 5.464186 ], [ 100.308233, 5.464247 ], [ 100.309279, 5.463267 ], [ 100.308971, 5.461369 ], [ 100.307756, 5.455305 ], [ 100.306402, 5.452059 ], [ 100.30794, 5.446486 ], [ 100.308556, 5.445935 ], [ 100.308863, 5.443852 ], [ 100.309294, 5.440729 ], [ 100.306934, 5.442021 ], [ 100.303474, 5.443998 ], [ 100.301002, 5.439302 ], [ 100.299519, 5.433123 ], [ 100.297666, 5.431887 ], [ 100.294817, 5.434736 ], [ 100.290481, 5.436718 ], [ 100.286022, 5.43647 ], [ 100.280324, 5.437337 ], [ 100.276484, 5.436099 ], [ 100.275122, 5.438081 ], [ 100.275741, 5.442416 ], [ 100.277599, 5.447495 ], [ 100.277971, 5.450715 ], [ 100.275741, 5.451211 ], [ 100.273387, 5.448486 ], [ 100.271901, 5.445884 ], [ 100.268061, 5.444522 ], [ 100.267813, 5.442416 ], [ 100.267937, 5.439939 ], [ 100.264717, 5.439939 ], [ 100.259143, 5.439195 ], [ 100.258647, 5.448114 ], [ 100.25394, 5.451087 ], [ 100.247994, 5.449724 ], [ 100.243535, 5.45022 ], [ 100.2392, 5.447371 ], [ 100.239324, 5.442416 ], [ 100.240439, 5.438081 ], [ 100.24242, 5.432507 ], [ 100.243164, 5.42879 ], [ 100.242544, 5.424579 ], [ 100.24242, 5.420739 ], [ 100.244898, 5.4195 ], [ 100.24849, 5.418138 ], [ 100.244155, 5.416156 ], [ 100.241801, 5.412564 ], [ 100.241925, 5.408352 ], [ 100.240562, 5.405008 ], [ 100.237342, 5.401168 ], [ 100.235311, 5.394118 ], [ 100.232927, 5.392832 ], [ 100.23182, 5.391607 ] ] ] } },
{ "type": "Feature", "properties": { "state": "Pulau Pinang", "parlimen": "P.034 Penang Utara", "code_parlimen": "P.034", "dun": "N.11 Ayer Itam", "code_dun": "N.11" }, "geometry": { "type": "Polygon", "coordinates": [ [ [ 100.240562, 5.405008 ], [ 100.241925, 5.408352 ], [ 100.241801, 5.412564 ], [ 100.244155, 5.416156 ], [ 100.24849, 5.418138 ], [ 100.244898, 5.4195 ], [ 100.24242, 5.420739 ], [ 100.242544, 5.424579 ], [ 100.243164, 5.42879 ], [ 100.24242, 5.432507 ], [ 100.240439, 5.438081 ], [ 100.239324, 5.442416 ], [ 100.2392, 5.447371 ], [ 100.243535, 5.45022 ], [ 100.247994, 5.449724 ], [ 100.25394, 5.451087 ], [ 100.258647, 5.448114 ], [ 100.259143, 5.439195 ], [ 100.264717, 5.439939 ], [ 100.267937, 5.439939 ], [ 100.267813, 5.442416 ], [ 100.268061, 5.444522 ], [ 100.271901, 5.445884 ], [ 100.273387, 5.448486 ], [ 100.275741, 5.451211 ], [ 100.277971, 5.450715 ], [ 100.277599, 5.447495 ], [ 100.275741, 5.442416 ], [ 100.275122, 5.438081 ], [ 100.276484, 5.436099 ], [ 100.280324, 5.437337 ], [ 100.286022, 5.43647 ], [ 100.290481, 5.436718 ], [ 100.294817, 5.434736 ], [ 100.297666, 5.431887 ], [ 100.299519, 5.433123 ], [ 100.301002, 5.429416 ], [ 100.298284, 5.428428 ], [ 100.293094, 5.426451 ], [ 100.288645, 5.423979 ], [ 100.286421, 5.419531 ], [ 100.286421, 5.415082 ], [ 100.291858, 5.411869 ], [ 100.296554, 5.40841 ], [ 100.289387, 5.40668 ], [ 100.294577, 5.40322 ], [ 100.296059, 5.399512 ], [ 100.295071, 5.398277 ], [ 100.292847, 5.394817 ], [ 100.29842, 5.391117 ], [ 100.295897, 5.387932 ], [ 100.293252, 5.385604 ], [ 100.289068, 5.383644 ], [ 100.2839, 5.384257 ], [ 100.276332, 5.386339 ], [ 100.274794, 5.387809 ], [ 100.274917, 5.389341 ], [ 100.27664, 5.395098 ], [ 100.276948, 5.396875 ], [ 100.279101, 5.400672 ], [ 100.279039, 5.401958 ], [ 100.277994, 5.402142 ], [ 100.274871, 5.399937 ], [ 100.272164, 5.397793 ], [ 100.271057, 5.397365 ], [ 100.267857, 5.397426 ], [ 100.26552, 5.396629 ], [ 100.26152, 5.394057 ], [ 100.259121, 5.392281 ], [ 100.258198, 5.389647 ], [ 100.256722, 5.387687 ], [ 100.254384, 5.385237 ], [ 100.253768, 5.383093 ], [ 100.254015, 5.380765 ], [ 100.25463, 5.37954 ], [ 100.254814, 5.37807 ], [ 100.254015, 5.377029 ], [ 100.25303, 5.376967 ], [ 100.250938, 5.378866 ], [ 100.249339, 5.379846 ], [ 100.249031, 5.382051 ], [ 100.246509, 5.384195 ], [ 100.245032, 5.384134 ], [ 100.244171, 5.381868 ], [ 100.243063, 5.380153 ], [ 100.241771, 5.380704 ], [ 100.241279, 5.383767 ], [ 100.24091, 5.387197 ], [ 100.23931, 5.389708 ], [ 100.238757, 5.392342 ], [ 100.237403, 5.393934 ], [ 100.235311, 5.394118 ], [ 100.237342, 5.401168 ], [ 100.240562, 5.405008 ] ] ] } },
{ "type": "Feature", "properties": { "state": "Pulau Pinang", "parlimen": "P.035 Penang Selatan", "code_parlimen": "P.035", "dun": "N.12 Jelutong", "code_dun": "N.12" }, "geometry": { "type": "Polygon", "coordinates": [ [ [ 100.308316, 5.380809 ], [ 100.307445, 5.383423 ], [ 100.306748, 5.386211 ], [ 100.304309, 5.387953 ], [ 100.301173, 5.387604 ], [ 100.298037, 5.386559 ], [ 100.295897, 5.387932 ], [ 100.29842, 5.391117 ], [ 100.301127, 5.394731 ], [ 100.304141, 5.396201 ], [ 100.307402, 5.397426 ], [ 100.310355, 5.399202 ], [ 100.314047, 5.403122 ], [ 100.315723, 5.403857 ], [ 100.317654, 5.403627 ], [ 100.319745, 5.401974 ], [ 100.320299, 5.400075 ], [ 100.319561, 5.397502 ], [ 100.319438, 5.396216 ], [ 100.320122, 5.395404 ], [ 100.319184, 5.394792 ], [ 100.318446, 5.390198 ], [ 100.316108, 5.383032 ], [ 100.3158, 5.37905 ], [ 100.311626, 5.379241 ], [ 100.308316, 5.380809 ] ] ] } },
{ "type": "Feature", "properties": { "state": "Pulau Pinang", "parlimen": "P.035 Penang Selatan", "code_parlimen": "P.035", "dun": "N.13 Glugor", "code_dun": "N.13" }, "geometry": { "type": "MultiPolygon", "coordinates": [ [ [ [ 100.287336, 5.327867 ], [ 100.282101, 5.327576 ], [ 100.277738, 5.329031 ], [ 100.275993, 5.333393 ], [ 100.273085, 5.336302 ], [ 100.270467, 5.338919 ], [ 100.26785, 5.342409 ], [ 100.265523, 5.345318 ], [ 100.264069, 5.348226 ], [ 100.26116, 5.352879 ], [ 100.258543, 5.354043 ], [ 100.258252, 5.362477 ], [ 100.258252, 5.366549 ], [ 100.256507, 5.371493 ], [ 100.258543, 5.375856 ], [ 100.258543, 5.380509 ], [ 100.257089, 5.383708 ], [ 100.254384, 5.385237 ], [ 100.256722, 5.387687 ], [ 100.258198, 5.389647 ], [ 100.259121, 5.392281 ], [ 100.26152, 5.394057 ], [ 100.26552, 5.396629 ], [ 100.267857, 5.397426 ], [ 100.271057, 5.397365 ], [ 100.272164, 5.397793 ], [ 100.274871, 5.399937 ], [ 100.277994, 5.402142 ], [ 100.279039, 5.401958 ], [ 100.279101, 5.400672 ], [ 100.276948, 5.396875 ], [ 100.27664, 5.395098 ], [ 100.274917, 5.389341 ], [ 100.274794, 5.387809 ], [ 100.276332, 5.386339 ], [ 100.2839, 5.384257 ], [ 100.289068, 5.383644 ], [ 100.293252, 5.385604 ], [ 100.295897, 5.387932 ], [ 100.298037, 5.386559 ], [ 100.301173, 5.387604 ], [ 100.304309, 5.387953 ], [ 100.306748, 5.386211 ], [ 100.307445, 5.383423 ], [ 100.308316, 5.380809 ], [ 100.311626, 5.379241 ], [ 100.3158, 5.37905 ], [ 100.314939, 5.377274 ], [ 100.315677, 5.375865 ], [ 100.314877, 5.372557 ], [ 100.3142, 5.363614 ], [ 100.314447, 5.360735 ], [ 100.310755, 5.354181 ], [ 100.309648, 5.3483 ], [ 100.305895, 5.334946 ], [ 100.303987, 5.328085 ], [ 100.296061, 5.32874 ], [ 100.291989, 5.32874 ], [ 100.287336, 5.327867 ] ] ], [ [ [ 100.326936, 5.327442 ], [ 100.327674, 5.326891 ], [ 100.327674, 5.324624 ], [ 100.326567, 5.32248 ], [ 100.325706, 5.32052 ], [ 100.326075, 5.318008 ], [ 100.326013, 5.317089 ], [ 100.324783, 5.316906 ], [ 100.323921, 5.316722 ], [ 100.322691, 5.315925 ], [ 100.319738, 5.315313 ], [ 100.315985, 5.314088 ], [ 100.314877, 5.313046 ], [ 100.313155, 5.311208 ], [ 100.313155, 5.309861 ], [ 100.313462, 5.307655 ], [ 100.313585, 5.305389 ], [ 100.313093, 5.304654 ], [ 100.311493, 5.301652 ], [ 100.310878, 5.301039 ], [ 100.309217, 5.301039 ], [ 100.308294, 5.302203 ], [ 100.308233, 5.304531 ], [ 100.307679, 5.305389 ], [ 100.307802, 5.306308 ], [ 100.307987, 5.3079 ], [ 100.307371, 5.308574 ], [ 100.307556, 5.309493 ], [ 100.307002, 5.31029 ], [ 100.307002, 5.312066 ], [ 100.307556, 5.313353 ], [ 100.308909, 5.314333 ], [ 100.310201, 5.315864 ], [ 100.310386, 5.317641 ], [ 100.310324, 5.318988 ], [ 100.311924, 5.321378 ], [ 100.312601, 5.322725 ], [ 100.312724, 5.324869 ], [ 100.313585, 5.325911 ], [ 100.315185, 5.326217 ], [ 100.316538, 5.328851 ], [ 100.317769, 5.331669 ], [ 100.318446, 5.332588 ], [ 100.320845, 5.332894 ], [ 100.321399, 5.335528 ], [ 100.321891, 5.335957 ], [ 100.322691, 5.336079 ], [ 100.324106, 5.335896 ], [ 100.324352, 5.334916 ], [ 100.323921, 5.333323 ], [ 100.32429, 5.332036 ], [ 100.325644, 5.330137 ], [ 100.326198, 5.329954 ], [ 100.326628, 5.329341 ], [ 100.327305, 5.328974 ], [ 100.326936, 5.327442 ] ] ] ] } },
{ "type": "Feature", "properties": { "state": "Pulau Pinang", "parlimen": "P.035 Penang Selatan", "code_parlimen": "P.035", "dun": "N.14 Balik Pulau", "code_dun": "N.14" }, "geometry": { "type": "Polygon", "coordinates": [ [ [ 100.250857, 5.351479 ], [ 100.24968, 5.347163 ], [ 100.248503, 5.340689 ], [ 100.244383, 5.338335 ], [ 100.242618, 5.33402 ], [ 100.239871, 5.330292 ], [ 100.23634, 5.326565 ], [ 100.232221, 5.323426 ], [ 100.230455, 5.317149 ], [ 100.228886, 5.316364 ], [ 100.225551, 5.315383 ], [ 100.221235, 5.312637 ], [ 100.219077, 5.312048 ], [ 100.217116, 5.310087 ], [ 100.214173, 5.305379 ], [ 100.21123, 5.301063 ], [ 100.206522, 5.29812 ], [ 100.202599, 5.295178 ], [ 100.198675, 5.292039 ], [ 100.196321, 5.29145 ], [ 100.19436, 5.29557 ], [ 100.191025, 5.297139 ], [ 100.188278, 5.299297 ], [ 100.185728, 5.303613 ], [ 100.1828, 5.304592 ], [ 100.184462, 5.305818 ], [ 100.186307, 5.308023 ], [ 100.187845, 5.307839 ], [ 100.188768, 5.308819 ], [ 100.191906, 5.308819 ], [ 100.192521, 5.307717 ], [ 100.194551, 5.306798 ], [ 100.19609, 5.308145 ], [ 100.197382, 5.311025 ], [ 100.196336, 5.31519 ], [ 100.196643, 5.317886 ], [ 100.19609, 5.322051 ], [ 100.196213, 5.326523 ], [ 100.195782, 5.332465 ], [ 100.194675, 5.339142 ], [ 100.193013, 5.344717 ], [ 100.193075, 5.348882 ], [ 100.193659, 5.349709 ], [ 100.195013, 5.351179 ], [ 100.196859, 5.352527 ], [ 100.198581, 5.354058 ], [ 100.199012, 5.355161 ], [ 100.200119, 5.356325 ], [ 100.200796, 5.358101 ], [ 100.200735, 5.36 ], [ 100.201288, 5.36147 ], [ 100.203196, 5.362695 ], [ 100.205718, 5.362879 ], [ 100.208241, 5.361899 ], [ 100.210086, 5.362266 ], [ 100.212178, 5.362879 ], [ 100.214762, 5.363982 ], [ 100.2165, 5.365513 ], [ 100.217054, 5.367289 ], [ 100.216439, 5.369678 ], [ 100.215577, 5.3717 ], [ 100.216254, 5.37268 ], [ 100.218038, 5.372986 ], [ 100.220622, 5.373599 ], [ 100.222591, 5.375436 ], [ 100.224068, 5.377335 ], [ 100.22579, 5.378744 ], [ 100.227636, 5.381745 ], [ 100.228497, 5.384563 ], [ 100.228805, 5.388177 ], [ 100.229297, 5.389218 ], [ 100.23102, 5.390382 ], [ 100.23182, 5.391607 ], [ 100.232927, 5.392832 ], [ 100.235311, 5.394118 ], [ 100.237403, 5.393934 ], [ 100.238757, 5.392342 ], [ 100.23931, 5.389708 ], [ 100.24091, 5.387197 ], [ 100.241279, 5.383767 ], [ 100.241771, 5.380704 ], [ 100.243063, 5.380153 ], [ 100.244171, 5.381868 ], [ 100.245032, 5.384134 ], [ 100.246509, 5.384195 ], [ 100.249031, 5.382051 ], [ 100.249339, 5.379846 ], [ 100.250938, 5.378866 ], [ 100.25303, 5.376967 ], [ 100.254015, 5.377029 ], [ 100.254814, 5.37807 ], [ 100.25463, 5.37954 ], [ 100.254015, 5.380765 ], [ 100.253768, 5.383093 ], [ 100.254384, 5.385237 ], [ 100.257089, 5.383708 ], [ 100.258543, 5.380509 ], [ 100.258543, 5.375856 ], [ 100.256507, 5.371493 ], [ 100.258252, 5.366549 ], [ 100.258252, 5.362477 ], [ 100.258543, 5.354043 ], [ 100.254977, 5.354225 ], [ 100.250857, 5.351479 ] ] ] } },
{ "type": "Feature", "properties": { "state": "Pulau Pinang", "parlimen": "P.035 Penang Selatan", "code_parlimen": "P.035", "dun": "N.15 Bayan Lepas", "code_dun": "N.15" }, "geometry": { "type": "MultiPolygon", "coordinates": [ [ [ [ 100.268888, 5.248567 ], [ 100.271287, 5.24967 ], [ 100.272456, 5.248138 ], [ 100.273564, 5.248199 ], [ 100.274671, 5.249547 ], [ 100.275225, 5.24967 ], [ 100.276702, 5.25016 ], [ 100.275902, 5.248567 ], [ 100.276148, 5.247342 ], [ 100.276517, 5.245626 ], [ 100.276271, 5.244462 ], [ 100.275163, 5.243604 ], [ 100.273871, 5.245687 ], [ 100.273318, 5.245933 ], [ 100.270734, 5.244768 ], [ 100.270057, 5.244952 ], [ 100.268888, 5.248567 ] ] ], [ [ [ 100.17977, 5.228196 ], [ 100.17894, 5.227736 ], [ 100.178325, 5.227522 ], [ 100.177402, 5.225622 ], [ 100.177002, 5.225684 ], [ 100.176694, 5.225959 ], [ 100.17774, 5.228226 ], [ 100.178601, 5.230401 ], [ 100.178632, 5.231014 ], [ 100.178109, 5.231964 ], [ 100.177309, 5.231994 ], [ 100.176694, 5.232576 ], [ 100.176756, 5.233281 ], [ 100.178478, 5.234721 ], [ 100.178694, 5.235425 ], [ 100.179493, 5.23616 ], [ 100.180539, 5.236467 ], [ 100.181893, 5.236712 ], [ 100.181954, 5.236528 ], [ 100.181431, 5.235823 ], [ 100.181493, 5.234445 ], [ 100.181185, 5.232944 ], [ 100.180016, 5.231596 ], [ 100.179832, 5.23083 ], [ 100.179986, 5.228992 ], [ 100.17977, 5.228196 ] ] ], [ [ [ 100.191025, 5.297139 ], [ 100.19436, 5.29557 ], [ 100.196321, 5.29145 ], [ 100.198675, 5.292039 ], [ 100.202599, 5.295178 ], [ 100.206522, 5.29812 ], [ 100.21123, 5.301063 ], [ 100.214173, 5.305379 ], [ 100.217116, 5.310087 ], [ 100.219077, 5.312048 ], [ 100.221235, 5.312637 ], [ 100.225551, 5.315383 ], [ 100.228886, 5.316364 ], [ 100.230455, 5.317149 ], [ 100.232221, 5.323426 ], [ 100.23634, 5.326565 ], [ 100.239871, 5.330292 ], [ 100.242618, 5.33402 ], [ 100.244383, 5.338335 ], [ 100.248503, 5.340689 ], [ 100.24968, 5.347163 ], [ 100.250857, 5.351479 ], [ 100.254977, 5.354225 ], [ 100.258543, 5.354043 ], [ 100.26116, 5.352879 ], [ 100.264069, 5.348226 ], [ 100.265523, 5.345318 ], [ 100.26785, 5.342409 ], [ 100.270467, 5.338919 ], [ 100.273085, 5.336302 ], [ 100.275993, 5.333393 ], [ 100.277738, 5.329031 ], [ 100.282101, 5.327576 ], [ 100.287336, 5.327867 ], [ 100.291989, 5.32874 ], [ 100.296061, 5.32874 ], [ 100.303987, 5.328085 ], [ 100.303657, 5.323858 ], [ 100.302426, 5.320122 ], [ 100.298735, 5.316569 ], [ 100.29449, 5.311055 ], [ 100.289814, 5.307441 ], [ 100.286245, 5.302663 ], [ 100.284646, 5.298803 ], [ 100.283846, 5.294821 ], [ 100.2844, 5.290165 ], [ 100.287291, 5.287163 ], [ 100.287661, 5.285571 ], [ 100.291044, 5.285326 ], [ 100.290552, 5.282201 ], [ 100.291475, 5.28116 ], [ 100.291167, 5.279383 ], [ 100.289937, 5.279077 ], [ 100.285692, 5.274359 ], [ 100.284, 5.27148 ], [ 100.282646, 5.26713 ], [ 100.282246, 5.264435 ], [ 100.282646, 5.263087 ], [ 100.283692, 5.262505 ], [ 100.283969, 5.261923 ], [ 100.283754, 5.259227 ], [ 100.280824, 5.257236 ], [ 100.279262, 5.257236 ], [ 100.277909, 5.257787 ], [ 100.275356, 5.257665 ], [ 100.272956, 5.263026 ], [ 100.273387, 5.264986 ], [ 100.269819, 5.268601 ], [ 100.26865, 5.271296 ], [ 100.268896, 5.272522 ], [ 100.262497, 5.277484 ], [ 100.255545, 5.280608 ], [ 100.253146, 5.279015 ], [ 100.250254, 5.279506 ], [ 100.247854, 5.279199 ], [ 100.248285, 5.276871 ], [ 100.247362, 5.274727 ], [ 100.244778, 5.273441 ], [ 100.244032, 5.274084 ], [ 100.244678, 5.275769 ], [ 100.241787, 5.279261 ], [ 100.240764, 5.279567 ], [ 100.240556, 5.280149 ], [ 100.241294, 5.28067 ], [ 100.240833, 5.281558 ], [ 100.235142, 5.285601 ], [ 100.230312, 5.28698 ], [ 100.225298, 5.287623 ], [ 100.223706, 5.286398 ], [ 100.223029, 5.284774 ], [ 100.224045, 5.283733 ], [ 100.222845, 5.281834 ], [ 100.222691, 5.280516 ], [ 100.221576, 5.280057 ], [ 100.220968, 5.281007 ], [ 100.216416, 5.282661 ], [ 100.213247, 5.282109 ], [ 100.212201, 5.282324 ], [ 100.211771, 5.281895 ], [ 100.209679, 5.28168 ], [ 100.209402, 5.280302 ], [ 100.20811, 5.279873 ], [ 100.20771, 5.279046 ], [ 100.206779, 5.278709 ], [ 100.204318, 5.279138 ], [ 100.203534, 5.278832 ], [ 100.202257, 5.279414 ], [ 100.200981, 5.279751 ], [ 100.200119, 5.280761 ], [ 100.199135, 5.280915 ], [ 100.198151, 5.281895 ], [ 100.194182, 5.282109 ], [ 100.191014, 5.281711 ], [ 100.188245, 5.280363 ], [ 100.188445, 5.279444 ], [ 100.186138, 5.276565 ], [ 100.1854, 5.2739 ], [ 100.1858, 5.273349 ], [ 100.185677, 5.271327 ], [ 100.186569, 5.268938 ], [ 100.185738, 5.268141 ], [ 100.185861, 5.266793 ], [ 100.184969, 5.26664 ], [ 100.183662, 5.268386 ], [ 100.181631, 5.270714 ], [ 100.181585, 5.27246 ], [ 100.182062, 5.274145 ], [ 100.181324, 5.277515 ], [ 100.179294, 5.278556 ], [ 100.177878, 5.280149 ], [ 100.177386, 5.284437 ], [ 100.178986, 5.285172 ], [ 100.180093, 5.287378 ], [ 100.180339, 5.28989 ], [ 100.182247, 5.292156 ], [ 100.1844, 5.295158 ], [ 100.185692, 5.296751 ], [ 100.1844, 5.297609 ], [ 100.184215, 5.30061 ], [ 100.183477, 5.302264 ], [ 100.1828, 5.304592 ], [ 100.185728, 5.303613 ], [ 100.188278, 5.299297 ], [ 100.191025, 5.297139 ] ] ] ] } },
{ "type": "Feature", "properties": { "state": "Pulau Pinang", "parlimen": "P.036 Tanjong", "code_parlimen": "P.036", "dun": "N.16 Kota", "code_dun": "N.16" }, "geometry": { "type": "Polygon", "coordinates": [ [ [ 100.341917, 5.422661 ], [ 100.343701, 5.421558 ], [ 100.345178, 5.42211 ], [ 100.346285, 5.419843 ], [ 100.346593, 5.416965 ], [ 100.345547, 5.416781 ], [ 100.344686, 5.414637 ], [ 100.344193, 5.41378 ], [ 100.343086, 5.414331 ], [ 100.336995, 5.410778 ], [ 100.336503, 5.410398 ], [ 100.335434, 5.411712 ], [ 100.333465, 5.414224 ], [ 100.335747, 5.414032 ], [ 100.338251, 5.415162 ], [ 100.338332, 5.417343 ], [ 100.339866, 5.420089 ], [ 100.341917, 5.422661 ] ] ] } },
{ "type": "Feature", "properties": { "state": "Pulau Pinang", "parlimen": "P.036 Tanjong", "code_parlimen": "P.036", "dun": "N.17 Tanjong Tengah", "code_dun": "N.17" }, "geometry": { "type": "Polygon", "coordinates": [ [ [ 100.330659, 5.420735 ], [ 100.335263, 5.419362 ], [ 100.338332, 5.417343 ], [ 100.338251, 5.415162 ], [ 100.335747, 5.414032 ], [ 100.333465, 5.414224 ], [ 100.332112, 5.415449 ], [ 100.32799, 5.419797 ], [ 100.32639, 5.420655 ], [ 100.325221, 5.420716 ], [ 100.32759, 5.421704 ], [ 100.330659, 5.420735 ] ] ] } },
{ "type": "Feature", "properties": { "state": "Pulau Pinang", "parlimen": "P.036 Tanjong", "code_parlimen": "P.036", "dun": "N.18 Tanjong Utara", "code_dun": "N.18" }, "geometry": { "type": "Polygon", "coordinates": [ [ [ 100.338332, 5.417343 ], [ 100.335263, 5.419362 ], [ 100.330659, 5.420735 ], [ 100.32759, 5.421704 ], [ 100.325221, 5.420716 ], [ 100.323068, 5.419001 ], [ 100.321468, 5.418511 ], [ 100.31843, 5.419353 ], [ 100.318676, 5.423733 ], [ 100.319784, 5.426213 ], [ 100.321845, 5.429582 ], [ 100.326582, 5.426642 ], [ 100.332135, 5.423947 ], [ 100.334227, 5.423947 ], [ 100.339702, 5.423273 ], [ 100.341917, 5.422661 ], [ 100.339866, 5.420089 ], [ 100.338332, 5.417343 ] ] ] } },
{ "type": "Feature", "properties": { "state": "Pulau Pinang", "parlimen": "P.037 Dato Kramat", "code_parlimen": "P.037", "dun": "N.19 Tanjong Barat", "code_dun": "N.19" }, "geometry": { "type": "Polygon", "coordinates": [ [ [ 100.329932, 5.413385 ], [ 100.326378, 5.413062 ], [ 100.322824, 5.412739 ], [ 100.31843, 5.412677 ], [ 100.318246, 5.415617 ], [ 100.31843, 5.419353 ], [ 100.321468, 5.418511 ], [ 100.323068, 5.419001 ], [ 100.325221, 5.420716 ], [ 100.32639, 5.420655 ], [ 100.32799, 5.419797 ], [ 100.332112, 5.415449 ], [ 100.330497, 5.415081 ], [ 100.329932, 5.413385 ] ] ] } },
{ "type": "Feature", "properties": { "state": "Pulau Pinang", "parlimen": "P.037 Dato Kramat", "code_parlimen": "P.037", "dun": "N.20 Sungei Pinang", "code_dun": "N.20" }, "geometry": { "type": "Polygon", "coordinates": [ [ [ 100.32977, 5.409024 ], [ 100.330255, 5.407812 ], [ 100.33152, 5.407226 ], [ 100.329305, 5.404225 ], [ 100.329612, 5.403367 ], [ 100.327505, 5.401162 ], [ 100.326152, 5.40153 ], [ 100.323629, 5.399508 ], [ 100.322152, 5.397548 ], [ 100.320122, 5.395404 ], [ 100.319438, 5.396216 ], [ 100.319561, 5.397502 ], [ 100.320299, 5.400075 ], [ 100.319745, 5.401974 ], [ 100.317654, 5.403627 ], [ 100.315723, 5.403857 ], [ 100.316277, 5.40594 ], [ 100.317754, 5.409125 ], [ 100.31843, 5.412677 ], [ 100.322824, 5.412739 ], [ 100.326378, 5.413062 ], [ 100.329932, 5.413385 ], [ 100.32977, 5.411124 ], [ 100.32977, 5.409024 ] ] ] } },
{ "type": "Feature", "properties": { "state": "Pulau Pinang", "parlimen": "P.037 Dato Kramat", "code_parlimen": "P.037", "dun": "N.21 Tanjong Selatan", "code_dun": "N.21" }, "geometry": { "type": "Polygon", "coordinates": [ [ [ 100.32977, 5.409024 ], [ 100.32977, 5.411124 ], [ 100.329932, 5.413385 ], [ 100.330497, 5.415081 ], [ 100.332112, 5.415449 ], [ 100.333465, 5.414224 ], [ 100.335434, 5.411712 ], [ 100.336503, 5.410398 ], [ 100.334534, 5.40888 ], [ 100.33152, 5.407226 ], [ 100.330255, 5.407812 ], [ 100.32977, 5.409024 ] ] ] } },
{ "type": "Feature", "properties": { "state": "Pulau Pinang", "parlimen": "P.038 Seberang Utara", "code_parlimen": "P.038", "dun": "N.22 Muda", "code_dun": "N.22" }, "geometry": { "type": "Polygon", "coordinates": [ [ [ 100.516256, 5.541113 ], [ 100.511214, 5.540531 ], [ 100.505397, 5.539949 ], [ 100.500743, 5.53704 ], [ 100.496477, 5.535295 ], [ 100.492404, 5.532774 ], [ 100.487168, 5.53355 ], [ 100.481351, 5.535877 ], [ 100.478054, 5.534519 ], [ 100.473594, 5.532774 ], [ 100.470297, 5.53258 ], [ 100.465255, 5.531998 ], [ 100.461183, 5.531998 ], [ 100.455947, 5.531998 ], [ 100.451681, 5.531223 ], [ 100.446057, 5.531611 ], [ 100.441403, 5.531998 ], [ 100.437525, 5.531223 ], [ 100.433646, 5.530253 ], [ 100.429962, 5.528508 ], [ 100.428798, 5.524048 ], [ 100.426665, 5.517842 ], [ 100.425308, 5.51474 ], [ 100.423369, 5.512412 ], [ 100.41949, 5.510473 ], [ 100.415806, 5.510279 ], [ 100.411152, 5.509698 ], [ 100.407079, 5.50834 ], [ 100.404171, 5.505625 ], [ 100.401843, 5.503492 ], [ 100.398935, 5.500971 ], [ 100.395638, 5.499226 ], [ 100.393404, 5.497675 ], [ 100.384125, 5.496604 ], [ 100.376792, 5.496239 ], [ 100.376278, 5.501249 ], [ 100.376034, 5.511862 ], [ 100.375357, 5.519781 ], [ 100.374735, 5.526946 ], [ 100.373301, 5.534326 ], [ 100.370906, 5.540763 ], [ 100.367334, 5.548574 ], [ 100.361286, 5.560142 ], [ 100.360501, 5.559375 ], [ 100.355265, 5.561583 ], [ 100.347606, 5.568855 ], [ 100.342116, 5.570155 ], [ 100.341869, 5.56864 ], [ 100.340543, 5.56969 ], [ 100.338933, 5.572653 ], [ 100.338911, 5.577444 ], [ 100.344579, 5.577399 ], [ 100.361179, 5.573504 ], [ 100.366398, 5.575474 ], [ 100.368332, 5.579101 ], [ 100.368377, 5.583085 ], [ 100.370177, 5.58519 ], [ 100.372516, 5.58519 ], [ 100.3749, 5.580354 ], [ 100.379264, 5.579593 ], [ 100.381603, 5.583757 ], [ 100.383673, 5.584921 ], [ 100.385697, 5.583847 ], [ 100.387406, 5.577534 ], [ 100.39357, 5.579459 ], [ 100.404186, 5.573907 ], [ 100.40981, 5.56634 ], [ 100.424835, 5.56249 ], [ 100.431673, 5.5654 ], [ 100.432123, 5.5624 ], [ 100.433427, 5.560699 ], [ 100.435587, 5.561057 ], [ 100.435992, 5.564684 ], [ 100.44004, 5.56531 ], [ 100.443009, 5.567191 ], [ 100.444539, 5.567057 ], [ 100.445844, 5.565579 ], [ 100.446204, 5.562176 ], [ 100.447913, 5.560788 ], [ 100.449892, 5.561594 ], [ 100.450297, 5.565758 ], [ 100.451782, 5.567639 ], [ 100.453941, 5.567683 ], [ 100.456415, 5.56531 ], [ 100.459699, 5.563519 ], [ 100.462983, 5.565579 ], [ 100.469326, 5.565445 ], [ 100.471801, 5.562042 ], [ 100.474275, 5.561773 ], [ 100.478504, 5.565176 ], [ 100.481878, 5.564281 ], [ 100.485342, 5.560878 ], [ 100.487096, 5.56137 ], [ 100.487096, 5.570101 ], [ 100.49164, 5.566743 ], [ 100.504776, 5.567057 ], [ 100.506755, 5.564594 ], [ 100.50689, 5.560161 ], [ 100.508959, 5.559042 ], [ 100.514448, 5.561281 ], [ 100.519036, 5.558818 ], [ 100.52232, 5.559042 ], [ 100.523895, 5.557967 ], [ 100.522995, 5.553938 ], [ 100.523715, 5.550669 ], [ 100.526999, 5.550982 ], [ 100.527539, 5.554296 ], [ 100.529203, 5.556221 ], [ 100.528929, 5.547136 ], [ 100.520523, 5.543828 ], [ 100.516256, 5.541113 ] ] ] } },
{ "type": "Feature", "properties": { "state": "Pulau Pinang", "parlimen": "P.038 Seberang Utara", "code_parlimen": "P.038", "dun": "N.23 Kepala Batas", "code_dun": "N.23" }, "geometry": { "type": "Polygon", "coordinates": [ [ [ 100.427236, 5.508595 ], [ 100.427838, 5.505586 ], [ 100.426835, 5.504383 ], [ 100.42483, 5.501375 ], [ 100.428439, 5.500974 ], [ 100.432049, 5.499971 ], [ 100.432651, 5.497966 ], [ 100.430445, 5.496762 ], [ 100.427036, 5.495559 ], [ 100.427036, 5.494155 ], [ 100.430244, 5.492952 ], [ 100.435659, 5.493353 ], [ 100.43967, 5.493554 ], [ 100.444684, 5.491749 ], [ 100.448093, 5.490746 ], [ 100.448695, 5.492751 ], [ 100.448494, 5.494356 ], [ 100.450098, 5.494356 ], [ 100.45451, 5.494356 ], [ 100.454711, 5.492952 ], [ 100.454711, 5.489543 ], [ 100.454911, 5.485732 ], [ 100.454911, 5.482724 ], [ 100.455112, 5.478513 ], [ 100.455112, 5.474903 ], [ 100.454911, 5.471092 ], [ 100.457519, 5.468084 ], [ 100.460326, 5.466279 ], [ 100.463535, 5.463873 ], [ 100.466343, 5.461065 ], [ 100.466543, 5.458057 ], [ 100.46554, 5.457856 ], [ 100.461329, 5.458859 ], [ 100.457318, 5.457455 ], [ 100.455313, 5.456854 ], [ 100.454911, 5.454648 ], [ 100.451502, 5.454247 ], [ 100.453107, 5.450236 ], [ 100.451113, 5.446406 ], [ 100.448201, 5.445836 ], [ 100.44612, 5.447234 ], [ 100.445444, 5.449202 ], [ 100.443208, 5.449098 ], [ 100.441804, 5.450651 ], [ 100.444352, 5.451997 ], [ 100.442116, 5.453602 ], [ 100.43884, 5.452049 ], [ 100.440504, 5.444646 ], [ 100.439412, 5.44418 ], [ 100.437227, 5.445836 ], [ 100.436135, 5.44506 ], [ 100.437955, 5.441384 ], [ 100.440036, 5.441281 ], [ 100.442844, 5.440038 ], [ 100.442896, 5.442627 ], [ 100.44378, 5.444076 ], [ 100.44612, 5.442989 ], [ 100.445808, 5.44009 ], [ 100.442168, 5.436207 ], [ 100.440348, 5.438485 ], [ 100.438788, 5.43833 ], [ 100.439204, 5.433981 ], [ 100.436369, 5.431806 ], [ 100.435225, 5.432997 ], [ 100.436993, 5.436777 ], [ 100.435953, 5.438019 ], [ 100.433561, 5.436466 ], [ 100.432521, 5.433153 ], [ 100.430389, 5.431548 ], [ 100.428672, 5.432479 ], [ 100.429245, 5.436 ], [ 100.427892, 5.437605 ], [ 100.426072, 5.436466 ], [ 100.4255, 5.43367 ], [ 100.425916, 5.429943 ], [ 100.424252, 5.42927 ], [ 100.421236, 5.433256 ], [ 100.417751, 5.434499 ], [ 100.414059, 5.432842 ], [ 100.410419, 5.427043 ], [ 100.407194, 5.42725 ], [ 100.406843, 5.431988 ], [ 100.409014, 5.435016 ], [ 100.408806, 5.437294 ], [ 100.409743, 5.437967 ], [ 100.411147, 5.436932 ], [ 100.411875, 5.43921 ], [ 100.411628, 5.441721 ], [ 100.411979, 5.445888 ], [ 100.416828, 5.451971 ], [ 100.418024, 5.458339 ], [ 100.417712, 5.467761 ], [ 100.418531, 5.481609 ], [ 100.405998, 5.474077 ], [ 100.391021, 5.471488 ], [ 100.380034, 5.470608 ], [ 100.379046, 5.480755 ], [ 100.37811, 5.491574 ], [ 100.37733, 5.493748 ], [ 100.376792, 5.496239 ], [ 100.384125, 5.496604 ], [ 100.393404, 5.497675 ], [ 100.395638, 5.499226 ], [ 100.398935, 5.500971 ], [ 100.401843, 5.503492 ], [ 100.404171, 5.505625 ], [ 100.407079, 5.50834 ], [ 100.411152, 5.509698 ], [ 100.415806, 5.510279 ], [ 100.41949, 5.510473 ], [ 100.423369, 5.512412 ], [ 100.425308, 5.51474 ], [ 100.426233, 5.510801 ], [ 100.427236, 5.508595 ] ] ] } },
{ "type": "Feature", "properties": { "state": "Pulau Pinang", "parlimen": "P.038 Seberang Utara", "code_parlimen": "P.038", "dun": "N.24 Tasek Glugor", "code_dun": "N.24" }, "geometry": { "type": "Polygon", "coordinates": [ [ [ 100.451502, 5.454247 ], [ 100.454911, 5.454648 ], [ 100.455313, 5.456854 ], [ 100.457318, 5.457455 ], [ 100.461329, 5.458859 ], [ 100.46554, 5.457856 ], [ 100.466543, 5.458057 ], [ 100.466343, 5.461065 ], [ 100.463535, 5.463873 ], [ 100.460326, 5.466279 ], [ 100.457519, 5.468084 ], [ 100.454911, 5.471092 ], [ 100.455112, 5.474903 ], [ 100.455112, 5.478513 ], [ 100.454911, 5.482724 ], [ 100.454911, 5.485732 ], [ 100.454711, 5.489543 ], [ 100.454711, 5.492952 ], [ 100.45451, 5.494356 ], [ 100.450098, 5.494356 ], [ 100.448494, 5.494356 ], [ 100.448695, 5.492751 ], [ 100.448093, 5.490746 ], [ 100.444684, 5.491749 ], [ 100.43967, 5.493554 ], [ 100.435659, 5.493353 ], [ 100.430244, 5.492952 ], [ 100.427036, 5.494155 ], [ 100.427036, 5.495559 ], [ 100.430445, 5.496762 ], [ 100.432651, 5.497966 ], [ 100.432049, 5.499971 ], [ 100.428439, 5.500974 ], [ 100.42483, 5.501375 ], [ 100.426835, 5.504383 ], [ 100.427838, 5.505586 ], [ 100.427236, 5.508595 ], [ 100.426233, 5.510801 ], [ 100.425308, 5.51474 ], [ 100.426665, 5.517842 ], [ 100.428798, 5.524048 ], [ 100.429962, 5.528508 ], [ 100.433646, 5.530253 ], [ 100.437525, 5.531223 ], [ 100.441403, 5.531998 ], [ 100.446057, 5.531611 ], [ 100.451681, 5.531223 ], [ 100.455947, 5.531998 ], [ 100.461183, 5.531998 ], [ 100.465255, 5.531998 ], [ 100.470297, 5.53258 ], [ 100.473594, 5.532774 ], [ 100.478054, 5.534519 ], [ 100.481351, 5.535877 ], [ 100.487168, 5.53355 ], [ 100.492404, 5.532774 ], [ 100.496477, 5.535295 ], [ 100.500743, 5.53704 ], [ 100.505397, 5.539949 ], [ 100.511214, 5.540531 ], [ 100.516256, 5.541113 ], [ 100.520523, 5.543828 ], [ 100.528929, 5.547136 ], [ 100.528749, 5.541313 ], [ 100.527359, 5.495727 ], [ 100.526675, 5.470584 ], [ 100.525537, 5.428733 ], [ 100.523933, 5.428622 ], [ 100.520709, 5.43292 ], [ 100.519045, 5.433696 ], [ 100.517225, 5.432195 ], [ 100.513714, 5.432971 ], [ 100.512778, 5.434939 ], [ 100.51101, 5.435301 ], [ 100.507786, 5.433696 ], [ 100.504041, 5.433748 ], [ 100.499725, 5.436181 ], [ 100.496293, 5.435456 ], [ 100.492496, 5.430383 ], [ 100.488778, 5.428985 ], [ 100.483681, 5.431884 ], [ 100.477077, 5.434317 ], [ 100.469484, 5.438511 ], [ 100.463373, 5.439339 ], [ 100.461969, 5.441203 ], [ 100.461709, 5.444723 ], [ 100.460325, 5.445392 ], [ 100.459135, 5.445966 ], [ 100.457444, 5.445448 ], [ 100.456092, 5.442963 ], [ 100.45383, 5.44286 ], [ 100.453501, 5.443832 ], [ 100.453076, 5.445086 ], [ 100.451113, 5.446406 ], [ 100.453107, 5.450236 ], [ 100.451502, 5.454247 ] ] ] } }
]
}
