{
"type": "FeatureCollection",
"name": "SGR_SE-06",
"crs": { "type": "name", "properties": { "name": "urn:ogc:def:crs:OGC:1.3:CRS84" } },
"features": [
{ "type": "Feature", "properties": { "state": "Selangor", "parlimen": "P.073 Sabak Bernam", "code_parlimen": "P.073", "dun": "N.01 Sungai Ayer Tawar", "code_dun": "N.01" }, "geometry": { "type": "Polygon", "coordinates": [ [ [ 100.928838, 3.791375 ], [ 100.906393, 3.784642 ], [ 100.91582, 3.778357 ], [ 100.917017, 3.773719 ], [ 100.908189, 3.758307 ], [ 100.932878, 3.746935 ], [ 100.945672, 3.739902 ], [ 100.934, 3.723293 ], [ 100.921892, 3.712478 ], [ 100.895822, 3.746512 ], [ 100.867432, 3.768503 ], [ 100.848568, 3.775213 ], [ 100.821673, 3.775585 ], [ 100.811587, 3.787326 ], [ 100.807291, 3.802608 ], [ 100.817993, 3.849781 ], [ 100.823569, 3.850909 ], [ 100.854342, 3.855167 ], [ 100.879894, 3.853013 ], [ 100.91623, 3.865098 ], [ 100.91597, 3.841502 ], [ 100.928838, 3.791375 ] ] ] } },
{ "type": "Feature", "properties": { "state": "Selangor", "parlimen": "P.073 Sabak Bernam", "code_parlimen": "P.073", "dun": "N.02 Sabak", "code_dun": "N.02" }, "geometry": { "type": "Polygon", "coordinates": [ [ [ 101.054923, 3.748136 ], [ 101.027804, 3.746345 ], [ 101.028059, 3.735344 ], [ 100.960005, 3.73253 ], [ 100.945672, 3.739902 ], [ 100.932878, 3.746935 ], [ 100.908189, 3.758307 ], [ 100.917017, 3.773719 ], [ 100.91582, 3.778357 ], [ 100.906393, 3.784642 ], [ 100.928838, 3.791375 ], [ 100.91597, 3.841502 ], [ 100.91623, 3.865098 ], [ 100.931718, 3.870248 ], [ 100.946114, 3.86953 ], [ 100.938196, 3.841881 ], [ 100.941435, 3.83075 ], [ 100.964108, 3.828954 ], [ 100.978504, 3.816745 ], [ 100.976345, 3.806332 ], [ 100.95943, 3.796995 ], [ 100.95763, 3.781913 ], [ 100.965705, 3.773604 ], [ 100.969147, 3.770062 ], [ 100.977784, 3.768985 ], [ 100.984622, 3.774371 ], [ 100.985342, 3.793763 ], [ 100.9929, 3.802022 ], [ 101.004416, 3.79915 ], [ 101.02565, 3.807768 ], [ 101.031048, 3.794481 ], [ 101.02493, 3.784067 ], [ 101.032847, 3.784067 ], [ 101.033645, 3.784142 ], [ 101.044364, 3.785145 ], [ 101.054801, 3.796277 ], [ 101.062538, 3.791609 ], [ 101.055521, 3.784786 ], [ 101.053361, 3.777963 ], [ 101.05768, 3.769883 ], [ 101.05642, 3.755698 ], [ 101.059659, 3.752645 ], [ 101.063798, 3.755159 ], [ 101.065238, 3.763239 ], [ 101.077654, 3.767369 ], [ 101.081973, 3.775449 ], [ 101.088451, 3.782272 ], [ 101.092049, 3.779758 ], [ 101.087011, 3.767548 ], [ 101.092409, 3.762341 ], [ 101.101946, 3.75049 ], [ 101.097808, 3.749054 ], [ 101.092949, 3.756775 ], [ 101.072615, 3.759289 ], [ 101.079093, 3.745104 ], [ 101.072615, 3.736125 ], [ 101.074415, 3.727866 ], [ 101.061188, 3.726884 ], [ 101.059784, 3.740717 ], [ 101.054923, 3.748136 ] ] ] } },
{ "type": "Feature", "properties": { "state": "Selangor", "parlimen": "P.073 Sabak Bernam", "code_parlimen": "P.073", "dun": "N.03 Sungai Besar", "code_dun": "N.03" }, "geometry": { "type": "Polygon", "coordinates": [ [ [ 101.028059, 3.735344 ], [ 101.027804, 3.746345 ], [ 101.054923, 3.748136 ], [ 101.059784, 3.740717 ], [ 101.061188, 3.726884 ], [ 101.02782, 3.678702 ], [ 101.002219, 3.648447 ], [ 100.99201, 3.656861 ], [ 100.981327, 3.663921 ], [ 100.981294, 3.663943 ], [ 100.980858, 3.66423 ], [ 100.98072, 3.664321 ], [ 100.972337, 3.669861 ], [ 100.964367, 3.675128 ], [ 100.936976, 3.686148 ], [ 100.928694, 3.689479 ], [ 100.927299, 3.694815 ], [ 100.92309, 3.710913 ], [ 100.921892, 3.712478 ], [ 100.934, 3.723293 ], [ 100.945672, 3.739902 ], [ 100.960005, 3.73253 ], [ 101.028059, 3.735344 ] ] ] } },
{ "type": "Feature", "properties": { "state": "Selangor", "parlimen": "P.074 Tanjong Karang", "code_parlimen": "P.074", "dun": "N.04 Sungai Panjang", "code_dun": "N.04" }, "geometry": { "type": "Polygon", "coordinates": [ [ [ 101.061188, 3.726884 ], [ 101.074415, 3.727866 ], [ 101.081433, 3.729661 ], [ 101.083952, 3.742231 ], [ 101.092049, 3.740614 ], [ 101.097808, 3.744385 ], [ 101.099247, 3.735407 ], [ 101.102846, 3.731816 ], [ 101.107345, 3.733252 ], [ 101.106445, 3.743487 ], [ 101.110404, 3.747258 ], [ 101.118861, 3.735766 ], [ 101.12318, 3.735048 ], [ 101.123, 3.747258 ], [ 101.132897, 3.764675 ], [ 101.134696, 3.751747 ], [ 101.143154, 3.748515 ], [ 101.145133, 3.744744 ], [ 101.132897, 3.736485 ], [ 101.153951, 3.728943 ], [ 101.150352, 3.741692 ], [ 101.15557, 3.743847 ], [ 101.163668, 3.723197 ], [ 101.165647, 3.749593 ], [ 101.170686, 3.727866 ], [ 101.191559, 3.731098 ], [ 101.175004, 3.715475 ], [ 101.169966, 3.720503 ], [ 101.169606, 3.715296 ], [ 101.175544, 3.70937 ], [ 101.18976, 3.718887 ], [ 101.198037, 3.716553 ], [ 101.197317, 3.726609 ], [ 101.204335, 3.725352 ], [ 101.202176, 3.720683 ], [ 101.208834, 3.714398 ], [ 101.212973, 3.715835 ], [ 101.211713, 3.708652 ], [ 101.216032, 3.706318 ], [ 101.22089, 3.712782 ], [ 101.227368, 3.712782 ], [ 101.244463, 3.719785 ], [ 101.250041, 3.716194 ], [ 101.246802, 3.709011 ], [ 101.244463, 3.70129 ], [ 101.247342, 3.696621 ], [ 101.245903, 3.68836 ], [ 101.250401, 3.673635 ], [ 101.265157, 3.668069 ], [ 101.282072, 3.668069 ], [ 101.282971, 3.673276 ], [ 101.296467, 3.677586 ], [ 101.300606, 3.670762 ], [ 101.310323, 3.677047 ], [ 101.310323, 3.682075 ], [ 101.32094, 3.690695 ], [ 101.337315, 3.689438 ], [ 101.34001, 3.694864 ], [ 101.343182, 3.701348 ], [ 101.347, 3.69722 ], [ 101.3498, 3.69247 ], [ 101.350601, 3.688331 ], [ 101.3526, 3.68189 ], [ 101.354719, 3.676954 ], [ 101.353839, 3.666695 ], [ 101.351793, 3.659532 ], [ 101.349746, 3.649639 ], [ 101.349064, 3.64077 ], [ 101.352475, 3.5954 ], [ 101.340393, 3.607172 ], [ 101.309429, 3.632127 ], [ 101.294449, 3.632937 ], [ 101.167585, 3.637358 ], [ 101.095608, 3.612456 ], [ 101.112098, 3.569277 ], [ 101.072235, 3.55396 ], [ 101.071167, 3.553881 ], [ 101.06896, 3.559187 ], [ 101.053645, 3.593486 ], [ 101.050329, 3.597988 ], [ 101.046695, 3.602924 ], [ 101.042148, 3.609099 ], [ 101.036201, 3.617176 ], [ 101.035528, 3.618091 ], [ 101.03527, 3.618376 ], [ 101.027894, 3.62654 ], [ 101.025668, 3.629004 ], [ 101.025255, 3.629461 ], [ 101.019364, 3.634317 ], [ 101.002219, 3.648447 ], [ 101.02782, 3.678702 ], [ 101.061188, 3.726884 ] ] ] } },
{ "type": "Feature", "properties": { "state": "Selangor", "parlimen": "P.074 Tanjong Karang", "code_parlimen": "P.074", "dun": "N.05 Sekinchan", "code_dun": "N.05" }, "geometry": { "type": "Polygon", "coordinates": [ [ [ 101.196306, 3.486575 ], [ 101.192116, 3.487772 ], [ 101.158898, 3.457546 ], [ 101.154708, 3.462633 ], [ 101.162489, 3.469516 ], [ 101.152314, 3.482086 ], [ 101.160693, 3.490764 ], [ 101.151416, 3.499742 ], [ 101.113701, 3.464152 ], [ 101.099964, 3.485178 ], [ 101.087264, 3.505498 ], [ 101.089505, 3.509786 ], [ 101.071167, 3.553881 ], [ 101.072235, 3.55396 ], [ 101.112098, 3.569277 ], [ 101.095608, 3.612456 ], [ 101.167585, 3.637358 ], [ 101.294449, 3.632937 ], [ 101.221943, 3.507535 ], [ 101.218152, 3.505428 ], [ 101.196306, 3.486575 ] ] ] } },
{ "type": "Feature", "properties": { "state": "Selangor", "parlimen": "P.074 Tanjong Karang", "code_parlimen": "P.074", "dun": "N.06 Sungai Burong", "code_dun": "N.06" }, "geometry": { "type": "Polygon", "coordinates": [ [ [ 101.221943, 3.507535 ], [ 101.201692, 3.472509 ], [ 101.188525, 3.464728 ], [ 101.189423, 3.455451 ], [ 101.202291, 3.446473 ], [ 101.219648, 3.471911 ], [ 101.232816, 3.46383 ], [ 101.202039, 3.419124 ], [ 101.194534, 3.417759 ], [ 101.19044, 3.412301 ], [ 101.183277, 3.409913 ], [ 101.176795, 3.399338 ], [ 101.173366, 3.389536 ], [ 101.161599, 3.397553 ], [ 101.144229, 3.429248 ], [ 101.122377, 3.450875 ], [ 101.113701, 3.464152 ], [ 101.151416, 3.499742 ], [ 101.160693, 3.490764 ], [ 101.152314, 3.482086 ], [ 101.162489, 3.469516 ], [ 101.154708, 3.462633 ], [ 101.158898, 3.457546 ], [ 101.192116, 3.487772 ], [ 101.196306, 3.486575 ], [ 101.218152, 3.505428 ], [ 101.221943, 3.507535 ] ] ] } },
{ "type": "Feature", "properties": { "state": "Selangor", "parlimen": "P.075 Ulu Selangor", "code_parlimen": "P.075", "dun": "N.07 Kalumpang", "code_dun": "N.07" }, "geometry": { "type": "Polygon", "coordinates": [ [ [ 101.649841, 3.672418 ], [ 101.639367, 3.663739 ], [ 101.630688, 3.654163 ], [ 101.621112, 3.646681 ], [ 101.620812, 3.636506 ], [ 101.609141, 3.627827 ], [ 101.604353, 3.616455 ], [ 101.598966, 3.621842 ], [ 101.580711, 3.602689 ], [ 101.544799, 3.575157 ], [ 101.540011, 3.572763 ], [ 101.528938, 3.585332 ], [ 101.524748, 3.584733 ], [ 101.517566, 3.577252 ], [ 101.510982, 3.5982 ], [ 101.500209, 3.611966 ], [ 101.471629, 3.578748 ], [ 101.409083, 3.545829 ], [ 101.406374, 3.543752 ], [ 101.400173, 3.549785 ], [ 101.352475, 3.5954 ], [ 101.349064, 3.64077 ], [ 101.349746, 3.649639 ], [ 101.351793, 3.659532 ], [ 101.353839, 3.666695 ], [ 101.354719, 3.676954 ], [ 101.3526, 3.68189 ], [ 101.350601, 3.688331 ], [ 101.3498, 3.69247 ], [ 101.347, 3.69722 ], [ 101.343182, 3.701348 ], [ 101.347392, 3.709729 ], [ 101.341094, 3.721222 ], [ 101.337315, 3.747438 ], [ 101.326158, 3.755338 ], [ 101.329397, 3.768805 ], [ 101.326698, 3.784965 ], [ 101.337135, 3.793943 ], [ 101.348831, 3.794661 ], [ 101.354769, 3.802202 ], [ 101.373124, 3.801663 ], [ 101.380502, 3.793045 ], [ 101.38572, 3.78317 ], [ 101.3859, 3.779938 ], [ 101.387699, 3.771319 ], [ 101.391118, 3.772755 ], [ 101.398676, 3.769883 ], [ 101.405694, 3.760905 ], [ 101.41865, 3.758391 ], [ 101.420989, 3.751568 ], [ 101.436285, 3.752106 ], [ 101.440064, 3.751029 ], [ 101.45176, 3.735766 ], [ 101.456259, 3.722479 ], [ 101.461837, 3.714578 ], [ 101.469035, 3.716732 ], [ 101.474793, 3.7135 ], [ 101.478752, 3.702008 ], [ 101.495667, 3.699314 ], [ 101.499985, 3.695364 ], [ 101.511862, 3.687283 ], [ 101.51744, 3.679741 ], [ 101.535794, 3.678304 ], [ 101.547851, 3.700033 ], [ 101.570164, 3.710986 ], [ 101.570344, 3.717451 ], [ 101.578801, 3.720862 ], [ 101.58168, 3.725352 ], [ 101.5815, 3.739717 ], [ 101.590858, 3.743487 ], [ 101.596256, 3.752645 ], [ 101.606513, 3.774012 ], [ 101.626487, 3.771858 ], [ 101.623027, 3.76371 ], [ 101.631992, 3.760355 ], [ 101.640583, 3.751596 ], [ 101.646382, 3.741614 ], [ 101.655525, 3.725876 ], [ 101.663342, 3.72382 ], [ 101.666899, 3.68798 ], [ 101.662709, 3.676907 ], [ 101.649841, 3.672418 ] ] ] } },
{ "type": "Feature", "properties": { "state": "Selangor", "parlimen": "P.075 Ulu Selangor", "code_parlimen": "P.075", "dun": "N.08 Kuala Kubu Bharu", "code_dun": "N.08" }, "geometry": { "type": "Polygon", "coordinates": [ [ [ 101.471629, 3.578748 ], [ 101.500209, 3.611966 ], [ 101.510982, 3.5982 ], [ 101.517566, 3.577252 ], [ 101.524748, 3.584733 ], [ 101.528938, 3.585332 ], [ 101.540011, 3.572763 ], [ 101.544799, 3.575157 ], [ 101.580711, 3.602689 ], [ 101.598966, 3.621842 ], [ 101.604353, 3.616455 ], [ 101.609141, 3.627827 ], [ 101.620812, 3.636506 ], [ 101.621112, 3.646681 ], [ 101.630688, 3.654163 ], [ 101.639367, 3.663739 ], [ 101.649841, 3.672418 ], [ 101.662709, 3.676907 ], [ 101.666899, 3.68798 ], [ 101.663342, 3.72382 ], [ 101.67607, 3.720471 ], [ 101.682607, 3.712643 ], [ 101.691759, 3.705934 ], [ 101.697922, 3.709661 ], [ 101.704833, 3.70817 ], [ 101.715045, 3.707331 ], [ 101.720709, 3.706866 ], [ 101.730794, 3.713016 ], [ 101.735837, 3.710407 ], [ 101.729861, 3.702206 ], [ 101.729674, 3.695496 ], [ 101.734343, 3.700715 ], [ 101.736958, 3.694005 ], [ 101.743308, 3.690091 ], [ 101.748725, 3.690464 ], [ 101.766094, 3.678162 ], [ 101.76927, 3.670893 ], [ 101.766842, 3.664742 ], [ 101.776741, 3.653559 ], [ 101.783838, 3.648899 ], [ 101.781783, 3.637529 ], [ 101.784959, 3.628582 ], [ 101.794671, 3.627836 ], [ 101.796725, 3.615534 ], [ 101.807558, 3.609942 ], [ 101.806437, 3.603604 ], [ 101.815029, 3.603604 ], [ 101.815402, 3.594657 ], [ 101.809799, 3.587946 ], [ 101.80569, 3.552155 ], [ 101.786639, 3.546936 ], [ 101.764162, 3.514422 ], [ 101.760865, 3.509652 ], [ 101.761612, 3.495857 ], [ 101.767134, 3.481209 ], [ 101.748748, 3.477297 ], [ 101.711041, 3.48029 ], [ 101.688895, 3.488071 ], [ 101.687099, 3.494655 ], [ 101.669144, 3.495852 ], [ 101.635027, 3.506625 ], [ 101.636224, 3.491662 ], [ 101.63802, 3.474305 ], [ 101.618269, 3.477896 ], [ 101.579963, 3.458743 ], [ 101.557817, 3.458743 ], [ 101.554098, 3.465506 ], [ 101.551328, 3.463967 ], [ 101.54509, 3.467087 ], [ 101.539197, 3.473672 ], [ 101.534345, 3.476099 ], [ 101.527759, 3.476445 ], [ 101.52464, 3.474712 ], [ 101.520134, 3.46986 ], [ 101.515628, 3.465354 ], [ 101.505259, 3.457382 ], [ 101.499483, 3.454147 ], [ 101.5011, 3.442132 ], [ 101.500176, 3.431965 ], [ 101.483539, 3.410937 ], [ 101.477878, 3.404121 ], [ 101.473719, 3.39742 ], [ 101.467595, 3.395456 ], [ 101.464229, 3.396297 ], [ 101.463898, 3.39638 ], [ 101.461472, 3.396958 ], [ 101.458468, 3.397998 ], [ 101.460894, 3.403774 ], [ 101.459508, 3.448024 ], [ 101.461472, 3.453569 ], [ 101.464591, 3.459462 ], [ 101.469906, 3.475174 ], [ 101.469444, 3.47864 ], [ 101.467133, 3.484417 ], [ 101.465285, 3.48719 ], [ 101.407749, 3.542415 ], [ 101.406374, 3.543752 ], [ 101.409083, 3.545829 ], [ 101.471629, 3.578748 ] ] ] } },
{ "type": "Feature", "properties": { "state": "Selangor", "parlimen": "P.075 Ulu Selangor", "code_parlimen": "P.075", "dun": "N.09 Batang Kali", "code_dun": "N.09" }, "geometry": { "type": "Polygon", "coordinates": [ [ [ 101.636823, 3.319585 ], [ 101.626349, 3.32557 ], [ 101.612882, 3.324373 ], [ 101.60151, 3.324373 ], [ 101.58924, 3.326767 ], [ 101.58535, 3.337242 ], [ 101.586247, 3.344723 ], [ 101.577269, 3.343227 ], [ 101.567094, 3.34203 ], [ 101.554825, 3.346519 ], [ 101.544051, 3.346219 ], [ 101.534774, 3.35011 ], [ 101.526993, 3.346219 ], [ 101.516519, 3.346519 ], [ 101.496468, 3.351307 ], [ 101.497066, 3.360584 ], [ 101.490483, 3.368365 ], [ 101.47941, 3.370759 ], [ 101.477016, 3.384226 ], [ 101.468636, 3.385722 ], [ 101.46714, 3.393803 ], [ 101.464229, 3.396297 ], [ 101.467595, 3.395456 ], [ 101.473719, 3.39742 ], [ 101.477878, 3.404121 ], [ 101.483539, 3.410937 ], [ 101.500176, 3.431965 ], [ 101.5011, 3.442132 ], [ 101.499483, 3.454147 ], [ 101.505259, 3.457382 ], [ 101.515628, 3.465354 ], [ 101.520134, 3.46986 ], [ 101.52464, 3.474712 ], [ 101.527759, 3.476445 ], [ 101.534345, 3.476099 ], [ 101.539197, 3.473672 ], [ 101.54509, 3.467087 ], [ 101.551328, 3.463967 ], [ 101.554098, 3.465506 ], [ 101.557817, 3.458743 ], [ 101.579963, 3.458743 ], [ 101.618269, 3.477896 ], [ 101.63802, 3.474305 ], [ 101.636224, 3.491662 ], [ 101.635027, 3.506625 ], [ 101.669144, 3.495852 ], [ 101.687099, 3.494655 ], [ 101.688895, 3.488071 ], [ 101.711041, 3.48029 ], [ 101.748748, 3.477297 ], [ 101.767134, 3.481209 ], [ 101.770213, 3.473042 ], [ 101.788881, 3.423521 ], [ 101.766094, 3.398911 ], [ 101.759744, 3.3743 ], [ 101.742219, 3.370847 ], [ 101.738597, 3.373084 ], [ 101.734363, 3.3757 ], [ 101.7272, 3.383671 ], [ 101.722347, 3.385982 ], [ 101.716455, 3.384942 ], [ 101.711834, 3.379512 ], [ 101.705017, 3.364493 ], [ 101.701898, 3.357676 ], [ 101.698778, 3.350167 ], [ 101.691962, 3.341502 ], [ 101.683643, 3.338729 ], [ 101.668855, 3.341617 ], [ 101.662161, 3.331551 ], [ 101.661946, 3.330475 ], [ 101.644305, 3.32976 ], [ 101.636823, 3.319585 ] ] ] } },
{ "type": "Feature", "properties": { "state": "Selangor", "parlimen": "P.076 Kuala Selangor", "code_parlimen": "P.076", "dun": "N.10 Permatang", "code_dun": "N.10" }, "geometry": { "type": "Polygon", "coordinates": [ [ [ 101.438438, 3.40889 ], [ 101.437756, 3.40889 ], [ 101.432639, 3.405137 ], [ 101.432639, 3.401385 ], [ 101.42991, 3.396609 ], [ 101.425817, 3.395245 ], [ 101.423429, 3.391151 ], [ 101.421041, 3.387399 ], [ 101.417496, 3.386565 ], [ 101.415242, 3.386034 ], [ 101.411489, 3.384329 ], [ 101.410125, 3.387399 ], [ 101.40876, 3.389446 ], [ 101.405349, 3.392175 ], [ 101.403644, 3.389787 ], [ 101.398868, 3.387399 ], [ 101.398527, 3.386717 ], [ 101.394774, 3.383988 ], [ 101.389316, 3.381259 ], [ 101.385223, 3.378189 ], [ 101.382494, 3.380576 ], [ 101.379424, 3.379553 ], [ 101.379083, 3.377165 ], [ 101.377718, 3.375118 ], [ 101.37533, 3.374436 ], [ 101.373966, 3.372048 ], [ 101.369872, 3.371025 ], [ 101.365438, 3.370343 ], [ 101.366461, 3.365226 ], [ 101.363391, 3.365226 ], [ 101.360321, 3.367273 ], [ 101.360321, 3.363861 ], [ 101.358274, 3.362497 ], [ 101.355545, 3.364544 ], [ 101.351793, 3.365908 ], [ 101.345993, 3.36352 ], [ 101.344288, 3.360791 ], [ 101.341218, 3.358403 ], [ 101.337124, 3.363179 ], [ 101.33576, 3.363179 ], [ 101.332007, 3.36045 ], [ 101.332007, 3.36352 ], [ 101.334054, 3.367273 ], [ 101.33269, 3.370002 ], [ 101.330302, 3.370002 ], [ 101.325867, 3.371025 ], [ 101.321432, 3.373072 ], [ 101.319727, 3.372048 ], [ 101.318703, 3.366249 ], [ 101.316316, 3.362497 ], [ 101.314951, 3.365226 ], [ 101.31154, 3.372389 ], [ 101.309152, 3.373072 ], [ 101.307446, 3.371025 ], [ 101.306764, 3.367273 ], [ 101.306082, 3.362497 ], [ 101.303694, 3.36045 ], [ 101.301647, 3.361815 ], [ 101.300965, 3.364885 ], [ 101.301988, 3.370002 ], [ 101.300965, 3.371707 ], [ 101.297213, 3.370343 ], [ 101.29346, 3.370684 ], [ 101.291755, 3.373072 ], [ 101.292778, 3.374436 ], [ 101.297554, 3.377847 ], [ 101.300283, 3.379553 ], [ 101.300965, 3.382964 ], [ 101.297895, 3.382964 ], [ 101.294484, 3.381259 ], [ 101.290731, 3.379894 ], [ 101.285614, 3.378871 ], [ 101.283909, 3.377165 ], [ 101.285273, 3.374095 ], [ 101.286297, 3.36966 ], [ 101.283568, 3.36659 ], [ 101.278451, 3.359086 ], [ 101.273675, 3.35738 ], [ 101.265829, 3.360109 ], [ 101.262759, 3.358062 ], [ 101.260712, 3.350899 ], [ 101.261736, 3.343053 ], [ 101.267535, 3.33623 ], [ 101.266852, 3.331454 ], [ 101.262418, 3.329749 ], [ 101.259007, 3.333501 ], [ 101.255254, 3.337595 ], [ 101.253207, 3.342029 ], [ 101.248773, 3.346123 ], [ 101.243997, 3.347487 ], [ 101.237516, 3.344758 ], [ 101.231078, 3.339754 ], [ 101.208666, 3.340313 ], [ 101.186813, 3.349822 ], [ 101.173366, 3.389536 ], [ 101.176795, 3.399338 ], [ 101.183277, 3.409913 ], [ 101.19044, 3.412301 ], [ 101.194534, 3.417759 ], [ 101.202039, 3.419124 ], [ 101.232816, 3.46383 ], [ 101.219648, 3.471911 ], [ 101.202291, 3.446473 ], [ 101.189423, 3.455451 ], [ 101.188525, 3.464728 ], [ 101.201692, 3.472509 ], [ 101.221943, 3.507535 ], [ 101.294449, 3.632937 ], [ 101.309429, 3.632127 ], [ 101.340393, 3.607172 ], [ 101.352475, 3.5954 ], [ 101.400173, 3.549785 ], [ 101.406374, 3.543752 ], [ 101.407749, 3.542415 ], [ 101.465285, 3.48719 ], [ 101.467133, 3.484417 ], [ 101.469444, 3.47864 ], [ 101.469906, 3.475174 ], [ 101.464591, 3.459462 ], [ 101.461472, 3.453569 ], [ 101.459508, 3.448024 ], [ 101.460894, 3.403774 ], [ 101.458468, 3.397998 ], [ 101.44694, 3.398591 ], [ 101.443214, 3.403432 ], [ 101.438438, 3.40889 ] ] ] } },
{ "type": "Feature", "properties": { "state": "Selangor", "parlimen": "P.076 Kuala Selangor", "code_parlimen": "P.076", "dun": "N.11 Asam Jawa", "code_dun": "N.11" }, "geometry": { "type": "Polygon", "coordinates": [ [ [ 101.243997, 3.347487 ], [ 101.248773, 3.346123 ], [ 101.253207, 3.342029 ], [ 101.255254, 3.337595 ], [ 101.259007, 3.333501 ], [ 101.262418, 3.329749 ], [ 101.266852, 3.331454 ], [ 101.267535, 3.33623 ], [ 101.261736, 3.343053 ], [ 101.260712, 3.350899 ], [ 101.262759, 3.358062 ], [ 101.265829, 3.360109 ], [ 101.273675, 3.35738 ], [ 101.278451, 3.359086 ], [ 101.283568, 3.36659 ], [ 101.286297, 3.36966 ], [ 101.285273, 3.374095 ], [ 101.283909, 3.377165 ], [ 101.285614, 3.378871 ], [ 101.290731, 3.379894 ], [ 101.294484, 3.381259 ], [ 101.297895, 3.382964 ], [ 101.300965, 3.382964 ], [ 101.300283, 3.379553 ], [ 101.297554, 3.377847 ], [ 101.292778, 3.374436 ], [ 101.291755, 3.373072 ], [ 101.29346, 3.370684 ], [ 101.297213, 3.370343 ], [ 101.300965, 3.371707 ], [ 101.301988, 3.370002 ], [ 101.300965, 3.364885 ], [ 101.301647, 3.361815 ], [ 101.303694, 3.36045 ], [ 101.306082, 3.362497 ], [ 101.306764, 3.367273 ], [ 101.307446, 3.371025 ], [ 101.309152, 3.373072 ], [ 101.31154, 3.372389 ], [ 101.314951, 3.365226 ], [ 101.316316, 3.362497 ], [ 101.318703, 3.366249 ], [ 101.319727, 3.372048 ], [ 101.321432, 3.373072 ], [ 101.325867, 3.371025 ], [ 101.330302, 3.370002 ], [ 101.33269, 3.370002 ], [ 101.334054, 3.367273 ], [ 101.332007, 3.36352 ], [ 101.332007, 3.36045 ], [ 101.33576, 3.363179 ], [ 101.337124, 3.363179 ], [ 101.341218, 3.358403 ], [ 101.344288, 3.360791 ], [ 101.345993, 3.36352 ], [ 101.351793, 3.365908 ], [ 101.355545, 3.364544 ], [ 101.358274, 3.362497 ], [ 101.360321, 3.363861 ], [ 101.360321, 3.367273 ], [ 101.363391, 3.365226 ], [ 101.366461, 3.365226 ], [ 101.365438, 3.370343 ], [ 101.369872, 3.371025 ], [ 101.373966, 3.372048 ], [ 101.37533, 3.374436 ], [ 101.377718, 3.375118 ], [ 101.379083, 3.377165 ], [ 101.379424, 3.379553 ], [ 101.382494, 3.380576 ], [ 101.385223, 3.378189 ], [ 101.389316, 3.381259 ], [ 101.394774, 3.383988 ], [ 101.398527, 3.386717 ], [ 101.398868, 3.387399 ], [ 101.403644, 3.389787 ], [ 101.405349, 3.392175 ], [ 101.40876, 3.389446 ], [ 101.410125, 3.387399 ], [ 101.411489, 3.384329 ], [ 101.415242, 3.386034 ], [ 101.417496, 3.386565 ], [ 101.421041, 3.387399 ], [ 101.423429, 3.391151 ], [ 101.425817, 3.395245 ], [ 101.42991, 3.396609 ], [ 101.432639, 3.401385 ], [ 101.432639, 3.405137 ], [ 101.437756, 3.40889 ], [ 101.438438, 3.40889 ], [ 101.443214, 3.403432 ], [ 101.44694, 3.398591 ], [ 101.445743, 3.358489 ], [ 101.448735, 3.353701 ], [ 101.451401, 3.34033 ], [ 101.450798, 3.335731 ], [ 101.4496, 3.33055 ], [ 101.447527, 3.325962 ], [ 101.445801, 3.32214 ], [ 101.438797, 3.314181 ], [ 101.435997, 3.30934 ], [ 101.435402, 3.305199 ], [ 101.437599, 3.3006 ], [ 101.435119, 3.291454 ], [ 101.426141, 3.296841 ], [ 101.419557, 3.295045 ], [ 101.414769, 3.299235 ], [ 101.407586, 3.294447 ], [ 101.393222, 3.296242 ], [ 101.384244, 3.293848 ], [ 101.37766, 3.29325 ], [ 101.368083, 3.287863 ], [ 101.35731, 3.284272 ], [ 101.3497, 3.283431 ], [ 101.343692, 3.279041 ], [ 101.336529, 3.276037 ], [ 101.329366, 3.272802 ], [ 101.325207, 3.268643 ], [ 101.320124, 3.265408 ], [ 101.312729, 3.263791 ], [ 101.298036, 3.252442 ], [ 101.291499, 3.256917 ], [ 101.280667, 3.276497 ], [ 101.25788, 3.306144 ], [ 101.242005, 3.317332 ], [ 101.228557, 3.330944 ], [ 101.231078, 3.339754 ], [ 101.237516, 3.344758 ], [ 101.243997, 3.347487 ] ] ] } },
{ "type": "Feature", "properties": { "state": "Selangor", "parlimen": "P.076 Kuala Selangor", "code_parlimen": "P.076", "dun": "N.12 Jeram", "code_dun": "N.12" }, "geometry": { "type": "Polygon", "coordinates": [ [ [ 101.320124, 3.265408 ], [ 101.325207, 3.268643 ], [ 101.329366, 3.272802 ], [ 101.336529, 3.276037 ], [ 101.343692, 3.279041 ], [ 101.3497, 3.283431 ], [ 101.35731, 3.284272 ], [ 101.368083, 3.287863 ], [ 101.37766, 3.29325 ], [ 101.384244, 3.293848 ], [ 101.393222, 3.296242 ], [ 101.407586, 3.294447 ], [ 101.414769, 3.299235 ], [ 101.419557, 3.295045 ], [ 101.426141, 3.296841 ], [ 101.435119, 3.291454 ], [ 101.437599, 3.3006 ], [ 101.444, 3.298651 ], [ 101.451202, 3.298309 ], [ 101.458397, 3.299009 ], [ 101.4618, 3.297149 ], [ 101.463799, 3.27957 ], [ 101.4674, 3.275311 ], [ 101.472397, 3.274859 ], [ 101.488899, 3.276031 ], [ 101.491096, 3.275231 ], [ 101.490545, 3.231505 ], [ 101.489522, 3.195004 ], [ 101.492203, 3.187851 ], [ 101.487701, 3.18727 ], [ 101.483382, 3.192958 ], [ 101.475195, 3.193299 ], [ 101.4671, 3.195461 ], [ 101.46325, 3.193295 ], [ 101.402798, 3.193894 ], [ 101.398802, 3.18387 ], [ 101.377486, 3.183004 ], [ 101.368863, 3.182241 ], [ 101.367695, 3.182137 ], [ 101.366828, 3.173645 ], [ 101.366048, 3.170699 ], [ 101.345685, 3.170006 ], [ 101.344559, 3.167493 ], [ 101.342826, 3.164894 ], [ 101.342393, 3.162208 ], [ 101.341873, 3.159955 ], [ 101.338234, 3.158308 ], [ 101.322463, 3.158048 ], [ 101.318391, 3.160215 ], [ 101.313625, 3.162901 ], [ 101.307188, 3.162745 ], [ 101.305694, 3.191091 ], [ 101.30364, 3.204331 ], [ 101.30364, 3.224657 ], [ 101.301498, 3.229962 ], [ 101.298597, 3.237151 ], [ 101.298036, 3.252442 ], [ 101.312729, 3.263791 ], [ 101.320124, 3.265408 ] ] ] } },
{ "type": "Feature", "properties": { "state": "Selangor", "parlimen": "P.077 Selayang", "code_parlimen": "P.077", "dun": "N.13 Rawang", "code_dun": "N.13" }, "geometry": { "type": "Polygon", "coordinates": [ [ [ 101.461472, 3.396958 ], [ 101.463898, 3.39638 ], [ 101.464229, 3.396297 ], [ 101.46714, 3.393803 ], [ 101.468636, 3.385722 ], [ 101.477016, 3.384226 ], [ 101.47941, 3.370759 ], [ 101.490483, 3.368365 ], [ 101.497066, 3.360584 ], [ 101.496468, 3.351307 ], [ 101.516519, 3.346519 ], [ 101.526993, 3.346219 ], [ 101.534774, 3.35011 ], [ 101.544051, 3.346219 ], [ 101.554825, 3.346519 ], [ 101.567094, 3.34203 ], [ 101.577269, 3.343227 ], [ 101.586247, 3.344723 ], [ 101.58535, 3.337242 ], [ 101.58924, 3.326767 ], [ 101.60151, 3.324373 ], [ 101.612882, 3.324373 ], [ 101.626349, 3.32557 ], [ 101.636823, 3.319585 ], [ 101.644305, 3.32976 ], [ 101.661946, 3.330475 ], [ 101.661364, 3.317639 ], [ 101.663069, 3.307405 ], [ 101.662899, 3.297001 ], [ 101.668186, 3.291372 ], [ 101.662728, 3.279433 ], [ 101.652494, 3.270564 ], [ 101.637826, 3.271928 ], [ 101.625545, 3.276704 ], [ 101.62077, 3.274657 ], [ 101.610195, 3.273975 ], [ 101.604055, 3.271246 ], [ 101.60576, 3.264423 ], [ 101.608148, 3.25726 ], [ 101.608148, 3.252825 ], [ 101.603239, 3.251371 ], [ 101.594921, 3.246981 ], [ 101.571352, 3.237045 ], [ 101.558961, 3.231875 ], [ 101.541358, 3.224419 ], [ 101.535372, 3.220828 ], [ 101.519811, 3.225616 ], [ 101.50784, 3.224419 ], [ 101.490545, 3.231505 ], [ 101.491096, 3.275231 ], [ 101.488899, 3.276031 ], [ 101.472397, 3.274859 ], [ 101.4674, 3.275311 ], [ 101.463799, 3.27957 ], [ 101.4618, 3.297149 ], [ 101.458397, 3.299009 ], [ 101.451202, 3.298309 ], [ 101.444, 3.298651 ], [ 101.437599, 3.3006 ], [ 101.435402, 3.305199 ], [ 101.435997, 3.30934 ], [ 101.438797, 3.314181 ], [ 101.445801, 3.32214 ], [ 101.447527, 3.325962 ], [ 101.4496, 3.33055 ], [ 101.450798, 3.335731 ], [ 101.451401, 3.34033 ], [ 101.448735, 3.353701 ], [ 101.445743, 3.358489 ], [ 101.44694, 3.398591 ], [ 101.458468, 3.397998 ], [ 101.461472, 3.396958 ] ] ] } },
{ "type": "Feature", "properties": { "state": "Selangor", "parlimen": "P.077 Selayang", "code_parlimen": "P.077", "dun": "N.14 Gombak", "code_dun": "N.14" }, "geometry": { "type": "Polygon", "coordinates": [ [ [ 101.60576, 3.264423 ], [ 101.604055, 3.271246 ], [ 101.610195, 3.273975 ], [ 101.62077, 3.274657 ], [ 101.625545, 3.276704 ], [ 101.637826, 3.271928 ], [ 101.652494, 3.270564 ], [ 101.662728, 3.279433 ], [ 101.668186, 3.291372 ], [ 101.662899, 3.297001 ], [ 101.663069, 3.307405 ], [ 101.661364, 3.317639 ], [ 101.661946, 3.330475 ], [ 101.662161, 3.331551 ], [ 101.668855, 3.341617 ], [ 101.683643, 3.338729 ], [ 101.691962, 3.341502 ], [ 101.698778, 3.350167 ], [ 101.701898, 3.357676 ], [ 101.705017, 3.364493 ], [ 101.711834, 3.379512 ], [ 101.716455, 3.384942 ], [ 101.722347, 3.385982 ], [ 101.7272, 3.383671 ], [ 101.734363, 3.3757 ], [ 101.738597, 3.373084 ], [ 101.742219, 3.370847 ], [ 101.759744, 3.3743 ], [ 101.780289, 3.357519 ], [ 101.78047, 3.34849 ], [ 101.77239, 3.346818 ], [ 101.771193, 3.331555 ], [ 101.76012, 3.334249 ], [ 101.763412, 3.324672 ], [ 101.754434, 3.327366 ], [ 101.747252, 3.323475 ], [ 101.740668, 3.314497 ], [ 101.739171, 3.306417 ], [ 101.728099, 3.280381 ], [ 101.725405, 3.245068 ], [ 101.710442, 3.241776 ], [ 101.710741, 3.2319 ], [ 101.70047, 3.234007 ], [ 101.700374, 3.233723 ], [ 101.695884, 3.228544 ], [ 101.69209, 3.228439 ], [ 101.672516, 3.227921 ], [ 101.673356, 3.233235 ], [ 101.665979, 3.243678 ], [ 101.657761, 3.240881 ], [ 101.657387, 3.236778 ], [ 101.654025, 3.237151 ], [ 101.653465, 3.234074 ], [ 101.646653, 3.235164 ], [ 101.646195, 3.232718 ], [ 101.640701, 3.23215 ], [ 101.638353, 3.22873 ], [ 101.635888, 3.228775 ], [ 101.63983, 3.222699 ], [ 101.637029, 3.215986 ], [ 101.634414, 3.216546 ], [ 101.630315, 3.208777 ], [ 101.625262, 3.199203 ], [ 101.619285, 3.198084 ], [ 101.61984, 3.180789 ], [ 101.619271, 3.180856 ], [ 101.57711, 3.182006 ], [ 101.556254, 3.182006 ], [ 101.541953, 3.184985 ], [ 101.534802, 3.17128 ], [ 101.522289, 3.166513 ], [ 101.515355, 3.162434 ], [ 101.517153, 3.172533 ], [ 101.514083, 3.177479 ], [ 101.503337, 3.178332 ], [ 101.502314, 3.171509 ], [ 101.497416, 3.170966 ], [ 101.494298, 3.170443 ], [ 101.494639, 3.174878 ], [ 101.495662, 3.185453 ], [ 101.492203, 3.187851 ], [ 101.489522, 3.195004 ], [ 101.490545, 3.231505 ], [ 101.50784, 3.224419 ], [ 101.519811, 3.225616 ], [ 101.535372, 3.220828 ], [ 101.541358, 3.224419 ], [ 101.558961, 3.231875 ], [ 101.571352, 3.237045 ], [ 101.594921, 3.246981 ], [ 101.603239, 3.251371 ], [ 101.608148, 3.252825 ], [ 101.608148, 3.25726 ], [ 101.60576, 3.264423 ] ] ] } },
{ "type": "Feature", "properties": { "state": "Selangor", "parlimen": "P.077 Selayang", "code_parlimen": "P.077", "dun": "N.15 Ampang", "code_dun": "N.15" }, "geometry": { "type": "Polygon", "coordinates": [ [ [ 101.752641, 3.098032 ], [ 101.750867, 3.101389 ], [ 101.753762, 3.10372 ], [ 101.751614, 3.108382 ], [ 101.746478, 3.111087 ], [ 101.740688, 3.110434 ], [ 101.737979, 3.113977 ], [ 101.73826, 3.117334 ], [ 101.741621, 3.124421 ], [ 101.738581, 3.129834 ], [ 101.738377, 3.130197 ], [ 101.735178, 3.13589 ], [ 101.736235, 3.137201 ], [ 101.740968, 3.14307 ], [ 101.741061, 3.150996 ], [ 101.746197, 3.149411 ], [ 101.748439, 3.15799 ], [ 101.750306, 3.160041 ], [ 101.739754, 3.162092 ], [ 101.739287, 3.164703 ], [ 101.734804, 3.164703 ], [ 101.734151, 3.171976 ], [ 101.731256, 3.173002 ], [ 101.733964, 3.17813 ], [ 101.748439, 3.17524 ], [ 101.756003, 3.180461 ], [ 101.758805, 3.188667 ], [ 101.756283, 3.198084 ], [ 101.748453, 3.203044 ], [ 101.747259, 3.203801 ], [ 101.745824, 3.210019 ], [ 101.739287, 3.216452 ], [ 101.739754, 3.223259 ], [ 101.743769, 3.22904 ], [ 101.739567, 3.233608 ], [ 101.730228, 3.232955 ], [ 101.718929, 3.222606 ], [ 101.714913, 3.213842 ], [ 101.702399, 3.216359 ], [ 101.701372, 3.223538 ], [ 101.697263, 3.223632 ], [ 101.697215, 3.22619 ], [ 101.69717, 3.228573 ], [ 101.695884, 3.228544 ], [ 101.700374, 3.233723 ], [ 101.70047, 3.234007 ], [ 101.710741, 3.2319 ], [ 101.710442, 3.241776 ], [ 101.725405, 3.245068 ], [ 101.728099, 3.280381 ], [ 101.739171, 3.306417 ], [ 101.740668, 3.314497 ], [ 101.747252, 3.323475 ], [ 101.754434, 3.327366 ], [ 101.763412, 3.324672 ], [ 101.76012, 3.334249 ], [ 101.771193, 3.331555 ], [ 101.77239, 3.346818 ], [ 101.78047, 3.34849 ], [ 101.780663, 3.338874 ], [ 101.797099, 3.33328 ], [ 101.798219, 3.323957 ], [ 101.820856, 3.293638 ], [ 101.848444, 3.276767 ], [ 101.845453, 3.272114 ], [ 101.841306, 3.265664 ], [ 101.84003, 3.263679 ], [ 101.838303, 3.260991 ], [ 101.834503, 3.255459 ], [ 101.830696, 3.242211 ], [ 101.827202, 3.240599 ], [ 101.822098, 3.23414 ], [ 101.818703, 3.22689 ], [ 101.815903, 3.219859 ], [ 101.813896, 3.210301 ], [ 101.8134, 3.20339 ], [ 101.808998, 3.195559 ], [ 101.805099, 3.18841 ], [ 101.803802, 3.18139 ], [ 101.804398, 3.176791 ], [ 101.810606, 3.169761 ], [ 101.810606, 3.159016 ], [ 101.8089, 3.151511 ], [ 101.803613, 3.147076 ], [ 101.788944, 3.128485 ], [ 101.780246, 3.12081 ], [ 101.774105, 3.114669 ], [ 101.770734, 3.111604 ], [ 101.763531, 3.103412 ], [ 101.756538, 3.097784 ], [ 101.7537, 3.09463 ], [ 101.75152, 3.09281 ], [ 101.752641, 3.098032 ] ] ] } },
{ "type": "Feature", "properties": { "state": "Selangor", "parlimen": "P.078 Ulu Langat", "code_parlimen": "P.078", "dun": "N.16 Dusun Tua", "code_dun": "N.16" }, "geometry": { "type": "Polygon", "coordinates": [ [ [ 101.756538, 3.097784 ], [ 101.763531, 3.103412 ], [ 101.770734, 3.111604 ], [ 101.774105, 3.114669 ], [ 101.780246, 3.12081 ], [ 101.788944, 3.128485 ], [ 101.803613, 3.147076 ], [ 101.8089, 3.151511 ], [ 101.810606, 3.159016 ], [ 101.810606, 3.169761 ], [ 101.804398, 3.176791 ], [ 101.803802, 3.18139 ], [ 101.805099, 3.18841 ], [ 101.808998, 3.195559 ], [ 101.8134, 3.20339 ], [ 101.813896, 3.210301 ], [ 101.815903, 3.219859 ], [ 101.818703, 3.22689 ], [ 101.822098, 3.23414 ], [ 101.827202, 3.240599 ], [ 101.830696, 3.242211 ], [ 101.834503, 3.255459 ], [ 101.838303, 3.260991 ], [ 101.84003, 3.263679 ], [ 101.841306, 3.265664 ], [ 101.845453, 3.272114 ], [ 101.848444, 3.276767 ], [ 101.852383, 3.274358 ], [ 101.888244, 3.260186 ], [ 101.897956, 3.264662 ], [ 101.909536, 3.25944 ], [ 101.925779, 3.259621 ], [ 101.927834, 3.253841 ], [ 101.931569, 3.254027 ], [ 101.933997, 3.250298 ], [ 101.931382, 3.243957 ], [ 101.934558, 3.238177 ], [ 101.939227, 3.236312 ], [ 101.947258, 3.218783 ], [ 101.947632, 3.207408 ], [ 101.945017, 3.204051 ], [ 101.947258, 3.191184 ], [ 101.93904, 3.184471 ], [ 101.950433, 3.160041 ], [ 101.95641, 3.156311 ], [ 101.957157, 3.145681 ], [ 101.964068, 3.139527 ], [ 101.959972, 3.121911 ], [ 101.887683, 3.125295 ], [ 101.876592, 3.122002 ], [ 101.871393, 3.11559 ], [ 101.860475, 3.109524 ], [ 101.850077, 3.104672 ], [ 101.843838, 3.097047 ], [ 101.835347, 3.071051 ], [ 101.837773, 3.064986 ], [ 101.837299, 3.061795 ], [ 101.835934, 3.058043 ], [ 101.832898, 3.055188 ], [ 101.816477, 3.055626 ], [ 101.800713, 3.058034 ], [ 101.792174, 3.064602 ], [ 101.783854, 3.066354 ], [ 101.778162, 3.06307 ], [ 101.769623, 3.068762 ], [ 101.751889, 3.076425 ], [ 101.746478, 3.082086 ], [ 101.745077, 3.086562 ], [ 101.75152, 3.09281 ], [ 101.7537, 3.09463 ], [ 101.756538, 3.097784 ] ] ] } },
{ "type": "Feature", "properties": { "state": "Selangor", "parlimen": "P.078 Ulu Langat", "code_parlimen": "P.078", "dun": "N.17 Semenyih", "code_dun": "N.17" }, "geometry": { "type": "Polygon", "coordinates": [ [ [ 101.800372, 2.951761 ], [ 101.804846, 2.954593 ], [ 101.804846, 2.962565 ], [ 101.807099, 2.975389 ], [ 101.811431, 2.982322 ], [ 101.813337, 2.987521 ], [ 101.818536, 2.996359 ], [ 101.820789, 3.007797 ], [ 101.822696, 3.015422 ], [ 101.823216, 3.021487 ], [ 101.826162, 3.024607 ], [ 101.826855, 3.037778 ], [ 101.832747, 3.04211 ], [ 101.840026, 3.048696 ], [ 101.841145, 3.050789 ], [ 101.832898, 3.055188 ], [ 101.835934, 3.058043 ], [ 101.837299, 3.061795 ], [ 101.837773, 3.064986 ], [ 101.835347, 3.071051 ], [ 101.843838, 3.097047 ], [ 101.850077, 3.104672 ], [ 101.860475, 3.109524 ], [ 101.871393, 3.11559 ], [ 101.876592, 3.122002 ], [ 101.887683, 3.125295 ], [ 101.959972, 3.121911 ], [ 101.959212, 3.11864 ], [ 101.955992, 3.116496 ], [ 101.948005, 3.11118 ], [ 101.948752, 3.102041 ], [ 101.955289, 3.094954 ], [ 101.957904, 3.08078 ], [ 101.9622, 3.077983 ], [ 101.958838, 3.061384 ], [ 101.965562, 3.055789 ], [ 101.964068, 3.05094 ], [ 101.96743, 3.043852 ], [ 101.968177, 3.025947 ], [ 101.960145, 3.024455 ], [ 101.955103, 3.026134 ], [ 101.944456, 3.016062 ], [ 101.9396, 3.015502 ], [ 101.939787, 3.010094 ], [ 101.943336, 3.006363 ], [ 101.93904, 2.99853 ], [ 101.930822, 2.99853 ], [ 101.928207, 2.977826 ], [ 101.922417, 2.975028 ], [ 101.923351, 2.967567 ], [ 101.881607, 2.866654 ], [ 101.794091, 2.869526 ], [ 101.794035, 2.869634 ], [ 101.787139, 2.880417 ], [ 101.791846, 2.887478 ], [ 101.788343, 2.892787 ], [ 101.784128, 2.898917 ], [ 101.777067, 2.900614 ], [ 101.769952, 2.900286 ], [ 101.766339, 2.906745 ], [ 101.761084, 2.908934 ], [ 101.757638, 2.914295 ], [ 101.758748, 2.915427 ], [ 101.78532, 2.93761 ], [ 101.786528, 2.941696 ], [ 101.791328, 2.957944 ], [ 101.798325, 2.95449 ], [ 101.800372, 2.951761 ] ] ] } },
{ "type": "Feature", "properties": { "state": "Selangor", "parlimen": "P.078 Ulu Langat", "code_parlimen": "P.078", "dun": "N.18 Kajang", "code_dun": "N.18" }, "geometry": { "type": "Polygon", "coordinates": [ [ [ 101.798325, 2.95449 ], [ 101.791328, 2.957944 ], [ 101.790635, 2.97227 ], [ 101.789711, 2.980126 ], [ 101.789711, 2.985903 ], [ 101.783703, 2.99168 ], [ 101.778625, 2.98743 ], [ 101.771462, 2.985042 ], [ 101.762934, 2.988453 ], [ 101.758517, 2.990755 ], [ 101.748581, 2.991911 ], [ 101.737489, 3.001154 ], [ 101.728996, 3.005251 ], [ 101.721913, 3.011458 ], [ 101.726519, 3.02135 ], [ 101.72993, 3.030731 ], [ 101.731109, 3.03755 ], [ 101.730508, 3.037604 ], [ 101.730695, 3.055229 ], [ 101.749746, 3.055322 ], [ 101.750213, 3.06931 ], [ 101.746478, 3.082086 ], [ 101.751889, 3.076425 ], [ 101.769623, 3.068762 ], [ 101.778162, 3.06307 ], [ 101.783854, 3.066354 ], [ 101.792174, 3.064602 ], [ 101.800713, 3.058034 ], [ 101.816477, 3.055626 ], [ 101.832898, 3.055188 ], [ 101.841145, 3.050789 ], [ 101.840026, 3.048696 ], [ 101.832747, 3.04211 ], [ 101.826855, 3.037778 ], [ 101.826162, 3.024607 ], [ 101.823216, 3.021487 ], [ 101.822696, 3.015422 ], [ 101.820789, 3.007797 ], [ 101.818536, 2.996359 ], [ 101.813337, 2.987521 ], [ 101.811431, 2.982322 ], [ 101.807099, 2.975389 ], [ 101.804846, 2.962565 ], [ 101.804846, 2.954593 ], [ 101.800372, 2.951761 ], [ 101.798325, 2.95449 ] ] ] } },
{ "type": "Feature", "properties": { "state": "Selangor", "parlimen": "P.079 Pelabohan Kelang", "code_parlimen": "P.079", "dun": "N.19 Kapar", "code_dun": "N.19" }, "geometry": { "type": "Polygon", "coordinates": [ [ [ 101.440912, 3.115693 ], [ 101.440836, 3.120487 ], [ 101.417686, 3.12073 ], [ 101.41793, 3.135108 ], [ 101.405014, 3.135352 ], [ 101.404283, 3.114882 ], [ 101.371386, 3.11342 ], [ 101.371812, 3.101967 ], [ 101.378818, 3.097276 ], [ 101.378696, 3.091732 ], [ 101.370411, 3.091001 ], [ 101.366025, 3.091488 ], [ 101.358471, 3.100261 ], [ 101.356034, 3.10879 ], [ 101.342144, 3.110008 ], [ 101.32996, 3.10684 ], [ 101.32974, 3.106432 ], [ 101.32708, 3.109688 ], [ 101.316994, 3.109688 ], [ 101.307188, 3.162745 ], [ 101.313625, 3.162901 ], [ 101.318391, 3.160215 ], [ 101.322463, 3.158048 ], [ 101.338234, 3.158308 ], [ 101.341873, 3.159955 ], [ 101.342393, 3.162208 ], [ 101.342826, 3.164894 ], [ 101.344559, 3.167493 ], [ 101.345685, 3.170006 ], [ 101.366048, 3.170699 ], [ 101.366828, 3.173645 ], [ 101.367695, 3.182137 ], [ 101.368863, 3.182241 ], [ 101.377486, 3.183004 ], [ 101.398802, 3.18387 ], [ 101.402798, 3.193894 ], [ 101.46325, 3.193295 ], [ 101.4671, 3.195461 ], [ 101.475195, 3.193299 ], [ 101.483382, 3.192958 ], [ 101.487701, 3.18727 ], [ 101.492203, 3.187851 ], [ 101.495662, 3.185453 ], [ 101.494639, 3.174878 ], [ 101.494298, 3.170443 ], [ 101.485164, 3.170642 ], [ 101.480141, 3.167203 ], [ 101.475365, 3.162939 ], [ 101.469907, 3.16021 ], [ 101.46479, 3.155604 ], [ 101.456603, 3.150829 ], [ 101.452851, 3.147417 ], [ 101.452339, 3.141618 ], [ 101.452339, 3.13309 ], [ 101.454697, 3.12471 ], [ 101.451996, 3.121371 ], [ 101.449997, 3.11756 ], [ 101.446199, 3.116375 ], [ 101.440912, 3.115693 ] ] ] } },
{ "type": "Feature", "properties": { "state": "Selangor", "parlimen": "P.079 Pelabohan Kelang", "code_parlimen": "P.079", "dun": "N.20 Sementa", "code_dun": "N.20" }, "geometry": { "type": "Polygon", "coordinates": [ [ [ 101.378818, 3.097276 ], [ 101.371812, 3.101967 ], [ 101.371386, 3.11342 ], [ 101.404283, 3.114882 ], [ 101.405014, 3.135352 ], [ 101.41793, 3.135108 ], [ 101.417686, 3.12073 ], [ 101.440836, 3.120487 ], [ 101.440912, 3.115693 ], [ 101.441002, 3.105921 ], [ 101.443199, 3.092 ], [ 101.446575, 3.079832 ], [ 101.428956, 3.070532 ], [ 101.439252, 3.064927 ], [ 101.434444, 3.056273 ], [ 101.432018, 3.056205 ], [ 101.429476, 3.055281 ], [ 101.425548, 3.054819 ], [ 101.418847, 3.055743 ], [ 101.41723, 3.052046 ], [ 101.411453, 3.048811 ], [ 101.405445, 3.043266 ], [ 101.394585, 3.040724 ], [ 101.391581, 3.038644 ], [ 101.389271, 3.034023 ], [ 101.399438, 3.027091 ], [ 101.400824, 3.022007 ], [ 101.395047, 3.016231 ], [ 101.386036, 3.018772 ], [ 101.377255, 3.021776 ], [ 101.375869, 3.020852 ], [ 101.377717, 3.015769 ], [ 101.387653, 3.006064 ], [ 101.389502, 2.995897 ], [ 101.377486, 2.995897 ], [ 101.356216, 2.999276 ], [ 101.360495, 3.051116 ], [ 101.361819, 3.067166 ], [ 101.32974, 3.106432 ], [ 101.32996, 3.10684 ], [ 101.342144, 3.110008 ], [ 101.356034, 3.10879 ], [ 101.358471, 3.100261 ], [ 101.366025, 3.091488 ], [ 101.370411, 3.091001 ], [ 101.378696, 3.091732 ], [ 101.378818, 3.097276 ] ] ] } },
{ "type": "Feature", "properties": { "state": "Selangor", "parlimen": "P.079 Pelabohan Kelang", "code_parlimen": "P.079", "dun": "N.21 Selat Kelang", "code_dun": "N.21" }, "geometry": { "type": "MultiPolygon", "coordinates": [ [ [ [ 101.242145, 2.905621 ], [ 101.240312, 2.904247 ], [ 101.236027, 2.903708 ], [ 101.234403, 2.905724 ], [ 101.234333, 2.907965 ], [ 101.236222, 2.914667 ], [ 101.235935, 2.917578 ], [ 101.234794, 2.920028 ], [ 101.235315, 2.92025 ], [ 101.239503, 2.922255 ], [ 101.244715, 2.925597 ], [ 101.246631, 2.928047 ], [ 101.249705, 2.930275 ], [ 101.253359, 2.934151 ], [ 101.254428, 2.937314 ], [ 101.256433, 2.938918 ], [ 101.2588, 2.938918 ], [ 101.258844, 2.938743 ], [ 101.259925, 2.92435 ], [ 101.258011, 2.914562 ], [ 101.256362, 2.910812 ], [ 101.247398, 2.906679 ], [ 101.242145, 2.905621 ] ] ], [ [ [ 101.257458, 2.939854 ], [ 101.254784, 2.938606 ], [ 101.254473, 2.938161 ], [ 101.251799, 2.933438 ], [ 101.24447, 2.92651 ], [ 101.241107, 2.923725 ], [ 101.237966, 2.9223 ], [ 101.233774, 2.922219 ], [ 101.23367, 2.922441 ], [ 101.232258, 2.923884 ], [ 101.231346, 2.929065 ], [ 101.231536, 2.933913 ], [ 101.229415, 2.943234 ], [ 101.228858, 2.947076 ], [ 101.231312, 2.950146 ], [ 101.238956, 2.956778 ], [ 101.246169, 2.962061 ], [ 101.254204, 2.966537 ], [ 101.256586, 2.9646 ], [ 101.256812, 2.956971 ], [ 101.258209, 2.952348 ], [ 101.258505, 2.940092 ], [ 101.258573, 2.939821 ], [ 101.257458, 2.939854 ] ] ], [ [ [ 101.271225, 2.956873 ], [ 101.275903, 2.962798 ], [ 101.278175, 2.967387 ], [ 101.280224, 2.968813 ], [ 101.281516, 2.96908 ], [ 101.281338, 2.967298 ], [ 101.280224, 2.964982 ], [ 101.279378, 2.961284 ], [ 101.275012, 2.958254 ], [ 101.270763, 2.955566 ], [ 101.271225, 2.956873 ] ] ], [ [ [ 101.242857, 2.988105 ], [ 101.240763, 2.985458 ], [ 101.222391, 2.961854 ], [ 101.213634, 2.952088 ], [ 101.211296, 2.951476 ], [ 101.208475, 2.951768 ], [ 101.205235, 2.950164 ], [ 101.200195, 2.949278 ], [ 101.197919, 2.951219 ], [ 101.198982, 2.956862 ], [ 101.203682, 2.964221 ], [ 101.216209, 2.980642 ], [ 101.218447, 2.986942 ], [ 101.217747, 2.989546 ], [ 101.217754, 2.991881 ], [ 101.219369, 2.993155 ], [ 101.218608, 2.994524 ], [ 101.220797, 2.99659 ], [ 101.225542, 2.995873 ], [ 101.224724, 3.000586 ], [ 101.224372, 3.002243 ], [ 101.222486, 3.003671 ], [ 101.232639, 3.008807 ], [ 101.244503, 3.014157 ], [ 101.250008, 3.015406 ], [ 101.257148, 3.014814 ], [ 101.259872, 3.016458 ], [ 101.26167, 3.011042 ], [ 101.261993, 3.009435 ], [ 101.262706, 3.003279 ], [ 101.25837, 2.998812 ], [ 101.242857, 2.988105 ] ] ], [ [ [ 101.262823, 3.012714 ], [ 101.263124, 3.016769 ], [ 101.266007, 3.019235 ], [ 101.2693, 3.02109 ], [ 101.269997, 3.020206 ], [ 101.269817, 3.014197 ], [ 101.266616, 3.006936 ], [ 101.264571, 3.006235 ], [ 101.264195, 3.010699 ], [ 101.262823, 3.012714 ] ] ], [ [ [ 101.259698, 3.02065 ], [ 101.256053, 3.021328 ], [ 101.250332, 3.018673 ], [ 101.243898, 3.017164 ], [ 101.215934, 3.004158 ], [ 101.211215, 3.005175 ], [ 101.211642, 3.006753 ], [ 101.208924, 3.007234 ], [ 101.209244, 3.011576 ], [ 101.216671, 3.023228 ], [ 101.22706, 3.035759 ], [ 101.230058, 3.037841 ], [ 101.234007, 3.043243 ], [ 101.233454, 3.044873 ], [ 101.235496, 3.046636 ], [ 101.237011, 3.046447 ], [ 101.240859, 3.052767 ], [ 101.248063, 3.055746 ], [ 101.259522, 3.060485 ], [ 101.268661, 3.058532 ], [ 101.271585, 3.053256 ], [ 101.276385, 3.046656 ], [ 101.280541, 3.042563 ], [ 101.277906, 3.033847 ], [ 101.264806, 3.025844 ], [ 101.259698, 3.02065 ] ] ], [ [ [ 101.375869, 3.020852 ], [ 101.377255, 3.021776 ], [ 101.386036, 3.018772 ], [ 101.395047, 3.016231 ], [ 101.400824, 3.022007 ], [ 101.399438, 3.027091 ], [ 101.389271, 3.034023 ], [ 101.391581, 3.038644 ], [ 101.394585, 3.040724 ], [ 101.405445, 3.043266 ], [ 101.411453, 3.048811 ], [ 101.41723, 3.052046 ], [ 101.418847, 3.055743 ], [ 101.425548, 3.054819 ], [ 101.429476, 3.055281 ], [ 101.432018, 3.056205 ], [ 101.434444, 3.056273 ], [ 101.434378, 3.056154 ], [ 101.432916, 3.050306 ], [ 101.434866, 3.044457 ], [ 101.416346, 3.023013 ], [ 101.417904, 3.021455 ], [ 101.424631, 3.014728 ], [ 101.41732, 3.007417 ], [ 101.420245, 2.987923 ], [ 101.424144, 2.984024 ], [ 101.45436, 2.983536 ], [ 101.466057, 2.956244 ], [ 101.44944, 2.953701 ], [ 101.432213, 2.950972 ], [ 101.419887, 2.94691 ], [ 101.414226, 2.943098 ], [ 101.409027, 2.940903 ], [ 101.406947, 2.938823 ], [ 101.409489, 2.933971 ], [ 101.416074, 2.932353 ], [ 101.424508, 2.930158 ], [ 101.426704, 2.926114 ], [ 101.426819, 2.916063 ], [ 101.42058, 2.910517 ], [ 101.41723, 2.904163 ], [ 101.413648, 2.898848 ], [ 101.4118, 2.894689 ], [ 101.413071, 2.890645 ], [ 101.417692, 2.886833 ], [ 101.419656, 2.884176 ], [ 101.418963, 2.880825 ], [ 101.420234, 2.876435 ], [ 101.423122, 2.874586 ], [ 101.424508, 2.874933 ], [ 101.425779, 2.875857 ], [ 101.426588, 2.878399 ], [ 101.426588, 2.881287 ], [ 101.426241, 2.886024 ], [ 101.426357, 2.888566 ], [ 101.429361, 2.892494 ], [ 101.430054, 2.896307 ], [ 101.429014, 2.89804 ], [ 101.426704, 2.899542 ], [ 101.424046, 2.902892 ], [ 101.424971, 2.90578 ], [ 101.426935, 2.90682 ], [ 101.429707, 2.906589 ], [ 101.433751, 2.903239 ], [ 101.436177, 2.899888 ], [ 101.439297, 2.899657 ], [ 101.445882, 2.897809 ], [ 101.446441, 2.897638 ], [ 101.449852, 2.894713 ], [ 101.452009, 2.889106 ], [ 101.451659, 2.888797 ], [ 101.450157, 2.884407 ], [ 101.447615, 2.880016 ], [ 101.444496, 2.876781 ], [ 101.442878, 2.872738 ], [ 101.44103, 2.867308 ], [ 101.439181, 2.866383 ], [ 101.433404, 2.865228 ], [ 101.430285, 2.865112 ], [ 101.427743, 2.866037 ], [ 101.424508, 2.863726 ], [ 101.42266, 2.859798 ], [ 101.422544, 2.856216 ], [ 101.423584, 2.850671 ], [ 101.421389, 2.847205 ], [ 101.418847, 2.846858 ], [ 101.41515, 2.846165 ], [ 101.414341, 2.843508 ], [ 101.413186, 2.839002 ], [ 101.411915, 2.835074 ], [ 101.413533, 2.828026 ], [ 101.41515, 2.822712 ], [ 101.413417, 2.808848 ], [ 101.410875, 2.80284 ], [ 101.404179, 2.8035 ], [ 101.355737, 2.812611 ], [ 101.340324, 2.82235 ], [ 101.319249, 2.831461 ], [ 101.293456, 2.836331 ], [ 101.283862, 2.873088 ], [ 101.283562, 2.881764 ], [ 101.267126, 2.887546 ], [ 101.271235, 2.897246 ], [ 101.27553, 2.910117 ], [ 101.315126, 2.976334 ], [ 101.356216, 2.999276 ], [ 101.377486, 2.995897 ], [ 101.389502, 2.995897 ], [ 101.387653, 3.006064 ], [ 101.377717, 3.015769 ], [ 101.375869, 3.020852 ] ] ], [ [ [ 101.294177, 2.952842 ], [ 101.292606, 2.949258 ], [ 101.286515, 2.938589 ], [ 101.28359, 2.935591 ], [ 101.276313, 2.920671 ], [ 101.272343, 2.918013 ], [ 101.266778, 2.917542 ], [ 101.264077, 2.918643 ], [ 101.264324, 2.927278 ], [ 101.262707, 2.947409 ], [ 101.263116, 2.947739 ], [ 101.266368, 2.951126 ], [ 101.275145, 2.957274 ], [ 101.279155, 2.959992 ], [ 101.287041, 2.963333 ], [ 101.290249, 2.965784 ], [ 101.291541, 2.969214 ], [ 101.294838, 2.972422 ], [ 101.297244, 2.974427 ], [ 101.301565, 2.97465 ], [ 101.304373, 2.973446 ], [ 101.301157, 2.967268 ], [ 101.30001, 2.962431 ], [ 101.298288, 2.960529 ], [ 101.296215, 2.957447 ], [ 101.295331, 2.953878 ], [ 101.294177, 2.952842 ] ] ], [ [ [ 101.293056, 2.975719 ], [ 101.301699, 2.980397 ], [ 101.304283, 2.980263 ], [ 101.305664, 2.978971 ], [ 101.306154, 2.97808 ], [ 101.306217, 2.978004 ], [ 101.305441, 2.976744 ], [ 101.304417, 2.975719 ], [ 101.303856, 2.975223 ], [ 101.303748, 2.975318 ], [ 101.302902, 2.975585 ], [ 101.298758, 2.976075 ], [ 101.295417, 2.974694 ], [ 101.291808, 2.971219 ], [ 101.290249, 2.968769 ], [ 101.289179, 2.96614 ], [ 101.287531, 2.964759 ], [ 101.281383, 2.96213 ], [ 101.28018, 2.961863 ], [ 101.280581, 2.964581 ], [ 101.281962, 2.966274 ], [ 101.282407, 2.968635 ], [ 101.283566, 2.969704 ], [ 101.28615, 2.971085 ], [ 101.289402, 2.97514 ], [ 101.291986, 2.97612 ], [ 101.293056, 2.975719 ] ] ], [ [ [ 101.307669, 2.979996 ], [ 101.307691, 2.979966 ], [ 101.307134, 2.979818 ], [ 101.306862, 2.979722 ], [ 101.306823, 2.979773 ], [ 101.304238, 2.981333 ], [ 101.305352, 2.982847 ], [ 101.310699, 2.985654 ], [ 101.312258, 2.98405 ], [ 101.311055, 2.982313 ], [ 101.309184, 2.980798 ], [ 101.307669, 2.979996 ] ] ], [ [ [ 101.318406, 2.987436 ], [ 101.316491, 2.986367 ], [ 101.31502, 2.985966 ], [ 101.313773, 2.985253 ], [ 101.3138, 2.985194 ], [ 101.312293, 2.985173 ], [ 101.311723, 2.986011 ], [ 101.318273, 2.989263 ], [ 101.319164, 2.989263 ], [ 101.321792, 2.990912 ], [ 101.322728, 2.991223 ], [ 101.321481, 2.989218 ], [ 101.318406, 2.987436 ] ] ], [ [ [ 101.337801, 3.050246 ], [ 101.336614, 3.047467 ], [ 101.336647, 3.04351 ], [ 101.334173, 3.03815 ], [ 101.334407, 3.029528 ], [ 101.33681, 3.018174 ], [ 101.335196, 3.01678 ], [ 101.336398, 3.014974 ], [ 101.336874, 3.01029 ], [ 101.336946, 3.006616 ], [ 101.337749, 3.001484 ], [ 101.336355, 2.998761 ], [ 101.328994, 2.994213 ], [ 101.328564, 2.994253 ], [ 101.324376, 2.992827 ], [ 101.312347, 2.98659 ], [ 101.309941, 2.986501 ], [ 101.307357, 2.98454 ], [ 101.302902, 2.981778 ], [ 101.29515, 2.978214 ], [ 101.28909, 2.976164 ], [ 101.28517, 2.971887 ], [ 101.282853, 2.970194 ], [ 101.278487, 2.968947 ], [ 101.274566, 2.961907 ], [ 101.269754, 2.955492 ], [ 101.26423, 2.952819 ], [ 101.262296, 2.952526 ], [ 101.262244, 2.953177 ], [ 101.260788, 2.95759 ], [ 101.262201, 2.964942 ], [ 101.262491, 2.977288 ], [ 101.268111, 2.98574 ], [ 101.277481, 3.001335 ], [ 101.283022, 3.009339 ], [ 101.283529, 3.012975 ], [ 101.295803, 3.043338 ], [ 101.296364, 3.046186 ], [ 101.299235, 3.050431 ], [ 101.300293, 3.053418 ], [ 101.302873, 3.055228 ], [ 101.30305, 3.058195 ], [ 101.305517, 3.062768 ], [ 101.311258, 3.064968 ], [ 101.325637, 3.067978 ], [ 101.329647, 3.066884 ], [ 101.335952, 3.063759 ], [ 101.337981, 3.054562 ], [ 101.337801, 3.050246 ] ] ] ] } },
{ "type": "Feature", "properties": { "state": "Selangor", "parlimen": "P.080 Shah Alam", "code_parlimen": "P.080", "dun": "N.22 Bukit Raja", "code_dun": "N.22" }, "geometry": { "type": "Polygon", "coordinates": [ [ [ 101.597352, 3.058005 ], [ 101.595862, 3.044896 ], [ 101.589308, 3.03119 ], [ 101.583259, 3.024087 ], [ 101.582739, 3.019408 ], [ 101.583259, 3.015769 ], [ 101.583259, 3.011263 ], [ 101.581526, 3.000518 ], [ 101.577703, 2.992419 ], [ 101.573268, 2.984232 ], [ 101.569175, 2.978774 ], [ 101.563546, 2.977921 ], [ 101.558259, 2.981332 ], [ 101.555188, 2.983891 ], [ 101.5513, 2.98767 ], [ 101.546063, 2.995233 ], [ 101.546799, 3.004351 ], [ 101.544197, 3.008381 ], [ 101.5448, 3.011831 ], [ 101.543846, 3.017577 ], [ 101.549475, 3.018088 ], [ 101.552545, 3.018429 ], [ 101.552597, 3.021059 ], [ 101.554591, 3.024229 ], [ 101.548963, 3.028663 ], [ 101.545998, 3.0291 ], [ 101.544899, 3.03117 ], [ 101.543846, 3.034462 ], [ 101.542482, 3.038556 ], [ 101.539101, 3.04033 ], [ 101.532418, 3.04282 ], [ 101.527301, 3.044014 ], [ 101.523037, 3.049642 ], [ 101.520055, 3.050024 ], [ 101.522828, 3.044017 ], [ 101.520286, 3.038933 ], [ 101.517051, 3.037778 ], [ 101.513816, 3.040319 ], [ 101.50827, 3.046096 ], [ 101.4995, 3.045549 ], [ 101.493189, 3.046572 ], [ 101.490289, 3.050154 ], [ 101.482622, 3.051642 ], [ 101.478463, 3.046789 ], [ 101.474072, 3.047251 ], [ 101.466447, 3.050486 ], [ 101.465217, 3.048278 ], [ 101.462658, 3.041797 ], [ 101.458231, 3.041674 ], [ 101.454023, 3.047432 ], [ 101.45257, 3.049421 ], [ 101.455549, 3.059551 ], [ 101.454358, 3.080407 ], [ 101.446575, 3.079832 ], [ 101.443199, 3.092 ], [ 101.441002, 3.105921 ], [ 101.440912, 3.115693 ], [ 101.446199, 3.116375 ], [ 101.449997, 3.11756 ], [ 101.451996, 3.121371 ], [ 101.454697, 3.12471 ], [ 101.452339, 3.13309 ], [ 101.452339, 3.141618 ], [ 101.452851, 3.147417 ], [ 101.456603, 3.150829 ], [ 101.46479, 3.155604 ], [ 101.469907, 3.16021 ], [ 101.475365, 3.162939 ], [ 101.480141, 3.167203 ], [ 101.485164, 3.170642 ], [ 101.494298, 3.170443 ], [ 101.497416, 3.170966 ], [ 101.502314, 3.171509 ], [ 101.503337, 3.178332 ], [ 101.514083, 3.177479 ], [ 101.517153, 3.172533 ], [ 101.515355, 3.162434 ], [ 101.522289, 3.166513 ], [ 101.534802, 3.17128 ], [ 101.541953, 3.184985 ], [ 101.556254, 3.182006 ], [ 101.57711, 3.182006 ], [ 101.619271, 3.180856 ], [ 101.61984, 3.180789 ], [ 101.620032, 3.174774 ], [ 101.618165, 3.172163 ], [ 101.614803, 3.153141 ], [ 101.629745, 3.137103 ], [ 101.62825, 3.130762 ], [ 101.620685, 3.130205 ], [ 101.615832, 3.122811 ], [ 101.607052, 3.115648 ], [ 101.598964, 3.11195 ], [ 101.593188, 3.108484 ], [ 101.600813, 3.106867 ], [ 101.6089, 3.105943 ], [ 101.615832, 3.100859 ], [ 101.613984, 3.082605 ], [ 101.611653, 3.068731 ], [ 101.597352, 3.058005 ] ] ] } },
{ "type": "Feature", "properties": { "state": "Selangor", "parlimen": "P.080 Shah Alam", "code_parlimen": "P.080", "dun": "N.23 Bandar Kelang", "code_dun": "N.23" }, "geometry": { "type": "Polygon", "coordinates": [ [ [ 101.434866, 3.044457 ], [ 101.432916, 3.050306 ], [ 101.434378, 3.056154 ], [ 101.434444, 3.056273 ], [ 101.439252, 3.064927 ], [ 101.428956, 3.070532 ], [ 101.446575, 3.079832 ], [ 101.454358, 3.080407 ], [ 101.455549, 3.059551 ], [ 101.45257, 3.049421 ], [ 101.454023, 3.047432 ], [ 101.458231, 3.041674 ], [ 101.455847, 3.033332 ], [ 101.443632, 3.029756 ], [ 101.435198, 3.035678 ], [ 101.428328, 3.032232 ], [ 101.417904, 3.021455 ], [ 101.416346, 3.023013 ], [ 101.434866, 3.044457 ] ] ] } },
{ "type": "Feature", "properties": { "state": "Selangor", "parlimen": "P.080 Shah Alam", "code_parlimen": "P.080", "dun": "N.24 Kampong Jawa", "code_dun": "N.24" }, "geometry": { "type": "Polygon", "coordinates": [ [ [ 101.428328, 3.032232 ], [ 101.435198, 3.035678 ], [ 101.443632, 3.029756 ], [ 101.455847, 3.033332 ], [ 101.458231, 3.041674 ], [ 101.462658, 3.041797 ], [ 101.465217, 3.048278 ], [ 101.466447, 3.050486 ], [ 101.474072, 3.047251 ], [ 101.478463, 3.046789 ], [ 101.482622, 3.051642 ], [ 101.490289, 3.050154 ], [ 101.493189, 3.046572 ], [ 101.4995, 3.045549 ], [ 101.50827, 3.046096 ], [ 101.513816, 3.040319 ], [ 101.517051, 3.037778 ], [ 101.520286, 3.038933 ], [ 101.522828, 3.044017 ], [ 101.520055, 3.050024 ], [ 101.523037, 3.049642 ], [ 101.527301, 3.044014 ], [ 101.532418, 3.04282 ], [ 101.539101, 3.04033 ], [ 101.542482, 3.038556 ], [ 101.543846, 3.034462 ], [ 101.544899, 3.03117 ], [ 101.545998, 3.0291 ], [ 101.548963, 3.028663 ], [ 101.554591, 3.024229 ], [ 101.552597, 3.021059 ], [ 101.552545, 3.018429 ], [ 101.549475, 3.018088 ], [ 101.543846, 3.017577 ], [ 101.5448, 3.011831 ], [ 101.544197, 3.008381 ], [ 101.546799, 3.004351 ], [ 101.546063, 2.995233 ], [ 101.5513, 2.98767 ], [ 101.555188, 2.983891 ], [ 101.558259, 2.981332 ], [ 101.563546, 2.977921 ], [ 101.557297, 2.97686 ], [ 101.560988, 2.969734 ], [ 101.547343, 2.961888 ], [ 101.542226, 2.967175 ], [ 101.530798, 2.961888 ], [ 101.518347, 2.957624 ], [ 101.509989, 2.957624 ], [ 101.48884, 2.957624 ], [ 101.469566, 2.956089 ], [ 101.466057, 2.956244 ], [ 101.45436, 2.983536 ], [ 101.424144, 2.984024 ], [ 101.420245, 2.987923 ], [ 101.41732, 3.007417 ], [ 101.424631, 3.014728 ], [ 101.417904, 3.021455 ], [ 101.428328, 3.032232 ] ] ] } },
{ "type": "Feature", "properties": { "state": "Selangor", "parlimen": "P.081 Petaling", "code_parlimen": "P.081", "dun": "N.25 Petaling Jaya", "code_dun": "N.25" }, "geometry": { "type": "Polygon", "coordinates": [ [ [ 101.660749, 3.101482 ], [ 101.66049, 3.10006 ], [ 101.658881, 3.091224 ], [ 101.662119, 3.088379 ], [ 101.652324, 3.086399 ], [ 101.637655, 3.087422 ], [ 101.613984, 3.082605 ], [ 101.615832, 3.100859 ], [ 101.6089, 3.105943 ], [ 101.600813, 3.106867 ], [ 101.593188, 3.108484 ], [ 101.598964, 3.11195 ], [ 101.607052, 3.115648 ], [ 101.615832, 3.122811 ], [ 101.620685, 3.130205 ], [ 101.62825, 3.130762 ], [ 101.635908, 3.132254 ], [ 101.646135, 3.128349 ], [ 101.648609, 3.127405 ], [ 101.642819, 3.119386 ], [ 101.648795, 3.117894 ], [ 101.652344, 3.110061 ], [ 101.654883, 3.111367 ], [ 101.658508, 3.113231 ], [ 101.660749, 3.101482 ] ] ] } },
{ "type": "Feature", "properties": { "state": "Selangor", "parlimen": "P.081 Petaling", "code_parlimen": "P.081", "dun": "N.26 Sungai Way", "code_dun": "N.26" }, "geometry": { "type": "Polygon", "coordinates": [ [ [ 101.634297, 3.062474 ], [ 101.62655, 3.05443 ], [ 101.6194, 3.063368 ], [ 101.611653, 3.068731 ], [ 101.613984, 3.082605 ], [ 101.637655, 3.087422 ], [ 101.652324, 3.086399 ], [ 101.662119, 3.088379 ], [ 101.663037, 3.087573 ], [ 101.66355, 3.087121 ], [ 101.659441, 3.080594 ], [ 101.655673, 3.077824 ], [ 101.645994, 3.070709 ], [ 101.651971, 3.069031 ], [ 101.648795, 3.057654 ], [ 101.643533, 3.061878 ], [ 101.634297, 3.062474 ] ] ] } },
{ "type": "Feature", "properties": { "state": "Selangor", "parlimen": "P.081 Petaling", "code_parlimen": "P.081", "dun": "N.27 Serdang", "code_dun": "N.27" }, "geometry": { "type": "Polygon", "coordinates": [ [ [ 101.62655, 3.05443 ], [ 101.634297, 3.062474 ], [ 101.643533, 3.061878 ], [ 101.648795, 3.057654 ], [ 101.659441, 3.058586 ], [ 101.658694, 3.049447 ], [ 101.653465, 3.05094 ], [ 101.651037, 3.04609 ], [ 101.668967, 3.045531 ], [ 101.66934, 3.040495 ], [ 101.685029, 3.044412 ], [ 101.699411, 3.045344 ], [ 101.699224, 3.047582 ], [ 101.705948, 3.048515 ], [ 101.707816, 3.045344 ], [ 101.711364, 3.053551 ], [ 101.714913, 3.053551 ], [ 101.71622, 3.047209 ], [ 101.720329, 3.047209 ], [ 101.72089, 3.040868 ], [ 101.723691, 3.040495 ], [ 101.723878, 3.036765 ], [ 101.721637, 3.036019 ], [ 101.722757, 3.033035 ], [ 101.730508, 3.037604 ], [ 101.731109, 3.03755 ], [ 101.72993, 3.030731 ], [ 101.726519, 3.02135 ], [ 101.721913, 3.011458 ], [ 101.719014, 3.004635 ], [ 101.716455, 2.999007 ], [ 101.718161, 2.988432 ], [ 101.718102, 2.98187 ], [ 101.7146, 2.9806 ], [ 101.709396, 2.981049 ], [ 101.594077, 2.983379 ], [ 101.586401, 2.98372 ], [ 101.573268, 2.984232 ], [ 101.577703, 2.992419 ], [ 101.581526, 3.000518 ], [ 101.583259, 3.011263 ], [ 101.583259, 3.015769 ], [ 101.582739, 3.019408 ], [ 101.583259, 3.024087 ], [ 101.589308, 3.03119 ], [ 101.595862, 3.044896 ], [ 101.597352, 3.058005 ], [ 101.611653, 3.068731 ], [ 101.6194, 3.063368 ], [ 101.62655, 3.05443 ] ] ] } },
{ "type": "Feature", "properties": { "state": "Selangor", "parlimen": "P.082 Kuala Langat", "code_parlimen": "P.082", "dun": "N.28 Panglima Garang", "code_dun": "N.28" }, "geometry": { "type": "Polygon", "coordinates": [ [ [ 101.486384, 2.865084 ], [ 101.484218, 2.866383 ], [ 101.481012, 2.871062 ], [ 101.483611, 2.876348 ], [ 101.488724, 2.880767 ], [ 101.48933, 2.88458 ], [ 101.488377, 2.887266 ], [ 101.484738, 2.88614 ], [ 101.481532, 2.88224 ], [ 101.475553, 2.88328 ], [ 101.474166, 2.8864 ], [ 101.474166, 2.892032 ], [ 101.47044, 2.891772 ], [ 101.467234, 2.889606 ], [ 101.460389, 2.883627 ], [ 101.45649, 2.877561 ], [ 101.449644, 2.869503 ], [ 101.445138, 2.867336 ], [ 101.44103, 2.867308 ], [ 101.442878, 2.872738 ], [ 101.444496, 2.876781 ], [ 101.447615, 2.880016 ], [ 101.450157, 2.884407 ], [ 101.451659, 2.888797 ], [ 101.452009, 2.889106 ], [ 101.449852, 2.894713 ], [ 101.446441, 2.897638 ], [ 101.445882, 2.897809 ], [ 101.439297, 2.899657 ], [ 101.436177, 2.899888 ], [ 101.433751, 2.903239 ], [ 101.429707, 2.906589 ], [ 101.426935, 2.90682 ], [ 101.424971, 2.90578 ], [ 101.424046, 2.902892 ], [ 101.426704, 2.899542 ], [ 101.429014, 2.89804 ], [ 101.430054, 2.896307 ], [ 101.429361, 2.892494 ], [ 101.426357, 2.888566 ], [ 101.426241, 2.886024 ], [ 101.426588, 2.881287 ], [ 101.426588, 2.878399 ], [ 101.425779, 2.875857 ], [ 101.424508, 2.874933 ], [ 101.423122, 2.874586 ], [ 101.420234, 2.876435 ], [ 101.418963, 2.880825 ], [ 101.419656, 2.884176 ], [ 101.417692, 2.886833 ], [ 101.413071, 2.890645 ], [ 101.4118, 2.894689 ], [ 101.413648, 2.898848 ], [ 101.41723, 2.904163 ], [ 101.42058, 2.910517 ], [ 101.426819, 2.916063 ], [ 101.426704, 2.926114 ], [ 101.424508, 2.930158 ], [ 101.416074, 2.932353 ], [ 101.409489, 2.933971 ], [ 101.406947, 2.938823 ], [ 101.409027, 2.940903 ], [ 101.414226, 2.943098 ], [ 101.419887, 2.94691 ], [ 101.432213, 2.950972 ], [ 101.44944, 2.953701 ], [ 101.466057, 2.956244 ], [ 101.469566, 2.956089 ], [ 101.48884, 2.957624 ], [ 101.509989, 2.957624 ], [ 101.518347, 2.957624 ], [ 101.521451, 2.949297 ], [ 101.522121, 2.947766 ], [ 101.510799, 2.921547 ], [ 101.506032, 2.909331 ], [ 101.505436, 2.888475 ], [ 101.494785, 2.881921 ], [ 101.488072, 2.872108 ], [ 101.486384, 2.865084 ] ] ] } },
{ "type": "Feature", "properties": { "state": "Selangor", "parlimen": "P.082 Kuala Langat", "code_parlimen": "P.082", "dun": "N.29 Banting", "code_dun": "N.29" }, "geometry": { "type": "Polygon", "coordinates": [ [ [ 101.494785, 2.881921 ], [ 101.505436, 2.888475 ], [ 101.506032, 2.909331 ], [ 101.510799, 2.921547 ], [ 101.522121, 2.947766 ], [ 101.521451, 2.949297 ], [ 101.518347, 2.957624 ], [ 101.530798, 2.961888 ], [ 101.542226, 2.967175 ], [ 101.547343, 2.961888 ], [ 101.560988, 2.969734 ], [ 101.557297, 2.97686 ], [ 101.563546, 2.977921 ], [ 101.569175, 2.978774 ], [ 101.574898, 2.971251 ], [ 101.579597, 2.95981 ], [ 101.582596, 2.95359 ], [ 101.631686, 2.866309 ], [ 101.663086, 2.823058 ], [ 101.648991, 2.810812 ], [ 101.637437, 2.794637 ], [ 101.627732, 2.780773 ], [ 101.597, 2.770144 ], [ 101.595152, 2.762056 ], [ 101.53294, 2.763066 ], [ 101.531953, 2.783301 ], [ 101.493221, 2.801178 ], [ 101.496573, 2.815181 ], [ 101.506703, 2.826801 ], [ 101.502531, 2.838719 ], [ 101.50998, 2.856893 ], [ 101.510497, 2.859824 ], [ 101.510299, 2.859885 ], [ 101.502674, 2.858498 ], [ 101.494616, 2.856852 ], [ 101.48855, 2.858325 ], [ 101.487597, 2.861011 ], [ 101.486384, 2.865084 ], [ 101.488072, 2.872108 ], [ 101.494785, 2.881921 ] ] ] } },
{ "type": "Feature", "properties": { "state": "Selangor", "parlimen": "P.082 Kuala Langat", "code_parlimen": "P.082", "dun": "N.30 Morib", "code_dun": "N.30" }, "geometry": { "type": "Polygon", "coordinates": [ [ [ 101.502531, 2.838719 ], [ 101.506703, 2.826801 ], [ 101.496573, 2.815181 ], [ 101.493221, 2.801178 ], [ 101.482793, 2.794027 ], [ 101.475344, 2.796411 ], [ 101.474152, 2.781514 ], [ 101.482197, 2.774363 ], [ 101.471769, 2.758572 ], [ 101.465214, 2.762743 ], [ 101.448911, 2.737528 ], [ 101.437678, 2.757787 ], [ 101.424939, 2.77491 ], [ 101.40874, 2.787791 ], [ 101.404179, 2.8035 ], [ 101.410875, 2.80284 ], [ 101.413417, 2.808848 ], [ 101.41515, 2.822712 ], [ 101.413533, 2.828026 ], [ 101.411915, 2.835074 ], [ 101.413186, 2.839002 ], [ 101.414341, 2.843508 ], [ 101.41515, 2.846165 ], [ 101.418847, 2.846858 ], [ 101.421389, 2.847205 ], [ 101.423584, 2.850671 ], [ 101.422544, 2.856216 ], [ 101.42266, 2.859798 ], [ 101.424508, 2.863726 ], [ 101.427743, 2.866037 ], [ 101.430285, 2.865112 ], [ 101.433404, 2.865228 ], [ 101.439181, 2.866383 ], [ 101.44103, 2.867308 ], [ 101.445138, 2.867336 ], [ 101.449644, 2.869503 ], [ 101.45649, 2.877561 ], [ 101.460389, 2.883627 ], [ 101.467234, 2.889606 ], [ 101.47044, 2.891772 ], [ 101.474166, 2.892032 ], [ 101.474166, 2.8864 ], [ 101.475553, 2.88328 ], [ 101.481532, 2.88224 ], [ 101.484738, 2.88614 ], [ 101.488377, 2.887266 ], [ 101.48933, 2.88458 ], [ 101.488724, 2.880767 ], [ 101.483611, 2.876348 ], [ 101.481012, 2.871062 ], [ 101.484218, 2.866383 ], [ 101.486384, 2.865084 ], [ 101.487597, 2.861011 ], [ 101.48855, 2.858325 ], [ 101.494616, 2.856852 ], [ 101.502674, 2.858498 ], [ 101.510299, 2.859885 ], [ 101.510497, 2.859824 ], [ 101.50998, 2.856893 ], [ 101.502531, 2.838719 ] ] ] } },
{ "type": "Feature", "properties": { "state": "Selangor", "parlimen": "P.083 Sepang", "code_parlimen": "P.083", "dun": "N.31 Dengkil", "code_dun": "N.31" }, "geometry": { "type": "Polygon", "coordinates": [ [ [ 101.697545, 2.805363 ], [ 101.671857, 2.822688 ], [ 101.663086, 2.823058 ], [ 101.631686, 2.866309 ], [ 101.582596, 2.95359 ], [ 101.579597, 2.95981 ], [ 101.574898, 2.971251 ], [ 101.569175, 2.978774 ], [ 101.573268, 2.984232 ], [ 101.586401, 2.98372 ], [ 101.594077, 2.983379 ], [ 101.709396, 2.981049 ], [ 101.7146, 2.9806 ], [ 101.718102, 2.98187 ], [ 101.718161, 2.988432 ], [ 101.716455, 2.999007 ], [ 101.719014, 3.004635 ], [ 101.721913, 3.011458 ], [ 101.728996, 3.005251 ], [ 101.737489, 3.001154 ], [ 101.748581, 2.991911 ], [ 101.758517, 2.990755 ], [ 101.762934, 2.988453 ], [ 101.771462, 2.985042 ], [ 101.778625, 2.98743 ], [ 101.783703, 2.99168 ], [ 101.789711, 2.985903 ], [ 101.789711, 2.980126 ], [ 101.790635, 2.97227 ], [ 101.791328, 2.957944 ], [ 101.786528, 2.941696 ], [ 101.78532, 2.93761 ], [ 101.758748, 2.915427 ], [ 101.757638, 2.914295 ], [ 101.761084, 2.908934 ], [ 101.766339, 2.906745 ], [ 101.769952, 2.900286 ], [ 101.777067, 2.900614 ], [ 101.784128, 2.898917 ], [ 101.788343, 2.892787 ], [ 101.791846, 2.887478 ], [ 101.787139, 2.880417 ], [ 101.794035, 2.869634 ], [ 101.794091, 2.869526 ], [ 101.789819, 2.869666 ], [ 101.750867, 2.870945 ], [ 101.753979, 2.818368 ], [ 101.754386, 2.811492 ], [ 101.743544, 2.807155 ], [ 101.697545, 2.805363 ] ] ] } },
{ "type": "Feature", "properties": { "state": "Selangor", "parlimen": "P.083 Sepang", "code_parlimen": "P.083", "dun": "N.32 Sungai Pelek", "code_dun": "N.32" }, "geometry": { "type": "Polygon", "coordinates": [ [ [ 101.697545, 2.805363 ], [ 101.743544, 2.807155 ], [ 101.754386, 2.811492 ], [ 101.755162, 2.798379 ], [ 101.758734, 2.742817 ], [ 101.760019, 2.722824 ], [ 101.760114, 2.718337 ], [ 101.760485, 2.700903 ], [ 101.754322, 2.698291 ], [ 101.750213, 2.688403 ], [ 101.751894, 2.685977 ], [ 101.75152, 2.682433 ], [ 101.74573, 2.682433 ], [ 101.73882, 2.67385 ], [ 101.739754, 2.668067 ], [ 101.744049, 2.665268 ], [ 101.746851, 2.655753 ], [ 101.740501, 2.651648 ], [ 101.731349, 2.647917 ], [ 101.724252, 2.635976 ], [ 101.730042, 2.623849 ], [ 101.728361, 2.616572 ], [ 101.725372, 2.620304 ], [ 101.72145, 2.621423 ], [ 101.702399, 2.608549 ], [ 101.702399, 2.604072 ], [ 101.710057, 2.600713 ], [ 101.7151, 2.594183 ], [ 101.713354, 2.584392 ], [ 101.69684, 2.589891 ], [ 101.692908, 2.589734 ], [ 101.689133, 2.58722 ], [ 101.678596, 2.598061 ], [ 101.680483, 2.601517 ], [ 101.660509, 2.616914 ], [ 101.639591, 2.622884 ], [ 101.612697, 2.626027 ], [ 101.598118, 2.633005 ], [ 101.597781, 2.648847 ], [ 101.59487, 2.729996 ], [ 101.593484, 2.749752 ], [ 101.595152, 2.762056 ], [ 101.597, 2.770144 ], [ 101.627732, 2.780773 ], [ 101.637437, 2.794637 ], [ 101.648991, 2.810812 ], [ 101.663086, 2.823058 ], [ 101.671857, 2.822688 ], [ 101.697545, 2.805363 ] ] ] } },
{ "type": "Feature", "properties": { "state": "Selangor", "parlimen": "P.083 Sepang", "code_parlimen": "P.083", "dun": "N.33 Batu Laut", "code_dun": "N.33" }, "geometry": { "type": "Polygon", "coordinates": [ [ [ 101.471769, 2.758572 ], [ 101.482197, 2.774363 ], [ 101.474152, 2.781514 ], [ 101.475344, 2.796411 ], [ 101.482793, 2.794027 ], [ 101.493221, 2.801178 ], [ 101.531953, 2.783301 ], [ 101.53294, 2.763066 ], [ 101.595152, 2.762056 ], [ 101.593484, 2.749752 ], [ 101.59487, 2.729996 ], [ 101.597781, 2.648847 ], [ 101.598118, 2.633005 ], [ 101.590049, 2.636867 ], [ 101.590049, 2.641581 ], [ 101.580927, 2.649122 ], [ 101.565672, 2.653207 ], [ 101.538148, 2.662162 ], [ 101.475545, 2.691024 ], [ 101.474766, 2.691383 ], [ 101.461712, 2.705994 ], [ 101.454163, 2.725631 ], [ 101.448029, 2.731758 ], [ 101.449002, 2.737364 ], [ 101.448911, 2.737528 ], [ 101.465214, 2.762743 ], [ 101.471769, 2.758572 ] ] ] } }
]
}
