{
"type": "FeatureCollection",
"name": "SGR_SE-08",
"crs": { "type": "name", "properties": { "name": "urn:ogc:def:crs:OGC:1.3:CRS84" } },
"features": [
{ "type": "Feature", "properties": { "state": "Selangor", "parlimen": "P.082 Sabak Bernam", "code_parlimen": "P.082", "dun": "N.01 Sungai Air Tawar", "code_dun": "N.01" }, "geometry": { "type": "Polygon", "coordinates": [ [ [ 100.91597, 3.841502 ], [ 100.928838, 3.791375 ], [ 100.906393, 3.784642 ], [ 100.91582, 3.778357 ], [ 100.917017, 3.773719 ], [ 100.908189, 3.758307 ], [ 100.932878, 3.746935 ], [ 100.945672, 3.739902 ], [ 100.934, 3.723293 ], [ 100.921892, 3.712478 ], [ 100.895822, 3.746512 ], [ 100.867432, 3.768503 ], [ 100.848568, 3.775213 ], [ 100.821673, 3.775585 ], [ 100.811587, 3.787326 ], [ 100.807291, 3.802608 ], [ 100.817993, 3.849781 ], [ 100.854342, 3.855167 ], [ 100.879894, 3.853013 ], [ 100.91623, 3.865098 ], [ 100.91597, 3.841502 ] ] ] } },
{ "type": "Feature", "properties": { "state": "Selangor", "parlimen": "P.082 Sabak Bernam", "code_parlimen": "P.082", "dun": "N.02 Sabak", "code_dun": "N.02" }, "geometry": { "type": "Polygon", "coordinates": [ [ [ 101.056458, 3.741902 ], [ 101.055546, 3.746401 ], [ 101.027804, 3.746345 ], [ 101.028059, 3.735344 ], [ 101.00727, 3.734252 ], [ 101.007375, 3.729314 ], [ 100.983289, 3.735336 ], [ 100.960005, 3.73253 ], [ 100.945672, 3.739902 ], [ 100.932878, 3.746935 ], [ 100.908189, 3.758307 ], [ 100.917017, 3.773719 ], [ 100.91582, 3.778357 ], [ 100.906393, 3.784642 ], [ 100.928838, 3.791375 ], [ 100.91597, 3.841502 ], [ 100.91623, 3.865098 ], [ 100.931718, 3.870248 ], [ 100.946114, 3.86953 ], [ 100.938196, 3.841881 ], [ 100.941435, 3.83075 ], [ 100.964108, 3.828954 ], [ 100.978504, 3.816745 ], [ 100.976345, 3.806332 ], [ 100.95943, 3.796995 ], [ 100.95763, 3.781913 ], [ 100.965705, 3.773604 ], [ 100.969147, 3.770062 ], [ 100.977784, 3.768985 ], [ 100.984622, 3.774371 ], [ 100.985342, 3.793763 ], [ 100.9929, 3.802022 ], [ 101.004416, 3.79915 ], [ 101.02565, 3.807768 ], [ 101.031048, 3.794481 ], [ 101.02493, 3.784067 ], [ 101.032847, 3.784067 ], [ 101.033645, 3.784142 ], [ 101.044364, 3.785145 ], [ 101.054801, 3.796277 ], [ 101.059344, 3.795387 ], [ 101.062538, 3.791609 ], [ 101.055521, 3.784786 ], [ 101.053361, 3.777963 ], [ 101.05768, 3.769883 ], [ 101.05642, 3.755698 ], [ 101.059659, 3.752645 ], [ 101.063798, 3.755159 ], [ 101.065238, 3.763239 ], [ 101.077654, 3.767369 ], [ 101.081973, 3.775449 ], [ 101.088451, 3.782272 ], [ 101.092049, 3.779758 ], [ 101.087011, 3.767548 ], [ 101.092409, 3.762341 ], [ 101.101946, 3.75049 ], [ 101.097808, 3.749054 ], [ 101.092949, 3.756775 ], [ 101.072615, 3.759289 ], [ 101.079093, 3.745104 ], [ 101.072615, 3.736125 ], [ 101.074415, 3.727866 ], [ 101.059334, 3.727843 ], [ 101.056458, 3.741902 ] ] ] } },
{ "type": "Feature", "properties": { "state": "Selangor", "parlimen": "P.082 Sabak Bernam", "code_parlimen": "P.082", "dun": "N.03 Sungai Besar", "code_dun": "N.03" }, "geometry": { "type": "Polygon", "coordinates": [ [ [ 100.960005, 3.73253 ], [ 100.983289, 3.735336 ], [ 101.007375, 3.729314 ], [ 101.00727, 3.734252 ], [ 101.028059, 3.735344 ], [ 101.027804, 3.746345 ], [ 101.055546, 3.746401 ], [ 101.056458, 3.741902 ], [ 101.059334, 3.727843 ], [ 101.045454, 3.713996 ], [ 101.050926, 3.707916 ], [ 101.023446, 3.6746 ], [ 101.002219, 3.648447 ], [ 100.99201, 3.656861 ], [ 100.981327, 3.663921 ], [ 100.981294, 3.663943 ], [ 100.980858, 3.66423 ], [ 100.98072, 3.664321 ], [ 100.972337, 3.669861 ], [ 100.964367, 3.675128 ], [ 100.936976, 3.686148 ], [ 100.928694, 3.689479 ], [ 100.927299, 3.694815 ], [ 100.92309, 3.710913 ], [ 100.921892, 3.712478 ], [ 100.934, 3.723293 ], [ 100.945672, 3.739902 ], [ 100.960005, 3.73253 ] ] ] } },
{ "type": "Feature", "properties": { "state": "Selangor", "parlimen": "P.083 Tanjong Karang", "code_parlimen": "P.083", "dun": "N.04 Sungai Panjang", "code_dun": "N.04" }, "geometry": { "type": "Polygon", "coordinates": [ [ [ 101.023446, 3.6746 ], [ 101.050926, 3.707916 ], [ 101.045454, 3.713996 ], [ 101.059334, 3.727843 ], [ 101.074415, 3.727866 ], [ 101.081433, 3.729661 ], [ 101.083952, 3.742231 ], [ 101.092049, 3.740614 ], [ 101.097808, 3.744385 ], [ 101.099247, 3.735407 ], [ 101.102846, 3.731816 ], [ 101.107345, 3.733252 ], [ 101.106445, 3.743487 ], [ 101.110404, 3.747258 ], [ 101.118861, 3.735766 ], [ 101.12318, 3.735048 ], [ 101.123, 3.747258 ], [ 101.132897, 3.764675 ], [ 101.134696, 3.751747 ], [ 101.143154, 3.748515 ], [ 101.145133, 3.744744 ], [ 101.132897, 3.736485 ], [ 101.153951, 3.728943 ], [ 101.150352, 3.741692 ], [ 101.15557, 3.743847 ], [ 101.163668, 3.723197 ], [ 101.165647, 3.749593 ], [ 101.170686, 3.727866 ], [ 101.191559, 3.731098 ], [ 101.175004, 3.715475 ], [ 101.169966, 3.720503 ], [ 101.169606, 3.715296 ], [ 101.175544, 3.70937 ], [ 101.18976, 3.718887 ], [ 101.198037, 3.716553 ], [ 101.197317, 3.726609 ], [ 101.204335, 3.725352 ], [ 101.202176, 3.720683 ], [ 101.208834, 3.714398 ], [ 101.212973, 3.715835 ], [ 101.211713, 3.708652 ], [ 101.216032, 3.706318 ], [ 101.22089, 3.712782 ], [ 101.227368, 3.712782 ], [ 101.244463, 3.719785 ], [ 101.250041, 3.716194 ], [ 101.246802, 3.709011 ], [ 101.244463, 3.70129 ], [ 101.247342, 3.696621 ], [ 101.245903, 3.68836 ], [ 101.250401, 3.673635 ], [ 101.265157, 3.668069 ], [ 101.282072, 3.668069 ], [ 101.282971, 3.673276 ], [ 101.296467, 3.677586 ], [ 101.300606, 3.670762 ], [ 101.310323, 3.677047 ], [ 101.310323, 3.682075 ], [ 101.32094, 3.690695 ], [ 101.337315, 3.689438 ], [ 101.34001, 3.694864 ], [ 101.340713, 3.696616 ], [ 101.344422, 3.693637 ], [ 101.346975, 3.689016 ], [ 101.348845, 3.683605 ], [ 101.348298, 3.6771 ], [ 101.351642, 3.672844 ], [ 101.351459, 3.669743 ], [ 101.348784, 3.665792 ], [ 101.349149, 3.65728 ], [ 101.349064, 3.64077 ], [ 101.352475, 3.5954 ], [ 101.340393, 3.607172 ], [ 101.309429, 3.632127 ], [ 101.294449, 3.632937 ], [ 101.167585, 3.637358 ], [ 101.095608, 3.612456 ], [ 101.112098, 3.569277 ], [ 101.071167, 3.553881 ], [ 101.053645, 3.593486 ], [ 101.050329, 3.597988 ], [ 101.046695, 3.602924 ], [ 101.042148, 3.609099 ], [ 101.036201, 3.617176 ], [ 101.035528, 3.618091 ], [ 101.03527, 3.618376 ], [ 101.027894, 3.62654 ], [ 101.025668, 3.629004 ], [ 101.025255, 3.629461 ], [ 101.019364, 3.634317 ], [ 101.002219, 3.648447 ], [ 101.023446, 3.6746 ] ] ] } },
{ "type": "Feature", "properties": { "state": "Selangor", "parlimen": "P.083 Tanjong Karang", "code_parlimen": "P.083", "dun": "N.05 Sekinchan", "code_dun": "N.05" }, "geometry": { "type": "Polygon", "coordinates": [ [ [ 101.152314, 3.482086 ], [ 101.160693, 3.490764 ], [ 101.151416, 3.499742 ], [ 101.113701, 3.464152 ], [ 101.099964, 3.485178 ], [ 101.087264, 3.505498 ], [ 101.089505, 3.509786 ], [ 101.077494, 3.538536 ], [ 101.071167, 3.553881 ], [ 101.112098, 3.569277 ], [ 101.095608, 3.612456 ], [ 101.167585, 3.637358 ], [ 101.294449, 3.632937 ], [ 101.221943, 3.507535 ], [ 101.218152, 3.505428 ], [ 101.196306, 3.486575 ], [ 101.192116, 3.487772 ], [ 101.158898, 3.457546 ], [ 101.154708, 3.462633 ], [ 101.162489, 3.469516 ], [ 101.152314, 3.482086 ] ] ] } },
{ "type": "Feature", "properties": { "state": "Selangor", "parlimen": "P.083 Tanjong Karang", "code_parlimen": "P.083", "dun": "N.06 Sungai Burong", "code_dun": "N.06" }, "geometry": { "type": "Polygon", "coordinates": [ [ [ 101.186138, 3.461195 ], [ 101.179085, 3.46156 ], [ 101.179328, 3.451225 ], [ 101.184435, 3.439673 ], [ 101.183827, 3.436147 ], [ 101.177991, 3.43408 ], [ 101.176653, 3.432378 ], [ 101.178112, 3.427514 ], [ 101.175437, 3.422772 ], [ 101.177109, 3.420462 ], [ 101.181122, 3.420401 ], [ 101.181517, 3.418151 ], [ 101.178964, 3.41195 ], [ 101.173538, 3.406296 ], [ 101.169464, 3.395839 ], [ 101.17106, 3.391157 ], [ 101.161599, 3.397553 ], [ 101.144229, 3.429248 ], [ 101.122377, 3.450875 ], [ 101.113701, 3.464152 ], [ 101.151416, 3.499742 ], [ 101.160693, 3.490764 ], [ 101.152314, 3.482086 ], [ 101.162489, 3.469516 ], [ 101.154708, 3.462633 ], [ 101.158898, 3.457546 ], [ 101.192116, 3.487772 ], [ 101.196306, 3.486575 ], [ 101.218152, 3.505428 ], [ 101.221943, 3.507535 ], [ 101.198875, 3.479754 ], [ 101.197902, 3.473431 ], [ 101.194254, 3.472336 ], [ 101.188525, 3.464728 ], [ 101.186138, 3.461195 ] ] ] } },
{ "type": "Feature", "properties": { "state": "Selangor", "parlimen": "P.084 Hulu Selangor", "code_parlimen": "P.084", "dun": "N.07 Kalumpang", "code_dun": "N.07" }, "geometry": { "type": "Polygon", "coordinates": [ [ [ 101.659912, 3.681979 ], [ 101.645609, 3.672191 ], [ 101.642083, 3.667266 ], [ 101.639408, 3.667144 ], [ 101.635882, 3.662767 ], [ 101.630688, 3.654163 ], [ 101.618372, 3.649878 ], [ 101.619284, 3.641792 ], [ 101.623479, 3.634679 ], [ 101.621716, 3.631335 ], [ 101.61442, 3.630302 ], [ 101.612901, 3.624465 ], [ 101.609921, 3.618933 ], [ 101.607003, 3.617656 ], [ 101.606942, 3.61416 ], [ 101.603659, 3.61565 ], [ 101.598966, 3.621842 ], [ 101.580711, 3.602689 ], [ 101.544799, 3.575157 ], [ 101.540011, 3.572763 ], [ 101.528938, 3.585332 ], [ 101.524748, 3.584733 ], [ 101.517566, 3.577252 ], [ 101.510982, 3.5982 ], [ 101.500209, 3.611966 ], [ 101.471629, 3.578748 ], [ 101.411818, 3.548023 ], [ 101.406374, 3.543752 ], [ 101.400173, 3.549785 ], [ 101.352475, 3.5954 ], [ 101.349064, 3.64077 ], [ 101.349149, 3.65728 ], [ 101.348784, 3.665792 ], [ 101.351459, 3.669743 ], [ 101.351642, 3.672844 ], [ 101.348298, 3.6771 ], [ 101.348845, 3.683605 ], [ 101.346975, 3.689016 ], [ 101.344422, 3.693637 ], [ 101.340713, 3.696616 ], [ 101.347392, 3.709729 ], [ 101.341094, 3.721222 ], [ 101.337315, 3.747438 ], [ 101.326158, 3.755338 ], [ 101.329397, 3.768805 ], [ 101.326698, 3.784965 ], [ 101.337135, 3.793943 ], [ 101.348831, 3.794661 ], [ 101.354769, 3.802202 ], [ 101.373124, 3.801663 ], [ 101.380502, 3.793045 ], [ 101.38572, 3.78317 ], [ 101.3859, 3.779938 ], [ 101.387699, 3.771319 ], [ 101.391118, 3.772755 ], [ 101.398676, 3.769883 ], [ 101.405694, 3.760905 ], [ 101.41865, 3.758391 ], [ 101.420989, 3.751568 ], [ 101.436285, 3.752106 ], [ 101.440064, 3.751029 ], [ 101.45176, 3.735766 ], [ 101.456259, 3.722479 ], [ 101.461837, 3.714578 ], [ 101.469035, 3.716732 ], [ 101.474793, 3.7135 ], [ 101.478752, 3.702008 ], [ 101.495667, 3.699314 ], [ 101.499985, 3.695364 ], [ 101.511862, 3.687283 ], [ 101.51744, 3.679741 ], [ 101.535794, 3.678304 ], [ 101.547851, 3.700033 ], [ 101.570164, 3.710986 ], [ 101.570344, 3.717451 ], [ 101.578801, 3.720862 ], [ 101.58168, 3.725352 ], [ 101.5815, 3.739717 ], [ 101.590858, 3.743487 ], [ 101.596256, 3.752645 ], [ 101.606513, 3.774012 ], [ 101.626487, 3.771858 ], [ 101.623027, 3.76371 ], [ 101.631992, 3.760355 ], [ 101.640583, 3.751596 ], [ 101.646382, 3.741614 ], [ 101.655525, 3.725876 ], [ 101.65827, 3.725266 ], [ 101.659121, 3.713958 ], [ 101.663377, 3.692132 ], [ 101.659912, 3.681979 ] ] ] } },
{ "type": "Feature", "properties": { "state": "Selangor", "parlimen": "P.084 Hulu Selangor", "code_parlimen": "P.084", "dun": "N.08 Kuala Kubu Baharu", "code_dun": "N.08" }, "geometry": { "type": "Polygon", "coordinates": [ [ [ 101.512844, 3.475057 ], [ 101.51479, 3.477307 ], [ 101.515276, 3.479799 ], [ 101.516918, 3.483325 ], [ 101.515945, 3.488432 ], [ 101.516006, 3.495363 ], [ 101.483951, 3.494938 ], [ 101.483525, 3.488493 ], [ 101.47015, 3.48746 ], [ 101.468934, 3.489527 ], [ 101.469238, 3.500227 ], [ 101.451971, 3.500166 ], [ 101.406374, 3.543752 ], [ 101.411818, 3.548023 ], [ 101.471629, 3.578748 ], [ 101.500209, 3.611966 ], [ 101.510982, 3.5982 ], [ 101.517566, 3.577252 ], [ 101.524748, 3.584733 ], [ 101.528938, 3.585332 ], [ 101.540011, 3.572763 ], [ 101.544799, 3.575157 ], [ 101.580711, 3.602689 ], [ 101.598966, 3.621842 ], [ 101.603659, 3.61565 ], [ 101.606942, 3.61416 ], [ 101.607003, 3.617656 ], [ 101.609921, 3.618933 ], [ 101.612901, 3.624465 ], [ 101.61442, 3.630302 ], [ 101.621716, 3.631335 ], [ 101.623479, 3.634679 ], [ 101.619284, 3.641792 ], [ 101.618372, 3.649878 ], [ 101.630688, 3.654163 ], [ 101.635882, 3.662767 ], [ 101.639408, 3.667144 ], [ 101.642083, 3.667266 ], [ 101.645609, 3.672191 ], [ 101.659912, 3.681979 ], [ 101.663377, 3.692132 ], [ 101.659121, 3.713958 ], [ 101.65827, 3.725266 ], [ 101.67607, 3.720471 ], [ 101.682607, 3.712643 ], [ 101.691759, 3.705934 ], [ 101.697922, 3.709661 ], [ 101.704833, 3.70817 ], [ 101.715045, 3.707331 ], [ 101.720709, 3.706866 ], [ 101.730794, 3.713016 ], [ 101.735837, 3.710407 ], [ 101.729861, 3.702206 ], [ 101.729674, 3.695496 ], [ 101.734343, 3.700715 ], [ 101.736958, 3.694005 ], [ 101.743308, 3.690091 ], [ 101.748725, 3.690464 ], [ 101.766094, 3.678162 ], [ 101.76927, 3.670893 ], [ 101.766842, 3.664742 ], [ 101.776741, 3.653559 ], [ 101.783838, 3.648899 ], [ 101.781783, 3.637529 ], [ 101.784959, 3.628582 ], [ 101.794671, 3.627836 ], [ 101.796725, 3.615534 ], [ 101.807558, 3.609942 ], [ 101.806437, 3.603604 ], [ 101.815029, 3.603604 ], [ 101.815402, 3.594657 ], [ 101.809799, 3.587946 ], [ 101.80569, 3.552155 ], [ 101.786639, 3.546936 ], [ 101.764162, 3.514422 ], [ 101.760865, 3.509652 ], [ 101.761612, 3.495857 ], [ 101.767134, 3.481209 ], [ 101.748748, 3.477297 ], [ 101.711041, 3.48029 ], [ 101.688895, 3.488071 ], [ 101.687099, 3.494655 ], [ 101.669144, 3.495852 ], [ 101.635027, 3.506625 ], [ 101.635046, 3.491381 ], [ 101.635775, 3.486031 ], [ 101.632128, 3.480194 ], [ 101.627264, 3.479465 ], [ 101.621427, 3.483721 ], [ 101.617749, 3.482748 ], [ 101.611061, 3.467549 ], [ 101.597808, 3.464509 ], [ 101.594403, 3.45928 ], [ 101.58881, 3.460131 ], [ 101.583824, 3.456119 ], [ 101.579963, 3.458743 ], [ 101.576468, 3.458429 ], [ 101.572699, 3.452349 ], [ 101.571969, 3.456484 ], [ 101.568078, 3.458794 ], [ 101.56516, 3.457213 ], [ 101.561512, 3.456362 ], [ 101.56136, 3.461834 ], [ 101.554308, 3.4684 ], [ 101.554429, 3.472169 ], [ 101.552119, 3.477276 ], [ 101.545188, 3.47837 ], [ 101.54227, 3.480681 ], [ 101.53923, 3.480316 ], [ 101.537041, 3.484693 ], [ 101.532542, 3.486517 ], [ 101.529381, 3.483356 ], [ 101.525227, 3.484432 ], [ 101.519775, 3.479343 ], [ 101.518073, 3.474723 ], [ 101.513574, 3.473385 ], [ 101.512844, 3.475057 ] ] ] } },
{ "type": "Feature", "properties": { "state": "Selangor", "parlimen": "P.084 Hulu Selangor", "code_parlimen": "P.084", "dun": "N.09 Batang Kali", "code_dun": "N.09" }, "geometry": { "type": "Polygon", "coordinates": [ [ [ 101.663134, 3.329753 ], [ 101.658027, 3.328598 ], [ 101.653224, 3.333218 ], [ 101.649379, 3.333887 ], [ 101.641551, 3.326287 ], [ 101.63769, 3.320998 ], [ 101.625531, 3.323734 ], [ 101.611852, 3.322396 ], [ 101.605043, 3.32574 ], [ 101.591318, 3.326835 ], [ 101.590163, 3.332367 ], [ 101.586515, 3.34021 ], [ 101.582928, 3.343189 ], [ 101.574842, 3.336744 ], [ 101.567394, 3.336501 ], [ 101.5663, 3.339298 ], [ 101.555174, 3.343918 ], [ 101.54762, 3.347688 ], [ 101.540568, 3.347384 ], [ 101.536859, 3.349512 ], [ 101.526888, 3.349025 ], [ 101.513027, 3.348539 ], [ 101.50105, 3.349208 ], [ 101.497584, 3.353342 ], [ 101.497159, 3.358084 ], [ 101.492356, 3.366535 ], [ 101.484011, 3.367143 ], [ 101.478494, 3.370487 ], [ 101.478403, 3.378633 ], [ 101.473934, 3.385807 ], [ 101.469922, 3.386719 ], [ 101.469435, 3.391583 ], [ 101.467733, 3.394653 ], [ 101.469253, 3.397572 ], [ 101.471685, 3.395748 ], [ 101.473719, 3.39742 ], [ 101.476974, 3.399335 ], [ 101.47515, 3.405779 ], [ 101.477947, 3.409305 ], [ 101.482689, 3.410096 ], [ 101.485303, 3.415203 ], [ 101.488799, 3.415689 ], [ 101.496703, 3.425416 ], [ 101.499264, 3.432451 ], [ 101.5011, 3.442132 ], [ 101.497888, 3.45928 ], [ 101.501171, 3.461469 ], [ 101.510656, 3.461955 ], [ 101.509683, 3.469494 ], [ 101.513574, 3.473385 ], [ 101.518073, 3.474723 ], [ 101.519775, 3.479343 ], [ 101.525227, 3.484432 ], [ 101.529381, 3.483356 ], [ 101.532542, 3.486517 ], [ 101.537041, 3.484693 ], [ 101.53923, 3.480316 ], [ 101.54227, 3.480681 ], [ 101.545188, 3.47837 ], [ 101.552119, 3.477276 ], [ 101.554429, 3.472169 ], [ 101.554308, 3.4684 ], [ 101.56136, 3.461834 ], [ 101.561512, 3.456362 ], [ 101.56516, 3.457213 ], [ 101.568078, 3.458794 ], [ 101.571969, 3.456484 ], [ 101.572699, 3.452349 ], [ 101.576468, 3.458429 ], [ 101.579963, 3.458743 ], [ 101.583824, 3.456119 ], [ 101.58881, 3.460131 ], [ 101.594403, 3.45928 ], [ 101.597808, 3.464509 ], [ 101.611061, 3.467549 ], [ 101.617749, 3.482748 ], [ 101.621427, 3.483721 ], [ 101.627264, 3.479465 ], [ 101.632128, 3.480194 ], [ 101.635775, 3.486031 ], [ 101.635046, 3.491381 ], [ 101.635027, 3.506625 ], [ 101.669144, 3.495852 ], [ 101.687099, 3.494655 ], [ 101.688895, 3.488071 ], [ 101.711041, 3.48029 ], [ 101.748748, 3.477297 ], [ 101.767134, 3.481209 ], [ 101.773207, 3.464842 ], [ 101.788881, 3.423521 ], [ 101.766094, 3.398911 ], [ 101.759744, 3.3743 ], [ 101.756092, 3.372067 ], [ 101.749283, 3.370851 ], [ 101.741987, 3.374742 ], [ 101.736987, 3.374195 ], [ 101.732853, 3.379363 ], [ 101.727548, 3.380214 ], [ 101.721347, 3.387388 ], [ 101.717152, 3.389577 ], [ 101.714416, 3.386598 ], [ 101.711834, 3.379512 ], [ 101.706269, 3.367264 ], [ 101.701588, 3.362887 ], [ 101.698852, 3.357172 ], [ 101.698761, 3.352795 ], [ 101.693654, 3.349633 ], [ 101.691587, 3.344466 ], [ 101.685203, 3.339298 ], [ 101.680643, 3.33261 ], [ 101.678637, 3.332975 ], [ 101.677178, 3.338933 ], [ 101.671463, 3.333644 ], [ 101.667572, 3.32805 ], [ 101.663134, 3.329753 ] ] ] } },
{ "type": "Feature", "properties": { "state": "Selangor", "parlimen": "P.085 Kuala Selangor", "code_parlimen": "P.085", "dun": "N.10 Sungai Tinggi", "code_dun": "N.10" }, "geometry": { "type": "Polygon", "coordinates": [ [ [ 101.181122, 3.420401 ], [ 101.177109, 3.420462 ], [ 101.175437, 3.422772 ], [ 101.178112, 3.427514 ], [ 101.176653, 3.432378 ], [ 101.177991, 3.43408 ], [ 101.183827, 3.436147 ], [ 101.184435, 3.439673 ], [ 101.179328, 3.451225 ], [ 101.179085, 3.46156 ], [ 101.186138, 3.461195 ], [ 101.188525, 3.464728 ], [ 101.194254, 3.472336 ], [ 101.197902, 3.473431 ], [ 101.198875, 3.479754 ], [ 101.221943, 3.507535 ], [ 101.294449, 3.632937 ], [ 101.309429, 3.632127 ], [ 101.340393, 3.607172 ], [ 101.352475, 3.5954 ], [ 101.400173, 3.549785 ], [ 101.406374, 3.543752 ], [ 101.451971, 3.500166 ], [ 101.469238, 3.500227 ], [ 101.468934, 3.489527 ], [ 101.47015, 3.48746 ], [ 101.483525, 3.488493 ], [ 101.483951, 3.494938 ], [ 101.516006, 3.495363 ], [ 101.515945, 3.488432 ], [ 101.516918, 3.483325 ], [ 101.515276, 3.479799 ], [ 101.51479, 3.477307 ], [ 101.512844, 3.475057 ], [ 101.513574, 3.473385 ], [ 101.509683, 3.469494 ], [ 101.510656, 3.461955 ], [ 101.501171, 3.461469 ], [ 101.497888, 3.45928 ], [ 101.5011, 3.442132 ], [ 101.499264, 3.432451 ], [ 101.496703, 3.425416 ], [ 101.488799, 3.415689 ], [ 101.485303, 3.415203 ], [ 101.482689, 3.410096 ], [ 101.477947, 3.409305 ], [ 101.47515, 3.405779 ], [ 101.476974, 3.399335 ], [ 101.473719, 3.39742 ], [ 101.471685, 3.395748 ], [ 101.469253, 3.397572 ], [ 101.467733, 3.394653 ], [ 101.462778, 3.394714 ], [ 101.461805, 3.397116 ], [ 101.458386, 3.400277 ], [ 101.454191, 3.39821 ], [ 101.451151, 3.400277 ], [ 101.446773, 3.400459 ], [ 101.44422, 3.399 ], [ 101.441362, 3.399791 ], [ 101.439387, 3.401797 ], [ 101.437289, 3.406965 ], [ 101.435465, 3.405992 ], [ 101.432639, 3.405137 ], [ 101.433428, 3.402982 ], [ 101.431088, 3.403195 ], [ 101.4282, 3.399608 ], [ 101.42991, 3.396609 ], [ 101.428048, 3.395839 ], [ 101.426163, 3.397055 ], [ 101.425738, 3.395535 ], [ 101.427926, 3.393407 ], [ 101.427258, 3.391522 ], [ 101.424583, 3.393164 ], [ 101.422637, 3.391644 ], [ 101.422166, 3.388026 ], [ 101.420038, 3.388239 ], [ 101.419977, 3.385625 ], [ 101.416512, 3.385473 ], [ 101.415782, 3.383467 ], [ 101.411405, 3.382616 ], [ 101.40762, 3.386111 ], [ 101.405188, 3.384591 ], [ 101.40452, 3.387327 ], [ 101.402939, 3.387449 ], [ 101.399899, 3.385199 ], [ 101.395643, 3.386902 ], [ 101.394488, 3.384895 ], [ 101.387983, 3.381308 ], [ 101.382876, 3.376931 ], [ 101.37935, 3.377113 ], [ 101.376416, 3.3776 ], [ 101.374532, 3.375715 ], [ 101.375322, 3.373222 ], [ 101.369789, 3.369939 ], [ 101.364014, 3.368237 ], [ 101.362737, 3.370487 ], [ 101.360488, 3.368845 ], [ 101.363831, 3.365258 ], [ 101.362311, 3.363252 ], [ 101.360001, 3.364954 ], [ 101.358177, 3.369575 ], [ 101.358299, 3.379758 ], [ 101.358056, 3.403469 ], [ 101.358177, 3.425477 ], [ 101.331548, 3.423045 ], [ 101.276284, 3.425112 ], [ 101.258775, 3.425964 ], [ 101.227403, 3.426936 ], [ 101.217311, 3.42645 ], [ 101.197613, 3.426815 ], [ 101.187658, 3.415659 ], [ 101.181517, 3.418151 ], [ 101.181122, 3.420401 ] ] ] } },
{ "type": "Feature", "properties": { "state": "Selangor", "parlimen": "P.085 Kuala Selangor", "code_parlimen": "P.085", "dun": "N.11 Permatang", "code_dun": "N.11" }, "geometry": { "type": "Polygon", "coordinates": [ [ [ 101.361795, 3.36234 ], [ 101.357417, 3.360425 ], [ 101.34769, 3.358722 ], [ 101.339406, 3.357689 ], [ 101.329785, 3.356534 ], [ 101.33015, 3.347597 ], [ 101.331062, 3.328506 ], [ 101.323706, 3.328628 ], [ 101.311653, 3.328385 ], [ 101.306059, 3.347353 ], [ 101.303263, 3.360121 ], [ 101.297365, 3.358358 ], [ 101.292076, 3.354406 ], [ 101.284172, 3.345286 ], [ 101.275539, 3.338234 ], [ 101.265371, 3.328993 ], [ 101.26069, 3.327473 ], [ 101.256252, 3.325345 ], [ 101.245673, 3.315131 ], [ 101.242005, 3.317332 ], [ 101.228557, 3.330944 ], [ 101.231078, 3.339754 ], [ 101.208666, 3.340313 ], [ 101.186813, 3.349822 ], [ 101.173462, 3.389288 ], [ 101.17106, 3.391157 ], [ 101.169464, 3.395839 ], [ 101.173538, 3.406296 ], [ 101.178964, 3.41195 ], [ 101.181517, 3.418151 ], [ 101.187658, 3.415659 ], [ 101.197613, 3.426815 ], [ 101.217311, 3.42645 ], [ 101.227403, 3.426936 ], [ 101.258775, 3.425964 ], [ 101.276284, 3.425112 ], [ 101.331548, 3.423045 ], [ 101.358177, 3.425477 ], [ 101.358056, 3.403469 ], [ 101.358299, 3.379758 ], [ 101.358177, 3.369575 ], [ 101.360001, 3.364954 ], [ 101.362311, 3.363252 ], [ 101.361795, 3.36234 ] ] ] } },
{ "type": "Feature", "properties": { "state": "Selangor", "parlimen": "P.085 Kuala Selangor", "code_parlimen": "P.085", "dun": "N.12 Seri Cahaya", "code_dun": "N.12" }, "geometry": { "type": "Polygon", "coordinates": [ [ [ 101.256252, 3.325345 ], [ 101.26069, 3.327473 ], [ 101.265371, 3.328993 ], [ 101.275539, 3.338234 ], [ 101.284172, 3.345286 ], [ 101.292076, 3.354406 ], [ 101.297365, 3.358358 ], [ 101.303263, 3.360121 ], [ 101.306059, 3.347353 ], [ 101.311653, 3.328385 ], [ 101.323706, 3.328628 ], [ 101.331062, 3.328506 ], [ 101.33015, 3.347597 ], [ 101.329785, 3.356534 ], [ 101.339406, 3.357689 ], [ 101.34769, 3.358722 ], [ 101.357417, 3.360425 ], [ 101.361795, 3.36234 ], [ 101.362311, 3.363252 ], [ 101.363831, 3.365258 ], [ 101.360488, 3.368845 ], [ 101.362737, 3.370487 ], [ 101.364014, 3.368237 ], [ 101.369789, 3.369939 ], [ 101.375322, 3.373222 ], [ 101.374532, 3.375715 ], [ 101.376416, 3.3776 ], [ 101.37935, 3.377113 ], [ 101.382876, 3.376931 ], [ 101.387983, 3.381308 ], [ 101.394488, 3.384895 ], [ 101.395643, 3.386902 ], [ 101.399899, 3.385199 ], [ 101.402939, 3.387449 ], [ 101.40452, 3.387327 ], [ 101.405188, 3.384591 ], [ 101.40762, 3.386111 ], [ 101.411405, 3.382616 ], [ 101.415782, 3.383467 ], [ 101.416512, 3.385473 ], [ 101.419977, 3.385625 ], [ 101.420038, 3.388239 ], [ 101.422166, 3.388026 ], [ 101.422637, 3.391644 ], [ 101.424583, 3.393164 ], [ 101.427258, 3.391522 ], [ 101.427926, 3.393407 ], [ 101.425738, 3.395535 ], [ 101.426163, 3.397055 ], [ 101.428048, 3.395839 ], [ 101.42991, 3.396609 ], [ 101.4282, 3.399608 ], [ 101.431088, 3.403195 ], [ 101.433428, 3.402982 ], [ 101.432639, 3.405137 ], [ 101.435465, 3.405992 ], [ 101.437289, 3.406965 ], [ 101.439387, 3.401797 ], [ 101.441362, 3.399791 ], [ 101.44422, 3.399 ], [ 101.444098, 3.355044 ], [ 101.446105, 3.35322 ], [ 101.445922, 3.344891 ], [ 101.446044, 3.340027 ], [ 101.446348, 3.330847 ], [ 101.442214, 3.323855 ], [ 101.438748, 3.316864 ], [ 101.435948, 3.312023 ], [ 101.433824, 3.306772 ], [ 101.432304, 3.30361 ], [ 101.428474, 3.299111 ], [ 101.427349, 3.295463 ], [ 101.4175, 3.294065 ], [ 101.415372, 3.299415 ], [ 101.41069, 3.299415 ], [ 101.407586, 3.294447 ], [ 101.400598, 3.296619 ], [ 101.39695, 3.296132 ], [ 101.390384, 3.29978 ], [ 101.379076, 3.295281 ], [ 101.375368, 3.296497 ], [ 101.36947, 3.295585 ], [ 101.364911, 3.290052 ], [ 101.358466, 3.29066 ], [ 101.344969, 3.284094 ], [ 101.341382, 3.280143 ], [ 101.331655, 3.276738 ], [ 101.327049, 3.275704 ], [ 101.3248, 3.269746 ], [ 101.318538, 3.266707 ], [ 101.311181, 3.2647 ], [ 101.299508, 3.255824 ], [ 101.298036, 3.252442 ], [ 101.291499, 3.256917 ], [ 101.280667, 3.276497 ], [ 101.25788, 3.306144 ], [ 101.245673, 3.315131 ], [ 101.256252, 3.325345 ] ] ] } },
{ "type": "Feature", "properties": { "state": "Selangor", "parlimen": "P.086 Kapar", "code_parlimen": "P.086", "dun": "N.13 Jeram", "code_dun": "N.13" }, "geometry": { "type": "Polygon", "coordinates": [ [ [ 101.299508, 3.255824 ], [ 101.311181, 3.2647 ], [ 101.318538, 3.266707 ], [ 101.3248, 3.269746 ], [ 101.327049, 3.275704 ], [ 101.331655, 3.276738 ], [ 101.341382, 3.280143 ], [ 101.344969, 3.284094 ], [ 101.358466, 3.29066 ], [ 101.364911, 3.290052 ], [ 101.36947, 3.295585 ], [ 101.375368, 3.296497 ], [ 101.379076, 3.295281 ], [ 101.390384, 3.29978 ], [ 101.39695, 3.296132 ], [ 101.400598, 3.296619 ], [ 101.407586, 3.294447 ], [ 101.41069, 3.299415 ], [ 101.415372, 3.299415 ], [ 101.4175, 3.294065 ], [ 101.427349, 3.295463 ], [ 101.428474, 3.299111 ], [ 101.432304, 3.30361 ], [ 101.435952, 3.302516 ], [ 101.439356, 3.298746 ], [ 101.451202, 3.298309 ], [ 101.457793, 3.298442 ], [ 101.462657, 3.297713 ], [ 101.46217, 3.281298 ], [ 101.462049, 3.274489 ], [ 101.472384, 3.274124 ], [ 101.486732, 3.273881 ], [ 101.49269, 3.273759 ], [ 101.493025, 3.228739 ], [ 101.492538, 3.193477 ], [ 101.49266, 3.185148 ], [ 101.490045, 3.18612 ], [ 101.488404, 3.190315 ], [ 101.483382, 3.192958 ], [ 101.477339, 3.191349 ], [ 101.469375, 3.194328 ], [ 101.464693, 3.192565 ], [ 101.399945, 3.191775 ], [ 101.399884, 3.185938 ], [ 101.398802, 3.18387 ], [ 101.377486, 3.183004 ], [ 101.367695, 3.182137 ], [ 101.367271, 3.179217 ], [ 101.366491, 3.176271 ], [ 101.341717, 3.176271 ], [ 101.341413, 3.172563 ], [ 101.341595, 3.169341 ], [ 101.341777, 3.166726 ], [ 101.341048, 3.163747 ], [ 101.329664, 3.163504 ], [ 101.326198, 3.159917 ], [ 101.321578, 3.164173 ], [ 101.316167, 3.16928 ], [ 101.306698, 3.165054 ], [ 101.305694, 3.191091 ], [ 101.30364, 3.204331 ], [ 101.30364, 3.224657 ], [ 101.301498, 3.229962 ], [ 101.298597, 3.237151 ], [ 101.298036, 3.252442 ], [ 101.299508, 3.255824 ] ] ] } },
{ "type": "Feature", "properties": { "state": "Selangor", "parlimen": "P.086 Kapar", "code_parlimen": "P.086", "dun": "N.14 Sementa", "code_dun": "N.14" }, "geometry": { "type": "Polygon", "coordinates": [ [ [ 101.422485, 3.065135 ], [ 101.416831, 3.068175 ], [ 101.410903, 3.069755 ], [ 101.404033, 3.06322 ], [ 101.383545, 3.044555 ], [ 101.378924, 3.04723 ], [ 101.374243, 3.046683 ], [ 101.370169, 3.049297 ], [ 101.363239, 3.048933 ], [ 101.360525, 3.051207 ], [ 101.36185, 3.067257 ], [ 101.32974, 3.106432 ], [ 101.32708, 3.109688 ], [ 101.316994, 3.109688 ], [ 101.306698, 3.165054 ], [ 101.316167, 3.16928 ], [ 101.321578, 3.164173 ], [ 101.326198, 3.159917 ], [ 101.329664, 3.163504 ], [ 101.341048, 3.163747 ], [ 101.341777, 3.166726 ], [ 101.341595, 3.169341 ], [ 101.341413, 3.172563 ], [ 101.341717, 3.176271 ], [ 101.366491, 3.176271 ], [ 101.367271, 3.179217 ], [ 101.367695, 3.182137 ], [ 101.377486, 3.183004 ], [ 101.398802, 3.18387 ], [ 101.399884, 3.185938 ], [ 101.403334, 3.181621 ], [ 101.400416, 3.174204 ], [ 101.402605, 3.169219 ], [ 101.401753, 3.164963 ], [ 101.397011, 3.158032 ], [ 101.395066, 3.155357 ], [ 101.400051, 3.154628 ], [ 101.401875, 3.152317 ], [ 101.401145, 3.148426 ], [ 101.405036, 3.148062 ], [ 101.405158, 3.141374 ], [ 101.405014, 3.135352 ], [ 101.41793, 3.135108 ], [ 101.417686, 3.12073 ], [ 101.4172, 3.112288 ], [ 101.423489, 3.112064 ], [ 101.423154, 3.094196 ], [ 101.423519, 3.079483 ], [ 101.430176, 3.071215 ], [ 101.433155, 3.066959 ], [ 101.433337, 3.063068 ], [ 101.422485, 3.065135 ] ] ] } },
{ "type": "Feature", "properties": { "state": "Selangor", "parlimen": "P.086 Kapar", "code_parlimen": "P.086", "dun": "N.15 Selat Klang", "code_dun": "N.15" }, "geometry": { "type": "MultiPolygon", "coordinates": [ [ [ [ 101.318273, 2.989263 ], [ 101.319164, 2.989263 ], [ 101.321792, 2.990912 ], [ 101.322728, 2.991223 ], [ 101.321481, 2.989218 ], [ 101.318406, 2.987436 ], [ 101.316491, 2.986367 ], [ 101.31502, 2.985966 ], [ 101.313773, 2.985253 ], [ 101.3138, 2.985194 ], [ 101.312293, 2.985173 ], [ 101.311723, 2.986011 ], [ 101.318273, 2.989263 ] ] ], [ [ [ 101.301157, 2.967268 ], [ 101.30001, 2.962431 ], [ 101.298288, 2.960529 ], [ 101.296215, 2.957447 ], [ 101.295331, 2.953878 ], [ 101.294177, 2.952842 ], [ 101.292606, 2.949258 ], [ 101.286515, 2.938589 ], [ 101.28359, 2.935591 ], [ 101.276313, 2.920671 ], [ 101.272343, 2.918013 ], [ 101.266778, 2.917542 ], [ 101.264077, 2.918643 ], [ 101.264324, 2.927278 ], [ 101.262707, 2.947409 ], [ 101.263116, 2.947739 ], [ 101.266368, 2.951126 ], [ 101.275145, 2.957274 ], [ 101.279155, 2.959992 ], [ 101.287041, 2.963333 ], [ 101.290249, 2.965784 ], [ 101.291541, 2.969214 ], [ 101.294838, 2.972422 ], [ 101.297244, 2.974427 ], [ 101.301565, 2.97465 ], [ 101.304373, 2.973446 ], [ 101.301157, 2.967268 ] ] ], [ [ [ 101.271585, 3.053256 ], [ 101.276385, 3.046656 ], [ 101.280541, 3.042563 ], [ 101.277906, 3.033847 ], [ 101.264806, 3.025844 ], [ 101.259698, 3.02065 ], [ 101.256053, 3.021328 ], [ 101.250332, 3.018673 ], [ 101.243898, 3.017164 ], [ 101.215934, 3.004158 ], [ 101.211215, 3.005175 ], [ 101.211642, 3.006753 ], [ 101.208924, 3.007234 ], [ 101.209244, 3.011576 ], [ 101.216671, 3.023228 ], [ 101.22706, 3.035759 ], [ 101.230058, 3.037841 ], [ 101.234007, 3.043243 ], [ 101.233454, 3.044873 ], [ 101.235496, 3.046636 ], [ 101.237011, 3.046447 ], [ 101.240859, 3.052767 ], [ 101.248063, 3.055746 ], [ 101.259522, 3.060485 ], [ 101.268661, 3.058532 ], [ 101.271585, 3.053256 ] ] ], [ [ [ 101.311258, 3.064968 ], [ 101.325637, 3.067978 ], [ 101.329647, 3.066884 ], [ 101.335952, 3.063759 ], [ 101.337981, 3.054562 ], [ 101.337801, 3.050246 ], [ 101.336614, 3.047467 ], [ 101.336647, 3.04351 ], [ 101.334173, 3.03815 ], [ 101.334407, 3.029528 ], [ 101.33681, 3.018174 ], [ 101.335196, 3.01678 ], [ 101.336398, 3.014974 ], [ 101.336874, 3.01029 ], [ 101.336946, 3.006616 ], [ 101.337749, 3.001484 ], [ 101.336355, 2.998761 ], [ 101.328994, 2.994213 ], [ 101.328564, 2.994253 ], [ 101.324376, 2.992827 ], [ 101.312347, 2.98659 ], [ 101.309941, 2.986501 ], [ 101.307357, 2.98454 ], [ 101.302902, 2.981778 ], [ 101.29515, 2.978214 ], [ 101.28909, 2.976164 ], [ 101.28517, 2.971887 ], [ 101.282853, 2.970194 ], [ 101.278487, 2.968947 ], [ 101.274566, 2.961907 ], [ 101.269754, 2.955492 ], [ 101.26423, 2.952819 ], [ 101.262296, 2.952526 ], [ 101.262244, 2.953177 ], [ 101.260788, 2.95759 ], [ 101.262201, 2.964942 ], [ 101.262491, 2.977288 ], [ 101.268111, 2.98574 ], [ 101.277481, 3.001335 ], [ 101.283022, 3.009339 ], [ 101.283529, 3.012975 ], [ 101.295803, 3.043338 ], [ 101.296364, 3.046186 ], [ 101.299235, 3.050431 ], [ 101.300293, 3.053418 ], [ 101.302873, 3.055228 ], [ 101.30305, 3.058195 ], [ 101.305517, 3.062768 ], [ 101.311258, 3.064968 ] ] ], [ [ [ 101.269997, 3.020206 ], [ 101.269817, 3.014197 ], [ 101.266616, 3.006936 ], [ 101.264571, 3.006235 ], [ 101.264195, 3.010699 ], [ 101.262823, 3.012714 ], [ 101.263124, 3.016769 ], [ 101.266007, 3.019235 ], [ 101.2693, 3.02109 ], [ 101.269997, 3.020206 ] ] ], [ [ [ 101.26167, 3.011042 ], [ 101.261993, 3.009435 ], [ 101.262706, 3.003279 ], [ 101.25837, 2.998812 ], [ 101.242857, 2.988105 ], [ 101.240763, 2.985458 ], [ 101.222391, 2.961854 ], [ 101.213634, 2.952088 ], [ 101.211296, 2.951476 ], [ 101.208475, 2.951768 ], [ 101.205235, 2.950164 ], [ 101.200195, 2.949278 ], [ 101.197919, 2.951219 ], [ 101.198982, 2.956862 ], [ 101.203682, 2.964221 ], [ 101.216209, 2.980642 ], [ 101.218447, 2.986942 ], [ 101.217747, 2.989546 ], [ 101.217754, 2.991881 ], [ 101.219369, 2.993155 ], [ 101.218608, 2.994524 ], [ 101.220797, 2.99659 ], [ 101.225542, 2.995873 ], [ 101.224724, 3.000586 ], [ 101.224372, 3.002243 ], [ 101.222486, 3.003671 ], [ 101.232639, 3.008807 ], [ 101.244503, 3.014157 ], [ 101.250008, 3.015406 ], [ 101.257148, 3.014814 ], [ 101.259872, 3.016458 ], [ 101.26167, 3.011042 ] ] ], [ [ [ 101.256586, 2.9646 ], [ 101.256812, 2.956971 ], [ 101.258209, 2.952348 ], [ 101.258505, 2.940092 ], [ 101.258573, 2.939821 ], [ 101.257458, 2.939854 ], [ 101.254784, 2.938606 ], [ 101.254473, 2.938161 ], [ 101.251799, 2.933438 ], [ 101.24447, 2.92651 ], [ 101.241107, 2.923725 ], [ 101.237966, 2.9223 ], [ 101.233774, 2.922219 ], [ 101.23367, 2.922441 ], [ 101.232258, 2.923884 ], [ 101.231346, 2.929065 ], [ 101.231536, 2.933913 ], [ 101.229415, 2.943234 ], [ 101.228858, 2.947076 ], [ 101.231312, 2.950146 ], [ 101.238956, 2.956778 ], [ 101.246169, 2.962061 ], [ 101.254204, 2.966537 ], [ 101.256586, 2.9646 ] ] ], [ [ [ 101.259925, 2.92435 ], [ 101.258011, 2.914562 ], [ 101.256362, 2.910812 ], [ 101.247398, 2.906679 ], [ 101.242145, 2.905621 ], [ 101.240312, 2.904247 ], [ 101.236027, 2.903708 ], [ 101.234403, 2.905724 ], [ 101.234333, 2.907965 ], [ 101.236222, 2.914667 ], [ 101.235935, 2.917578 ], [ 101.234794, 2.920028 ], [ 101.235315, 2.92025 ], [ 101.239503, 2.922255 ], [ 101.244715, 2.925597 ], [ 101.246631, 2.928047 ], [ 101.249705, 2.930275 ], [ 101.253359, 2.934151 ], [ 101.254428, 2.937314 ], [ 101.256433, 2.938918 ], [ 101.2588, 2.938918 ], [ 101.258844, 2.938743 ], [ 101.259925, 2.92435 ] ] ], [ [ [ 101.282407, 2.968635 ], [ 101.283566, 2.969704 ], [ 101.28615, 2.971085 ], [ 101.289402, 2.97514 ], [ 101.291986, 2.97612 ], [ 101.293056, 2.975719 ], [ 101.301699, 2.980397 ], [ 101.304283, 2.980263 ], [ 101.305664, 2.978971 ], [ 101.306154, 2.97808 ], [ 101.306217, 2.978004 ], [ 101.305441, 2.976744 ], [ 101.304417, 2.975719 ], [ 101.303856, 2.975223 ], [ 101.303748, 2.975318 ], [ 101.302902, 2.975585 ], [ 101.298758, 2.976075 ], [ 101.295417, 2.974694 ], [ 101.291808, 2.971219 ], [ 101.290249, 2.968769 ], [ 101.289179, 2.96614 ], [ 101.287531, 2.964759 ], [ 101.281383, 2.96213 ], [ 101.28018, 2.961863 ], [ 101.280581, 2.964581 ], [ 101.281962, 2.966274 ], [ 101.282407, 2.968635 ] ] ], [ [ [ 101.310699, 2.985654 ], [ 101.312258, 2.98405 ], [ 101.311055, 2.982313 ], [ 101.309184, 2.980798 ], [ 101.307669, 2.979996 ], [ 101.307691, 2.979966 ], [ 101.307134, 2.979818 ], [ 101.306862, 2.979722 ], [ 101.306823, 2.979773 ], [ 101.304238, 2.981333 ], [ 101.305352, 2.982847 ], [ 101.310699, 2.985654 ] ] ], [ [ [ 101.408411, 3.019051 ], [ 101.404033, 3.014795 ], [ 101.403182, 3.0075 ], [ 101.397224, 3.002271 ], [ 101.392725, 2.998137 ], [ 101.391874, 2.991692 ], [ 101.383575, 2.980992 ], [ 101.371781, 2.969684 ], [ 101.36412, 2.956187 ], [ 101.358983, 2.940015 ], [ 101.35193, 2.92591 ], [ 101.347067, 2.927734 ], [ 101.339893, 2.925789 ], [ 101.336731, 2.92287 ], [ 101.337218, 2.918858 ], [ 101.346094, 2.907793 ], [ 101.348161, 2.901592 ], [ 101.346702, 2.897579 ], [ 101.343297, 2.895269 ], [ 101.340014, 2.895877 ], [ 101.33126, 2.904875 ], [ 101.323478, 2.911319 ], [ 101.319465, 2.91217 ], [ 101.315088, 2.909617 ], [ 101.31071, 2.905483 ], [ 101.305421, 2.898917 ], [ 101.300192, 2.89235 ], [ 101.291316, 2.886514 ], [ 101.283562, 2.881764 ], [ 101.267126, 2.887546 ], [ 101.271235, 2.897246 ], [ 101.27553, 2.910117 ], [ 101.315126, 2.976334 ], [ 101.356216, 2.999276 ], [ 101.360525, 3.051207 ], [ 101.363239, 3.048933 ], [ 101.370169, 3.049297 ], [ 101.374243, 3.046683 ], [ 101.378924, 3.04723 ], [ 101.383545, 3.044555 ], [ 101.404033, 3.06322 ], [ 101.410903, 3.069755 ], [ 101.416831, 3.068175 ], [ 101.422485, 3.065135 ], [ 101.433337, 3.063068 ], [ 101.433337, 3.060028 ], [ 101.435404, 3.057353 ], [ 101.437015, 3.056684 ], [ 101.438414, 3.05255 ], [ 101.440967, 3.048477 ], [ 101.438171, 3.047565 ], [ 101.434866, 3.044457 ], [ 101.414521, 3.024918 ], [ 101.408411, 3.019051 ] ] ], [ [ [ 101.281338, 2.967298 ], [ 101.280224, 2.964982 ], [ 101.279378, 2.961284 ], [ 101.275012, 2.958254 ], [ 101.270763, 2.955566 ], [ 101.271225, 2.956873 ], [ 101.275903, 2.962798 ], [ 101.278175, 2.967387 ], [ 101.280224, 2.968813 ], [ 101.281516, 2.96908 ], [ 101.281338, 2.967298 ] ] ] ] } },
{ "type": "Feature", "properties": { "state": "Selangor", "parlimen": "P.087 Selayang", "code_parlimen": "P.087", "dun": "N.16 Rawang", "code_dun": "N.16" }, "geometry": { "type": "Polygon", "coordinates": [ [ [ 101.446773, 3.400459 ], [ 101.451151, 3.400277 ], [ 101.454191, 3.39821 ], [ 101.458386, 3.400277 ], [ 101.461805, 3.397116 ], [ 101.462778, 3.394714 ], [ 101.467733, 3.394653 ], [ 101.469435, 3.391583 ], [ 101.469922, 3.386719 ], [ 101.473934, 3.385807 ], [ 101.478403, 3.378633 ], [ 101.478494, 3.370487 ], [ 101.484011, 3.367143 ], [ 101.492356, 3.366535 ], [ 101.497159, 3.358084 ], [ 101.497584, 3.353342 ], [ 101.50105, 3.349208 ], [ 101.513027, 3.348539 ], [ 101.526888, 3.349025 ], [ 101.536859, 3.349512 ], [ 101.540568, 3.347384 ], [ 101.54762, 3.347688 ], [ 101.555174, 3.343918 ], [ 101.5663, 3.339298 ], [ 101.567394, 3.336501 ], [ 101.574842, 3.336744 ], [ 101.582928, 3.343189 ], [ 101.586515, 3.34021 ], [ 101.590163, 3.332367 ], [ 101.591318, 3.326835 ], [ 101.605043, 3.32574 ], [ 101.611852, 3.322396 ], [ 101.625531, 3.323734 ], [ 101.63769, 3.320998 ], [ 101.641551, 3.326287 ], [ 101.649379, 3.333887 ], [ 101.653224, 3.333218 ], [ 101.658027, 3.328598 ], [ 101.663134, 3.329753 ], [ 101.667572, 3.32805 ], [ 101.667754, 3.320937 ], [ 101.665459, 3.313307 ], [ 101.665581, 3.304431 ], [ 101.66704, 3.301269 ], [ 101.664973, 3.294217 ], [ 101.668986, 3.289779 ], [ 101.669715, 3.286557 ], [ 101.667466, 3.282909 ], [ 101.667709, 3.279565 ], [ 101.664973, 3.274701 ], [ 101.656583, 3.273546 ], [ 101.653847, 3.270385 ], [ 101.637706, 3.26771 ], [ 101.628464, 3.27464 ], [ 101.618737, 3.272938 ], [ 101.610195, 3.273975 ], [ 101.606578, 3.269169 ], [ 101.605514, 3.266372 ], [ 101.60576, 3.264423 ], [ 101.608148, 3.25726 ], [ 101.608148, 3.252825 ], [ 101.603239, 3.251371 ], [ 101.594921, 3.246981 ], [ 101.585698, 3.242962 ], [ 101.571352, 3.237045 ], [ 101.552305, 3.228909 ], [ 101.546419, 3.217796 ], [ 101.527739, 3.218343 ], [ 101.524943, 3.221079 ], [ 101.518346, 3.216732 ], [ 101.507981, 3.222781 ], [ 101.503603, 3.220227 ], [ 101.497767, 3.222173 ], [ 101.493025, 3.228739 ], [ 101.49269, 3.273759 ], [ 101.486732, 3.273881 ], [ 101.472384, 3.274124 ], [ 101.462049, 3.274489 ], [ 101.46217, 3.281298 ], [ 101.462657, 3.297713 ], [ 101.457793, 3.298442 ], [ 101.451202, 3.298309 ], [ 101.439356, 3.298746 ], [ 101.435952, 3.302516 ], [ 101.432304, 3.30361 ], [ 101.433824, 3.306772 ], [ 101.435948, 3.312023 ], [ 101.438748, 3.316864 ], [ 101.442214, 3.323855 ], [ 101.446348, 3.330847 ], [ 101.446044, 3.340027 ], [ 101.445922, 3.344891 ], [ 101.446105, 3.35322 ], [ 101.444098, 3.355044 ], [ 101.44422, 3.399 ], [ 101.446773, 3.400459 ] ] ] } },
{ "type": "Feature", "properties": { "state": "Selangor", "parlimen": "P.087 Selayang", "code_parlimen": "P.087", "dun": "N.17 Gombak Setia", "code_dun": "N.17" }, "geometry": { "type": "Polygon", "coordinates": [ [ [ 101.670232, 3.246583 ], [ 101.674062, 3.249501 ], [ 101.674001, 3.251203 ], [ 101.671387, 3.256432 ], [ 101.671144, 3.26239 ], [ 101.668651, 3.268409 ], [ 101.667982, 3.272908 ], [ 101.667709, 3.279565 ], [ 101.667466, 3.282909 ], [ 101.669715, 3.286557 ], [ 101.668986, 3.289779 ], [ 101.664973, 3.294217 ], [ 101.66704, 3.301269 ], [ 101.665581, 3.304431 ], [ 101.665459, 3.313307 ], [ 101.667754, 3.320937 ], [ 101.667572, 3.32805 ], [ 101.671463, 3.333644 ], [ 101.677178, 3.338933 ], [ 101.678637, 3.332975 ], [ 101.680643, 3.33261 ], [ 101.685203, 3.339298 ], [ 101.691587, 3.344466 ], [ 101.693654, 3.349633 ], [ 101.698761, 3.352795 ], [ 101.698852, 3.357172 ], [ 101.701588, 3.362887 ], [ 101.706269, 3.367264 ], [ 101.711834, 3.379512 ], [ 101.714416, 3.386598 ], [ 101.717152, 3.389577 ], [ 101.721347, 3.387388 ], [ 101.727548, 3.380214 ], [ 101.732853, 3.379363 ], [ 101.736987, 3.374195 ], [ 101.741987, 3.374742 ], [ 101.749283, 3.370851 ], [ 101.756092, 3.372067 ], [ 101.759744, 3.3743 ], [ 101.780289, 3.357519 ], [ 101.78047, 3.34849 ], [ 101.780663, 3.338874 ], [ 101.797099, 3.33328 ], [ 101.798219, 3.323957 ], [ 101.820856, 3.293638 ], [ 101.818272, 3.291572 ], [ 101.812435, 3.289141 ], [ 101.808301, 3.283426 ], [ 101.803316, 3.283304 ], [ 101.799668, 3.28148 ], [ 101.793589, 3.287681 ], [ 101.791278, 3.287803 ], [ 101.78532, 3.283182 ], [ 101.78301, 3.288046 ], [ 101.780943, 3.287681 ], [ 101.776201, 3.279535 ], [ 101.773647, 3.266646 ], [ 101.770851, 3.25704 ], [ 101.763555, 3.247799 ], [ 101.75708, 3.240625 ], [ 101.752095, 3.23795 ], [ 101.74638, 3.237706 ], [ 101.739571, 3.236795 ], [ 101.737686, 3.234849 ], [ 101.737564, 3.23339 ], [ 101.730228, 3.232955 ], [ 101.718929, 3.222606 ], [ 101.714913, 3.213842 ], [ 101.702399, 3.216359 ], [ 101.701372, 3.223538 ], [ 101.697263, 3.223632 ], [ 101.697215, 3.22619 ], [ 101.69717, 3.228573 ], [ 101.695884, 3.228544 ], [ 101.69209, 3.228439 ], [ 101.672516, 3.227921 ], [ 101.673356, 3.233235 ], [ 101.665979, 3.243678 ], [ 101.670232, 3.246583 ] ] ] } },
{ "type": "Feature", "properties": { "state": "Selangor", "parlimen": "P.087 Selayang", "code_parlimen": "P.087", "dun": "N.18 Paya Jaras", "code_dun": "N.18" }, "geometry": { "type": "Polygon", "coordinates": [ [ [ 101.540309, 3.166149 ], [ 101.533652, 3.157698 ], [ 101.528363, 3.158367 ], [ 101.524715, 3.156604 ], [ 101.517906, 3.158124 ], [ 101.520641, 3.164811 ], [ 101.520763, 3.166939 ], [ 101.517662, 3.166939 ], [ 101.517906, 3.175876 ], [ 101.508725, 3.175937 ], [ 101.506597, 3.168763 ], [ 101.498572, 3.167182 ], [ 101.498329, 3.171012 ], [ 101.498147, 3.175451 ], [ 101.497584, 3.182473 ], [ 101.49266, 3.185148 ], [ 101.492538, 3.193477 ], [ 101.493025, 3.228739 ], [ 101.497767, 3.222173 ], [ 101.503603, 3.220227 ], [ 101.507981, 3.222781 ], [ 101.518346, 3.216732 ], [ 101.524943, 3.221079 ], [ 101.527739, 3.218343 ], [ 101.546419, 3.217796 ], [ 101.552305, 3.228909 ], [ 101.571622, 3.237281 ], [ 101.585698, 3.242962 ], [ 101.594921, 3.246981 ], [ 101.603239, 3.251371 ], [ 101.608148, 3.252825 ], [ 101.608148, 3.25726 ], [ 101.60576, 3.264423 ], [ 101.605514, 3.266372 ], [ 101.606578, 3.269169 ], [ 101.610195, 3.273975 ], [ 101.618737, 3.272938 ], [ 101.628464, 3.27464 ], [ 101.637706, 3.26771 ], [ 101.653847, 3.270385 ], [ 101.656583, 3.273546 ], [ 101.664973, 3.274701 ], [ 101.667709, 3.279565 ], [ 101.667982, 3.272908 ], [ 101.668651, 3.268409 ], [ 101.671144, 3.26239 ], [ 101.671387, 3.256432 ], [ 101.674001, 3.251203 ], [ 101.674062, 3.249501 ], [ 101.670232, 3.246583 ], [ 101.665979, 3.243678 ], [ 101.657761, 3.240881 ], [ 101.657387, 3.236778 ], [ 101.654025, 3.237151 ], [ 101.653465, 3.234074 ], [ 101.646653, 3.235164 ], [ 101.646195, 3.232718 ], [ 101.640701, 3.23215 ], [ 101.638353, 3.22873 ], [ 101.635888, 3.228775 ], [ 101.63983, 3.222699 ], [ 101.637029, 3.215986 ], [ 101.634414, 3.216546 ], [ 101.630315, 3.208777 ], [ 101.625262, 3.199203 ], [ 101.619285, 3.198084 ], [ 101.61984, 3.180789 ], [ 101.599998, 3.181589 ], [ 101.576711, 3.181044 ], [ 101.566832, 3.178977 ], [ 101.55984, 3.18153 ], [ 101.55066, 3.182321 ], [ 101.540309, 3.166149 ] ] ] } },
{ "type": "Feature", "properties": { "state": "Selangor", "parlimen": "P.088 Ampang Jaya", "code_parlimen": "P.088", "dun": "N.19 Hulu Kelang", "code_dun": "N.19" }, "geometry": { "type": "Polygon", "coordinates": [ [ [ 101.793953, 3.153199 ], [ 101.790184, 3.157637 ], [ 101.785533, 3.158914 ], [ 101.781095, 3.152348 ], [ 101.779696, 3.151983 ], [ 101.777021, 3.148518 ], [ 101.771732, 3.151983 ], [ 101.769589, 3.150646 ], [ 101.766975, 3.152652 ], [ 101.765029, 3.159583 ], [ 101.759922, 3.160251 ], [ 101.759618, 3.162562 ], [ 101.752019, 3.165419 ], [ 101.743203, 3.167061 ], [ 101.734418, 3.168368 ], [ 101.734151, 3.171976 ], [ 101.731256, 3.173002 ], [ 101.733964, 3.17813 ], [ 101.748439, 3.17524 ], [ 101.756003, 3.180461 ], [ 101.758805, 3.188667 ], [ 101.756283, 3.198084 ], [ 101.748453, 3.203044 ], [ 101.747259, 3.203801 ], [ 101.745824, 3.210019 ], [ 101.739287, 3.216452 ], [ 101.739754, 3.223259 ], [ 101.743769, 3.22904 ], [ 101.739567, 3.233608 ], [ 101.737564, 3.23339 ], [ 101.737686, 3.234849 ], [ 101.739571, 3.236795 ], [ 101.74638, 3.237706 ], [ 101.752095, 3.23795 ], [ 101.75708, 3.240625 ], [ 101.763555, 3.247799 ], [ 101.770851, 3.25704 ], [ 101.773647, 3.266646 ], [ 101.776201, 3.279535 ], [ 101.780943, 3.287681 ], [ 101.78301, 3.288046 ], [ 101.78532, 3.283182 ], [ 101.791278, 3.287803 ], [ 101.793589, 3.287681 ], [ 101.799668, 3.28148 ], [ 101.803316, 3.283304 ], [ 101.808301, 3.283426 ], [ 101.812435, 3.289141 ], [ 101.818272, 3.291572 ], [ 101.820856, 3.293638 ], [ 101.843928, 3.279839 ], [ 101.84022, 3.275826 ], [ 101.834748, 3.271509 ], [ 101.828486, 3.264883 ], [ 101.82806, 3.257709 ], [ 101.827817, 3.249927 ], [ 101.826723, 3.244333 ], [ 101.822406, 3.240078 ], [ 101.815962, 3.232052 ], [ 101.815764, 3.225486 ], [ 101.810657, 3.217704 ], [ 101.812177, 3.210713 ], [ 101.812907, 3.206335 ], [ 101.807131, 3.196243 ], [ 101.802085, 3.186455 ], [ 101.802328, 3.179402 ], [ 101.805125, 3.17466 ], [ 101.808104, 3.173991 ], [ 101.809441, 3.172472 ], [ 101.810171, 3.161042 ], [ 101.808818, 3.153442 ], [ 101.803468, 3.152652 ], [ 101.798391, 3.151253 ], [ 101.793953, 3.153199 ] ] ] } },
{ "type": "Feature", "properties": { "state": "Selangor", "parlimen": "P.088 Ampang Jaya", "code_parlimen": "P.088", "dun": "N.20 Keramat", "code_dun": "N.20" }, "geometry": { "type": "Polygon", "coordinates": [ [ [ 101.78874, 3.134717 ], [ 101.784241, 3.138729 ], [ 101.780836, 3.143654 ], [ 101.775547, 3.143228 ], [ 101.77117, 3.136845 ], [ 101.769103, 3.135629 ], [ 101.763266, 3.14104 ], [ 101.758402, 3.139459 ], [ 101.756335, 3.140918 ], [ 101.753843, 3.139398 ], [ 101.751897, 3.140188 ], [ 101.74872, 3.144079 ], [ 101.747261, 3.148153 ], [ 101.746197, 3.149411 ], [ 101.748439, 3.15799 ], [ 101.750306, 3.160041 ], [ 101.739754, 3.162092 ], [ 101.739287, 3.164703 ], [ 101.734804, 3.164703 ], [ 101.734418, 3.168368 ], [ 101.743203, 3.167061 ], [ 101.752019, 3.165419 ], [ 101.759618, 3.162562 ], [ 101.759922, 3.160251 ], [ 101.765029, 3.159583 ], [ 101.766975, 3.152652 ], [ 101.769589, 3.150646 ], [ 101.771732, 3.151983 ], [ 101.777021, 3.148518 ], [ 101.779696, 3.151983 ], [ 101.781095, 3.152348 ], [ 101.785533, 3.158914 ], [ 101.790184, 3.157637 ], [ 101.793953, 3.153199 ], [ 101.798391, 3.151253 ], [ 101.797024, 3.149247 ], [ 101.797145, 3.146147 ], [ 101.800063, 3.140188 ], [ 101.792053, 3.131707 ], [ 101.78874, 3.134717 ] ] ] } },
{ "type": "Feature", "properties": { "state": "Selangor", "parlimen": "P.088 Ampang Jaya", "code_parlimen": "P.088", "dun": "N.21 Pandan", "code_dun": "N.21" }, "geometry": { "type": "Polygon", "coordinates": [ [ [ 101.747261, 3.148153 ], [ 101.74872, 3.144079 ], [ 101.751897, 3.140188 ], [ 101.753843, 3.139398 ], [ 101.756335, 3.140918 ], [ 101.758402, 3.139459 ], [ 101.763266, 3.14104 ], [ 101.769103, 3.135629 ], [ 101.77117, 3.136845 ], [ 101.775547, 3.143228 ], [ 101.780836, 3.143654 ], [ 101.784241, 3.138729 ], [ 101.78874, 3.134717 ], [ 101.792053, 3.131707 ], [ 101.788944, 3.128485 ], [ 101.783283, 3.119518 ], [ 101.777249, 3.111249 ], [ 101.770136, 3.104258 ], [ 101.763449, 3.09836 ], [ 101.758372, 3.094044 ], [ 101.745848, 3.083009 ], [ 101.745077, 3.086562 ], [ 101.75152, 3.09281 ], [ 101.752641, 3.098032 ], [ 101.750867, 3.101389 ], [ 101.753762, 3.10372 ], [ 101.751614, 3.108382 ], [ 101.746478, 3.111087 ], [ 101.740688, 3.110434 ], [ 101.737979, 3.113977 ], [ 101.73826, 3.117334 ], [ 101.741621, 3.124421 ], [ 101.738581, 3.129834 ], [ 101.738377, 3.130197 ], [ 101.735178, 3.13589 ], [ 101.736235, 3.137201 ], [ 101.740968, 3.14307 ], [ 101.741061, 3.150996 ], [ 101.746197, 3.149411 ], [ 101.747261, 3.148153 ] ] ] } },
{ "type": "Feature", "properties": { "state": "Selangor", "parlimen": "P.089 Hulu Langat", "code_parlimen": "P.089", "dun": "N.22 Dusun Tua", "code_dun": "N.22" }, "geometry": { "type": "Polygon", "coordinates": [ [ [ 101.758372, 3.094044 ], [ 101.763449, 3.09836 ], [ 101.770136, 3.104258 ], [ 101.777249, 3.111249 ], [ 101.783283, 3.119518 ], [ 101.788944, 3.128485 ], [ 101.792053, 3.131707 ], [ 101.800063, 3.140188 ], [ 101.797145, 3.146147 ], [ 101.797024, 3.149247 ], [ 101.798391, 3.151253 ], [ 101.803468, 3.152652 ], [ 101.808818, 3.153442 ], [ 101.810171, 3.161042 ], [ 101.809441, 3.172472 ], [ 101.808104, 3.173991 ], [ 101.805125, 3.17466 ], [ 101.802328, 3.179402 ], [ 101.802085, 3.186455 ], [ 101.807131, 3.196243 ], [ 101.812907, 3.206335 ], [ 101.812177, 3.210713 ], [ 101.810657, 3.217704 ], [ 101.815764, 3.225486 ], [ 101.815962, 3.232052 ], [ 101.822406, 3.240078 ], [ 101.826723, 3.244333 ], [ 101.827817, 3.249927 ], [ 101.82806, 3.257709 ], [ 101.828486, 3.264883 ], [ 101.834748, 3.271509 ], [ 101.84022, 3.275826 ], [ 101.843928, 3.279839 ], [ 101.852383, 3.274358 ], [ 101.888244, 3.260186 ], [ 101.897956, 3.264662 ], [ 101.909536, 3.25944 ], [ 101.925779, 3.259621 ], [ 101.927834, 3.253841 ], [ 101.931569, 3.254027 ], [ 101.933997, 3.250298 ], [ 101.931382, 3.243957 ], [ 101.934558, 3.238177 ], [ 101.939227, 3.236312 ], [ 101.947258, 3.218783 ], [ 101.947632, 3.207408 ], [ 101.945017, 3.204051 ], [ 101.947258, 3.191184 ], [ 101.93904, 3.184471 ], [ 101.950433, 3.160041 ], [ 101.95641, 3.156311 ], [ 101.957157, 3.145681 ], [ 101.964068, 3.139527 ], [ 101.961684, 3.128774 ], [ 101.962474, 3.124761 ], [ 101.959617, 3.118013 ], [ 101.907879, 3.118134 ], [ 101.888849, 3.117222 ], [ 101.884533, 3.118864 ], [ 101.881736, 3.117709 ], [ 101.878332, 3.11935 ], [ 101.876872, 3.116067 ], [ 101.871401, 3.10944 ], [ 101.865017, 3.109988 ], [ 101.863832, 3.107617 ], [ 101.865047, 3.105367 ], [ 101.863041, 3.103847 ], [ 101.855685, 3.105367 ], [ 101.853253, 3.102084 ], [ 101.84085, 3.096734 ], [ 101.842553, 3.092965 ], [ 101.841033, 3.089682 ], [ 101.841945, 3.086824 ], [ 101.839695, 3.080136 ], [ 101.83623, 3.073874 ], [ 101.835804, 3.068828 ], [ 101.833494, 3.062809 ], [ 101.832898, 3.055188 ], [ 101.817018, 3.056487 ], [ 101.808324, 3.056547 ], [ 101.807959, 3.060195 ], [ 101.798293, 3.059466 ], [ 101.793794, 3.064694 ], [ 101.788018, 3.066579 ], [ 101.785343, 3.069801 ], [ 101.784613, 3.065241 ], [ 101.780722, 3.065241 ], [ 101.781102, 3.06211 ], [ 101.779765, 3.06132 ], [ 101.779339, 3.057794 ], [ 101.778367, 3.05141 ], [ 101.779826, 3.049343 ], [ 101.777151, 3.04837 ], [ 101.77484, 3.044601 ], [ 101.772712, 3.044662 ], [ 101.769916, 3.051592 ], [ 101.767955, 3.05831 ], [ 101.765128, 3.060195 ], [ 101.75689, 3.061198 ], [ 101.751753, 3.064876 ], [ 101.74999, 3.064451 ], [ 101.750213, 3.06931 ], [ 101.747246, 3.079057 ], [ 101.745848, 3.083009 ], [ 101.758372, 3.094044 ] ] ] } },
{ "type": "Feature", "properties": { "state": "Selangor", "parlimen": "P.089 Hulu Langat", "code_parlimen": "P.089", "dun": "N.23 Semenyih", "code_dun": "N.23" }, "geometry": { "type": "Polygon", "coordinates": [ [ [ 101.811911, 2.985689 ], [ 101.806196, 2.988485 ], [ 101.800846, 2.988668 ], [ 101.795922, 2.992376 ], [ 101.788991, 2.992924 ], [ 101.785525, 2.994322 ], [ 101.785769, 2.998821 ], [ 101.790769, 3.00563 ], [ 101.791681, 3.008791 ], [ 101.797943, 3.011284 ], [ 101.809312, 3.022106 ], [ 101.808643, 3.023626 ], [ 101.809981, 3.02472 ], [ 101.811562, 3.023322 ], [ 101.811683, 3.022106 ], [ 101.813689, 3.021316 ], [ 101.816364, 3.018033 ], [ 101.815757, 3.012926 ], [ 101.82135, 3.018397 ], [ 101.82062, 3.022045 ], [ 101.821715, 3.024234 ], [ 101.824146, 3.024477 ], [ 101.826335, 3.025571 ], [ 101.827247, 3.028186 ], [ 101.823599, 3.031894 ], [ 101.823903, 3.03463 ], [ 101.826214, 3.034873 ], [ 101.828037, 3.036515 ], [ 101.829983, 3.035724 ], [ 101.83126, 3.038095 ], [ 101.833327, 3.03846 ], [ 101.840364, 3.047793 ], [ 101.841145, 3.050789 ], [ 101.832898, 3.055188 ], [ 101.833494, 3.062809 ], [ 101.835804, 3.068828 ], [ 101.83623, 3.073874 ], [ 101.839695, 3.080136 ], [ 101.841945, 3.086824 ], [ 101.841033, 3.089682 ], [ 101.842553, 3.092965 ], [ 101.84085, 3.096734 ], [ 101.853253, 3.102084 ], [ 101.855685, 3.105367 ], [ 101.863041, 3.103847 ], [ 101.865047, 3.105367 ], [ 101.863832, 3.107617 ], [ 101.865017, 3.109988 ], [ 101.871401, 3.10944 ], [ 101.876872, 3.116067 ], [ 101.878332, 3.11935 ], [ 101.881736, 3.117709 ], [ 101.884533, 3.118864 ], [ 101.888849, 3.117222 ], [ 101.907879, 3.118134 ], [ 101.959617, 3.118013 ], [ 101.958766, 3.116736 ], [ 101.954753, 3.113088 ], [ 101.948248, 3.112176 ], [ 101.948752, 3.102041 ], [ 101.955289, 3.094954 ], [ 101.957904, 3.08078 ], [ 101.9622, 3.077983 ], [ 101.958838, 3.061384 ], [ 101.965562, 3.055789 ], [ 101.964068, 3.05094 ], [ 101.96743, 3.043852 ], [ 101.968177, 3.025947 ], [ 101.960145, 3.024455 ], [ 101.955103, 3.026134 ], [ 101.944456, 3.016062 ], [ 101.9396, 3.015502 ], [ 101.939787, 3.010094 ], [ 101.943336, 3.006363 ], [ 101.93904, 2.99853 ], [ 101.930822, 2.99853 ], [ 101.928207, 2.977826 ], [ 101.922417, 2.975028 ], [ 101.923351, 2.967567 ], [ 101.881607, 2.866654 ], [ 101.798156, 2.869476 ], [ 101.797001, 2.871452 ], [ 101.793201, 2.873245 ], [ 101.789796, 2.876498 ], [ 101.789979, 2.880997 ], [ 101.794903, 2.888049 ], [ 101.792107, 2.891636 ], [ 101.789857, 2.890177 ], [ 101.786027, 2.887806 ], [ 101.781224, 2.886468 ], [ 101.780494, 2.888475 ], [ 101.778002, 2.888414 ], [ 101.776907, 2.890481 ], [ 101.776847, 2.892974 ], [ 101.774172, 2.896986 ], [ 101.78092, 2.90337 ], [ 101.766815, 2.903127 ], [ 101.762848, 2.899236 ], [ 101.754762, 2.898506 ], [ 101.750385, 2.895649 ], [ 101.744305, 2.891454 ], [ 101.738043, 2.889569 ], [ 101.736949, 2.891879 ], [ 101.733605, 2.896257 ], [ 101.736645, 2.899175 ], [ 101.739745, 2.902823 ], [ 101.747041, 2.908659 ], [ 101.752756, 2.911273 ], [ 101.754169, 2.916624 ], [ 101.757209, 2.919724 ], [ 101.761404, 2.920332 ], [ 101.763714, 2.923554 ], [ 101.769369, 2.925986 ], [ 101.774111, 2.929148 ], [ 101.781102, 2.935896 ], [ 101.784446, 2.94003 ], [ 101.78738, 2.937416 ], [ 101.792, 2.93389 ], [ 101.796621, 2.935775 ], [ 101.802518, 2.939118 ], [ 101.806166, 2.938206 ], [ 101.809206, 2.938754 ], [ 101.808841, 2.94003 ], [ 101.803795, 2.941793 ], [ 101.7996, 2.944651 ], [ 101.7996, 2.946657 ], [ 101.798262, 2.948846 ], [ 101.798325, 2.95449 ], [ 101.800451, 2.957418 ], [ 101.802214, 2.958421 ], [ 101.801788, 2.970064 ], [ 101.806029, 2.969882 ], [ 101.805664, 2.974502 ], [ 101.807731, 2.981251 ], [ 101.812413, 2.981615 ], [ 101.813446, 2.98429 ], [ 101.811911, 2.985689 ] ] ] } },
{ "type": "Feature", "properties": { "state": "Selangor", "parlimen": "P.089 Hulu Langat", "code_parlimen": "P.089", "dun": "N.24 Kajang", "code_dun": "N.24" }, "geometry": { "type": "Polygon", "coordinates": [ [ [ 101.801788, 2.970064 ], [ 101.802214, 2.958421 ], [ 101.800451, 2.957418 ], [ 101.798325, 2.95449 ], [ 101.798262, 2.948846 ], [ 101.7996, 2.946657 ], [ 101.7996, 2.944651 ], [ 101.803795, 2.941793 ], [ 101.808841, 2.94003 ], [ 101.809206, 2.938754 ], [ 101.806166, 2.938206 ], [ 101.802518, 2.939118 ], [ 101.796621, 2.935775 ], [ 101.792, 2.93389 ], [ 101.78738, 2.937416 ], [ 101.784446, 2.94003 ], [ 101.785297, 2.945016 ], [ 101.784689, 2.951703 ], [ 101.781528, 2.958391 ], [ 101.782197, 2.964045 ], [ 101.784933, 2.965808 ], [ 101.785845, 2.969395 ], [ 101.784203, 2.973469 ], [ 101.784142, 2.977664 ], [ 101.787121, 2.983378 ], [ 101.785297, 2.986175 ], [ 101.782258, 2.988485 ], [ 101.778625, 2.98743 ], [ 101.77484, 2.987269 ], [ 101.772408, 2.989154 ], [ 101.767302, 2.990856 ], [ 101.75876, 2.99189 ], [ 101.748941, 2.992498 ], [ 101.741524, 2.994747 ], [ 101.734228, 3.002408 ], [ 101.728996, 3.005251 ], [ 101.72295, 3.01329 ], [ 101.726519, 3.02135 ], [ 101.72993, 3.030731 ], [ 101.731109, 3.03755 ], [ 101.730508, 3.037604 ], [ 101.730695, 3.055229 ], [ 101.749746, 3.055322 ], [ 101.74999, 3.064451 ], [ 101.751753, 3.064876 ], [ 101.75689, 3.061198 ], [ 101.765128, 3.060195 ], [ 101.767955, 3.05831 ], [ 101.769916, 3.051592 ], [ 101.772712, 3.044662 ], [ 101.77484, 3.044601 ], [ 101.777151, 3.04837 ], [ 101.779826, 3.049343 ], [ 101.778367, 3.05141 ], [ 101.779339, 3.057794 ], [ 101.779765, 3.06132 ], [ 101.781102, 3.06211 ], [ 101.780722, 3.065241 ], [ 101.784613, 3.065241 ], [ 101.785343, 3.069801 ], [ 101.788018, 3.066579 ], [ 101.793794, 3.064694 ], [ 101.798293, 3.059466 ], [ 101.807959, 3.060195 ], [ 101.808324, 3.056547 ], [ 101.817018, 3.056487 ], [ 101.832898, 3.055188 ], [ 101.841145, 3.050789 ], [ 101.840364, 3.047793 ], [ 101.833327, 3.03846 ], [ 101.83126, 3.038095 ], [ 101.829983, 3.035724 ], [ 101.828037, 3.036515 ], [ 101.826214, 3.034873 ], [ 101.823903, 3.03463 ], [ 101.823599, 3.031894 ], [ 101.827247, 3.028186 ], [ 101.826335, 3.025571 ], [ 101.824146, 3.024477 ], [ 101.821715, 3.024234 ], [ 101.82062, 3.022045 ], [ 101.82135, 3.018397 ], [ 101.815757, 3.012926 ], [ 101.816364, 3.018033 ], [ 101.813689, 3.021316 ], [ 101.811683, 3.022106 ], [ 101.811562, 3.023322 ], [ 101.809981, 3.02472 ], [ 101.808643, 3.023626 ], [ 101.809312, 3.022106 ], [ 101.797943, 3.011284 ], [ 101.791681, 3.008791 ], [ 101.790769, 3.00563 ], [ 101.785769, 2.998821 ], [ 101.785525, 2.994322 ], [ 101.788991, 2.992924 ], [ 101.795922, 2.992376 ], [ 101.800846, 2.988668 ], [ 101.806196, 2.988485 ], [ 101.811911, 2.985689 ], [ 101.813446, 2.98429 ], [ 101.812413, 2.981615 ], [ 101.807731, 2.981251 ], [ 101.805664, 2.974502 ], [ 101.806029, 2.969882 ], [ 101.801788, 2.970064 ] ] ] } },
{ "type": "Feature", "properties": { "state": "Selangor", "parlimen": "P.090 Petaling Jaya", "code_parlimen": "P.090", "dun": "N.25 Damansara Utama", "code_dun": "N.25" }, "geometry": { "type": "Polygon", "coordinates": [ [ [ 101.642911, 3.116356 ], [ 101.637926, 3.109668 ], [ 101.635129, 3.105474 ], [ 101.631162, 3.110459 ], [ 101.62183, 3.109213 ], [ 101.611799, 3.108635 ], [ 101.61002, 3.106689 ], [ 101.606251, 3.107358 ], [ 101.604001, 3.110155 ], [ 101.599563, 3.110094 ], [ 101.594882, 3.10979 ], [ 101.592009, 3.118818 ], [ 101.589638, 3.127573 ], [ 101.599366, 3.127786 ], [ 101.599305, 3.146967 ], [ 101.600065, 3.150524 ], [ 101.600308, 3.169614 ], [ 101.599998, 3.181589 ], [ 101.61984, 3.180789 ], [ 101.620032, 3.174774 ], [ 101.618165, 3.172163 ], [ 101.614803, 3.153141 ], [ 101.629745, 3.137103 ], [ 101.62825, 3.130762 ], [ 101.635908, 3.132254 ], [ 101.646135, 3.128349 ], [ 101.648609, 3.127405 ], [ 101.642819, 3.119386 ], [ 101.647973, 3.1197 ], [ 101.642911, 3.116356 ] ] ] } },
{ "type": "Feature", "properties": { "state": "Selangor", "parlimen": "P.090 Petaling Jaya", "code_parlimen": "P.090", "dun": "N.26 Taman Aman", "code_dun": "N.26" }, "geometry": { "type": "Polygon", "coordinates": [ [ [ 101.624885, 3.095959 ], [ 101.620812, 3.096992 ], [ 101.620082, 3.100336 ], [ 101.618319, 3.102707 ], [ 101.614641, 3.102981 ], [ 101.61002, 3.106689 ], [ 101.611799, 3.108635 ], [ 101.62183, 3.109213 ], [ 101.631162, 3.110459 ], [ 101.635129, 3.105474 ], [ 101.633032, 3.104714 ], [ 101.631573, 3.102586 ], [ 101.632789, 3.096992 ], [ 101.629202, 3.096658 ], [ 101.627515, 3.095047 ], [ 101.624885, 3.095959 ] ] ] } },
{ "type": "Feature", "properties": { "state": "Selangor", "parlimen": "P.090 Petaling Jaya", "code_parlimen": "P.090", "dun": "N.27 Kelana Jaya", "code_dun": "N.27" }, "geometry": { "type": "Polygon", "coordinates": [ [ [ 101.623669, 3.078601 ], [ 101.623061, 3.073738 ], [ 101.619109, 3.076169 ], [ 101.617468, 3.079817 ], [ 101.618653, 3.083465 ], [ 101.613546, 3.08304 ], [ 101.608196, 3.082736 ], [ 101.604123, 3.085289 ], [ 101.60084, 3.089484 ], [ 101.602785, 3.093375 ], [ 101.602177, 3.09757 ], [ 101.604245, 3.101583 ], [ 101.604792, 3.106021 ], [ 101.606251, 3.107358 ], [ 101.61002, 3.106689 ], [ 101.614641, 3.102981 ], [ 101.618319, 3.102707 ], [ 101.620082, 3.100336 ], [ 101.620812, 3.096992 ], [ 101.624885, 3.095959 ], [ 101.627515, 3.095047 ], [ 101.626831, 3.093132 ], [ 101.622271, 3.091733 ], [ 101.625189, 3.089666 ], [ 101.627074, 3.087417 ], [ 101.625219, 3.083465 ], [ 101.623669, 3.078601 ] ] ] } },
{ "type": "Feature", "properties": { "state": "Selangor", "parlimen": "P.091 Puchong", "code_parlimen": "P.091", "dun": "N.28 Bukit Gasing", "code_dun": "N.28" }, "geometry": { "type": "Polygon", "coordinates": [ [ [ 101.640616, 3.085608 ], [ 101.639826, 3.087645 ], [ 101.639947, 3.089955 ], [ 101.634719, 3.090897 ], [ 101.632196, 3.091931 ], [ 101.633381, 3.094059 ], [ 101.632287, 3.095548 ], [ 101.632789, 3.096992 ], [ 101.631573, 3.102586 ], [ 101.633032, 3.104714 ], [ 101.635129, 3.105474 ], [ 101.637926, 3.109668 ], [ 101.642911, 3.116356 ], [ 101.647973, 3.1197 ], [ 101.652344, 3.110061 ], [ 101.654883, 3.111367 ], [ 101.658508, 3.113231 ], [ 101.660749, 3.101482 ], [ 101.66049, 3.10006 ], [ 101.658881, 3.091224 ], [ 101.663445, 3.087098 ], [ 101.660132, 3.084575 ], [ 101.655359, 3.082933 ], [ 101.647957, 3.08231 ], [ 101.64054, 3.08304 ], [ 101.640616, 3.085608 ] ] ] } },
{ "type": "Feature", "properties": { "state": "Selangor", "parlimen": "P.091 Puchong", "code_parlimen": "P.091", "dun": "N.29 Lindongan", "code_dun": "N.29" }, "geometry": { "type": "Polygon", "coordinates": [ [ [ 101.647015, 3.062232 ], [ 101.642987, 3.059678 ], [ 101.63782, 3.058706 ], [ 101.632165, 3.059435 ], [ 101.631056, 3.057794 ], [ 101.630402, 3.056335 ], [ 101.62639, 3.05524 ], [ 101.622408, 3.05749 ], [ 101.621678, 3.052504 ], [ 101.622955, 3.051045 ], [ 101.627332, 3.050133 ], [ 101.628123, 3.046242 ], [ 101.625873, 3.044722 ], [ 101.627697, 3.041683 ], [ 101.625265, 3.040102 ], [ 101.625387, 3.037548 ], [ 101.62186, 3.033049 ], [ 101.624171, 3.029523 ], [ 101.62338, 3.023443 ], [ 101.625447, 3.018945 ], [ 101.626907, 3.014142 ], [ 101.625143, 3.012804 ], [ 101.622347, 3.014324 ], [ 101.621252, 3.018945 ], [ 101.617483, 3.01937 ], [ 101.616085, 3.014871 ], [ 101.613227, 3.008427 ], [ 101.605263, 3.009947 ], [ 101.599305, 3.009278 ], [ 101.595596, 3.011041 ], [ 101.592131, 3.011163 ], [ 101.589152, 3.009643 ], [ 101.585686, 3.008913 ], [ 101.583741, 3.012378 ], [ 101.583802, 3.018519 ], [ 101.583923, 3.021741 ], [ 101.582707, 3.0232 ], [ 101.580093, 3.024112 ], [ 101.580154, 3.026423 ], [ 101.577357, 3.029949 ], [ 101.575959, 3.031469 ], [ 101.576932, 3.038521 ], [ 101.579607, 3.046546 ], [ 101.578999, 3.0491 ], [ 101.580336, 3.051653 ], [ 101.578634, 3.061745 ], [ 101.579607, 3.064785 ], [ 101.580336, 3.07123 ], [ 101.578391, 3.073175 ], [ 101.578756, 3.08193 ], [ 101.583862, 3.083024 ], [ 101.588848, 3.085456 ], [ 101.599305, 3.082538 ], [ 101.608196, 3.082736 ], [ 101.613546, 3.08304 ], [ 101.618653, 3.083465 ], [ 101.617468, 3.079817 ], [ 101.619109, 3.076169 ], [ 101.623061, 3.073738 ], [ 101.623669, 3.078601 ], [ 101.625219, 3.083465 ], [ 101.627074, 3.087417 ], [ 101.625189, 3.089666 ], [ 101.622271, 3.091733 ], [ 101.626831, 3.093132 ], [ 101.627515, 3.095047 ], [ 101.629202, 3.096658 ], [ 101.632789, 3.096992 ], [ 101.632287, 3.095548 ], [ 101.633381, 3.094059 ], [ 101.632196, 3.091931 ], [ 101.634719, 3.090897 ], [ 101.639947, 3.089955 ], [ 101.639826, 3.087645 ], [ 101.640616, 3.085608 ], [ 101.64054, 3.08304 ], [ 101.647957, 3.08231 ], [ 101.655359, 3.082933 ], [ 101.660132, 3.084575 ], [ 101.663445, 3.087098 ], [ 101.663993, 3.086596 ], [ 101.664327, 3.086323 ], [ 101.659441, 3.080594 ], [ 101.655673, 3.077824 ], [ 101.645994, 3.070709 ], [ 101.651971, 3.069031 ], [ 101.649477, 3.062293 ], [ 101.647015, 3.062232 ] ] ] } },
{ "type": "Feature", "properties": { "state": "Selangor", "parlimen": "P.091 Puchong", "code_parlimen": "P.091", "dun": "N.30 Serdang", "code_dun": "N.30" }, "geometry": { "type": "Polygon", "coordinates": [ [ [ 101.589152, 3.009643 ], [ 101.592131, 3.011163 ], [ 101.595596, 3.011041 ], [ 101.599305, 3.009278 ], [ 101.605263, 3.009947 ], [ 101.613227, 3.008427 ], [ 101.616085, 3.014871 ], [ 101.617483, 3.01937 ], [ 101.621252, 3.018945 ], [ 101.622347, 3.014324 ], [ 101.625143, 3.012804 ], [ 101.626907, 3.014142 ], [ 101.625447, 3.018945 ], [ 101.62338, 3.023443 ], [ 101.624171, 3.029523 ], [ 101.62186, 3.033049 ], [ 101.625387, 3.037548 ], [ 101.625265, 3.040102 ], [ 101.627697, 3.041683 ], [ 101.625873, 3.044722 ], [ 101.628123, 3.046242 ], [ 101.627332, 3.050133 ], [ 101.622955, 3.051045 ], [ 101.621678, 3.052504 ], [ 101.622408, 3.05749 ], [ 101.62639, 3.05524 ], [ 101.630402, 3.056335 ], [ 101.631056, 3.057794 ], [ 101.632165, 3.059435 ], [ 101.63782, 3.058706 ], [ 101.642987, 3.059678 ], [ 101.647015, 3.062232 ], [ 101.649477, 3.062293 ], [ 101.648795, 3.057654 ], [ 101.659441, 3.058586 ], [ 101.658694, 3.049447 ], [ 101.653465, 3.05094 ], [ 101.651037, 3.04609 ], [ 101.668967, 3.045531 ], [ 101.66934, 3.040495 ], [ 101.685029, 3.044412 ], [ 101.699411, 3.045344 ], [ 101.699224, 3.047582 ], [ 101.705948, 3.048515 ], [ 101.707816, 3.045344 ], [ 101.711364, 3.053551 ], [ 101.714913, 3.053551 ], [ 101.71622, 3.047209 ], [ 101.720329, 3.047209 ], [ 101.72089, 3.040868 ], [ 101.723691, 3.040495 ], [ 101.723878, 3.036765 ], [ 101.721637, 3.036019 ], [ 101.722757, 3.033035 ], [ 101.730508, 3.037604 ], [ 101.731109, 3.03755 ], [ 101.72993, 3.030731 ], [ 101.726519, 3.02135 ], [ 101.72295, 3.01329 ], [ 101.718938, 3.013047 ], [ 101.716506, 3.009035 ], [ 101.7176, 2.999672 ], [ 101.717843, 2.989336 ], [ 101.71377, 2.988242 ], [ 101.713466, 2.98423 ], [ 101.709089, 2.984169 ], [ 101.653049, 2.981311 ], [ 101.603074, 2.98046 ], [ 101.586902, 2.980217 ], [ 101.575716, 2.980582 ], [ 101.575229, 2.985932 ], [ 101.577965, 2.988972 ], [ 101.578452, 2.993714 ], [ 101.581127, 2.994626 ], [ 101.582951, 2.997787 ], [ 101.581552, 3.000584 ], [ 101.583255, 3.002833 ], [ 101.582768, 3.005873 ], [ 101.585686, 3.008913 ], [ 101.589152, 3.009643 ] ] ] } },
{ "type": "Feature", "properties": { "state": "Selangor", "parlimen": "P.092 Shah Alam", "code_parlimen": "P.092", "dun": "N.31 Subang", "code_dun": "N.31" }, "geometry": { "type": "Polygon", "coordinates": [ [ [ 101.42304, 3.120587 ], [ 101.422928, 3.134941 ], [ 101.41793, 3.135108 ], [ 101.405014, 3.135352 ], [ 101.405158, 3.141374 ], [ 101.405036, 3.148062 ], [ 101.401145, 3.148426 ], [ 101.401875, 3.152317 ], [ 101.400051, 3.154628 ], [ 101.395066, 3.155357 ], [ 101.397011, 3.158032 ], [ 101.401753, 3.164963 ], [ 101.402605, 3.169219 ], [ 101.400416, 3.174204 ], [ 101.403334, 3.181621 ], [ 101.399884, 3.185938 ], [ 101.399945, 3.191775 ], [ 101.464693, 3.192565 ], [ 101.469375, 3.194328 ], [ 101.477339, 3.191349 ], [ 101.483382, 3.192958 ], [ 101.488404, 3.190315 ], [ 101.490045, 3.18612 ], [ 101.49266, 3.185148 ], [ 101.497584, 3.182473 ], [ 101.498147, 3.175451 ], [ 101.498329, 3.171012 ], [ 101.498572, 3.167182 ], [ 101.506597, 3.168763 ], [ 101.508725, 3.175937 ], [ 101.517906, 3.175876 ], [ 101.517662, 3.166939 ], [ 101.520763, 3.166939 ], [ 101.520641, 3.164811 ], [ 101.517906, 3.158124 ], [ 101.524715, 3.156604 ], [ 101.528363, 3.158367 ], [ 101.533652, 3.157698 ], [ 101.540309, 3.166149 ], [ 101.55066, 3.182321 ], [ 101.55984, 3.18153 ], [ 101.566832, 3.178977 ], [ 101.576711, 3.181044 ], [ 101.599998, 3.181589 ], [ 101.600308, 3.169614 ], [ 101.600065, 3.150524 ], [ 101.599305, 3.146967 ], [ 101.599366, 3.127786 ], [ 101.589638, 3.127573 ], [ 101.592009, 3.118818 ], [ 101.594882, 3.10979 ], [ 101.599563, 3.110094 ], [ 101.604001, 3.110155 ], [ 101.606251, 3.107358 ], [ 101.604792, 3.106021 ], [ 101.604245, 3.101583 ], [ 101.602177, 3.09757 ], [ 101.602785, 3.093375 ], [ 101.60084, 3.089484 ], [ 101.604123, 3.085289 ], [ 101.608196, 3.082736 ], [ 101.599305, 3.082538 ], [ 101.588848, 3.085456 ], [ 101.583862, 3.083024 ], [ 101.578756, 3.08193 ], [ 101.574697, 3.081656 ], [ 101.569165, 3.076124 ], [ 101.561991, 3.076245 ], [ 101.556762, 3.074726 ], [ 101.554574, 3.078738 ], [ 101.553601, 3.085304 ], [ 101.55433, 3.093208 ], [ 101.556884, 3.098315 ], [ 101.558465, 3.107191 ], [ 101.556154, 3.113757 ], [ 101.551047, 3.115581 ], [ 101.547643, 3.119472 ], [ 101.544618, 3.127984 ], [ 101.531729, 3.127436 ], [ 101.520831, 3.126828 ], [ 101.518825, 3.117891 ], [ 101.519068, 3.111325 ], [ 101.519737, 3.103908 ], [ 101.518947, 3.098679 ], [ 101.520588, 3.092965 ], [ 101.515421, 3.092478 ], [ 101.509341, 3.090168 ], [ 101.505936, 3.092357 ], [ 101.501544, 3.091019 ], [ 101.496923, 3.094728 ], [ 101.491755, 3.093937 ], [ 101.481648, 3.094849 ], [ 101.479216, 3.097768 ], [ 101.475325, 3.096187 ], [ 101.470157, 3.097281 ], [ 101.468516, 3.096248 ], [ 101.467543, 3.093147 ], [ 101.458606, 3.093573 ], [ 101.449912, 3.094788 ], [ 101.443338, 3.094196 ], [ 101.442548, 3.105139 ], [ 101.440912, 3.115693 ], [ 101.440836, 3.120487 ], [ 101.430789, 3.120587 ], [ 101.42304, 3.120587 ] ] ] } },
{ "type": "Feature", "properties": { "state": "Selangor", "parlimen": "P.092 Shah Alam", "code_parlimen": "P.092", "dun": "N.32 Batu Tiga", "code_dun": "N.32" }, "geometry": { "type": "Polygon", "coordinates": [ [ [ 101.422928, 3.134941 ], [ 101.42304, 3.128212 ], [ 101.42304, 3.120587 ], [ 101.430789, 3.120587 ], [ 101.440836, 3.120487 ], [ 101.440912, 3.115693 ], [ 101.442548, 3.105139 ], [ 101.443338, 3.094196 ], [ 101.449912, 3.094788 ], [ 101.458606, 3.093573 ], [ 101.467543, 3.093147 ], [ 101.468516, 3.096248 ], [ 101.470157, 3.097281 ], [ 101.475325, 3.096187 ], [ 101.479216, 3.097768 ], [ 101.481648, 3.094849 ], [ 101.491755, 3.093937 ], [ 101.496923, 3.094728 ], [ 101.501544, 3.091019 ], [ 101.505936, 3.092357 ], [ 101.509341, 3.090168 ], [ 101.515421, 3.092478 ], [ 101.520588, 3.092965 ], [ 101.518947, 3.098679 ], [ 101.519737, 3.103908 ], [ 101.519068, 3.111325 ], [ 101.518825, 3.117891 ], [ 101.520831, 3.126828 ], [ 101.531729, 3.127436 ], [ 101.544618, 3.127984 ], [ 101.547643, 3.119472 ], [ 101.551047, 3.115581 ], [ 101.556154, 3.113757 ], [ 101.558465, 3.107191 ], [ 101.556884, 3.098315 ], [ 101.55433, 3.093208 ], [ 101.553601, 3.085304 ], [ 101.554574, 3.078738 ], [ 101.556762, 3.074726 ], [ 101.561991, 3.076245 ], [ 101.569165, 3.076124 ], [ 101.574697, 3.081656 ], [ 101.578756, 3.08193 ], [ 101.578391, 3.073175 ], [ 101.580336, 3.07123 ], [ 101.579607, 3.064785 ], [ 101.578634, 3.061745 ], [ 101.580336, 3.051653 ], [ 101.578999, 3.0491 ], [ 101.579607, 3.046546 ], [ 101.576932, 3.038521 ], [ 101.575959, 3.031469 ], [ 101.577357, 3.029949 ], [ 101.580154, 3.026423 ], [ 101.580093, 3.024112 ], [ 101.582707, 3.0232 ], [ 101.583923, 3.021741 ], [ 101.583802, 3.018519 ], [ 101.583741, 3.012378 ], [ 101.585686, 3.008913 ], [ 101.582768, 3.005873 ], [ 101.583255, 3.002833 ], [ 101.581552, 3.000584 ], [ 101.582951, 2.997787 ], [ 101.581127, 2.994626 ], [ 101.578452, 2.993714 ], [ 101.577965, 2.988972 ], [ 101.575229, 2.985932 ], [ 101.575716, 2.980582 ], [ 101.57029, 2.977329 ], [ 101.565973, 2.974532 ], [ 101.561839, 2.975627 ], [ 101.556002, 2.98043 ], [ 101.55357, 2.987786 ], [ 101.551625, 2.991981 ], [ 101.549254, 2.993744 ], [ 101.551382, 3.000493 ], [ 101.547004, 3.005904 ], [ 101.547187, 3.008396 ], [ 101.545849, 3.010281 ], [ 101.546153, 3.012105 ], [ 101.544755, 3.013929 ], [ 101.544816, 3.016421 ], [ 101.550348, 3.015935 ], [ 101.555273, 3.014111 ], [ 101.55582, 3.017394 ], [ 101.550287, 3.019279 ], [ 101.549983, 3.021528 ], [ 101.552051, 3.023291 ], [ 101.55351, 3.02086 ], [ 101.556306, 3.020738 ], [ 101.554239, 3.025845 ], [ 101.550591, 3.025723 ], [ 101.548963, 3.028663 ], [ 101.547491, 3.031073 ], [ 101.544086, 3.032229 ], [ 101.543235, 3.033566 ], [ 101.544451, 3.035512 ], [ 101.542482, 3.038556 ], [ 101.540606, 3.03691 ], [ 101.537201, 3.036728 ], [ 101.538356, 3.040497 ], [ 101.535377, 3.039159 ], [ 101.529723, 3.038795 ], [ 101.527595, 3.040862 ], [ 101.527717, 3.044023 ], [ 101.528385, 3.046577 ], [ 101.52565, 3.046881 ], [ 101.525467, 3.04457 ], [ 101.524008, 3.040923 ], [ 101.529601, 3.03691 ], [ 101.529054, 3.034964 ], [ 101.525467, 3.036363 ], [ 101.523704, 3.034417 ], [ 101.52419, 3.031013 ], [ 101.522367, 3.030769 ], [ 101.522245, 3.034113 ], [ 101.521515, 3.03691 ], [ 101.520178, 3.035876 ], [ 101.519691, 3.032229 ], [ 101.516895, 3.029858 ], [ 101.512639, 3.03466 ], [ 101.511119, 3.038551 ], [ 101.509234, 3.043233 ], [ 101.506529, 3.040254 ], [ 101.494126, 3.041956 ], [ 101.495707, 3.047185 ], [ 101.49133, 3.045725 ], [ 101.481116, 3.047671 ], [ 101.480569, 3.046029 ], [ 101.48294, 3.039707 ], [ 101.482453, 3.035816 ], [ 101.47838, 3.036241 ], [ 101.477347, 3.03922 ], [ 101.478463, 3.046789 ], [ 101.476435, 3.048218 ], [ 101.474072, 3.047251 ], [ 101.474793, 3.039403 ], [ 101.472422, 3.039828 ], [ 101.471024, 3.041652 ], [ 101.47072, 3.047306 ], [ 101.47034, 3.050772 ], [ 101.473866, 3.051866 ], [ 101.474231, 3.056608 ], [ 101.480797, 3.059891 ], [ 101.480432, 3.063174 ], [ 101.476419, 3.06512 ], [ 101.473136, 3.064269 ], [ 101.469002, 3.067187 ], [ 101.460247, 3.066944 ], [ 101.450642, 3.068646 ], [ 101.448088, 3.073874 ], [ 101.435321, 3.069497 ], [ 101.433155, 3.066959 ], [ 101.430176, 3.071215 ], [ 101.423519, 3.079483 ], [ 101.423154, 3.094196 ], [ 101.423489, 3.112064 ], [ 101.4172, 3.112288 ], [ 101.417686, 3.12073 ], [ 101.41793, 3.135108 ], [ 101.422928, 3.134941 ] ] ] } },
{ "type": "Feature", "properties": { "state": "Selangor", "parlimen": "P.092 Shah Alam", "code_parlimen": "P.092", "dun": "N.33 Shahbandar Raya", "code_dun": "N.33" }, "geometry": { "type": "Polygon", "coordinates": [ [ [ 101.535559, 2.957266 ], [ 101.52378, 2.950518 ], [ 101.494582, 2.950092 ], [ 101.469656, 2.950335 ], [ 101.468881, 2.953314 ], [ 101.463044, 2.970277 ], [ 101.455916, 2.9797 ], [ 101.45245, 2.98353 ], [ 101.44631, 2.990096 ], [ 101.42418, 2.989732 ], [ 101.423572, 2.994595 ], [ 101.419985, 2.995143 ], [ 101.420213, 3.005782 ], [ 101.421018, 3.007788 ], [ 101.42497, 3.007971 ], [ 101.42497, 3.010828 ], [ 101.428679, 3.010403 ], [ 101.429287, 3.015692 ], [ 101.428071, 3.018124 ], [ 101.422356, 3.017881 ], [ 101.420836, 3.019765 ], [ 101.425153, 3.024507 ], [ 101.4288, 3.022501 ], [ 101.433725, 3.02779 ], [ 101.436035, 3.026331 ], [ 101.439197, 3.029493 ], [ 101.442358, 3.028216 ], [ 101.446006, 3.028034 ], [ 101.449654, 3.027061 ], [ 101.453119, 3.029736 ], [ 101.455847, 3.033332 ], [ 101.456098, 3.037305 ], [ 101.457071, 3.039463 ], [ 101.45812, 3.040071 ], [ 101.460734, 3.038612 ], [ 101.462755, 3.038339 ], [ 101.464503, 3.039463 ], [ 101.464944, 3.045604 ], [ 101.46768, 3.048036 ], [ 101.47072, 3.047306 ], [ 101.471024, 3.041652 ], [ 101.472422, 3.039828 ], [ 101.474793, 3.039403 ], [ 101.474072, 3.047251 ], [ 101.476435, 3.048218 ], [ 101.478463, 3.046789 ], [ 101.477347, 3.03922 ], [ 101.47838, 3.036241 ], [ 101.482453, 3.035816 ], [ 101.48294, 3.039707 ], [ 101.480569, 3.046029 ], [ 101.481116, 3.047671 ], [ 101.49133, 3.045725 ], [ 101.495707, 3.047185 ], [ 101.494126, 3.041956 ], [ 101.506529, 3.040254 ], [ 101.509234, 3.043233 ], [ 101.511119, 3.038551 ], [ 101.512639, 3.03466 ], [ 101.516895, 3.029858 ], [ 101.519691, 3.032229 ], [ 101.520178, 3.035876 ], [ 101.521515, 3.03691 ], [ 101.522245, 3.034113 ], [ 101.522367, 3.030769 ], [ 101.52419, 3.031013 ], [ 101.523704, 3.034417 ], [ 101.525467, 3.036363 ], [ 101.529054, 3.034964 ], [ 101.529601, 3.03691 ], [ 101.524008, 3.040923 ], [ 101.525467, 3.04457 ], [ 101.52565, 3.046881 ], [ 101.528385, 3.046577 ], [ 101.527717, 3.044023 ], [ 101.527595, 3.040862 ], [ 101.529723, 3.038795 ], [ 101.535377, 3.039159 ], [ 101.538356, 3.040497 ], [ 101.537201, 3.036728 ], [ 101.540606, 3.03691 ], [ 101.542482, 3.038556 ], [ 101.544451, 3.035512 ], [ 101.543235, 3.033566 ], [ 101.544086, 3.032229 ], [ 101.547491, 3.031073 ], [ 101.548963, 3.028663 ], [ 101.550591, 3.025723 ], [ 101.554239, 3.025845 ], [ 101.556306, 3.020738 ], [ 101.55351, 3.02086 ], [ 101.552051, 3.023291 ], [ 101.549983, 3.021528 ], [ 101.550287, 3.019279 ], [ 101.55582, 3.017394 ], [ 101.555273, 3.014111 ], [ 101.550348, 3.015935 ], [ 101.544816, 3.016421 ], [ 101.544755, 3.013929 ], [ 101.546153, 3.012105 ], [ 101.545849, 3.010281 ], [ 101.547187, 3.008396 ], [ 101.547004, 3.005904 ], [ 101.551382, 3.000493 ], [ 101.549254, 2.993744 ], [ 101.551625, 2.991981 ], [ 101.55357, 2.987786 ], [ 101.556002, 2.98043 ], [ 101.561839, 2.975627 ], [ 101.565973, 2.974532 ], [ 101.559407, 2.970155 ], [ 101.56269, 2.965656 ], [ 101.548585, 2.957996 ], [ 101.548707, 2.965413 ], [ 101.535559, 2.957266 ] ] ] } },
{ "type": "Feature", "properties": { "state": "Selangor", "parlimen": "P.093 Klang", "code_parlimen": "P.093", "dun": "N.34 Klang Bandar", "code_dun": "N.34" }, "geometry": { "type": "Polygon", "coordinates": [ [ [ 101.45473, 3.038035 ], [ 101.453879, 3.03998 ], [ 101.449258, 3.04454 ], [ 101.446036, 3.045087 ], [ 101.443665, 3.047884 ], [ 101.440967, 3.048477 ], [ 101.438414, 3.05255 ], [ 101.437015, 3.056684 ], [ 101.435404, 3.057353 ], [ 101.433337, 3.060028 ], [ 101.433337, 3.063068 ], [ 101.433155, 3.066959 ], [ 101.435321, 3.069497 ], [ 101.448088, 3.073874 ], [ 101.450642, 3.068646 ], [ 101.460247, 3.066944 ], [ 101.469002, 3.067187 ], [ 101.473136, 3.064269 ], [ 101.476419, 3.06512 ], [ 101.480432, 3.063174 ], [ 101.480797, 3.059891 ], [ 101.474231, 3.056608 ], [ 101.473866, 3.051866 ], [ 101.47034, 3.050772 ], [ 101.47072, 3.047306 ], [ 101.46768, 3.048036 ], [ 101.464944, 3.045604 ], [ 101.464503, 3.039463 ], [ 101.462755, 3.038339 ], [ 101.460734, 3.038612 ], [ 101.45812, 3.040071 ], [ 101.457071, 3.039463 ], [ 101.456098, 3.037305 ], [ 101.45473, 3.038035 ] ] ] } },
{ "type": "Feature", "properties": { "state": "Selangor", "parlimen": "P.093 Klang", "code_parlimen": "P.093", "dun": "N.35 Telok Gadong", "code_dun": "N.35" }, "geometry": { "type": "Polygon", "coordinates": [ [ [ 101.416915, 3.008427 ], [ 101.411443, 3.015236 ], [ 101.408411, 3.019051 ], [ 101.414521, 3.024918 ], [ 101.434866, 3.044457 ], [ 101.438171, 3.047565 ], [ 101.440967, 3.048477 ], [ 101.443665, 3.047884 ], [ 101.446036, 3.045087 ], [ 101.449258, 3.04454 ], [ 101.453879, 3.03998 ], [ 101.45473, 3.038035 ], [ 101.456098, 3.037305 ], [ 101.455847, 3.033332 ], [ 101.453119, 3.029736 ], [ 101.449654, 3.027061 ], [ 101.446006, 3.028034 ], [ 101.442358, 3.028216 ], [ 101.439197, 3.029493 ], [ 101.436035, 3.026331 ], [ 101.433725, 3.02779 ], [ 101.4288, 3.022501 ], [ 101.425153, 3.024507 ], [ 101.420836, 3.019765 ], [ 101.422356, 3.017881 ], [ 101.428071, 3.018124 ], [ 101.429287, 3.015692 ], [ 101.428679, 3.010403 ], [ 101.42497, 3.010828 ], [ 101.42497, 3.007971 ], [ 101.421018, 3.007788 ], [ 101.420213, 3.005782 ], [ 101.416915, 3.008427 ] ] ] } },
{ "type": "Feature", "properties": { "state": "Selangor", "parlimen": "P.093 Klang", "code_parlimen": "P.093", "dun": "N.36 Pandamaran", "code_dun": "N.36" }, "geometry": { "type": "Polygon", "coordinates": [ [ [ 101.411443, 3.015236 ], [ 101.416915, 3.008427 ], [ 101.420213, 3.005782 ], [ 101.419985, 2.995143 ], [ 101.423572, 2.994595 ], [ 101.42418, 2.989732 ], [ 101.44631, 2.990096 ], [ 101.45245, 2.98353 ], [ 101.455916, 2.9797 ], [ 101.463044, 2.970277 ], [ 101.468881, 2.953314 ], [ 101.450946, 2.953466 ], [ 101.441811, 2.950487 ], [ 101.432213, 2.950972 ], [ 101.422538, 2.950183 ], [ 101.419887, 2.94691 ], [ 101.414226, 2.943098 ], [ 101.409027, 2.940903 ], [ 101.406947, 2.938823 ], [ 101.40588, 2.935531 ], [ 101.407704, 2.932005 ], [ 101.411899, 2.930668 ], [ 101.419407, 2.931093 ], [ 101.42342, 2.929695 ], [ 101.426642, 2.923494 ], [ 101.429682, 2.916563 ], [ 101.428466, 2.913037 ], [ 101.423724, 2.912915 ], [ 101.42058, 2.910517 ], [ 101.41723, 2.904163 ], [ 101.413648, 2.898848 ], [ 101.4118, 2.894689 ], [ 101.413071, 2.890645 ], [ 101.417692, 2.886833 ], [ 101.419656, 2.884176 ], [ 101.418963, 2.880825 ], [ 101.420234, 2.876435 ], [ 101.423122, 2.874586 ], [ 101.424508, 2.874933 ], [ 101.425779, 2.875857 ], [ 101.426588, 2.878399 ], [ 101.426588, 2.881287 ], [ 101.426241, 2.886024 ], [ 101.426357, 2.888566 ], [ 101.429361, 2.892494 ], [ 101.430054, 2.896307 ], [ 101.429014, 2.89804 ], [ 101.426704, 2.899542 ], [ 101.424046, 2.902892 ], [ 101.424971, 2.90578 ], [ 101.426935, 2.90682 ], [ 101.429707, 2.906589 ], [ 101.433751, 2.903239 ], [ 101.436177, 2.899888 ], [ 101.439297, 2.899657 ], [ 101.445882, 2.897809 ], [ 101.446441, 2.897638 ], [ 101.449852, 2.894713 ], [ 101.452009, 2.889106 ], [ 101.451659, 2.888797 ], [ 101.450157, 2.884407 ], [ 101.446188, 2.881544 ], [ 101.444496, 2.876781 ], [ 101.442878, 2.872738 ], [ 101.44103, 2.867308 ], [ 101.439181, 2.866383 ], [ 101.433404, 2.865228 ], [ 101.430285, 2.865112 ], [ 101.427743, 2.866037 ], [ 101.424508, 2.863726 ], [ 101.42266, 2.859798 ], [ 101.422544, 2.856216 ], [ 101.423584, 2.850671 ], [ 101.421389, 2.847205 ], [ 101.418847, 2.846858 ], [ 101.41515, 2.846165 ], [ 101.414341, 2.843508 ], [ 101.413186, 2.839002 ], [ 101.410394, 2.835217 ], [ 101.412218, 2.829623 ], [ 101.41515, 2.822712 ], [ 101.413417, 2.808848 ], [ 101.410637, 2.803967 ], [ 101.406989, 2.804454 ], [ 101.404179, 2.8035 ], [ 101.355737, 2.812611 ], [ 101.340324, 2.82235 ], [ 101.319249, 2.831461 ], [ 101.293456, 2.836331 ], [ 101.283862, 2.873088 ], [ 101.283562, 2.881764 ], [ 101.291316, 2.886514 ], [ 101.300192, 2.89235 ], [ 101.305421, 2.898917 ], [ 101.31071, 2.905483 ], [ 101.315088, 2.909617 ], [ 101.319465, 2.91217 ], [ 101.323478, 2.911319 ], [ 101.33126, 2.904875 ], [ 101.340014, 2.895877 ], [ 101.343297, 2.895269 ], [ 101.346702, 2.897579 ], [ 101.348161, 2.901592 ], [ 101.346094, 2.907793 ], [ 101.337218, 2.918858 ], [ 101.336731, 2.92287 ], [ 101.339893, 2.925789 ], [ 101.347067, 2.927734 ], [ 101.35193, 2.92591 ], [ 101.358983, 2.940015 ], [ 101.36412, 2.956187 ], [ 101.371781, 2.969684 ], [ 101.383575, 2.980992 ], [ 101.391874, 2.991692 ], [ 101.392725, 2.998137 ], [ 101.397224, 3.002271 ], [ 101.403182, 3.0075 ], [ 101.404033, 3.014795 ], [ 101.408411, 3.019051 ], [ 101.411443, 3.015236 ] ] ] } },
{ "type": "Feature", "properties": { "state": "Selangor", "parlimen": "P.094 Kuala Langat", "code_parlimen": "P.094", "dun": "N.37 Panglima Garang", "code_dun": "N.37" }, "geometry": { "type": "Polygon", "coordinates": [ [ [ 101.507775, 2.884948 ], [ 101.498291, 2.876558 ], [ 101.50887, 2.862454 ], [ 101.505708, 2.8599 ], [ 101.505632, 2.858015 ], [ 101.501802, 2.857863 ], [ 101.496756, 2.856921 ], [ 101.491163, 2.856313 ], [ 101.485478, 2.857408 ], [ 101.482833, 2.855857 ], [ 101.481253, 2.856252 ], [ 101.481618, 2.862575 ], [ 101.479794, 2.865797 ], [ 101.473957, 2.867013 ], [ 101.473228, 2.869628 ], [ 101.477119, 2.871938 ], [ 101.480523, 2.879842 ], [ 101.483563, 2.881422 ], [ 101.487819, 2.883125 ], [ 101.487576, 2.885313 ], [ 101.485022, 2.886286 ], [ 101.481374, 2.887988 ], [ 101.476511, 2.883733 ], [ 101.474079, 2.878261 ], [ 101.47189, 2.879598 ], [ 101.471981, 2.884423 ], [ 101.471981, 2.890055 ], [ 101.468255, 2.889795 ], [ 101.465049, 2.887629 ], [ 101.456417, 2.883368 ], [ 101.451189, 2.881909 ], [ 101.449486, 2.87437 ], [ 101.446447, 2.872546 ], [ 101.445138, 2.867336 ], [ 101.44103, 2.867308 ], [ 101.442878, 2.872738 ], [ 101.444496, 2.876781 ], [ 101.446188, 2.881544 ], [ 101.450157, 2.884407 ], [ 101.451659, 2.888797 ], [ 101.452009, 2.889106 ], [ 101.449852, 2.894713 ], [ 101.446441, 2.897638 ], [ 101.445882, 2.897809 ], [ 101.439297, 2.899657 ], [ 101.436177, 2.899888 ], [ 101.433751, 2.903239 ], [ 101.429707, 2.906589 ], [ 101.426935, 2.90682 ], [ 101.424971, 2.90578 ], [ 101.424046, 2.902892 ], [ 101.426704, 2.899542 ], [ 101.429014, 2.89804 ], [ 101.430054, 2.896307 ], [ 101.429361, 2.892494 ], [ 101.426357, 2.888566 ], [ 101.426241, 2.886024 ], [ 101.426588, 2.881287 ], [ 101.426588, 2.878399 ], [ 101.425779, 2.875857 ], [ 101.424508, 2.874933 ], [ 101.423122, 2.874586 ], [ 101.420234, 2.876435 ], [ 101.418963, 2.880825 ], [ 101.419656, 2.884176 ], [ 101.417692, 2.886833 ], [ 101.413071, 2.890645 ], [ 101.4118, 2.894689 ], [ 101.413648, 2.898848 ], [ 101.41723, 2.904163 ], [ 101.42058, 2.910517 ], [ 101.423724, 2.912915 ], [ 101.428466, 2.913037 ], [ 101.429682, 2.916563 ], [ 101.426642, 2.923494 ], [ 101.42342, 2.929695 ], [ 101.419407, 2.931093 ], [ 101.411899, 2.930668 ], [ 101.407704, 2.932005 ], [ 101.40588, 2.935531 ], [ 101.406947, 2.938823 ], [ 101.409027, 2.940903 ], [ 101.414226, 2.943098 ], [ 101.419887, 2.94691 ], [ 101.422538, 2.950183 ], [ 101.432213, 2.950972 ], [ 101.441811, 2.950487 ], [ 101.450946, 2.953466 ], [ 101.468881, 2.953314 ], [ 101.469656, 2.950335 ], [ 101.494582, 2.950092 ], [ 101.52378, 2.950518 ], [ 101.523902, 2.948086 ], [ 101.524996, 2.945958 ], [ 101.513749, 2.920302 ], [ 101.507487, 2.905467 ], [ 101.507775, 2.884948 ] ] ] } },
{ "type": "Feature", "properties": { "state": "Selangor", "parlimen": "P.094 Kuala Langat", "code_parlimen": "P.094", "dun": "N.38 Morib", "code_dun": "N.38" }, "geometry": { "type": "Polygon", "coordinates": [ [ [ 101.514539, 2.853699 ], [ 101.515512, 2.851936 ], [ 101.511925, 2.850659 ], [ 101.511742, 2.848106 ], [ 101.514235, 2.842087 ], [ 101.517214, 2.83929 ], [ 101.515269, 2.831569 ], [ 101.51191, 2.824091 ], [ 101.508383, 2.821051 ], [ 101.502608, 2.818011 ], [ 101.499811, 2.815397 ], [ 101.498838, 2.812904 ], [ 101.496954, 2.811324 ], [ 101.493974, 2.80415 ], [ 101.493221, 2.801178 ], [ 101.482793, 2.794027 ], [ 101.475344, 2.796411 ], [ 101.474152, 2.781514 ], [ 101.482197, 2.774363 ], [ 101.471769, 2.758572 ], [ 101.465214, 2.762743 ], [ 101.448911, 2.737528 ], [ 101.437678, 2.757787 ], [ 101.424939, 2.77491 ], [ 101.40874, 2.787791 ], [ 101.404179, 2.8035 ], [ 101.406989, 2.804454 ], [ 101.410637, 2.803967 ], [ 101.413417, 2.808848 ], [ 101.41515, 2.822712 ], [ 101.412218, 2.829623 ], [ 101.410394, 2.835217 ], [ 101.413186, 2.839002 ], [ 101.414341, 2.843508 ], [ 101.41515, 2.846165 ], [ 101.418847, 2.846858 ], [ 101.421389, 2.847205 ], [ 101.423584, 2.850671 ], [ 101.422544, 2.856216 ], [ 101.42266, 2.859798 ], [ 101.424508, 2.863726 ], [ 101.427743, 2.866037 ], [ 101.430285, 2.865112 ], [ 101.433404, 2.865228 ], [ 101.439181, 2.866383 ], [ 101.44103, 2.867308 ], [ 101.445138, 2.867336 ], [ 101.446447, 2.872546 ], [ 101.449486, 2.87437 ], [ 101.451189, 2.881909 ], [ 101.456417, 2.883368 ], [ 101.465049, 2.887629 ], [ 101.468255, 2.889795 ], [ 101.471981, 2.890055 ], [ 101.471981, 2.884423 ], [ 101.47189, 2.879598 ], [ 101.474079, 2.878261 ], [ 101.476511, 2.883733 ], [ 101.481374, 2.887988 ], [ 101.485022, 2.886286 ], [ 101.487576, 2.885313 ], [ 101.487819, 2.883125 ], [ 101.483563, 2.881422 ], [ 101.480523, 2.879842 ], [ 101.477119, 2.871938 ], [ 101.473228, 2.869628 ], [ 101.473957, 2.867013 ], [ 101.479794, 2.865797 ], [ 101.481618, 2.862575 ], [ 101.481253, 2.856252 ], [ 101.482833, 2.855857 ], [ 101.485478, 2.857408 ], [ 101.491163, 2.856313 ], [ 101.496756, 2.856921 ], [ 101.501802, 2.857863 ], [ 101.505632, 2.858015 ], [ 101.507821, 2.857164 ], [ 101.509402, 2.855827 ], [ 101.514539, 2.853699 ] ] ] } },
{ "type": "Feature", "properties": { "state": "Selangor", "parlimen": "P.094 Kuala Langat", "code_parlimen": "P.094", "dun": "N.39 Banting", "code_dun": "N.39" }, "geometry": { "type": "Polygon", "coordinates": [ [ [ 101.505708, 2.8599 ], [ 101.50887, 2.862454 ], [ 101.498291, 2.876558 ], [ 101.507775, 2.884948 ], [ 101.507487, 2.905467 ], [ 101.513749, 2.920302 ], [ 101.524996, 2.945958 ], [ 101.523902, 2.948086 ], [ 101.52378, 2.950518 ], [ 101.535559, 2.957266 ], [ 101.548707, 2.965413 ], [ 101.548585, 2.957996 ], [ 101.56269, 2.965656 ], [ 101.559407, 2.970155 ], [ 101.565973, 2.974532 ], [ 101.57029, 2.977329 ], [ 101.575716, 2.980582 ], [ 101.58865, 2.954287 ], [ 101.634704, 2.867652 ], [ 101.649356, 2.841631 ], [ 101.665953, 2.826067 ], [ 101.670072, 2.825611 ], [ 101.680833, 2.818072 ], [ 101.683265, 2.817342 ], [ 101.648003, 2.773082 ], [ 101.634263, 2.756059 ], [ 101.633655, 2.741225 ], [ 101.634233, 2.729066 ], [ 101.59529, 2.72724 ], [ 101.595122, 2.75063 ], [ 101.595152, 2.762056 ], [ 101.536161, 2.762913 ], [ 101.536259, 2.769313 ], [ 101.536137, 2.785546 ], [ 101.519995, 2.793328 ], [ 101.499689, 2.8019 ], [ 101.498595, 2.801839 ], [ 101.495874, 2.797887 ], [ 101.493221, 2.801178 ], [ 101.493974, 2.80415 ], [ 101.496954, 2.811324 ], [ 101.498838, 2.812904 ], [ 101.499811, 2.815397 ], [ 101.502608, 2.818011 ], [ 101.508383, 2.821051 ], [ 101.51191, 2.824091 ], [ 101.515269, 2.831569 ], [ 101.517214, 2.83929 ], [ 101.514235, 2.842087 ], [ 101.511742, 2.848106 ], [ 101.511925, 2.850659 ], [ 101.515512, 2.851936 ], [ 101.514539, 2.853699 ], [ 101.509402, 2.855827 ], [ 101.507821, 2.857164 ], [ 101.505632, 2.858015 ], [ 101.505708, 2.8599 ] ] ] } },
{ "type": "Feature", "properties": { "state": "Selangor", "parlimen": "P.095 Sepang", "code_parlimen": "P.095", "dun": "N.40 Dengkil", "code_dun": "N.40" }, "geometry": { "type": "Polygon", "coordinates": [ [ [ 101.767302, 2.990856 ], [ 101.772408, 2.989154 ], [ 101.77484, 2.987269 ], [ 101.778625, 2.98743 ], [ 101.782258, 2.988485 ], [ 101.785297, 2.986175 ], [ 101.787121, 2.983378 ], [ 101.784142, 2.977664 ], [ 101.784203, 2.973469 ], [ 101.785845, 2.969395 ], [ 101.784933, 2.965808 ], [ 101.782197, 2.964045 ], [ 101.781528, 2.958391 ], [ 101.784689, 2.951703 ], [ 101.785297, 2.945016 ], [ 101.784446, 2.94003 ], [ 101.781102, 2.935896 ], [ 101.774111, 2.929148 ], [ 101.769369, 2.925986 ], [ 101.763714, 2.923554 ], [ 101.761404, 2.920332 ], [ 101.757209, 2.919724 ], [ 101.754169, 2.916624 ], [ 101.752756, 2.911273 ], [ 101.747041, 2.908659 ], [ 101.739745, 2.902823 ], [ 101.736645, 2.899175 ], [ 101.733605, 2.896257 ], [ 101.736949, 2.891879 ], [ 101.738043, 2.889569 ], [ 101.744305, 2.891454 ], [ 101.750385, 2.895649 ], [ 101.754762, 2.898506 ], [ 101.762848, 2.899236 ], [ 101.766815, 2.903127 ], [ 101.78092, 2.90337 ], [ 101.774172, 2.896986 ], [ 101.776847, 2.892974 ], [ 101.776907, 2.890481 ], [ 101.778002, 2.888414 ], [ 101.780494, 2.888475 ], [ 101.781224, 2.886468 ], [ 101.786027, 2.887806 ], [ 101.789857, 2.890177 ], [ 101.792107, 2.891636 ], [ 101.794903, 2.888049 ], [ 101.789979, 2.880997 ], [ 101.789796, 2.876498 ], [ 101.793201, 2.873245 ], [ 101.797001, 2.871452 ], [ 101.798156, 2.869476 ], [ 101.789819, 2.869666 ], [ 101.750867, 2.870945 ], [ 101.749594, 2.870144 ], [ 101.742724, 2.870084 ], [ 101.730535, 2.86984 ], [ 101.730109, 2.868381 ], [ 101.733635, 2.863153 ], [ 101.734122, 2.857316 ], [ 101.737162, 2.855249 ], [ 101.737283, 2.84844 ], [ 101.737769, 2.840658 ], [ 101.7233, 2.841144 ], [ 101.722692, 2.84613 ], [ 101.717707, 2.846738 ], [ 101.716369, 2.874339 ], [ 101.713572, 2.875799 ], [ 101.711262, 2.881878 ], [ 101.706398, 2.883945 ], [ 101.704818, 2.886864 ], [ 101.700562, 2.89039 ], [ 101.697279, 2.893551 ], [ 101.694239, 2.894038 ], [ 101.692537, 2.892943 ], [ 101.690226, 2.893916 ], [ 101.687916, 2.892214 ], [ 101.688038, 2.888809 ], [ 101.686943, 2.887472 ], [ 101.686214, 2.884432 ], [ 101.683539, 2.884918 ], [ 101.683539, 2.882973 ], [ 101.68135, 2.882608 ], [ 101.679405, 2.879933 ], [ 101.680134, 2.871056 ], [ 101.683782, 2.864369 ], [ 101.681107, 2.858532 ], [ 101.680864, 2.854155 ], [ 101.677945, 2.852939 ], [ 101.676243, 2.847832 ], [ 101.678675, 2.8454 ], [ 101.678553, 2.839928 ], [ 101.677337, 2.838226 ], [ 101.677945, 2.835429 ], [ 101.674176, 2.836281 ], [ 101.673082, 2.833727 ], [ 101.671623, 2.829715 ], [ 101.665953, 2.826067 ], [ 101.649356, 2.841631 ], [ 101.634704, 2.867652 ], [ 101.58865, 2.954287 ], [ 101.575716, 2.980582 ], [ 101.586902, 2.980217 ], [ 101.603074, 2.98046 ], [ 101.653049, 2.981311 ], [ 101.709089, 2.984169 ], [ 101.713466, 2.98423 ], [ 101.71377, 2.988242 ], [ 101.717843, 2.989336 ], [ 101.7176, 2.999672 ], [ 101.716506, 3.009035 ], [ 101.718938, 3.013047 ], [ 101.72295, 3.01329 ], [ 101.728996, 3.005251 ], [ 101.734228, 3.002408 ], [ 101.741524, 2.994747 ], [ 101.748941, 2.992498 ], [ 101.75876, 2.99189 ], [ 101.767302, 2.990856 ] ] ] } },
{ "type": "Feature", "properties": { "state": "Selangor", "parlimen": "P.095 Sepang", "code_parlimen": "P.095", "dun": "N.41 Sungai Pelik", "code_dun": "N.41" }, "geometry": { "type": "Polygon", "coordinates": [ [ [ 101.671623, 2.829715 ], [ 101.673082, 2.833727 ], [ 101.674176, 2.836281 ], [ 101.677945, 2.835429 ], [ 101.677337, 2.838226 ], [ 101.678553, 2.839928 ], [ 101.678675, 2.8454 ], [ 101.676243, 2.847832 ], [ 101.677945, 2.852939 ], [ 101.680864, 2.854155 ], [ 101.681107, 2.858532 ], [ 101.683782, 2.864369 ], [ 101.680134, 2.871056 ], [ 101.679405, 2.879933 ], [ 101.68135, 2.882608 ], [ 101.683539, 2.882973 ], [ 101.683539, 2.884918 ], [ 101.686214, 2.884432 ], [ 101.686943, 2.887472 ], [ 101.688038, 2.888809 ], [ 101.687916, 2.892214 ], [ 101.690226, 2.893916 ], [ 101.692537, 2.892943 ], [ 101.694239, 2.894038 ], [ 101.697279, 2.893551 ], [ 101.700562, 2.89039 ], [ 101.704818, 2.886864 ], [ 101.706398, 2.883945 ], [ 101.711262, 2.881878 ], [ 101.713572, 2.875799 ], [ 101.716369, 2.874339 ], [ 101.717707, 2.846738 ], [ 101.722692, 2.84613 ], [ 101.7233, 2.841144 ], [ 101.737769, 2.840658 ], [ 101.737283, 2.84844 ], [ 101.737162, 2.855249 ], [ 101.734122, 2.857316 ], [ 101.733635, 2.863153 ], [ 101.730109, 2.868381 ], [ 101.730535, 2.86984 ], [ 101.742724, 2.870084 ], [ 101.749594, 2.870144 ], [ 101.750867, 2.870945 ], [ 101.753979, 2.818368 ], [ 101.754386, 2.811492 ], [ 101.755162, 2.798379 ], [ 101.758734, 2.742817 ], [ 101.760019, 2.722824 ], [ 101.760019, 2.72187 ], [ 101.760114, 2.717946 ], [ 101.760485, 2.700903 ], [ 101.754322, 2.698291 ], [ 101.750213, 2.688403 ], [ 101.751894, 2.685977 ], [ 101.75152, 2.682433 ], [ 101.74573, 2.682433 ], [ 101.73882, 2.67385 ], [ 101.739754, 2.668067 ], [ 101.744049, 2.665268 ], [ 101.746851, 2.655753 ], [ 101.740501, 2.651648 ], [ 101.731349, 2.647917 ], [ 101.724252, 2.635976 ], [ 101.730042, 2.623849 ], [ 101.728361, 2.616572 ], [ 101.725372, 2.620304 ], [ 101.72145, 2.621423 ], [ 101.702399, 2.608549 ], [ 101.702399, 2.604072 ], [ 101.710057, 2.600713 ], [ 101.7151, 2.594183 ], [ 101.713354, 2.584392 ], [ 101.69684, 2.589891 ], [ 101.692908, 2.589734 ], [ 101.689133, 2.58722 ], [ 101.678596, 2.598061 ], [ 101.680483, 2.601517 ], [ 101.674389, 2.606408 ], [ 101.674632, 2.613096 ], [ 101.673173, 2.637536 ], [ 101.67524, 2.637779 ], [ 101.673538, 2.663679 ], [ 101.677064, 2.664287 ], [ 101.677064, 2.67523 ], [ 101.676213, 2.700521 ], [ 101.700775, 2.701494 ], [ 101.695181, 2.714383 ], [ 101.700531, 2.728731 ], [ 101.666485, 2.728974 ], [ 101.634233, 2.729066 ], [ 101.633655, 2.741225 ], [ 101.634263, 2.756059 ], [ 101.648003, 2.773082 ], [ 101.683265, 2.817342 ], [ 101.680833, 2.818072 ], [ 101.670072, 2.825611 ], [ 101.665953, 2.826067 ], [ 101.671623, 2.829715 ] ] ] } },
{ "type": "Feature", "properties": { "state": "Selangor", "parlimen": "P.095 Sepang", "code_parlimen": "P.095", "dun": "N.42 Batu Laut", "code_dun": "N.42" }, "geometry": { "type": "Polygon", "coordinates": [ [ [ 101.498595, 2.801839 ], [ 101.499689, 2.8019 ], [ 101.519995, 2.793328 ], [ 101.536137, 2.785546 ], [ 101.536259, 2.769313 ], [ 101.536161, 2.762913 ], [ 101.595152, 2.762056 ], [ 101.595122, 2.75063 ], [ 101.59529, 2.72724 ], [ 101.634233, 2.729066 ], [ 101.666485, 2.728974 ], [ 101.700531, 2.728731 ], [ 101.695181, 2.714383 ], [ 101.700775, 2.701494 ], [ 101.676213, 2.700521 ], [ 101.677064, 2.67523 ], [ 101.677064, 2.664287 ], [ 101.673538, 2.663679 ], [ 101.67524, 2.637779 ], [ 101.673173, 2.637536 ], [ 101.674632, 2.613096 ], [ 101.674389, 2.606408 ], [ 101.660509, 2.616914 ], [ 101.639591, 2.622884 ], [ 101.612697, 2.626027 ], [ 101.598118, 2.633005 ], [ 101.590049, 2.636867 ], [ 101.590049, 2.641581 ], [ 101.580927, 2.649122 ], [ 101.565672, 2.653207 ], [ 101.538148, 2.662162 ], [ 101.475545, 2.691024 ], [ 101.474766, 2.691383 ], [ 101.461712, 2.705994 ], [ 101.454163, 2.725631 ], [ 101.448029, 2.731758 ], [ 101.449002, 2.737364 ], [ 101.448911, 2.737528 ], [ 101.465214, 2.762743 ], [ 101.471769, 2.758572 ], [ 101.482197, 2.774363 ], [ 101.474152, 2.781514 ], [ 101.475344, 2.796411 ], [ 101.482793, 2.794027 ], [ 101.493221, 2.801178 ], [ 101.495874, 2.797887 ], [ 101.498595, 2.801839 ] ] ] } }
]
}
