{
"type": "FeatureCollection",
"name": "TRG_SE-13",
"crs": { "type": "name", "properties": { "name": "urn:ogc:def:crs:OGC:1.3:CRS84" } },
"features": [
{ "type": "Feature", "properties": { "state": "Terengganu", "parlimen": "P.033 Besut", "code_parlimen": "P.033", "dun": "N.01 Kuala Besut", "code_dun": "N.01" }, "geometry": { "type": "MultiPolygon", "coordinates": [ [ [ [ 102.753968, 5.894744 ], [ 102.746511, 5.890771 ], [ 102.746777, 5.882558 ], [ 102.741717, 5.881233 ], [ 102.73719, 5.895539 ], [ 102.738787, 5.902957 ], [ 102.744913, 5.909314 ], [ 102.754234, 5.913023 ], [ 102.755475, 5.916039 ], [ 102.759028, 5.924679 ], [ 102.760892, 5.919381 ], [ 102.77048, 5.914348 ], [ 102.772078, 5.910639 ], [ 102.770214, 5.901897 ], [ 102.775007, 5.892625 ], [ 102.770746, 5.884148 ], [ 102.76495, 5.884148 ], [ 102.763289, 5.884148 ], [ 102.753968, 5.894744 ] ] ], [ [ [ 102.727868, 5.890771 ], [ 102.714818, 5.895274 ], [ 102.71615, 5.897129 ], [ 102.715884, 5.9215 ], [ 102.717736, 5.930407 ], [ 102.71908, 5.936864 ], [ 102.727868, 5.938189 ], [ 102.726803, 5.93342 ], [ 102.723607, 5.932626 ], [ 102.722275, 5.928917 ], [ 102.722463, 5.928675 ], [ 102.727602, 5.92203 ], [ 102.72414, 5.9215 ], [ 102.723873, 5.916467 ], [ 102.732129, 5.912758 ], [ 102.735059, 5.902427 ], [ 102.727868, 5.890771 ] ] ], [ [ [ 102.677533, 5.961234 ], [ 102.675136, 5.961499 ], [ 102.675345, 5.962328 ], [ 102.675669, 5.963618 ], [ 102.676483, 5.962576 ], [ 102.677533, 5.961234 ] ] ], [ [ [ 102.668212, 5.943751 ], [ 102.670609, 5.941632 ], [ 102.668356, 5.940932 ], [ 102.666348, 5.940308 ], [ 102.666081, 5.943222 ], [ 102.667631, 5.943607 ], [ 102.668212, 5.943751 ] ] ], [ [ [ 102.684173, 5.961535 ], [ 102.684458, 5.95885 ], [ 102.680915, 5.962373 ], [ 102.680729, 5.962558 ], [ 102.683925, 5.963883 ], [ 102.684173, 5.961535 ] ] ], [ [ [ 102.462516, 5.762445 ], [ 102.461349, 5.765128 ], [ 102.459903, 5.766216 ], [ 102.463891, 5.770603 ], [ 102.471243, 5.776658 ], [ 102.475404, 5.779921 ], [ 102.489226, 5.791291 ], [ 102.536335, 5.847271 ], [ 102.545703, 5.83858 ], [ 102.562215, 5.836725 ], [ 102.561385, 5.827655 ], [ 102.560526, 5.809693 ], [ 102.558574, 5.801649 ], [ 102.552092, 5.805632 ], [ 102.550263, 5.804835 ], [ 102.549671, 5.797744 ], [ 102.544126, 5.8004 ], [ 102.537234, 5.795529 ], [ 102.532412, 5.795011 ], [ 102.528885, 5.792976 ], [ 102.528975, 5.789857 ], [ 102.534052, 5.784468 ], [ 102.531396, 5.779704 ], [ 102.522111, 5.780018 ], [ 102.513425, 5.773194 ], [ 102.502657, 5.769864 ], [ 102.501329, 5.764632 ], [ 102.503547, 5.759895 ], [ 102.507185, 5.754617 ], [ 102.508222, 5.748838 ], [ 102.505078, 5.745654 ], [ 102.496524, 5.743497 ], [ 102.490276, 5.746621 ], [ 102.48479, 5.748766 ], [ 102.475419, 5.750406 ], [ 102.469242, 5.754858 ], [ 102.462917, 5.753608 ], [ 102.462828, 5.757135 ], [ 102.462516, 5.762445 ] ] ], [ [ [ 102.66829, 5.960073 ], [ 102.667147, 5.954612 ], [ 102.664261, 5.956047 ], [ 102.661287, 5.957526 ], [ 102.664483, 5.962293 ], [ 102.668478, 5.960969 ], [ 102.66829, 5.960073 ] ] ] ] } },
{ "type": "Feature", "properties": { "state": "Terengganu", "parlimen": "P.033 Besut", "code_parlimen": "P.033", "dun": "N.02 Kota Putera", "code_dun": "N.02" }, "geometry": { "type": "MultiPolygon", "coordinates": [ [ [ [ 102.608512, 5.829974 ], [ 102.613552, 5.833454 ], [ 102.617272, 5.829254 ], [ 102.615232, 5.827634 ], [ 102.609592, 5.827394 ], [ 102.608512, 5.829974 ] ] ], [ [ [ 102.534052, 5.784468 ], [ 102.528975, 5.789857 ], [ 102.528885, 5.792976 ], [ 102.532412, 5.795011 ], [ 102.537234, 5.795529 ], [ 102.544126, 5.8004 ], [ 102.549671, 5.797744 ], [ 102.550263, 5.804835 ], [ 102.552092, 5.805632 ], [ 102.558574, 5.801649 ], [ 102.560526, 5.809693 ], [ 102.561385, 5.827655 ], [ 102.562215, 5.836725 ], [ 102.594973, 5.81341 ], [ 102.607682, 5.802439 ], [ 102.631193, 5.782144 ], [ 102.658327, 5.745165 ], [ 102.672545, 5.727554 ], [ 102.663161, 5.718818 ], [ 102.650598, 5.712862 ], [ 102.645209, 5.710754 ], [ 102.635576, 5.712347 ], [ 102.632291, 5.721646 ], [ 102.625028, 5.72805 ], [ 102.595201, 5.727927 ], [ 102.590359, 5.733315 ], [ 102.586376, 5.733237 ], [ 102.5813, 5.738392 ], [ 102.574974, 5.737454 ], [ 102.567242, 5.740578 ], [ 102.568209, 5.744844 ], [ 102.572312, 5.749397 ], [ 102.574157, 5.751613 ], [ 102.571345, 5.754268 ], [ 102.566894, 5.759032 ], [ 102.558272, 5.763133 ], [ 102.549994, 5.766569 ], [ 102.544054, 5.768174 ], [ 102.536437, 5.772465 ], [ 102.532141, 5.774964 ], [ 102.531396, 5.779704 ], [ 102.534052, 5.784468 ] ] ] ] } },
{ "type": "Feature", "properties": { "state": "Terengganu", "parlimen": "P.033 Besut", "code_parlimen": "P.033", "dun": "N.03 Jertih", "code_dun": "N.03" }, "geometry": { "type": "Polygon", "coordinates": [ [ [ 102.502657, 5.769864 ], [ 102.513425, 5.773194 ], [ 102.522111, 5.780018 ], [ 102.531396, 5.779704 ], [ 102.532141, 5.774964 ], [ 102.536437, 5.772465 ], [ 102.544054, 5.768174 ], [ 102.549994, 5.766569 ], [ 102.558272, 5.763133 ], [ 102.566894, 5.759032 ], [ 102.571345, 5.754268 ], [ 102.574157, 5.751613 ], [ 102.572312, 5.749397 ], [ 102.568209, 5.744844 ], [ 102.567242, 5.740578 ], [ 102.56365, 5.742218 ], [ 102.554669, 5.742531 ], [ 102.551857, 5.739875 ], [ 102.552404, 5.734331 ], [ 102.546313, 5.734799 ], [ 102.542174, 5.727614 ], [ 102.536707, 5.719727 ], [ 102.536941, 5.711527 ], [ 102.527648, 5.71262 ], [ 102.528301, 5.70428 ], [ 102.526164, 5.701843 ], [ 102.521634, 5.699734 ], [ 102.520619, 5.705435 ], [ 102.513903, 5.710902 ], [ 102.516558, 5.71754 ], [ 102.509764, 5.716837 ], [ 102.509608, 5.721445 ], [ 102.506952, 5.723397 ], [ 102.505058, 5.731463 ], [ 102.499898, 5.732221 ], [ 102.492661, 5.730582 ], [ 102.491099, 5.733159 ], [ 102.487819, 5.733628 ], [ 102.480478, 5.727458 ], [ 102.480322, 5.721367 ], [ 102.478369, 5.718243 ], [ 102.477822, 5.714572 ], [ 102.479457, 5.710376 ], [ 102.47589, 5.706808 ], [ 102.476261, 5.699344 ], [ 102.472263, 5.698749 ], [ 102.465561, 5.700905 ], [ 102.462594, 5.699578 ], [ 102.458732, 5.702101 ], [ 102.4535, 5.694838 ], [ 102.450073, 5.692141 ], [ 102.443628, 5.688714 ], [ 102.445247, 5.682877 ], [ 102.443757, 5.676634 ], [ 102.436245, 5.667463 ], [ 102.429841, 5.66473 ], [ 102.429451, 5.661137 ], [ 102.437754, 5.654287 ], [ 102.43359, 5.651375 ], [ 102.429678, 5.640419 ], [ 102.423936, 5.637179 ], [ 102.420438, 5.635505 ], [ 102.4138, 5.63816 ], [ 102.409609, 5.631119 ], [ 102.404347, 5.623206 ], [ 102.402271, 5.613879 ], [ 102.392631, 5.629668 ], [ 102.387008, 5.634065 ], [ 102.390623, 5.64026 ], [ 102.386607, 5.65365 ], [ 102.387611, 5.663243 ], [ 102.387008, 5.671036 ], [ 102.385803, 5.677631 ], [ 102.378975, 5.684026 ], [ 102.380213, 5.69327 ], [ 102.392017, 5.699697 ], [ 102.396471, 5.696151 ], [ 102.403598, 5.712329 ], [ 102.411393, 5.72075 ], [ 102.41607, 5.72075 ], [ 102.417629, 5.726954 ], [ 102.431725, 5.745782 ], [ 102.434093, 5.747262 ], [ 102.452806, 5.760954 ], [ 102.459903, 5.766216 ], [ 102.461349, 5.765128 ], [ 102.462516, 5.762445 ], [ 102.462828, 5.757135 ], [ 102.462917, 5.753608 ], [ 102.469242, 5.754858 ], [ 102.475419, 5.750406 ], [ 102.48479, 5.748766 ], [ 102.490276, 5.746621 ], [ 102.496524, 5.743497 ], [ 102.505078, 5.745654 ], [ 102.508222, 5.748838 ], [ 102.507185, 5.754617 ], [ 102.503547, 5.759895 ], [ 102.501329, 5.764632 ], [ 102.502657, 5.769864 ] ] ] } },
{ "type": "Feature", "properties": { "state": "Terengganu", "parlimen": "P.033 Besut", "code_parlimen": "P.033", "dun": "N.04 Hulu Besut", "code_dun": "N.04" }, "geometry": { "type": "Polygon", "coordinates": [ [ [ 102.437616, 5.372797 ], [ 102.428579, 5.371397 ], [ 102.424562, 5.379595 ], [ 102.419743, 5.385193 ], [ 102.420144, 5.392791 ], [ 102.415124, 5.390392 ], [ 102.411509, 5.391991 ], [ 102.408697, 5.39719 ], [ 102.404279, 5.39679 ], [ 102.398656, 5.399989 ], [ 102.398054, 5.402988 ], [ 102.389418, 5.412184 ], [ 102.385, 5.410985 ], [ 102.385, 5.426979 ], [ 102.392832, 5.426179 ], [ 102.401869, 5.439574 ], [ 102.401869, 5.443972 ], [ 102.39725, 5.454768 ], [ 102.400463, 5.462564 ], [ 102.39464, 5.47156 ], [ 102.388414, 5.476158 ], [ 102.390371, 5.486069 ], [ 102.393033, 5.499547 ], [ 102.386205, 5.512541 ], [ 102.380783, 5.518737 ], [ 102.382791, 5.523735 ], [ 102.390623, 5.522535 ], [ 102.398254, 5.528932 ], [ 102.40207, 5.539926 ], [ 102.402503, 5.541854 ], [ 102.407693, 5.544523 ], [ 102.402472, 5.569108 ], [ 102.399861, 5.577303 ], [ 102.396447, 5.5821 ], [ 102.397049, 5.605285 ], [ 102.402271, 5.613879 ], [ 102.404347, 5.623206 ], [ 102.409609, 5.631119 ], [ 102.4138, 5.63816 ], [ 102.420438, 5.635505 ], [ 102.423936, 5.637179 ], [ 102.429678, 5.640419 ], [ 102.43359, 5.651375 ], [ 102.437754, 5.654287 ], [ 102.429451, 5.661137 ], [ 102.429841, 5.66473 ], [ 102.436245, 5.667463 ], [ 102.443757, 5.676634 ], [ 102.445247, 5.682877 ], [ 102.443628, 5.688714 ], [ 102.450073, 5.692141 ], [ 102.4535, 5.694838 ], [ 102.458732, 5.702101 ], [ 102.462594, 5.699578 ], [ 102.465561, 5.700905 ], [ 102.472263, 5.698749 ], [ 102.476261, 5.699344 ], [ 102.47589, 5.706808 ], [ 102.479457, 5.710376 ], [ 102.477822, 5.714572 ], [ 102.478369, 5.718243 ], [ 102.480322, 5.721367 ], [ 102.480478, 5.727458 ], [ 102.487819, 5.733628 ], [ 102.491099, 5.733159 ], [ 102.492661, 5.730582 ], [ 102.499898, 5.732221 ], [ 102.505058, 5.731463 ], [ 102.506952, 5.723397 ], [ 102.509608, 5.721445 ], [ 102.509764, 5.716837 ], [ 102.516558, 5.71754 ], [ 102.513903, 5.710902 ], [ 102.520619, 5.705435 ], [ 102.521634, 5.699734 ], [ 102.519661, 5.694425 ], [ 102.519448, 5.686458 ], [ 102.530303, 5.667637 ], [ 102.532388, 5.659019 ], [ 102.541236, 5.648113 ], [ 102.547406, 5.63468 ], [ 102.548421, 5.625494 ], [ 102.549507, 5.611431 ], [ 102.555832, 5.611352 ], [ 102.560831, 5.606042 ], [ 102.565673, 5.605339 ], [ 102.580167, 5.598466 ], [ 102.582968, 5.595549 ], [ 102.585699, 5.594809 ], [ 102.592926, 5.590541 ], [ 102.596021, 5.58886 ], [ 102.60185, 5.586761 ], [ 102.608562, 5.582907 ], [ 102.61715, 5.578254 ], [ 102.616287, 5.572984 ], [ 102.622144, 5.565878 ], [ 102.622066, 5.558537 ], [ 102.615974, 5.55143 ], [ 102.610595, 5.541613 ], [ 102.611111, 5.536477 ], [ 102.618945, 5.529959 ], [ 102.622534, 5.518782 ], [ 102.614046, 5.516792 ], [ 102.60569, 5.510934 ], [ 102.604104, 5.504729 ], [ 102.597828, 5.50044 ], [ 102.596969, 5.489707 ], [ 102.590905, 5.488764 ], [ 102.591296, 5.485048 ], [ 102.593286, 5.483029 ], [ 102.594103, 5.475761 ], [ 102.590436, 5.471673 ], [ 102.589605, 5.467075 ], [ 102.593657, 5.461859 ], [ 102.597585, 5.454207 ], [ 102.594878, 5.44536 ], [ 102.589487, 5.440351 ], [ 102.591778, 5.43597 ], [ 102.593627, 5.430777 ], [ 102.58245, 5.422727 ], [ 102.580669, 5.418157 ], [ 102.588296, 5.4072 ], [ 102.587296, 5.397455 ], [ 102.577843, 5.387641 ], [ 102.57722, 5.382299 ], [ 102.585174, 5.374145 ], [ 102.585578, 5.369653 ], [ 102.583778, 5.368142 ], [ 102.579078, 5.366403 ], [ 102.573478, 5.367194 ], [ 102.566289, 5.369731 ], [ 102.560012, 5.366555 ], [ 102.554428, 5.362212 ], [ 102.550309, 5.358413 ], [ 102.546236, 5.357691 ], [ 102.544674, 5.350038 ], [ 102.537943, 5.342815 ], [ 102.536396, 5.338792 ], [ 102.527493, 5.332779 ], [ 102.518043, 5.334809 ], [ 102.512157, 5.338643 ], [ 102.513708, 5.344537 ], [ 102.51242, 5.349725 ], [ 102.504064, 5.353318 ], [ 102.488334, 5.355947 ], [ 102.482537, 5.361589 ], [ 102.470763, 5.359696 ], [ 102.46881, 5.353058 ], [ 102.459, 5.352282 ], [ 102.449317, 5.356815 ], [ 102.442736, 5.360107 ], [ 102.441231, 5.365399 ], [ 102.437616, 5.372797 ] ] ] } },
{ "type": "Feature", "properties": { "state": "Terengganu", "parlimen": "P.034 Setiu", "code_parlimen": "P.034", "dun": "N.05 Jabi", "code_dun": "N.05" }, "geometry": { "type": "Polygon", "coordinates": [ [ [ 102.532388, 5.659019 ], [ 102.530303, 5.667637 ], [ 102.519448, 5.686458 ], [ 102.519661, 5.694425 ], [ 102.521634, 5.699734 ], [ 102.526164, 5.701843 ], [ 102.528301, 5.70428 ], [ 102.527648, 5.71262 ], [ 102.536941, 5.711527 ], [ 102.536707, 5.719727 ], [ 102.542174, 5.727614 ], [ 102.546313, 5.734799 ], [ 102.552404, 5.734331 ], [ 102.551857, 5.739875 ], [ 102.554669, 5.742531 ], [ 102.56365, 5.742218 ], [ 102.567242, 5.740578 ], [ 102.574974, 5.737454 ], [ 102.5813, 5.738392 ], [ 102.586376, 5.733237 ], [ 102.590359, 5.733315 ], [ 102.595201, 5.727927 ], [ 102.625028, 5.72805 ], [ 102.632291, 5.721646 ], [ 102.635576, 5.712347 ], [ 102.645209, 5.710754 ], [ 102.650598, 5.712862 ], [ 102.654815, 5.706615 ], [ 102.660665, 5.697457 ], [ 102.665772, 5.687491 ], [ 102.665906, 5.677196 ], [ 102.667077, 5.643927 ], [ 102.665681, 5.639894 ], [ 102.656957, 5.629759 ], [ 102.65209, 5.623788 ], [ 102.649243, 5.619373 ], [ 102.646682, 5.61676 ], [ 102.642691, 5.61205 ], [ 102.64316, 5.601273 ], [ 102.641668, 5.599537 ], [ 102.638687, 5.597181 ], [ 102.633874, 5.593673 ], [ 102.627523, 5.587729 ], [ 102.61715, 5.578254 ], [ 102.608562, 5.582907 ], [ 102.60185, 5.586761 ], [ 102.596021, 5.58886 ], [ 102.592926, 5.590541 ], [ 102.585699, 5.594809 ], [ 102.582968, 5.595549 ], [ 102.580167, 5.598466 ], [ 102.565673, 5.605339 ], [ 102.560831, 5.606042 ], [ 102.555832, 5.611352 ], [ 102.549507, 5.611431 ], [ 102.548421, 5.625494 ], [ 102.547406, 5.63468 ], [ 102.541236, 5.648113 ], [ 102.532388, 5.659019 ] ] ] } },
{ "type": "Feature", "properties": { "state": "Terengganu", "parlimen": "P.034 Setiu", "code_parlimen": "P.034", "dun": "N.06 Permaisuri", "code_dun": "N.06" }, "geometry": { "type": "MultiPolygon", "coordinates": [ [ [ [ 102.668402, 5.396035 ], [ 102.664263, 5.391818 ], [ 102.657313, 5.391193 ], [ 102.653612, 5.392854 ], [ 102.651614, 5.396073 ], [ 102.654814, 5.402204 ], [ 102.653096, 5.408608 ], [ 102.658875, 5.416886 ], [ 102.654892, 5.426883 ], [ 102.654814, 5.435942 ], [ 102.642615, 5.444196 ], [ 102.637652, 5.452262 ], [ 102.635069, 5.457012 ], [ 102.629994, 5.457646 ], [ 102.625155, 5.461352 ], [ 102.622344, 5.472051 ], [ 102.616252, 5.476034 ], [ 102.610395, 5.480251 ], [ 102.600541, 5.481331 ], [ 102.593286, 5.483029 ], [ 102.591296, 5.485048 ], [ 102.590905, 5.488764 ], [ 102.596969, 5.489707 ], [ 102.597828, 5.50044 ], [ 102.604104, 5.504729 ], [ 102.60569, 5.510934 ], [ 102.614046, 5.516792 ], [ 102.622534, 5.518782 ], [ 102.618945, 5.529959 ], [ 102.611111, 5.536477 ], [ 102.610595, 5.541613 ], [ 102.615974, 5.55143 ], [ 102.622066, 5.558537 ], [ 102.622144, 5.565878 ], [ 102.616287, 5.572984 ], [ 102.61715, 5.578254 ], [ 102.627523, 5.587729 ], [ 102.633874, 5.593673 ], [ 102.638687, 5.597181 ], [ 102.641668, 5.599537 ], [ 102.64316, 5.601273 ], [ 102.642691, 5.61205 ], [ 102.646682, 5.61676 ], [ 102.649243, 5.619373 ], [ 102.65209, 5.623788 ], [ 102.656957, 5.629759 ], [ 102.665681, 5.639894 ], [ 102.667077, 5.643927 ], [ 102.665906, 5.677196 ], [ 102.665772, 5.687491 ], [ 102.660665, 5.697457 ], [ 102.654815, 5.706615 ], [ 102.650598, 5.712862 ], [ 102.663161, 5.718818 ], [ 102.672545, 5.727554 ], [ 102.673805, 5.725173 ], [ 102.717482, 5.681978 ], [ 102.753169, 5.660246 ], [ 102.792585, 5.630563 ], [ 102.833865, 5.588155 ], [ 102.867155, 5.56695 ], [ 102.918822, 5.537262 ], [ 102.937731, 5.534876 ], [ 102.940048, 5.53677 ], [ 102.945188, 5.540973 ], [ 102.968624, 5.528514 ], [ 103.001476, 5.499937 ], [ 102.972131, 5.47841 ], [ 102.935559, 5.439241 ], [ 102.924971, 5.446623 ], [ 102.918905, 5.4508 ], [ 102.914379, 5.454903 ], [ 102.90223, 5.45992 ], [ 102.896608, 5.466899 ], [ 102.899244, 5.475275 ], [ 102.897848, 5.484581 ], [ 102.901842, 5.496912 ], [ 102.901067, 5.499472 ], [ 102.899244, 5.500092 ], [ 102.894746, 5.502884 ], [ 102.888387, 5.500402 ], [ 102.881562, 5.501798 ], [ 102.868223, 5.505986 ], [ 102.854598, 5.514142 ], [ 102.853505, 5.521483 ], [ 102.848431, 5.532161 ], [ 102.846431, 5.526925 ], [ 102.844188, 5.513072 ], [ 102.83962, 5.514377 ], [ 102.834449, 5.515704 ], [ 102.83101, 5.515342 ], [ 102.824031, 5.510068 ], [ 102.816173, 5.502542 ], [ 102.808701, 5.509482 ], [ 102.791324, 5.492513 ], [ 102.797352, 5.486064 ], [ 102.796024, 5.479191 ], [ 102.788215, 5.473412 ], [ 102.794343, 5.454415 ], [ 102.786348, 5.457393 ], [ 102.784544, 5.454513 ], [ 102.787512, 5.450374 ], [ 102.786965, 5.446859 ], [ 102.794788, 5.447277 ], [ 102.803053, 5.450686 ], [ 102.806723, 5.447094 ], [ 102.802787, 5.437232 ], [ 102.804571, 5.42777 ], [ 102.798215, 5.419503 ], [ 102.792781, 5.421058 ], [ 102.786965, 5.418886 ], [ 102.783533, 5.420518 ], [ 102.784013, 5.432965 ], [ 102.775017, 5.433896 ], [ 102.764462, 5.426994 ], [ 102.763376, 5.422651 ], [ 102.755143, 5.41236 ], [ 102.747454, 5.417737 ], [ 102.740498, 5.422181 ], [ 102.736593, 5.429054 ], [ 102.731595, 5.428897 ], [ 102.72894, 5.426633 ], [ 102.721208, 5.426789 ], [ 102.720193, 5.420229 ], [ 102.714492, 5.410857 ], [ 102.718944, 5.401954 ], [ 102.718397, 5.398049 ], [ 102.713633, 5.396956 ], [ 102.709338, 5.399611 ], [ 102.699498, 5.399924 ], [ 102.694656, 5.397659 ], [ 102.687705, 5.403126 ], [ 102.683475, 5.396738 ], [ 102.679961, 5.400174 ], [ 102.675431, 5.400174 ], [ 102.67301, 5.397831 ], [ 102.668402, 5.396035 ] ] ], [ [ [ 102.825358, 5.678253 ], [ 102.82635, 5.678112 ], [ 102.82695, 5.678026 ], [ 102.827287, 5.67613 ], [ 102.826095, 5.67613 ], [ 102.825685, 5.67613 ], [ 102.823588, 5.67613 ], [ 102.824597, 5.678361 ], [ 102.825358, 5.678253 ] ] ] ] } },
{ "type": "Feature", "properties": { "state": "Terengganu", "parlimen": "P.034 Setiu", "code_parlimen": "P.034", "dun": "N.07 Langkap", "code_dun": "N.07" }, "geometry": { "type": "Polygon", "coordinates": [ [ [ 102.906353, 5.308876 ], [ 102.908963, 5.305041 ], [ 102.916121, 5.302415 ], [ 102.918933, 5.297105 ], [ 102.928616, 5.295386 ], [ 102.933927, 5.281954 ], [ 102.930849, 5.271255 ], [ 102.934753, 5.265476 ], [ 102.948775, 5.256909 ], [ 102.951222, 5.245487 ], [ 102.960441, 5.245814 ], [ 102.971459, 5.236425 ], [ 102.976457, 5.231583 ], [ 102.978552, 5.230477 ], [ 102.988015, 5.223461 ], [ 102.984324, 5.220735 ], [ 102.974419, 5.210735 ], [ 102.969333, 5.204452 ], [ 102.967601, 5.198024 ], [ 102.961978, 5.197165 ], [ 102.951522, 5.204552 ], [ 102.941044, 5.19992 ], [ 102.941743, 5.193559 ], [ 102.93567, 5.19285 ], [ 102.930745, 5.186178 ], [ 102.919812, 5.190239 ], [ 102.918719, 5.195238 ], [ 102.913642, 5.203672 ], [ 102.909861, 5.2069 ], [ 102.906026, 5.213997 ], [ 102.901694, 5.211716 ], [ 102.897542, 5.218729 ], [ 102.893789, 5.226969 ], [ 102.8995, 5.233903 ], [ 102.896958, 5.239787 ], [ 102.895083, 5.243458 ], [ 102.887752, 5.238961 ], [ 102.881063, 5.244753 ], [ 102.877185, 5.245873 ], [ 102.873639, 5.242061 ], [ 102.867747, 5.250905 ], [ 102.860939, 5.254727 ], [ 102.858634, 5.262174 ], [ 102.853114, 5.264416 ], [ 102.848926, 5.264338 ], [ 102.848228, 5.259452 ], [ 102.84427, 5.258132 ], [ 102.84128, 5.257193 ], [ 102.836677, 5.252924 ], [ 102.831908, 5.250149 ], [ 102.82625, 5.250013 ], [ 102.824691, 5.242877 ], [ 102.81515, 5.23962 ], [ 102.81183, 5.236143 ], [ 102.805354, 5.230636 ], [ 102.796555, 5.223168 ], [ 102.790757, 5.221887 ], [ 102.785689, 5.2215 ], [ 102.779006, 5.223705 ], [ 102.769492, 5.226615 ], [ 102.766279, 5.231374 ], [ 102.761947, 5.236182 ], [ 102.758341, 5.241756 ], [ 102.752985, 5.243425 ], [ 102.74821, 5.247896 ], [ 102.744495, 5.250237 ], [ 102.735942, 5.259767 ], [ 102.726089, 5.264427 ], [ 102.72523, 5.273096 ], [ 102.725003, 5.278423 ], [ 102.727778, 5.292163 ], [ 102.725081, 5.306265 ], [ 102.728015, 5.317321 ], [ 102.724738, 5.32655 ], [ 102.722821, 5.331122 ], [ 102.718473, 5.335389 ], [ 102.715781, 5.337429 ], [ 102.709499, 5.339305 ], [ 102.7047, 5.339722 ], [ 102.693054, 5.340179 ], [ 102.683695, 5.344086 ], [ 102.682823, 5.360515 ], [ 102.681964, 5.378242 ], [ 102.681952, 5.386741 ], [ 102.683475, 5.396738 ], [ 102.687705, 5.403126 ], [ 102.694656, 5.397659 ], [ 102.699498, 5.399924 ], [ 102.709338, 5.399611 ], [ 102.713633, 5.396956 ], [ 102.718397, 5.398049 ], [ 102.718944, 5.401954 ], [ 102.714492, 5.410857 ], [ 102.720193, 5.420229 ], [ 102.721208, 5.426789 ], [ 102.72894, 5.426633 ], [ 102.731595, 5.428897 ], [ 102.736593, 5.429054 ], [ 102.740498, 5.422181 ], [ 102.747454, 5.417737 ], [ 102.755143, 5.41236 ], [ 102.763376, 5.422651 ], [ 102.764462, 5.426994 ], [ 102.775017, 5.433896 ], [ 102.784013, 5.432965 ], [ 102.783533, 5.420518 ], [ 102.786965, 5.418886 ], [ 102.792781, 5.421058 ], [ 102.798215, 5.419503 ], [ 102.804571, 5.42777 ], [ 102.802787, 5.437232 ], [ 102.806723, 5.447094 ], [ 102.803053, 5.450686 ], [ 102.794788, 5.447277 ], [ 102.786965, 5.446859 ], [ 102.787512, 5.450374 ], [ 102.784544, 5.454513 ], [ 102.786348, 5.457393 ], [ 102.794343, 5.454415 ], [ 102.788215, 5.473412 ], [ 102.796024, 5.479191 ], [ 102.797352, 5.486064 ], [ 102.791324, 5.492513 ], [ 102.808701, 5.509482 ], [ 102.816173, 5.502542 ], [ 102.824031, 5.510068 ], [ 102.83101, 5.515342 ], [ 102.834449, 5.515704 ], [ 102.83962, 5.514377 ], [ 102.844188, 5.513072 ], [ 102.846431, 5.526925 ], [ 102.848431, 5.532161 ], [ 102.853505, 5.521483 ], [ 102.854598, 5.514142 ], [ 102.868223, 5.505986 ], [ 102.881562, 5.501798 ], [ 102.888387, 5.500402 ], [ 102.894746, 5.502884 ], [ 102.899244, 5.500092 ], [ 102.901067, 5.499472 ], [ 102.901842, 5.496912 ], [ 102.897848, 5.484581 ], [ 102.899244, 5.475275 ], [ 102.896608, 5.466899 ], [ 102.90223, 5.45992 ], [ 102.914379, 5.454903 ], [ 102.913324, 5.451623 ], [ 102.909576, 5.447718 ], [ 102.910357, 5.440534 ], [ 102.913481, 5.435067 ], [ 102.912543, 5.424914 ], [ 102.914021, 5.417949 ], [ 102.916761, 5.414137 ], [ 102.914262, 5.409139 ], [ 102.917203, 5.403427 ], [ 102.918016, 5.397725 ], [ 102.917469, 5.389994 ], [ 102.919508, 5.385784 ], [ 102.921695, 5.379302 ], [ 102.921368, 5.370794 ], [ 102.928135, 5.358558 ], [ 102.92467, 5.352895 ], [ 102.925664, 5.347131 ], [ 102.931235, 5.33645 ], [ 102.92789, 5.331555 ], [ 102.930174, 5.324376 ], [ 102.926035, 5.323048 ], [ 102.919749, 5.31969 ], [ 102.906353, 5.308876 ] ] ] } },
{ "type": "Feature", "properties": { "state": "Terengganu", "parlimen": "P.034 Setiu", "code_parlimen": "P.034", "dun": "N.08 Batu Rakit", "code_dun": "N.08" }, "geometry": { "type": "MultiPolygon", "coordinates": [ [ [ [ 103.159045, 5.621816 ], [ 103.158246, 5.626057 ], [ 103.162773, 5.625792 ], [ 103.163839, 5.621816 ], [ 103.159045, 5.621816 ] ] ], [ [ [ 103.149457, 5.640634 ], [ 103.14999, 5.644874 ], [ 103.155849, 5.641959 ], [ 103.154251, 5.638249 ], [ 103.149457, 5.640634 ] ] ], [ [ [ 103.061038, 5.596107 ], [ 103.067164, 5.599817 ], [ 103.068229, 5.597432 ], [ 103.065299, 5.594516 ], [ 103.061038, 5.596107 ] ] ], [ [ [ 103.057576, 5.626057 ], [ 103.062636, 5.629502 ], [ 103.070093, 5.627647 ], [ 103.072756, 5.620756 ], [ 103.070892, 5.61307 ], [ 103.066365, 5.609889 ], [ 103.054913, 5.615985 ], [ 103.057576, 5.626057 ] ] ], [ [ [ 102.990353, 5.556007 ], [ 102.987664, 5.555561 ], [ 102.987439, 5.55768 ], [ 102.989569, 5.557903 ], [ 102.990353, 5.556007 ] ] ], [ [ [ 102.96637, 5.640219 ], [ 102.967154, 5.643007 ], [ 102.968723, 5.642784 ], [ 102.969844, 5.641557 ], [ 102.969844, 5.639772 ], [ 102.96637, 5.640219 ] ] ], [ [ [ 103.065832, 5.656536 ], [ 103.066897, 5.659716 ], [ 103.069028, 5.659981 ], [ 103.071425, 5.656801 ], [ 103.06956, 5.652295 ], [ 103.065832, 5.656536 ] ] ], [ [ [ 103.074621, 5.665546 ], [ 103.072224, 5.664221 ], [ 103.070626, 5.668992 ], [ 103.073289, 5.668992 ], [ 103.074621, 5.665546 ] ] ], [ [ [ 102.999251, 5.738688 ], [ 102.998719, 5.745313 ], [ 103.006442, 5.743723 ], [ 103.008572, 5.735773 ], [ 102.997653, 5.730473 ], [ 102.999251, 5.738688 ] ] ], [ [ [ 103.034139, 5.735773 ], [ 103.02828, 5.735243 ], [ 103.029612, 5.740808 ], [ 103.032009, 5.739483 ], [ 103.034139, 5.735773 ] ] ], [ [ [ 103.060239, 5.777375 ], [ 103.063701, 5.771545 ], [ 103.061837, 5.768631 ], [ 103.05731, 5.775785 ], [ 103.060239, 5.777375 ] ] ], [ [ [ 102.891393, 5.791769 ], [ 102.891953, 5.79556 ], [ 102.888479, 5.799239 ], [ 102.889936, 5.803922 ], [ 102.892625, 5.804034 ], [ 102.892962, 5.802473 ], [ 102.894419, 5.801469 ], [ 102.895091, 5.800131 ], [ 102.897445, 5.799239 ], [ 102.898789, 5.797344 ], [ 102.89991, 5.794891 ], [ 102.904169, 5.794445 ], [ 102.90529, 5.790431 ], [ 102.903609, 5.789873 ], [ 102.9026, 5.787532 ], [ 102.898789, 5.788089 ], [ 102.89666, 5.789539 ], [ 102.893298, 5.789762 ], [ 102.891393, 5.791769 ] ] ], [ [ [ 103.043727, 5.779495 ], [ 103.043993, 5.775255 ], [ 103.039466, 5.7787 ], [ 103.043727, 5.779495 ] ] ], [ [ [ 103.030944, 5.755117 ], [ 103.031476, 5.751407 ], [ 103.029878, 5.750347 ], [ 103.027481, 5.754057 ], [ 103.029079, 5.758562 ], [ 103.031476, 5.758032 ], [ 103.030944, 5.755117 ] ] ], [ [ [ 103.018693, 5.799367 ], [ 103.014165, 5.787709 ], [ 103.020291, 5.783999 ], [ 103.026682, 5.794863 ], [ 103.036803, 5.790358 ], [ 103.046124, 5.789033 ], [ 103.034139, 5.77605 ], [ 103.035205, 5.771545 ], [ 103.030944, 5.763596 ], [ 103.019492, 5.750877 ], [ 103.013899, 5.748492 ], [ 102.997653, 5.750082 ], [ 102.99499, 5.769161 ], [ 102.988332, 5.783999 ], [ 102.993925, 5.791683 ], [ 102.99206, 5.806521 ], [ 102.998719, 5.819768 ], [ 103.008839, 5.814999 ], [ 103.010703, 5.818974 ], [ 103.014964, 5.809435 ], [ 103.019492, 5.808111 ], [ 103.018693, 5.799367 ] ] ], [ [ [ 102.986319, 5.56995 ], [ 102.984413, 5.56995 ], [ 102.984525, 5.572292 ], [ 102.986319, 5.571958 ], [ 102.986319, 5.56995 ] ] ], [ [ [ 103.038401, 5.771015 ], [ 103.0392, 5.773665 ], [ 103.042129, 5.77128 ], [ 103.038401, 5.771015 ] ] ], [ [ [ 102.972131, 5.47841 ], [ 103.001476, 5.499937 ], [ 103.004005, 5.497163 ], [ 103.047569, 5.45107 ], [ 103.044224, 5.446828 ], [ 103.040471, 5.439731 ], [ 103.037697, 5.433367 ], [ 103.047688, 5.422494 ], [ 103.05157, 5.397556 ], [ 103.053601, 5.385764 ], [ 103.046182, 5.381156 ], [ 103.037773, 5.391152 ], [ 103.02658, 5.394042 ], [ 103.021113, 5.395369 ], [ 103.014709, 5.395916 ], [ 103.007178, 5.392161 ], [ 103.001773, 5.390578 ], [ 102.993562, 5.390619 ], [ 102.991686, 5.381237 ], [ 102.990556, 5.371375 ], [ 102.984507, 5.369979 ], [ 102.980091, 5.374343 ], [ 102.979545, 5.379966 ], [ 102.97681, 5.386855 ], [ 102.976029, 5.397164 ], [ 102.971834, 5.400168 ], [ 102.971288, 5.413679 ], [ 102.971112, 5.419015 ], [ 102.971737, 5.425185 ], [ 102.966539, 5.433904 ], [ 102.957543, 5.434525 ], [ 102.949168, 5.430027 ], [ 102.935559, 5.439241 ], [ 102.972131, 5.47841 ] ] ] ] } },
{ "type": "Feature", "properties": { "state": "Terengganu", "parlimen": "P.035 Kuala Nerus", "code_parlimen": "P.035", "dun": "N.09 Tepuh", "code_dun": "N.09" }, "geometry": { "type": "Polygon", "coordinates": [ [ [ 103.023421, 5.321072 ], [ 103.018608, 5.320582 ], [ 103.013468, 5.326864 ], [ 103.005881, 5.320827 ], [ 102.998784, 5.324743 ], [ 102.991686, 5.324009 ], [ 102.992502, 5.315116 ], [ 102.991115, 5.306428 ], [ 102.987163, 5.302293 ], [ 102.980183, 5.303736 ], [ 102.980359, 5.296381 ], [ 102.982979, 5.292542 ], [ 102.986725, 5.285424 ], [ 102.987219, 5.279 ], [ 102.989385, 5.270967 ], [ 102.989891, 5.265923 ], [ 102.982368, 5.265531 ], [ 102.977921, 5.260293 ], [ 102.977427, 5.255944 ], [ 102.9797, 5.250607 ], [ 102.977427, 5.24695 ], [ 102.9797, 5.242503 ], [ 102.980828, 5.238962 ], [ 102.985201, 5.235916 ], [ 102.978552, 5.230477 ], [ 102.976457, 5.231583 ], [ 102.971459, 5.236425 ], [ 102.960441, 5.245814 ], [ 102.951222, 5.245487 ], [ 102.948775, 5.256909 ], [ 102.934753, 5.265476 ], [ 102.930849, 5.271255 ], [ 102.933927, 5.281954 ], [ 102.928616, 5.295386 ], [ 102.918933, 5.297105 ], [ 102.916121, 5.302415 ], [ 102.908963, 5.305041 ], [ 102.906353, 5.308876 ], [ 102.919749, 5.31969 ], [ 102.926035, 5.323048 ], [ 102.930174, 5.324376 ], [ 102.92789, 5.331555 ], [ 102.931235, 5.33645 ], [ 102.925664, 5.347131 ], [ 102.92467, 5.352895 ], [ 102.928135, 5.358558 ], [ 102.921368, 5.370794 ], [ 102.921695, 5.379302 ], [ 102.919508, 5.385784 ], [ 102.917469, 5.389994 ], [ 102.918016, 5.397725 ], [ 102.917203, 5.403427 ], [ 102.914262, 5.409139 ], [ 102.916761, 5.414137 ], [ 102.914021, 5.417949 ], [ 102.912543, 5.424914 ], [ 102.913481, 5.435067 ], [ 102.910357, 5.440534 ], [ 102.909576, 5.447718 ], [ 102.913324, 5.451623 ], [ 102.914379, 5.454903 ], [ 102.918905, 5.4508 ], [ 102.924971, 5.446623 ], [ 102.935559, 5.439241 ], [ 102.949168, 5.430027 ], [ 102.957543, 5.434525 ], [ 102.966539, 5.433904 ], [ 102.971737, 5.425185 ], [ 102.971112, 5.419015 ], [ 102.971288, 5.413679 ], [ 102.971834, 5.400168 ], [ 102.976029, 5.397164 ], [ 102.97681, 5.386855 ], [ 102.979545, 5.379966 ], [ 102.980091, 5.374343 ], [ 102.984507, 5.369979 ], [ 102.990556, 5.371375 ], [ 102.991686, 5.381237 ], [ 102.993562, 5.390619 ], [ 103.001773, 5.390578 ], [ 103.007178, 5.392161 ], [ 103.014709, 5.395916 ], [ 103.021113, 5.395369 ], [ 103.02658, 5.394042 ], [ 103.037773, 5.391152 ], [ 103.046182, 5.381156 ], [ 103.053601, 5.385764 ], [ 103.05157, 5.397556 ], [ 103.047688, 5.422494 ], [ 103.037697, 5.433367 ], [ 103.040471, 5.439731 ], [ 103.044224, 5.446828 ], [ 103.047569, 5.45107 ], [ 103.086072, 5.417699 ], [ 103.090352, 5.413562 ], [ 103.084737, 5.407969 ], [ 103.080883, 5.400557 ], [ 103.077305, 5.388897 ], [ 103.079479, 5.380398 ], [ 103.088685, 5.362841 ], [ 103.093335, 5.354683 ], [ 103.089876, 5.352953 ], [ 103.089909, 5.350033 ], [ 103.084361, 5.350033 ], [ 103.079671, 5.350441 ], [ 103.079746, 5.34665 ], [ 103.083304, 5.345365 ], [ 103.083831, 5.342609 ], [ 103.075592, 5.342242 ], [ 103.070289, 5.342446 ], [ 103.068164, 5.344867 ], [ 103.069256, 5.348595 ], [ 103.066884, 5.350226 ], [ 103.064691, 5.347755 ], [ 103.063681, 5.341059 ], [ 103.054544, 5.334573 ], [ 103.048768, 5.330522 ], [ 103.044419, 5.323603 ], [ 103.040597, 5.323925 ], [ 103.033086, 5.322245 ], [ 103.026929, 5.317605 ], [ 103.023421, 5.321072 ] ] ] } },
{ "type": "Feature", "properties": { "state": "Terengganu", "parlimen": "P.035 Kuala Nerus", "code_parlimen": "P.035", "dun": "N.10 Teluk Pasu", "code_dun": "N.10" }, "geometry": { "type": "Polygon", "coordinates": [ [ [ 102.991686, 5.324009 ], [ 102.998784, 5.324743 ], [ 103.005881, 5.320827 ], [ 103.013468, 5.326864 ], [ 103.018608, 5.320582 ], [ 103.023421, 5.321072 ], [ 103.026929, 5.317605 ], [ 103.033086, 5.322245 ], [ 103.040597, 5.323925 ], [ 103.044419, 5.323603 ], [ 103.048768, 5.330522 ], [ 103.054544, 5.334573 ], [ 103.063681, 5.341059 ], [ 103.064691, 5.347755 ], [ 103.066884, 5.350226 ], [ 103.069256, 5.348595 ], [ 103.068164, 5.344867 ], [ 103.070289, 5.342446 ], [ 103.075592, 5.342242 ], [ 103.083831, 5.342609 ], [ 103.090235, 5.340488 ], [ 103.095987, 5.335716 ], [ 103.10133, 5.333635 ], [ 103.099297, 5.329553 ], [ 103.092873, 5.323426 ], [ 103.091255, 5.317197 ], [ 103.087338, 5.314333 ], [ 103.078814, 5.317972 ], [ 103.079303, 5.31014 ], [ 103.069106, 5.310793 ], [ 103.064076, 5.302524 ], [ 103.057355, 5.302327 ], [ 103.056624, 5.296516 ], [ 103.05095, 5.295766 ], [ 103.050752, 5.289342 ], [ 103.041858, 5.283871 ], [ 103.030763, 5.280689 ], [ 103.024275, 5.273736 ], [ 103.020239, 5.265515 ], [ 103.0143, 5.254884 ], [ 103.005629, 5.242451 ], [ 103.00119, 5.231415 ], [ 102.991328, 5.226422 ], [ 102.988015, 5.223461 ], [ 102.978552, 5.230477 ], [ 102.985201, 5.235916 ], [ 102.980828, 5.238962 ], [ 102.9797, 5.242503 ], [ 102.977427, 5.24695 ], [ 102.9797, 5.250607 ], [ 102.977427, 5.255944 ], [ 102.977921, 5.260293 ], [ 102.982368, 5.265531 ], [ 102.989891, 5.265923 ], [ 102.989385, 5.270967 ], [ 102.987219, 5.279 ], [ 102.986725, 5.285424 ], [ 102.982979, 5.292542 ], [ 102.980359, 5.296381 ], [ 102.980183, 5.303736 ], [ 102.987163, 5.302293 ], [ 102.991115, 5.306428 ], [ 102.992502, 5.315116 ], [ 102.991686, 5.324009 ] ] ] } },
{ "type": "Feature", "properties": { "state": "Terengganu", "parlimen": "P.035 Kuala Nerus", "code_parlimen": "P.035", "dun": "N.11 Seberang Takir", "code_dun": "N.11" }, "geometry": { "type": "Polygon", "coordinates": [ [ [ 103.088685, 5.362841 ], [ 103.079479, 5.380398 ], [ 103.077305, 5.388897 ], [ 103.080883, 5.400557 ], [ 103.084737, 5.407969 ], [ 103.090352, 5.413562 ], [ 103.107378, 5.396753 ], [ 103.115634, 5.397813 ], [ 103.118297, 5.395692 ], [ 103.115634, 5.386677 ], [ 103.131274, 5.358712 ], [ 103.141894, 5.347146 ], [ 103.13176, 5.347504 ], [ 103.12021, 5.342529 ], [ 103.111315, 5.346581 ], [ 103.104349, 5.352643 ], [ 103.093335, 5.354683 ], [ 103.088685, 5.362841 ] ] ] } },
{ "type": "Feature", "properties": { "state": "Terengganu", "parlimen": "P.035 Kuala Nerus", "code_parlimen": "P.035", "dun": "N.12 Bukit Tunggal", "code_dun": "N.12" }, "geometry": { "type": "Polygon", "coordinates": [ [ [ 103.10133, 5.333635 ], [ 103.095987, 5.335716 ], [ 103.090235, 5.340488 ], [ 103.083831, 5.342609 ], [ 103.083304, 5.345365 ], [ 103.079746, 5.34665 ], [ 103.079671, 5.350441 ], [ 103.084361, 5.350033 ], [ 103.089909, 5.350033 ], [ 103.089876, 5.352953 ], [ 103.093335, 5.354683 ], [ 103.104349, 5.352643 ], [ 103.111315, 5.346581 ], [ 103.12021, 5.342529 ], [ 103.13176, 5.347504 ], [ 103.141894, 5.347146 ], [ 103.14392, 5.346454 ], [ 103.137074, 5.34012 ], [ 103.129761, 5.332901 ], [ 103.129079, 5.323956 ], [ 103.12216, 5.320102 ], [ 103.115484, 5.318788 ], [ 103.111202, 5.322916 ], [ 103.106656, 5.323015 ], [ 103.102675, 5.322712 ], [ 103.09807, 5.321518 ], [ 103.091255, 5.317197 ], [ 103.092873, 5.323426 ], [ 103.099297, 5.329553 ], [ 103.10133, 5.333635 ] ] ] } },
{ "type": "Feature", "properties": { "state": "Terengganu", "parlimen": "P.036 Kuala Terengganu", "code_parlimen": "P.036", "dun": "N.13 Wakaf Mempelam", "code_dun": "N.13" }, "geometry": { "type": "Polygon", "coordinates": [ [ [ 103.118372, 5.305932 ], [ 103.12404, 5.304724 ], [ 103.126906, 5.304674 ], [ 103.129108, 5.30084 ], [ 103.127232, 5.290887 ], [ 103.126423, 5.278753 ], [ 103.125682, 5.276529 ], [ 103.116382, 5.27351 ], [ 103.101779, 5.273266 ], [ 103.098924, 5.279384 ], [ 103.09305, 5.284768 ], [ 103.095579, 5.289174 ], [ 103.086605, 5.296761 ], [ 103.086523, 5.305898 ], [ 103.087338, 5.314333 ], [ 103.091255, 5.317197 ], [ 103.09807, 5.321518 ], [ 103.102675, 5.322712 ], [ 103.106656, 5.323015 ], [ 103.111202, 5.322916 ], [ 103.115484, 5.318788 ], [ 103.114715, 5.3129 ], [ 103.118372, 5.305932 ] ] ] } },
{ "type": "Feature", "properties": { "state": "Terengganu", "parlimen": "P.036 Kuala Terengganu", "code_parlimen": "P.036", "dun": "N.14 Bandar", "code_dun": "N.14" }, "geometry": { "type": "Polygon", "coordinates": [ [ [ 103.126906, 5.304674 ], [ 103.12404, 5.304724 ], [ 103.118372, 5.305932 ], [ 103.114715, 5.3129 ], [ 103.115484, 5.318788 ], [ 103.12216, 5.320102 ], [ 103.129079, 5.323956 ], [ 103.129761, 5.332901 ], [ 103.137074, 5.34012 ], [ 103.14392, 5.346454 ], [ 103.147528, 5.344625 ], [ 103.145699, 5.340227 ], [ 103.146485, 5.33698 ], [ 103.139795, 5.331433 ], [ 103.135064, 5.326946 ], [ 103.130658, 5.320093 ], [ 103.132386, 5.314435 ], [ 103.12824, 5.30922 ], [ 103.127499, 5.30754 ], [ 103.126906, 5.304674 ] ] ] } },
{ "type": "Feature", "properties": { "state": "Terengganu", "parlimen": "P.036 Kuala Terengganu", "code_parlimen": "P.036", "dun": "N.15 Ladang", "code_dun": "N.15" }, "geometry": { "type": "Polygon", "coordinates": [ [ [ 103.145261, 5.32564 ], [ 103.14624, 5.315198 ], [ 103.141019, 5.302635 ], [ 103.13433, 5.292192 ], [ 103.13743, 5.285666 ], [ 103.140122, 5.279955 ], [ 103.138336, 5.278184 ], [ 103.130676, 5.2769 ], [ 103.12786, 5.275318 ], [ 103.125682, 5.276529 ], [ 103.126423, 5.278753 ], [ 103.127232, 5.290887 ], [ 103.129108, 5.30084 ], [ 103.126906, 5.304674 ], [ 103.127499, 5.30754 ], [ 103.12824, 5.30922 ], [ 103.132386, 5.314435 ], [ 103.130658, 5.320093 ], [ 103.135064, 5.326946 ], [ 103.139795, 5.331433 ], [ 103.146485, 5.33698 ], [ 103.150809, 5.332004 ], [ 103.145261, 5.32564 ] ] ] } },
{ "type": "Feature", "properties": { "state": "Terengganu", "parlimen": "P.036 Kuala Terengganu", "code_parlimen": "P.036", "dun": "N.16 Batu Buruk", "code_dun": "N.16" }, "geometry": { "type": "Polygon", "coordinates": [ [ [ 103.13433, 5.292192 ], [ 103.141019, 5.302635 ], [ 103.14624, 5.315198 ], [ 103.145261, 5.32564 ], [ 103.150809, 5.332004 ], [ 103.159733, 5.317841 ], [ 103.184096, 5.269586 ], [ 103.181082, 5.268647 ], [ 103.179204, 5.265138 ], [ 103.176751, 5.26111 ], [ 103.174793, 5.256052 ], [ 103.171612, 5.250668 ], [ 103.167807, 5.251903 ], [ 103.164595, 5.25383 ], [ 103.161123, 5.252108 ], [ 103.158449, 5.249226 ], [ 103.153593, 5.25021 ], [ 103.150789, 5.252834 ], [ 103.149422, 5.258418 ], [ 103.149993, 5.263394 ], [ 103.149993, 5.268208 ], [ 103.147089, 5.272045 ], [ 103.142839, 5.274466 ], [ 103.140122, 5.279955 ], [ 103.13743, 5.285666 ], [ 103.13433, 5.292192 ] ] ] } },
{ "type": "Feature", "properties": { "state": "Terengganu", "parlimen": "P.037 Marang", "code_parlimen": "P.037", "dun": "N.17 Alur Limbat", "code_dun": "N.17" }, "geometry": { "type": "Polygon", "coordinates": [ [ [ 103.09648, 5.231584 ], [ 103.092007, 5.225472 ], [ 103.088965, 5.219101 ], [ 103.0894, 5.212835 ], [ 103.087071, 5.203145 ], [ 103.081725, 5.196631 ], [ 103.074, 5.185456 ], [ 103.072386, 5.177478 ], [ 103.070885, 5.170946 ], [ 103.065547, 5.167789 ], [ 103.0582, 5.166813 ], [ 103.054762, 5.163276 ], [ 103.056498, 5.173684 ], [ 103.053592, 5.176663 ], [ 103.052251, 5.187211 ], [ 103.049741, 5.192859 ], [ 103.045942, 5.193591 ], [ 103.046453, 5.196552 ], [ 103.049379, 5.19851 ], [ 103.050566, 5.203319 ], [ 103.042991, 5.204465 ], [ 103.043909, 5.212673 ], [ 103.038858, 5.21692 ], [ 103.038284, 5.229145 ], [ 103.034969, 5.234157 ], [ 103.035258, 5.250688 ], [ 103.035329, 5.257771 ], [ 103.03864, 5.263454 ], [ 103.043899, 5.267127 ], [ 103.051114, 5.267028 ], [ 103.055759, 5.266139 ], [ 103.060898, 5.266682 ], [ 103.06649, 5.270197 ], [ 103.07387, 5.274603 ], [ 103.078738, 5.277764 ], [ 103.090002, 5.283942 ], [ 103.09305, 5.284768 ], [ 103.098924, 5.279384 ], [ 103.101779, 5.273266 ], [ 103.116382, 5.27351 ], [ 103.125682, 5.276529 ], [ 103.12786, 5.275318 ], [ 103.125488, 5.271068 ], [ 103.123066, 5.268746 ], [ 103.117328, 5.264503 ], [ 103.117328, 5.259562 ], [ 103.115301, 5.25719 ], [ 103.110508, 5.257684 ], [ 103.103244, 5.261538 ], [ 103.097413, 5.261143 ], [ 103.094398, 5.257345 ], [ 103.092778, 5.251205 ], [ 103.095967, 5.24292 ], [ 103.09648, 5.231584 ] ] ] } },
{ "type": "Feature", "properties": { "state": "Terengganu", "parlimen": "P.037 Marang", "code_parlimen": "P.037", "dun": "N.18 Bukit Payung", "code_dun": "N.18" }, "geometry": { "type": "Polygon", "coordinates": [ [ [ 103.111177, 5.208196 ], [ 103.11221, 5.21382 ], [ 103.110603, 5.218871 ], [ 103.098205, 5.218527 ], [ 103.088965, 5.219101 ], [ 103.092007, 5.225472 ], [ 103.09648, 5.231584 ], [ 103.095967, 5.24292 ], [ 103.092778, 5.251205 ], [ 103.094398, 5.257345 ], [ 103.097413, 5.261143 ], [ 103.103244, 5.261538 ], [ 103.110508, 5.257684 ], [ 103.115301, 5.25719 ], [ 103.117328, 5.259562 ], [ 103.117328, 5.264503 ], [ 103.123066, 5.268746 ], [ 103.125488, 5.271068 ], [ 103.12786, 5.275318 ], [ 103.130676, 5.2769 ], [ 103.138336, 5.278184 ], [ 103.140122, 5.279955 ], [ 103.142839, 5.274466 ], [ 103.147089, 5.272045 ], [ 103.149993, 5.268208 ], [ 103.149993, 5.263394 ], [ 103.149422, 5.258418 ], [ 103.150789, 5.252834 ], [ 103.153593, 5.25021 ], [ 103.149903, 5.240671 ], [ 103.14395, 5.22794 ], [ 103.146016, 5.221569 ], [ 103.143606, 5.214567 ], [ 103.136144, 5.215887 ], [ 103.130374, 5.21245 ], [ 103.123804, 5.209803 ], [ 103.111177, 5.208196 ] ] ] } },
{ "type": "Feature", "properties": { "state": "Terengganu", "parlimen": "P.037 Marang", "code_parlimen": "P.037", "dun": "N.19 Ru Rendang", "code_dun": "N.19" }, "geometry": { "type": "MultiPolygon", "coordinates": [ [ [ [ 103.143516, 5.183321 ], [ 103.139572, 5.187534 ], [ 103.144983, 5.193502 ], [ 103.14286, 5.197746 ], [ 103.140798, 5.202631 ], [ 103.141804, 5.210074 ], [ 103.143606, 5.214567 ], [ 103.146016, 5.221569 ], [ 103.14395, 5.22794 ], [ 103.149903, 5.240671 ], [ 103.153593, 5.25021 ], [ 103.158449, 5.249226 ], [ 103.161123, 5.252108 ], [ 103.164595, 5.25383 ], [ 103.167807, 5.251903 ], [ 103.171612, 5.250668 ], [ 103.174793, 5.256052 ], [ 103.176751, 5.26111 ], [ 103.179204, 5.265138 ], [ 103.181082, 5.268647 ], [ 103.184096, 5.269586 ], [ 103.186742, 5.26735 ], [ 103.187541, 5.260454 ], [ 103.185411, 5.263504 ], [ 103.183147, 5.263239 ], [ 103.183147, 5.261036 ], [ 103.183147, 5.255018 ], [ 103.190471, 5.241094 ], [ 103.208315, 5.212053 ], [ 103.21191, 5.212053 ], [ 103.216704, 5.209136 ], [ 103.215239, 5.204494 ], [ 103.22281, 5.189325 ], [ 103.223295, 5.18853 ], [ 103.230952, 5.173197 ], [ 103.276054, 5.080326 ], [ 103.270675, 5.078354 ], [ 103.25698, 5.072545 ], [ 103.238424, 5.067346 ], [ 103.237438, 5.072187 ], [ 103.232487, 5.075379 ], [ 103.233086, 5.087721 ], [ 103.227129, 5.086815 ], [ 103.220242, 5.088533 ], [ 103.21558, 5.091223 ], [ 103.21558, 5.095526 ], [ 103.218648, 5.100183 ], [ 103.220012, 5.109052 ], [ 103.215919, 5.110758 ], [ 103.209267, 5.111952 ], [ 103.202134, 5.123629 ], [ 103.202044, 5.128381 ], [ 103.203837, 5.132549 ], [ 103.199374, 5.134466 ], [ 103.193976, 5.131787 ], [ 103.189583, 5.132863 ], [ 103.184653, 5.143262 ], [ 103.184967, 5.151868 ], [ 103.184955, 5.154424 ], [ 103.184059, 5.158099 ], [ 103.156807, 5.157113 ], [ 103.14944, 5.158427 ], [ 103.147199, 5.161833 ], [ 103.146302, 5.166495 ], [ 103.141082, 5.173917 ], [ 103.141171, 5.179923 ], [ 103.143516, 5.183321 ] ] ], [ [ [ 103.266004, 5.228377 ], [ 103.266906, 5.23274 ], [ 103.26837, 5.232873 ], [ 103.269169, 5.226773 ], [ 103.270496, 5.221691 ], [ 103.2709, 5.220143 ], [ 103.2709, 5.215236 ], [ 103.270235, 5.210064 ], [ 103.267971, 5.209534 ], [ 103.266373, 5.212319 ], [ 103.26371, 5.212982 ], [ 103.260114, 5.218551 ], [ 103.261579, 5.224784 ], [ 103.265974, 5.228232 ], [ 103.266004, 5.228377 ] ] ], [ [ [ 103.261384, 5.233594 ], [ 103.262112, 5.234464 ], [ 103.264908, 5.235392 ], [ 103.26624, 5.234199 ], [ 103.263361, 5.232442 ], [ 103.262112, 5.231679 ], [ 103.260114, 5.232077 ], [ 103.261384, 5.233594 ] ] ] ] } },
{ "type": "Feature", "properties": { "state": "Terengganu", "parlimen": "P.037 Marang", "code_parlimen": "P.037", "dun": "N.20 Pengkalan Berangan", "code_dun": "N.20" }, "geometry": { "type": "Polygon", "coordinates": [ [ [ 103.098205, 5.218527 ], [ 103.110603, 5.218871 ], [ 103.11221, 5.21382 ], [ 103.111177, 5.208196 ], [ 103.123804, 5.209803 ], [ 103.130374, 5.21245 ], [ 103.136144, 5.215887 ], [ 103.143606, 5.214567 ], [ 103.141804, 5.210074 ], [ 103.140798, 5.202631 ], [ 103.14286, 5.197746 ], [ 103.144983, 5.193502 ], [ 103.139572, 5.187534 ], [ 103.143516, 5.183321 ], [ 103.141171, 5.179923 ], [ 103.141082, 5.173917 ], [ 103.146302, 5.166495 ], [ 103.147199, 5.161833 ], [ 103.14944, 5.158427 ], [ 103.156807, 5.157113 ], [ 103.184059, 5.158099 ], [ 103.184955, 5.154424 ], [ 103.184967, 5.151868 ], [ 103.184653, 5.143262 ], [ 103.189583, 5.132863 ], [ 103.193976, 5.131787 ], [ 103.199374, 5.134466 ], [ 103.203837, 5.132549 ], [ 103.202044, 5.128381 ], [ 103.202134, 5.123629 ], [ 103.209267, 5.111952 ], [ 103.215919, 5.110758 ], [ 103.220012, 5.109052 ], [ 103.218648, 5.100183 ], [ 103.21558, 5.095526 ], [ 103.21558, 5.091223 ], [ 103.220242, 5.088533 ], [ 103.227129, 5.086815 ], [ 103.233086, 5.087721 ], [ 103.232487, 5.075379 ], [ 103.237438, 5.072187 ], [ 103.238424, 5.067346 ], [ 103.25698, 5.072545 ], [ 103.270675, 5.078354 ], [ 103.276054, 5.080326 ], [ 103.38768, 4.877844 ], [ 103.373764, 4.871166 ], [ 103.373821, 4.865255 ], [ 103.368655, 4.859745 ], [ 103.363046, 4.857202 ], [ 103.351572, 4.850747 ], [ 103.347, 4.852182 ], [ 103.338053, 4.849559 ], [ 103.33294, 4.855533 ], [ 103.328765, 4.863992 ], [ 103.315335, 4.872831 ], [ 103.308677, 4.880465 ], [ 103.304909, 4.879019 ], [ 103.300519, 4.871679 ], [ 103.294154, 4.867914 ], [ 103.284685, 4.87042 ], [ 103.282389, 4.875356 ], [ 103.281299, 4.881555 ], [ 103.277089, 4.885914 ], [ 103.270795, 4.887869 ], [ 103.269418, 4.895617 ], [ 103.264252, 4.899348 ], [ 103.233086, 4.908015 ], [ 103.231479, 4.921044 ], [ 103.23032, 4.933637 ], [ 103.229413, 4.941936 ], [ 103.227863, 4.955653 ], [ 103.215638, 4.964607 ], [ 103.214652, 4.973303 ], [ 103.211669, 4.986766 ], [ 103.205536, 4.99319 ], [ 103.201776, 5.001093 ], [ 103.19298, 5.00619 ], [ 103.187863, 5.015912 ], [ 103.181544, 5.017641 ], [ 103.177964, 5.023789 ], [ 103.171098, 5.033597 ], [ 103.168033, 5.036348 ], [ 103.165433, 5.041906 ], [ 103.158441, 5.046209 ], [ 103.157186, 5.05096 ], [ 103.150801, 5.047761 ], [ 103.137085, 5.067663 ], [ 103.131501, 5.072213 ], [ 103.128403, 5.076755 ], [ 103.129658, 5.084106 ], [ 103.124837, 5.093174 ], [ 103.120604, 5.10069 ], [ 103.117108, 5.106965 ], [ 103.111945, 5.108122 ], [ 103.106471, 5.102817 ], [ 103.1001, 5.09834 ], [ 103.094321, 5.100685 ], [ 103.092408, 5.10207 ], [ 103.089194, 5.104252 ], [ 103.085291, 5.109302 ], [ 103.078289, 5.110795 ], [ 103.07651, 5.120903 ], [ 103.068532, 5.127267 ], [ 103.062733, 5.134602 ], [ 103.050155, 5.150485 ], [ 103.048845, 5.15476 ], [ 103.051624, 5.158884 ], [ 103.054762, 5.163276 ], [ 103.0582, 5.166813 ], [ 103.065547, 5.167789 ], [ 103.070885, 5.170946 ], [ 103.072386, 5.177478 ], [ 103.074, 5.185456 ], [ 103.081725, 5.196631 ], [ 103.087071, 5.203145 ], [ 103.0894, 5.212835 ], [ 103.088965, 5.219101 ], [ 103.098205, 5.218527 ] ] ] } },
{ "type": "Feature", "properties": { "state": "Terengganu", "parlimen": "P.038 Hulu Terengganu", "code_parlimen": "P.038", "dun": "N.21 Telemung", "code_dun": "N.21" }, "geometry": { "type": "Polygon", "coordinates": [ [ [ 103.013317, 5.235803 ], [ 103.018597, 5.231671 ], [ 103.030076, 5.229719 ], [ 103.038284, 5.229145 ], [ 103.038858, 5.21692 ], [ 103.027953, 5.216059 ], [ 103.027379, 5.210893 ], [ 103.031569, 5.206072 ], [ 103.034421, 5.201726 ], [ 103.030073, 5.197278 ], [ 103.025293, 5.193046 ], [ 103.018213, 5.188976 ], [ 103.011195, 5.184529 ], [ 103.003904, 5.178637 ], [ 103.008371, 5.174081 ], [ 103.012731, 5.162582 ], [ 103.018712, 5.1574 ], [ 103.010414, 5.147655 ], [ 103.0031, 5.144888 ], [ 102.988855, 5.145609 ], [ 102.980831, 5.13846 ], [ 102.972451, 5.129276 ], [ 102.960857, 5.127669 ], [ 102.963542, 5.124591 ], [ 102.968879, 5.121033 ], [ 102.974747, 5.118945 ], [ 102.972437, 5.110162 ], [ 102.973484, 5.104481 ], [ 102.980372, 5.098856 ], [ 102.971188, 5.089329 ], [ 102.976588, 5.085256 ], [ 102.977387, 5.067518 ], [ 102.982897, 5.065567 ], [ 102.984734, 5.060745 ], [ 102.977961, 5.055809 ], [ 102.97819, 5.049151 ], [ 102.972795, 5.046741 ], [ 102.970155, 5.040198 ], [ 102.974035, 5.037981 ], [ 102.984389, 5.038246 ], [ 102.995868, 5.043412 ], [ 103.003471, 5.037618 ], [ 103.006544, 5.03044 ], [ 103.012972, 5.0278 ], [ 103.012284, 5.023323 ], [ 103.017449, 5.011959 ], [ 103.01148, 5.008974 ], [ 103.012169, 4.997954 ], [ 103.022041, 4.998184 ], [ 103.023074, 4.992903 ], [ 103.016187, 4.990034 ], [ 103.016646, 4.984409 ], [ 103.024796, 4.98108 ], [ 103.012628, 4.975111 ], [ 103.008907, 4.969423 ], [ 103.00693, 4.966754 ], [ 103.008512, 4.963888 ], [ 103.00782, 4.952621 ], [ 103.010192, 4.948272 ], [ 103.010103, 4.940099 ], [ 103.006544, 4.935393 ], [ 102.996776, 4.938953 ], [ 102.990352, 4.932529 ], [ 102.989899, 4.928505 ], [ 102.989096, 4.921388 ], [ 102.985385, 4.919215 ], [ 102.985879, 4.914175 ], [ 102.981881, 4.907395 ], [ 102.979213, 4.910558 ], [ 102.977335, 4.909273 ], [ 102.975358, 4.904331 ], [ 102.970614, 4.90107 ], [ 102.951243, 4.903738 ], [ 102.948278, 4.906802 ], [ 102.938394, 4.905418 ], [ 102.935924, 4.907494 ], [ 102.931278, 4.907692 ], [ 102.925616, 4.91209 ], [ 102.9141, 4.904441 ], [ 102.913448, 4.897856 ], [ 102.89923, 4.879819 ], [ 102.89841, 4.875586 ], [ 102.89841, 4.870937 ], [ 102.894951, 4.864809 ], [ 102.893271, 4.857495 ], [ 102.883796, 4.845099 ], [ 102.878953, 4.842332 ], [ 102.869088, 4.841874 ], [ 102.86518, 4.83754 ], [ 102.8651, 4.829704 ], [ 102.869763, 4.826217 ], [ 102.876415, 4.821441 ], [ 102.880419, 4.818535 ], [ 102.879332, 4.81478 ], [ 102.875409, 4.811198 ], [ 102.873362, 4.807616 ], [ 102.877059, 4.805391 ], [ 102.885813, 4.809663 ], [ 102.891838, 4.809093 ], [ 102.89595, 4.802177 ], [ 102.897045, 4.795655 ], [ 102.890621, 4.789132 ], [ 102.890857, 4.782326 ], [ 102.887984, 4.780156 ], [ 102.892926, 4.772546 ], [ 102.893121, 4.767998 ], [ 102.895693, 4.763157 ], [ 102.895643, 4.754743 ], [ 102.893645, 4.751224 ], [ 102.89072, 4.747224 ], [ 102.883514, 4.747096 ], [ 102.879417, 4.746046 ], [ 102.874641, 4.742805 ], [ 102.871646, 4.740108 ], [ 102.867989, 4.734277 ], [ 102.857512, 4.73398 ], [ 102.853757, 4.73141 ], [ 102.8475, 4.730718 ], [ 102.843722, 4.728221 ], [ 102.843343, 4.723039 ], [ 102.844628, 4.720228 ], [ 102.847357, 4.715343 ], [ 102.843503, 4.708227 ], [ 102.844995, 4.705313 ], [ 102.845439, 4.700965 ], [ 102.844349, 4.693034 ], [ 102.844178, 4.688429 ], [ 102.844095, 4.684291 ], [ 102.843597, 4.679808 ], [ 102.841669, 4.67992 ], [ 102.825476, 4.681526 ], [ 102.79072, 4.675819 ], [ 102.779002, 4.670378 ], [ 102.774741, 4.677545 ], [ 102.769415, 4.672767 ], [ 102.764488, 4.678076 ], [ 102.762091, 4.683517 ], [ 102.7549, 4.680199 ], [ 102.747842, 4.682986 ], [ 102.745179, 4.689489 ], [ 102.734393, 4.683384 ], [ 102.729067, 4.685906 ], [ 102.728401, 4.688693 ], [ 102.720145, 4.6944 ], [ 102.714419, 4.693869 ], [ 102.70057, 4.715368 ], [ 102.69258, 4.713643 ], [ 102.682194, 4.715368 ], [ 102.675403, 4.730763 ], [ 102.665282, 4.737796 ], [ 102.65969, 4.751332 ], [ 102.662486, 4.755711 ], [ 102.658068, 4.759475 ], [ 102.664186, 4.770056 ], [ 102.666525, 4.780097 ], [ 102.658968, 4.791753 ], [ 102.659507, 4.800898 ], [ 102.65231, 4.812733 ], [ 102.644032, 4.813271 ], [ 102.646191, 4.826002 ], [ 102.652489, 4.835326 ], [ 102.65087, 4.845725 ], [ 102.647811, 4.850208 ], [ 102.644032, 4.847877 ], [ 102.620819, 4.8624 ], [ 102.614881, 4.862042 ], [ 102.606244, 4.874054 ], [ 102.592748, 4.873158 ], [ 102.58627, 4.88284 ], [ 102.571514, 4.895749 ], [ 102.535885, 4.907402 ], [ 102.529587, 4.896107 ], [ 102.513752, 4.901486 ], [ 102.506014, 4.903099 ], [ 102.513212, 4.919952 ], [ 102.513392, 4.938239 ], [ 102.521129, 4.941645 ], [ 102.52077, 4.94792 ], [ 102.514831, 4.948637 ], [ 102.513932, 4.952401 ], [ 102.522389, 4.960648 ], [ 102.509973, 4.970687 ], [ 102.507634, 4.979113 ], [ 102.503315, 4.981622 ], [ 102.499536, 4.993812 ], [ 102.501695, 5.001521 ], [ 102.501335, 5.001521 ], [ 102.498816, 5.008153 ], [ 102.512132, 5.009229 ], [ 102.52023, 5.026437 ], [ 102.508713, 5.048306 ], [ 102.514112, 5.054579 ], [ 102.502955, 5.074296 ], [ 102.499176, 5.076088 ], [ 102.505294, 5.083437 ], [ 102.513752, 5.084154 ], [ 102.51879, 5.089352 ], [ 102.52095, 5.098314 ], [ 102.529227, 5.108172 ], [ 102.513932, 5.128066 ], [ 102.48748, 5.13631 ], [ 102.484241, 5.147959 ], [ 102.474884, 5.157816 ], [ 102.457429, 5.170003 ], [ 102.444473, 5.168211 ], [ 102.437815, 5.179681 ], [ 102.414422, 5.180756 ], [ 102.410463, 5.183265 ], [ 102.41982, 5.195809 ], [ 102.422879, 5.204769 ], [ 102.4209, 5.223048 ], [ 102.414422, 5.230037 ], [ 102.417301, 5.242043 ], [ 102.415502, 5.26032 ], [ 102.42018, 5.27358 ], [ 102.415682, 5.283614 ], [ 102.418201, 5.288631 ], [ 102.415238, 5.293171 ], [ 102.41842, 5.299127 ], [ 102.41997, 5.304511 ], [ 102.422353, 5.31961 ], [ 102.429583, 5.32221 ], [ 102.429985, 5.330408 ], [ 102.427575, 5.337406 ], [ 102.429181, 5.348004 ], [ 102.426571, 5.351603 ], [ 102.428579, 5.356801 ], [ 102.436377, 5.35654 ], [ 102.442736, 5.360107 ], [ 102.449317, 5.356815 ], [ 102.459, 5.352282 ], [ 102.46881, 5.353058 ], [ 102.470763, 5.359696 ], [ 102.482537, 5.361589 ], [ 102.488334, 5.355947 ], [ 102.504064, 5.353318 ], [ 102.51242, 5.349725 ], [ 102.513708, 5.344537 ], [ 102.512157, 5.338643 ], [ 102.518043, 5.334809 ], [ 102.527493, 5.332779 ], [ 102.536396, 5.338792 ], [ 102.537943, 5.342815 ], [ 102.544674, 5.350038 ], [ 102.546236, 5.357691 ], [ 102.550309, 5.358413 ], [ 102.554428, 5.362212 ], [ 102.560012, 5.366555 ], [ 102.566289, 5.369731 ], [ 102.573478, 5.367194 ], [ 102.579078, 5.366403 ], [ 102.583778, 5.368142 ], [ 102.585578, 5.369653 ], [ 102.585174, 5.374145 ], [ 102.57722, 5.382299 ], [ 102.577843, 5.387641 ], [ 102.587296, 5.397455 ], [ 102.588296, 5.4072 ], [ 102.580669, 5.418157 ], [ 102.58245, 5.422727 ], [ 102.593627, 5.430777 ], [ 102.591778, 5.43597 ], [ 102.589487, 5.440351 ], [ 102.594878, 5.44536 ], [ 102.597585, 5.454207 ], [ 102.593657, 5.461859 ], [ 102.589605, 5.467075 ], [ 102.590436, 5.471673 ], [ 102.594103, 5.475761 ], [ 102.593286, 5.483029 ], [ 102.600541, 5.481331 ], [ 102.610395, 5.480251 ], [ 102.616252, 5.476034 ], [ 102.622344, 5.472051 ], [ 102.625155, 5.461352 ], [ 102.629994, 5.457646 ], [ 102.635069, 5.457012 ], [ 102.637652, 5.452262 ], [ 102.642615, 5.444196 ], [ 102.654814, 5.435942 ], [ 102.654892, 5.426883 ], [ 102.658875, 5.416886 ], [ 102.653096, 5.408608 ], [ 102.654814, 5.402204 ], [ 102.651614, 5.396073 ], [ 102.653612, 5.392854 ], [ 102.657313, 5.391193 ], [ 102.664263, 5.391818 ], [ 102.668402, 5.396035 ], [ 102.67301, 5.397831 ], [ 102.675431, 5.400174 ], [ 102.679961, 5.400174 ], [ 102.683475, 5.396738 ], [ 102.681952, 5.386741 ], [ 102.681964, 5.378242 ], [ 102.682823, 5.360515 ], [ 102.683695, 5.344086 ], [ 102.693054, 5.340179 ], [ 102.7047, 5.339722 ], [ 102.709499, 5.339305 ], [ 102.715781, 5.337429 ], [ 102.718473, 5.335389 ], [ 102.722821, 5.331122 ], [ 102.724738, 5.32655 ], [ 102.728015, 5.317321 ], [ 102.725081, 5.306265 ], [ 102.727778, 5.292163 ], [ 102.725003, 5.278423 ], [ 102.72523, 5.273096 ], [ 102.726089, 5.264427 ], [ 102.735942, 5.259767 ], [ 102.744495, 5.250237 ], [ 102.74821, 5.247896 ], [ 102.752985, 5.243425 ], [ 102.758341, 5.241756 ], [ 102.761947, 5.236182 ], [ 102.766279, 5.231374 ], [ 102.769492, 5.226615 ], [ 102.779006, 5.223705 ], [ 102.785689, 5.2215 ], [ 102.790757, 5.221887 ], [ 102.796555, 5.223168 ], [ 102.805354, 5.230636 ], [ 102.81183, 5.236143 ], [ 102.81515, 5.23962 ], [ 102.824691, 5.242877 ], [ 102.82625, 5.250013 ], [ 102.831908, 5.250149 ], [ 102.836677, 5.252924 ], [ 102.84128, 5.257193 ], [ 102.84427, 5.258132 ], [ 102.848228, 5.259452 ], [ 102.848926, 5.264338 ], [ 102.853114, 5.264416 ], [ 102.858634, 5.262174 ], [ 102.860939, 5.254727 ], [ 102.867747, 5.250905 ], [ 102.873639, 5.242061 ], [ 102.877185, 5.245873 ], [ 102.881063, 5.244753 ], [ 102.887752, 5.238961 ], [ 102.895083, 5.243458 ], [ 102.896958, 5.239787 ], [ 102.8995, 5.233903 ], [ 102.893789, 5.226969 ], [ 102.897542, 5.218729 ], [ 102.901694, 5.211716 ], [ 102.906026, 5.213997 ], [ 102.909861, 5.2069 ], [ 102.913642, 5.203672 ], [ 102.918719, 5.195238 ], [ 102.919812, 5.190239 ], [ 102.930745, 5.186178 ], [ 102.93567, 5.19285 ], [ 102.941743, 5.193559 ], [ 102.941044, 5.19992 ], [ 102.951522, 5.204552 ], [ 102.961978, 5.197165 ], [ 102.967601, 5.198024 ], [ 102.969333, 5.204452 ], [ 102.974419, 5.210735 ], [ 102.984324, 5.220735 ], [ 102.988015, 5.223461 ], [ 102.991328, 5.226422 ], [ 103.00119, 5.231415 ], [ 103.004822, 5.229145 ], [ 103.013317, 5.235803 ] ] ] } },
{ "type": "Feature", "properties": { "state": "Terengganu", "parlimen": "P.038 Hulu Terengganu", "code_parlimen": "P.038", "dun": "N.22 Manir", "code_dun": "N.22" }, "geometry": { "type": "Polygon", "coordinates": [ [ [ 103.030076, 5.229719 ], [ 103.018597, 5.231671 ], [ 103.013317, 5.235803 ], [ 103.004822, 5.229145 ], [ 103.00119, 5.231415 ], [ 103.005629, 5.242451 ], [ 103.0143, 5.254884 ], [ 103.020239, 5.265515 ], [ 103.024275, 5.273736 ], [ 103.030763, 5.280689 ], [ 103.041858, 5.283871 ], [ 103.050752, 5.289342 ], [ 103.05095, 5.295766 ], [ 103.056624, 5.296516 ], [ 103.057355, 5.302327 ], [ 103.064076, 5.302524 ], [ 103.069106, 5.310793 ], [ 103.079303, 5.31014 ], [ 103.078814, 5.317972 ], [ 103.087338, 5.314333 ], [ 103.086523, 5.305898 ], [ 103.086605, 5.296761 ], [ 103.095579, 5.289174 ], [ 103.09305, 5.284768 ], [ 103.090002, 5.283942 ], [ 103.078738, 5.277764 ], [ 103.07387, 5.274603 ], [ 103.06649, 5.270197 ], [ 103.060898, 5.266682 ], [ 103.055759, 5.266139 ], [ 103.051114, 5.267028 ], [ 103.043899, 5.267127 ], [ 103.03864, 5.263454 ], [ 103.035329, 5.257771 ], [ 103.035258, 5.250688 ], [ 103.034969, 5.234157 ], [ 103.038284, 5.229145 ], [ 103.030076, 5.229719 ] ] ] } },
{ "type": "Feature", "properties": { "state": "Terengganu", "parlimen": "P.038 Hulu Terengganu", "code_parlimen": "P.038", "dun": "N.23 Kuala Berang", "code_dun": "N.23" }, "geometry": { "type": "Polygon", "coordinates": [ [ [ 102.982897, 5.065567 ], [ 102.977387, 5.067518 ], [ 102.976588, 5.085256 ], [ 102.971188, 5.089329 ], [ 102.980372, 5.098856 ], [ 102.973484, 5.104481 ], [ 102.972437, 5.110162 ], [ 102.974747, 5.118945 ], [ 102.968879, 5.121033 ], [ 102.963542, 5.124591 ], [ 102.960857, 5.127669 ], [ 102.972451, 5.129276 ], [ 102.980831, 5.13846 ], [ 102.988855, 5.145609 ], [ 103.0031, 5.144888 ], [ 103.010414, 5.147655 ], [ 103.018712, 5.1574 ], [ 103.012731, 5.162582 ], [ 103.008371, 5.174081 ], [ 103.003904, 5.178637 ], [ 103.011195, 5.184529 ], [ 103.018213, 5.188976 ], [ 103.025293, 5.193046 ], [ 103.030073, 5.197278 ], [ 103.034421, 5.201726 ], [ 103.031569, 5.206072 ], [ 103.027379, 5.210893 ], [ 103.027953, 5.216059 ], [ 103.038858, 5.21692 ], [ 103.043909, 5.212673 ], [ 103.042991, 5.204465 ], [ 103.050566, 5.203319 ], [ 103.049379, 5.19851 ], [ 103.046453, 5.196552 ], [ 103.045942, 5.193591 ], [ 103.049741, 5.192859 ], [ 103.052251, 5.187211 ], [ 103.053592, 5.176663 ], [ 103.056498, 5.173684 ], [ 103.054762, 5.163276 ], [ 103.051624, 5.158884 ], [ 103.048845, 5.15476 ], [ 103.050155, 5.150485 ], [ 103.062733, 5.134602 ], [ 103.068532, 5.127267 ], [ 103.07651, 5.120903 ], [ 103.078289, 5.110795 ], [ 103.085291, 5.109302 ], [ 103.089194, 5.104252 ], [ 103.066695, 5.104366 ], [ 103.052002, 5.104366 ], [ 103.031339, 5.104252 ], [ 103.03065, 5.094379 ], [ 103.029273, 5.084048 ], [ 103.037218, 5.077765 ], [ 103.050857, 5.069859 ], [ 103.054872, 5.06086 ], [ 103.060611, 5.059597 ], [ 103.066479, 5.051833 ], [ 103.064227, 5.046454 ], [ 103.058028, 5.046454 ], [ 103.060955, 5.038189 ], [ 103.05358, 5.041275 ], [ 103.039776, 5.044215 ], [ 103.036964, 5.040083 ], [ 103.032429, 5.044985 ], [ 103.02729, 5.048193 ], [ 103.025772, 5.042034 ], [ 103.027092, 5.036639 ], [ 103.019229, 5.03331 ], [ 103.012972, 5.0278 ], [ 103.006544, 5.03044 ], [ 103.003471, 5.037618 ], [ 102.995868, 5.043412 ], [ 102.984389, 5.038246 ], [ 102.974035, 5.037981 ], [ 102.970155, 5.040198 ], [ 102.972795, 5.046741 ], [ 102.97819, 5.049151 ], [ 102.977961, 5.055809 ], [ 102.984734, 5.060745 ], [ 102.982897, 5.065567 ] ] ] } },
{ "type": "Feature", "properties": { "state": "Terengganu", "parlimen": "P.038 Hulu Terengganu", "code_parlimen": "P.038", "dun": "N.24 Ajil", "code_dun": "N.24" }, "geometry": { "type": "Polygon", "coordinates": [ [ [ 103.024796, 4.98108 ], [ 103.016646, 4.984409 ], [ 103.016187, 4.990034 ], [ 103.023074, 4.992903 ], [ 103.022041, 4.998184 ], [ 103.012169, 4.997954 ], [ 103.01148, 5.008974 ], [ 103.017449, 5.011959 ], [ 103.012284, 5.023323 ], [ 103.012972, 5.0278 ], [ 103.019229, 5.03331 ], [ 103.027092, 5.036639 ], [ 103.025772, 5.042034 ], [ 103.02729, 5.048193 ], [ 103.032429, 5.044985 ], [ 103.036964, 5.040083 ], [ 103.039776, 5.044215 ], [ 103.05358, 5.041275 ], [ 103.060955, 5.038189 ], [ 103.058028, 5.046454 ], [ 103.064227, 5.046454 ], [ 103.066479, 5.051833 ], [ 103.060611, 5.059597 ], [ 103.054872, 5.06086 ], [ 103.050857, 5.069859 ], [ 103.037218, 5.077765 ], [ 103.029273, 5.084048 ], [ 103.03065, 5.094379 ], [ 103.031339, 5.104252 ], [ 103.052002, 5.104366 ], [ 103.066695, 5.104366 ], [ 103.089194, 5.104252 ], [ 103.092408, 5.10207 ], [ 103.094321, 5.100685 ], [ 103.1001, 5.09834 ], [ 103.106471, 5.102817 ], [ 103.111945, 5.108122 ], [ 103.117108, 5.106965 ], [ 103.120604, 5.10069 ], [ 103.124837, 5.093174 ], [ 103.129658, 5.084106 ], [ 103.128403, 5.076755 ], [ 103.131501, 5.072213 ], [ 103.137085, 5.067663 ], [ 103.150801, 5.047761 ], [ 103.157186, 5.05096 ], [ 103.158441, 5.046209 ], [ 103.165433, 5.041906 ], [ 103.168033, 5.036348 ], [ 103.171098, 5.033597 ], [ 103.177964, 5.023789 ], [ 103.181544, 5.017641 ], [ 103.187863, 5.015912 ], [ 103.19298, 5.00619 ], [ 103.201776, 5.001093 ], [ 103.205536, 4.99319 ], [ 103.211669, 4.986766 ], [ 103.214652, 4.973303 ], [ 103.215638, 4.964607 ], [ 103.227863, 4.955653 ], [ 103.219254, 4.950086 ], [ 103.210759, 4.948708 ], [ 103.207889, 4.944002 ], [ 103.2072, 4.938377 ], [ 103.211333, 4.93149 ], [ 103.209496, 4.927013 ], [ 103.191818, 4.919666 ], [ 103.185046, 4.90899 ], [ 103.180339, 4.90945 ], [ 103.177814, 4.917715 ], [ 103.1746, 4.911975 ], [ 103.178388, 4.902218 ], [ 103.173452, 4.894527 ], [ 103.165531, 4.899692 ], [ 103.165875, 4.915189 ], [ 103.168171, 4.918633 ], [ 103.171156, 4.929079 ], [ 103.164153, 4.932638 ], [ 103.162546, 4.917255 ], [ 103.160365, 4.915074 ], [ 103.14659, 4.916452 ], [ 103.145213, 4.910253 ], [ 103.13844, 4.906006 ], [ 103.131782, 4.90922 ], [ 103.136489, 4.901873 ], [ 103.147279, 4.901414 ], [ 103.148427, 4.897396 ], [ 103.139588, 4.893034 ], [ 103.129372, 4.897396 ], [ 103.122828, 4.903595 ], [ 103.11904, 4.894067 ], [ 103.109857, 4.898315 ], [ 103.100674, 4.913352 ], [ 103.0889, 4.92133 ], [ 103.083101, 4.924742 ], [ 103.079348, 4.923633 ], [ 103.078531, 4.915689 ], [ 103.07705, 4.909926 ], [ 103.082419, 4.900095 ], [ 103.085377, 4.894576 ], [ 103.082822, 4.888347 ], [ 103.085893, 4.874872 ], [ 103.081152, 4.870006 ], [ 103.081918, 4.863641 ], [ 103.079078, 4.859748 ], [ 103.0716, 4.864377 ], [ 103.067291, 4.863246 ], [ 103.066797, 4.856426 ], [ 103.060298, 4.859364 ], [ 103.053849, 4.855487 ], [ 103.049797, 4.85692 ], [ 103.048232, 4.86233 ], [ 103.042187, 4.863246 ], [ 103.035367, 4.858304 ], [ 103.035615, 4.854104 ], [ 103.038766, 4.851329 ], [ 103.040754, 4.847334 ], [ 103.038995, 4.843865 ], [ 103.036899, 4.841255 ], [ 103.034074, 4.839062 ], [ 103.030983, 4.836225 ], [ 103.027497, 4.835172 ], [ 103.01786, 4.835384 ], [ 103.011634, 4.837431 ], [ 103.004176, 4.839472 ], [ 102.999605, 4.844034 ], [ 102.992909, 4.845698 ], [ 102.988348, 4.843523 ], [ 102.985497, 4.842974 ], [ 102.983697, 4.841584 ], [ 102.980897, 4.837206 ], [ 102.980802, 4.833294 ], [ 102.978234, 4.828653 ], [ 102.977145, 4.824004 ], [ 102.972781, 4.821641 ], [ 102.967311, 4.821039 ], [ 102.964837, 4.822853 ], [ 102.961434, 4.823532 ], [ 102.958733, 4.823183 ], [ 102.956924, 4.822 ], [ 102.955322, 4.820441 ], [ 102.953323, 4.81893 ], [ 102.950919, 4.816739 ], [ 102.948417, 4.81397 ], [ 102.945617, 4.81165 ], [ 102.939835, 4.810513 ], [ 102.933096, 4.81237 ], [ 102.930693, 4.813281 ], [ 102.924696, 4.817179 ], [ 102.919748, 4.817757 ], [ 102.916948, 4.817976 ], [ 102.915275, 4.816854 ], [ 102.909972, 4.815224 ], [ 102.904781, 4.814459 ], [ 102.901509, 4.814689 ], [ 102.898007, 4.815813 ], [ 102.894306, 4.815435 ], [ 102.892796, 4.814551 ], [ 102.891687, 4.812542 ], [ 102.891838, 4.809093 ], [ 102.885813, 4.809663 ], [ 102.877059, 4.805391 ], [ 102.873362, 4.807616 ], [ 102.875409, 4.811198 ], [ 102.879332, 4.81478 ], [ 102.880419, 4.818535 ], [ 102.876415, 4.821441 ], [ 102.869763, 4.826217 ], [ 102.8651, 4.829704 ], [ 102.86518, 4.83754 ], [ 102.869088, 4.841874 ], [ 102.878953, 4.842332 ], [ 102.883796, 4.845099 ], [ 102.893271, 4.857495 ], [ 102.894951, 4.864809 ], [ 102.89841, 4.870937 ], [ 102.89841, 4.875586 ], [ 102.89923, 4.879819 ], [ 102.913448, 4.897856 ], [ 102.9141, 4.904441 ], [ 102.925616, 4.91209 ], [ 102.931278, 4.907692 ], [ 102.935924, 4.907494 ], [ 102.938394, 4.905418 ], [ 102.948278, 4.906802 ], [ 102.951243, 4.903738 ], [ 102.970614, 4.90107 ], [ 102.975358, 4.904331 ], [ 102.977335, 4.909273 ], [ 102.979213, 4.910558 ], [ 102.981881, 4.907395 ], [ 102.985879, 4.914175 ], [ 102.985385, 4.919215 ], [ 102.989096, 4.921388 ], [ 102.989899, 4.928505 ], [ 102.990352, 4.932529 ], [ 102.996776, 4.938953 ], [ 103.006544, 4.935393 ], [ 103.010103, 4.940099 ], [ 103.010192, 4.948272 ], [ 103.00782, 4.952621 ], [ 103.008512, 4.963888 ], [ 103.00693, 4.966754 ], [ 103.008907, 4.969423 ], [ 103.012628, 4.975111 ], [ 103.024796, 4.98108 ] ] ] } },
{ "type": "Feature", "properties": { "state": "Terengganu", "parlimen": "P.039 Dungun", "code_parlimen": "P.039", "dun": "N.25 Bukit Besi", "code_dun": "N.25" }, "geometry": { "type": "Polygon", "coordinates": [ [ [ 103.100674, 4.913352 ], [ 103.109857, 4.898315 ], [ 103.11904, 4.894067 ], [ 103.122828, 4.903595 ], [ 103.129372, 4.897396 ], [ 103.139588, 4.893034 ], [ 103.148427, 4.897396 ], [ 103.147279, 4.901414 ], [ 103.136489, 4.901873 ], [ 103.131782, 4.90922 ], [ 103.13844, 4.906006 ], [ 103.145213, 4.910253 ], [ 103.14659, 4.916452 ], [ 103.160365, 4.915074 ], [ 103.162546, 4.917255 ], [ 103.164153, 4.932638 ], [ 103.171156, 4.929079 ], [ 103.168171, 4.918633 ], [ 103.165875, 4.915189 ], [ 103.165531, 4.899692 ], [ 103.173452, 4.894527 ], [ 103.178388, 4.902218 ], [ 103.1746, 4.911975 ], [ 103.177814, 4.917715 ], [ 103.180339, 4.90945 ], [ 103.185046, 4.90899 ], [ 103.191818, 4.919666 ], [ 103.209496, 4.927013 ], [ 103.211333, 4.93149 ], [ 103.2072, 4.938377 ], [ 103.207889, 4.944002 ], [ 103.210759, 4.948708 ], [ 103.219254, 4.950086 ], [ 103.227863, 4.955653 ], [ 103.229413, 4.941936 ], [ 103.23032, 4.933637 ], [ 103.231479, 4.921044 ], [ 103.233086, 4.908015 ], [ 103.264252, 4.899348 ], [ 103.269418, 4.895617 ], [ 103.270795, 4.887869 ], [ 103.277089, 4.885914 ], [ 103.281299, 4.881555 ], [ 103.282389, 4.875356 ], [ 103.284685, 4.87042 ], [ 103.274232, 4.856749 ], [ 103.264306, 4.841895 ], [ 103.260392, 4.82858 ], [ 103.254589, 4.828795 ], [ 103.252603, 4.823122 ], [ 103.250427, 4.822531 ], [ 103.249753, 4.817324 ], [ 103.247604, 4.813992 ], [ 103.256738, 4.806148 ], [ 103.257162, 4.801785 ], [ 103.254014, 4.798 ], [ 103.254229, 4.796281 ], [ 103.258565, 4.794112 ], [ 103.261037, 4.789921 ], [ 103.260822, 4.782614 ], [ 103.267806, 4.784656 ], [ 103.269311, 4.77982 ], [ 103.26801, 4.773694 ], [ 103.260663, 4.763617 ], [ 103.260878, 4.754053 ], [ 103.263678, 4.743752 ], [ 103.259334, 4.736575 ], [ 103.259095, 4.72815 ], [ 103.259286, 4.713024 ], [ 103.264551, 4.703353 ], [ 103.268729, 4.686939 ], [ 103.269817, 4.668106 ], [ 103.2752, 4.646196 ], [ 103.276765, 4.636503 ], [ 103.27972, 4.63293 ], [ 103.281433, 4.630614 ], [ 103.281977, 4.62111 ], [ 103.284771, 4.613695 ], [ 103.280902, 4.610686 ], [ 103.280687, 4.604346 ], [ 103.282944, 4.598221 ], [ 103.282837, 4.586293 ], [ 103.285211, 4.579427 ], [ 103.289555, 4.576405 ], [ 103.288705, 4.571967 ], [ 103.287572, 4.567528 ], [ 103.288327, 4.559123 ], [ 103.293482, 4.557289 ], [ 103.293965, 4.543158 ], [ 103.291171, 4.537033 ], [ 103.29201, 4.531074 ], [ 103.294825, 4.526394 ], [ 103.297866, 4.517664 ], [ 103.296472, 4.508597 ], [ 103.286191, 4.499566 ], [ 103.283499, 4.49179 ], [ 103.285034, 4.484285 ], [ 103.285972, 4.477462 ], [ 103.286228, 4.472772 ], [ 103.28402, 4.467796 ], [ 103.27623, 4.465056 ], [ 103.2718, 4.460906 ], [ 103.26542, 4.456993 ], [ 103.26106, 4.465351 ], [ 103.250475, 4.458957 ], [ 103.239596, 4.457222 ], [ 103.230436, 4.453162 ], [ 103.224326, 4.454847 ], [ 103.221967, 4.46525 ], [ 103.222397, 4.476963 ], [ 103.214499, 4.490395 ], [ 103.213048, 4.497595 ], [ 103.20676, 4.495597 ], [ 103.198808, 4.485765 ], [ 103.188882, 4.486404 ], [ 103.185903, 4.482071 ], [ 103.185577, 4.4695 ], [ 103.177927, 4.464683 ], [ 103.175839, 4.456486 ], [ 103.171354, 4.448486 ], [ 103.171085, 4.443382 ], [ 103.167808, 4.439298 ], [ 103.160331, 4.437563 ], [ 103.156578, 4.432958 ], [ 103.157717, 4.422469 ], [ 103.152617, 4.418242 ], [ 103.148462, 4.423531 ], [ 103.142087, 4.424475 ], [ 103.13745, 4.431346 ], [ 103.135693, 4.435862 ], [ 103.132572, 4.440549 ], [ 103.127921, 4.443623 ], [ 103.1218, 4.444571 ], [ 103.114511, 4.442868 ], [ 103.110875, 4.437579 ], [ 103.102848, 4.438807 ], [ 103.100974, 4.434962 ], [ 103.096514, 4.429535 ], [ 103.092386, 4.427878 ], [ 103.08636, 4.426764 ], [ 103.079804, 4.422658 ], [ 103.073679, 4.42572 ], [ 103.06922, 4.432866 ], [ 103.063845, 4.434099 ], [ 103.054229, 4.432705 ], [ 103.048587, 4.439421 ], [ 103.045664, 4.437822 ], [ 103.03878, 4.432433 ], [ 103.036362, 4.425019 ], [ 103.031187, 4.421271 ], [ 103.027474, 4.415752 ], [ 103.024627, 4.409112 ], [ 103.017494, 4.405819 ], [ 103.007907, 4.416308 ], [ 103.010969, 4.433833 ], [ 103.000316, 4.450428 ], [ 102.994724, 4.449499 ], [ 102.98993, 4.451092 ], [ 102.986468, 4.458261 ], [ 102.986734, 4.462642 ], [ 102.976214, 4.471802 ], [ 102.976747, 4.47605 ], [ 102.969556, 4.480697 ], [ 102.968225, 4.473926 ], [ 102.9617, 4.470342 ], [ 102.959036, 4.472333 ], [ 102.955441, 4.4722 ], [ 102.953444, 4.464235 ], [ 102.955441, 4.456933 ], [ 102.951313, 4.452154 ], [ 102.942524, 4.45003 ], [ 102.941193, 4.454411 ], [ 102.934002, 4.460783 ], [ 102.929608, 4.467554 ], [ 102.919221, 4.467288 ], [ 102.914028, 4.463969 ], [ 102.912963, 4.468085 ], [ 102.901644, 4.468483 ], [ 102.899513, 4.465563 ], [ 102.890991, 4.469413 ], [ 102.878207, 4.463438 ], [ 102.872482, 4.469944 ], [ 102.876077, 4.482157 ], [ 102.871283, 4.48375 ], [ 102.855437, 4.495565 ], [ 102.853573, 4.492645 ], [ 102.846116, 4.49822 ], [ 102.844651, 4.501539 ], [ 102.846648, 4.520124 ], [ 102.836661, 4.535522 ], [ 102.840123, 4.572955 ], [ 102.85304, 4.57707 ], [ 102.854904, 4.562336 ], [ 102.866356, 4.561805 ], [ 102.87368, 4.580521 ], [ 102.87115, 4.587556 ], [ 102.859032, 4.597511 ], [ 102.860364, 4.604148 ], [ 102.873414, 4.603617 ], [ 102.884067, 4.608661 ], [ 102.878873, 4.617819 ], [ 102.866356, 4.627641 ], [ 102.872082, 4.638259 ], [ 102.85557, 4.664538 ], [ 102.843884, 4.671371 ], [ 102.843597, 4.679808 ], [ 102.844095, 4.684291 ], [ 102.844178, 4.688429 ], [ 102.844349, 4.693034 ], [ 102.845439, 4.700965 ], [ 102.844995, 4.705313 ], [ 102.843503, 4.708227 ], [ 102.847357, 4.715343 ], [ 102.844628, 4.720228 ], [ 102.843343, 4.723039 ], [ 102.843722, 4.728221 ], [ 102.8475, 4.730718 ], [ 102.853757, 4.73141 ], [ 102.857512, 4.73398 ], [ 102.867989, 4.734277 ], [ 102.871646, 4.740108 ], [ 102.874641, 4.742805 ], [ 102.879417, 4.746046 ], [ 102.883514, 4.747096 ], [ 102.89072, 4.747224 ], [ 102.893645, 4.751224 ], [ 102.895643, 4.754743 ], [ 102.895693, 4.763157 ], [ 102.893121, 4.767998 ], [ 102.892926, 4.772546 ], [ 102.887984, 4.780156 ], [ 102.890857, 4.782326 ], [ 102.890621, 4.789132 ], [ 102.897045, 4.795655 ], [ 102.89595, 4.802177 ], [ 102.891838, 4.809093 ], [ 102.891687, 4.812542 ], [ 102.892796, 4.814551 ], [ 102.894306, 4.815435 ], [ 102.898007, 4.815813 ], [ 102.901509, 4.814689 ], [ 102.904781, 4.814459 ], [ 102.909972, 4.815224 ], [ 102.915275, 4.816854 ], [ 102.916948, 4.817976 ], [ 102.919748, 4.817757 ], [ 102.924696, 4.817179 ], [ 102.930693, 4.813281 ], [ 102.933096, 4.81237 ], [ 102.939835, 4.810513 ], [ 102.945617, 4.81165 ], [ 102.948417, 4.81397 ], [ 102.950919, 4.816739 ], [ 102.953323, 4.81893 ], [ 102.955322, 4.820441 ], [ 102.956924, 4.822 ], [ 102.958733, 4.823183 ], [ 102.961434, 4.823532 ], [ 102.964837, 4.822853 ], [ 102.967311, 4.821039 ], [ 102.972781, 4.821641 ], [ 102.977145, 4.824004 ], [ 102.978234, 4.828653 ], [ 102.980802, 4.833294 ], [ 102.980897, 4.837206 ], [ 102.983697, 4.841584 ], [ 102.985497, 4.842974 ], [ 102.988348, 4.843523 ], [ 102.992909, 4.845698 ], [ 102.999605, 4.844034 ], [ 103.004176, 4.839472 ], [ 103.011634, 4.837431 ], [ 103.01786, 4.835384 ], [ 103.027497, 4.835172 ], [ 103.030983, 4.836225 ], [ 103.034074, 4.839062 ], [ 103.036899, 4.841255 ], [ 103.038995, 4.843865 ], [ 103.040754, 4.847334 ], [ 103.038766, 4.851329 ], [ 103.035615, 4.854104 ], [ 103.035367, 4.858304 ], [ 103.042187, 4.863246 ], [ 103.048232, 4.86233 ], [ 103.049797, 4.85692 ], [ 103.053849, 4.855487 ], [ 103.060298, 4.859364 ], [ 103.066797, 4.856426 ], [ 103.067291, 4.863246 ], [ 103.0716, 4.864377 ], [ 103.079078, 4.859748 ], [ 103.081918, 4.863641 ], [ 103.081152, 4.870006 ], [ 103.085893, 4.874872 ], [ 103.082822, 4.888347 ], [ 103.085377, 4.894576 ], [ 103.082419, 4.900095 ], [ 103.07705, 4.909926 ], [ 103.078531, 4.915689 ], [ 103.079348, 4.923633 ], [ 103.083101, 4.924742 ], [ 103.0889, 4.92133 ], [ 103.100674, 4.913352 ] ] ] } },
{ "type": "Feature", "properties": { "state": "Terengganu", "parlimen": "P.039 Dungun", "code_parlimen": "P.039", "dun": "N.26 Rantau Abang", "code_dun": "N.26" }, "geometry": { "type": "MultiPolygon", "coordinates": [ [ [ [ 103.411665, 4.781953 ], [ 103.399483, 4.778459 ], [ 103.391502, 4.775106 ], [ 103.392234, 4.770304 ], [ 103.39519, 4.763963 ], [ 103.401046, 4.757731 ], [ 103.406849, 4.754991 ], [ 103.409914, 4.752059 ], [ 103.414262, 4.742288 ], [ 103.421144, 4.739648 ], [ 103.420821, 4.728472 ], [ 103.419239, 4.718305 ], [ 103.404947, 4.718627 ], [ 103.401404, 4.72008 ], [ 103.394634, 4.716856 ], [ 103.386331, 4.72239 ], [ 103.379561, 4.728838 ], [ 103.377331, 4.736333 ], [ 103.37529, 4.746434 ], [ 103.371528, 4.753527 ], [ 103.360353, 4.753849 ], [ 103.356592, 4.756106 ], [ 103.351756, 4.754601 ], [ 103.345841, 4.756738 ], [ 103.337908, 4.750788 ], [ 103.331958, 4.751071 ], [ 103.325575, 4.765016 ], [ 103.31902, 4.766843 ], [ 103.315796, 4.772753 ], [ 103.30777, 4.777778 ], [ 103.301108, 4.774876 ], [ 103.292833, 4.777348 ], [ 103.284236, 4.771008 ], [ 103.27435, 4.770148 ], [ 103.26801, 4.773694 ], [ 103.269311, 4.77982 ], [ 103.267806, 4.784656 ], [ 103.260822, 4.782614 ], [ 103.261037, 4.789921 ], [ 103.258565, 4.794112 ], [ 103.254229, 4.796281 ], [ 103.254014, 4.798 ], [ 103.257162, 4.801785 ], [ 103.256738, 4.806148 ], [ 103.247604, 4.813992 ], [ 103.249753, 4.817324 ], [ 103.250427, 4.822531 ], [ 103.252603, 4.823122 ], [ 103.254589, 4.828795 ], [ 103.260392, 4.82858 ], [ 103.264306, 4.841895 ], [ 103.274232, 4.856749 ], [ 103.284685, 4.87042 ], [ 103.294154, 4.867914 ], [ 103.300519, 4.871679 ], [ 103.304909, 4.879019 ], [ 103.308677, 4.880465 ], [ 103.315335, 4.872831 ], [ 103.328765, 4.863992 ], [ 103.33294, 4.855533 ], [ 103.338053, 4.849559 ], [ 103.347, 4.852182 ], [ 103.351572, 4.850747 ], [ 103.363046, 4.857202 ], [ 103.368655, 4.859745 ], [ 103.373821, 4.865255 ], [ 103.373764, 4.871166 ], [ 103.38768, 4.877844 ], [ 103.391024, 4.872142 ], [ 103.425235, 4.813567 ], [ 103.441292, 4.780858 ], [ 103.436154, 4.778801 ], [ 103.433091, 4.781322 ], [ 103.428164, 4.779199 ], [ 103.423517, 4.782095 ], [ 103.411665, 4.781953 ] ] ], [ [ [ 103.666588, 4.845321 ], [ 103.666725, 4.844974 ], [ 103.666588, 4.844626 ], [ 103.666313, 4.844347 ], [ 103.666382, 4.843721 ], [ 103.667137, 4.844069 ], [ 103.667419, 4.843721 ], [ 103.667625, 4.843096 ], [ 103.667625, 4.842679 ], [ 103.667091, 4.842159 ], [ 103.667122, 4.841911 ], [ 103.667053, 4.841423 ], [ 103.666153, 4.841284 ], [ 103.665672, 4.84184 ], [ 103.665123, 4.842191 ], [ 103.664528, 4.842134 ], [ 103.664246, 4.842134 ], [ 103.66404, 4.842481 ], [ 103.663971, 4.842898 ], [ 103.663971, 4.843456 ], [ 103.663834, 4.843734 ], [ 103.663559, 4.844151 ], [ 103.663483, 4.84443 ], [ 103.663406, 4.844639 ], [ 103.663277, 4.844986 ], [ 103.663002, 4.845125 ], [ 103.662659, 4.845264 ], [ 103.661964, 4.845612 ], [ 103.661682, 4.84589 ], [ 103.661682, 4.846451 ], [ 103.661652, 4.846989 ], [ 103.661926, 4.847408 ], [ 103.662415, 4.847616 ], [ 103.662758, 4.847825 ], [ 103.663383, 4.848311 ], [ 103.665131, 4.84734 ], [ 103.665268, 4.846921 ], [ 103.665482, 4.846713 ], [ 103.665619, 4.846296 ], [ 103.665825, 4.845879 ], [ 103.666168, 4.845669 ], [ 103.666588, 4.845321 ] ] ], [ [ [ 103.685768, 4.807131 ], [ 103.685913, 4.80671 ], [ 103.68605, 4.80601 ], [ 103.686523, 4.805789 ], [ 103.687225, 4.805386 ], [ 103.687363, 4.805181 ], [ 103.687019, 4.80469 ], [ 103.687302, 4.80462 ], [ 103.688133, 4.80413 ], [ 103.688126, 4.803578 ], [ 103.687386, 4.803198 ], [ 103.686417, 4.80188 ], [ 103.685791, 4.80139 ], [ 103.685242, 4.800552 ], [ 103.684753, 4.799859 ], [ 103.685234, 4.799319 ], [ 103.685097, 4.798899 ], [ 103.685379, 4.798484 ], [ 103.685654, 4.797997 ], [ 103.685722, 4.797511 ], [ 103.686134, 4.797372 ], [ 103.686134, 4.796953 ], [ 103.685928, 4.79598 ], [ 103.68531, 4.795822 ], [ 103.684822, 4.795335 ], [ 103.684196, 4.795196 ], [ 103.683647, 4.794851 ], [ 103.68309, 4.794571 ], [ 103.682716, 4.79448 ], [ 103.682388, 4.794049 ], [ 103.682175, 4.793634 ], [ 103.681427, 4.793356 ], [ 103.680664, 4.793555 ], [ 103.680595, 4.793972 ], [ 103.680183, 4.794111 ], [ 103.680038, 4.794598 ], [ 103.679207, 4.794669 ], [ 103.678864, 4.794877 ], [ 103.678375, 4.794947 ], [ 103.677963, 4.795225 ], [ 103.677689, 4.795503 ], [ 103.67762, 4.796032 ], [ 103.676926, 4.796518 ], [ 103.676857, 4.797493 ], [ 103.676788, 4.79791 ], [ 103.676292, 4.79858 ], [ 103.676086, 4.79949 ], [ 103.675667, 4.799768 ], [ 103.675186, 4.799975 ], [ 103.674767, 4.80046 ], [ 103.674507, 4.801037 ], [ 103.674286, 4.80111 ], [ 103.674156, 4.80083 ], [ 103.674019, 4.800344 ], [ 103.673531, 4.800761 ], [ 103.672707, 4.801352 ], [ 103.672768, 4.801598 ], [ 103.672211, 4.802083 ], [ 103.672005, 4.802245 ], [ 103.672005, 4.802384 ], [ 103.672211, 4.80294 ], [ 103.672493, 4.803476 ], [ 103.672493, 4.804032 ], [ 103.672699, 4.804937 ], [ 103.673111, 4.805215 ], [ 103.673531, 4.805632 ], [ 103.674156, 4.805771 ], [ 103.674767, 4.805841 ], [ 103.6754, 4.80612 ], [ 103.676086, 4.80612 ], [ 103.676651, 4.80591 ], [ 103.677483, 4.806188 ], [ 103.678101, 4.806954 ], [ 103.678169, 4.80751 ], [ 103.678238, 4.807929 ], [ 103.678398, 4.809133 ], [ 103.677986, 4.809481 ], [ 103.677498, 4.80962 ], [ 103.676727, 4.80962 ], [ 103.676369, 4.809461 ], [ 103.675751, 4.809458 ], [ 103.675331, 4.809876 ], [ 103.675056, 4.810502 ], [ 103.675056, 4.811475 ], [ 103.675133, 4.812171 ], [ 103.675751, 4.81259 ], [ 103.676231, 4.813075 ], [ 103.676575, 4.813634 ], [ 103.677132, 4.814607 ], [ 103.677826, 4.815234 ], [ 103.678383, 4.815512 ], [ 103.678383, 4.816417 ], [ 103.678452, 4.81697 ], [ 103.678787, 4.817321 ], [ 103.679756, 4.817741 ], [ 103.680656, 4.81788 ], [ 103.681152, 4.817811 ], [ 103.681412, 4.81746 ], [ 103.681343, 4.817114 ], [ 103.681206, 4.816765 ], [ 103.681137, 4.816626 ], [ 103.680786, 4.81607 ], [ 103.680717, 4.815722 ], [ 103.680717, 4.815097 ], [ 103.680733, 4.814814 ], [ 103.681656, 4.814839 ], [ 103.681938, 4.81463 ], [ 103.682007, 4.81442 ], [ 103.682083, 4.814251 ], [ 103.68235, 4.813652 ], [ 103.683006, 4.813597 ], [ 103.683395, 4.813353 ], [ 103.684021, 4.813353 ], [ 103.684364, 4.813493 ], [ 103.684784, 4.813561 ], [ 103.685196, 4.813584 ], [ 103.685677, 4.813445 ], [ 103.685883, 4.813096 ], [ 103.686234, 4.812469 ], [ 103.686996, 4.812471 ], [ 103.687553, 4.81233 ], [ 103.68824, 4.812123 ], [ 103.68866, 4.811842 ], [ 103.689072, 4.811706 ], [ 103.689415, 4.812123 ], [ 103.689972, 4.812123 ], [ 103.690109, 4.811774 ], [ 103.690247, 4.811079 ], [ 103.690529, 4.810662 ], [ 103.690872, 4.810381 ], [ 103.690872, 4.810174 ], [ 103.690598, 4.810035 ], [ 103.690323, 4.809896 ], [ 103.690086, 4.809668 ], [ 103.689613, 4.809319 ], [ 103.68898, 4.809319 ], [ 103.688492, 4.80869 ], [ 103.687943, 4.808693 ], [ 103.687202, 4.808415 ], [ 103.686279, 4.808066 ], [ 103.685791, 4.807649 ], [ 103.685768, 4.807131 ] ] ] ] } },
{ "type": "Feature", "properties": { "state": "Terengganu", "parlimen": "P.039 Dungun", "code_parlimen": "P.039", "dun": "N.27 Sura", "code_dun": "N.27" }, "geometry": { "type": "Polygon", "coordinates": [ [ [ 103.399483, 4.778459 ], [ 103.411665, 4.781953 ], [ 103.423517, 4.782095 ], [ 103.428164, 4.779199 ], [ 103.423503, 4.770308 ], [ 103.424934, 4.756738 ], [ 103.426823, 4.746019 ], [ 103.424226, 4.743611 ], [ 103.414262, 4.742288 ], [ 103.409914, 4.752059 ], [ 103.406849, 4.754991 ], [ 103.401046, 4.757731 ], [ 103.39519, 4.763963 ], [ 103.392234, 4.770304 ], [ 103.391502, 4.775106 ], [ 103.399483, 4.778459 ] ] ] } },
{ "type": "Feature", "properties": { "state": "Terengganu", "parlimen": "P.039 Dungun", "code_parlimen": "P.039", "dun": "N.28 Paka", "code_dun": "N.28" }, "geometry": { "type": "Polygon", "coordinates": [ [ [ 103.288327, 4.559123 ], [ 103.287572, 4.567528 ], [ 103.288705, 4.571967 ], [ 103.289555, 4.576405 ], [ 103.285211, 4.579427 ], [ 103.282837, 4.586293 ], [ 103.282944, 4.598221 ], [ 103.280687, 4.604346 ], [ 103.280902, 4.610686 ], [ 103.284771, 4.613695 ], [ 103.281977, 4.62111 ], [ 103.281433, 4.630614 ], [ 103.27972, 4.63293 ], [ 103.276765, 4.636503 ], [ 103.2752, 4.646196 ], [ 103.269817, 4.668106 ], [ 103.268729, 4.686939 ], [ 103.264551, 4.703353 ], [ 103.259286, 4.713024 ], [ 103.259095, 4.72815 ], [ 103.259334, 4.736575 ], [ 103.263678, 4.743752 ], [ 103.260878, 4.754053 ], [ 103.260663, 4.763617 ], [ 103.26801, 4.773694 ], [ 103.27435, 4.770148 ], [ 103.284236, 4.771008 ], [ 103.292833, 4.777348 ], [ 103.301108, 4.774876 ], [ 103.30777, 4.777778 ], [ 103.315796, 4.772753 ], [ 103.31902, 4.766843 ], [ 103.325575, 4.765016 ], [ 103.331958, 4.751071 ], [ 103.337908, 4.750788 ], [ 103.345841, 4.756738 ], [ 103.351756, 4.754601 ], [ 103.356592, 4.756106 ], [ 103.360353, 4.753849 ], [ 103.371528, 4.753527 ], [ 103.37529, 4.746434 ], [ 103.377331, 4.736333 ], [ 103.379561, 4.728838 ], [ 103.386331, 4.72239 ], [ 103.394634, 4.716856 ], [ 103.401404, 4.72008 ], [ 103.404947, 4.718627 ], [ 103.419239, 4.718305 ], [ 103.420821, 4.728472 ], [ 103.421144, 4.739648 ], [ 103.414262, 4.742288 ], [ 103.424226, 4.743611 ], [ 103.426823, 4.746019 ], [ 103.427578, 4.743611 ], [ 103.431867, 4.734774 ], [ 103.448405, 4.69586 ], [ 103.449603, 4.688693 ], [ 103.449603, 4.659097 ], [ 103.448804, 4.653788 ], [ 103.442945, 4.655779 ], [ 103.438684, 4.648081 ], [ 103.441081, 4.631225 ], [ 103.454663, 4.596184 ], [ 103.442821, 4.591101 ], [ 103.412731, 4.588617 ], [ 103.374173, 4.586935 ], [ 103.367966, 4.580687 ], [ 103.361484, 4.58154 ], [ 103.360748, 4.587001 ], [ 103.352598, 4.587038 ], [ 103.345488, 4.595905 ], [ 103.341497, 4.597229 ], [ 103.338703, 4.588203 ], [ 103.33059, 4.581701 ], [ 103.329597, 4.576169 ], [ 103.327047, 4.570078 ], [ 103.315926, 4.566136 ], [ 103.307563, 4.567282 ], [ 103.300085, 4.561106 ], [ 103.293482, 4.557289 ], [ 103.288327, 4.559123 ] ] ] } },
{ "type": "Feature", "properties": { "state": "Terengganu", "parlimen": "P.040 Kemaman", "code_parlimen": "P.040", "dun": "N.29 Kemasik", "code_dun": "N.29" }, "geometry": { "type": "Polygon", "coordinates": [ [ [ 103.37389, 4.426963 ], [ 103.375234, 4.433462 ], [ 103.376308, 4.447539 ], [ 103.376109, 4.457907 ], [ 103.373726, 4.471467 ], [ 103.372453, 4.480044 ], [ 103.369821, 4.487029 ], [ 103.369026, 4.493322 ], [ 103.351754, 4.489221 ], [ 103.344755, 4.484256 ], [ 103.337058, 4.478637 ], [ 103.328181, 4.471979 ], [ 103.327919, 4.46257 ], [ 103.322468, 4.454809 ], [ 103.316801, 4.450399 ], [ 103.31189, 4.456915 ], [ 103.304267, 4.459393 ], [ 103.300239, 4.456555 ], [ 103.296828, 4.457578 ], [ 103.293655, 4.466576 ], [ 103.288658, 4.468815 ], [ 103.286228, 4.472772 ], [ 103.285972, 4.477462 ], [ 103.285034, 4.484285 ], [ 103.283499, 4.49179 ], [ 103.286191, 4.499566 ], [ 103.296472, 4.508597 ], [ 103.297866, 4.517664 ], [ 103.294825, 4.526394 ], [ 103.29201, 4.531074 ], [ 103.291171, 4.537033 ], [ 103.293965, 4.543158 ], [ 103.293482, 4.557289 ], [ 103.300085, 4.561106 ], [ 103.307563, 4.567282 ], [ 103.315926, 4.566136 ], [ 103.327047, 4.570078 ], [ 103.329597, 4.576169 ], [ 103.33059, 4.581701 ], [ 103.338703, 4.588203 ], [ 103.341497, 4.597229 ], [ 103.345488, 4.595905 ], [ 103.352598, 4.587038 ], [ 103.360748, 4.587001 ], [ 103.361484, 4.58154 ], [ 103.367966, 4.580687 ], [ 103.374173, 4.586935 ], [ 103.412731, 4.588617 ], [ 103.442821, 4.591101 ], [ 103.454663, 4.596184 ], [ 103.468512, 4.566053 ], [ 103.473306, 4.547735 ], [ 103.476768, 4.528619 ], [ 103.470643, 4.51561 ], [ 103.457593, 4.516407 ], [ 103.450668, 4.508442 ], [ 103.445076, 4.468085 ], [ 103.456528, 4.436488 ], [ 103.459723, 4.418432 ], [ 103.455995, 4.399845 ], [ 103.454349, 4.398383 ], [ 103.448405, 4.396351 ], [ 103.435322, 4.388777 ], [ 103.426634, 4.386322 ], [ 103.417757, 4.38755 ], [ 103.410201, 4.383772 ], [ 103.401841, 4.387652 ], [ 103.393863, 4.385661 ], [ 103.388553, 4.387296 ], [ 103.382619, 4.381673 ], [ 103.375542, 4.378106 ], [ 103.369781, 4.3816 ], [ 103.36827, 4.3867 ], [ 103.372994, 4.393653 ], [ 103.372709, 4.400204 ], [ 103.369969, 4.405255 ], [ 103.364517, 4.410095 ], [ 103.359742, 4.4118 ], [ 103.358206, 4.414018 ], [ 103.358471, 4.420461 ], [ 103.358449, 4.42372 ], [ 103.369456, 4.425087 ], [ 103.37389, 4.426963 ] ] ] } },
{ "type": "Feature", "properties": { "state": "Terengganu", "parlimen": "P.040 Kemaman", "code_parlimen": "P.040", "dun": "N.30 Kijal", "code_dun": "N.30" }, "geometry": { "type": "Polygon", "coordinates": [ [ [ 103.439952, 4.243248 ], [ 103.434494, 4.248365 ], [ 103.433953, 4.256467 ], [ 103.428003, 4.253681 ], [ 103.422479, 4.257176 ], [ 103.419032, 4.254531 ], [ 103.415585, 4.25354 ], [ 103.413649, 4.255948 ], [ 103.415341, 4.261587 ], [ 103.418135, 4.266154 ], [ 103.416684, 4.26884 ], [ 103.411414, 4.270343 ], [ 103.416147, 4.274697 ], [ 103.414642, 4.27733 ], [ 103.409108, 4.277706 ], [ 103.408034, 4.282165 ], [ 103.405884, 4.282219 ], [ 103.40397, 4.275024 ], [ 103.40037, 4.274863 ], [ 103.396933, 4.277716 ], [ 103.390228, 4.278094 ], [ 103.380972, 4.279322 ], [ 103.37219, 4.2797 ], [ 103.367562, 4.27375 ], [ 103.361235, 4.281683 ], [ 103.336251, 4.286947 ], [ 103.282736, 4.299198 ], [ 103.273311, 4.300476 ], [ 103.259523, 4.306709 ], [ 103.250362, 4.309826 ], [ 103.24649, 4.325503 ], [ 103.241041, 4.330898 ], [ 103.237519, 4.335513 ], [ 103.22698, 4.338554 ], [ 103.214193, 4.351768 ], [ 103.206731, 4.362334 ], [ 103.204937, 4.372628 ], [ 103.20097, 4.378389 ], [ 103.194811, 4.382687 ], [ 103.188471, 4.376669 ], [ 103.184444, 4.3731 ], [ 103.179663, 4.37691 ], [ 103.179249, 4.387455 ], [ 103.179249, 4.396332 ], [ 103.165209, 4.404016 ], [ 103.161259, 4.40946 ], [ 103.153751, 4.412623 ], [ 103.152617, 4.418242 ], [ 103.157717, 4.422469 ], [ 103.156578, 4.432958 ], [ 103.160331, 4.437563 ], [ 103.167808, 4.439298 ], [ 103.171085, 4.443382 ], [ 103.171354, 4.448486 ], [ 103.175839, 4.456486 ], [ 103.177927, 4.464683 ], [ 103.185577, 4.4695 ], [ 103.185903, 4.482071 ], [ 103.188882, 4.486404 ], [ 103.198808, 4.485765 ], [ 103.20676, 4.495597 ], [ 103.213048, 4.497595 ], [ 103.214499, 4.490395 ], [ 103.222397, 4.476963 ], [ 103.221967, 4.46525 ], [ 103.224326, 4.454847 ], [ 103.230436, 4.453162 ], [ 103.239596, 4.457222 ], [ 103.250475, 4.458957 ], [ 103.26106, 4.465351 ], [ 103.26542, 4.456993 ], [ 103.2718, 4.460906 ], [ 103.27623, 4.465056 ], [ 103.28402, 4.467796 ], [ 103.286228, 4.472772 ], [ 103.288658, 4.468815 ], [ 103.293655, 4.466576 ], [ 103.296828, 4.457578 ], [ 103.300239, 4.456555 ], [ 103.304267, 4.459393 ], [ 103.31189, 4.456915 ], [ 103.316801, 4.450399 ], [ 103.322468, 4.454809 ], [ 103.327919, 4.46257 ], [ 103.328181, 4.471979 ], [ 103.337058, 4.478637 ], [ 103.344755, 4.484256 ], [ 103.351754, 4.489221 ], [ 103.369026, 4.493322 ], [ 103.369821, 4.487029 ], [ 103.372453, 4.480044 ], [ 103.373726, 4.471467 ], [ 103.376109, 4.457907 ], [ 103.376308, 4.447539 ], [ 103.375234, 4.433462 ], [ 103.37389, 4.426963 ], [ 103.369456, 4.425087 ], [ 103.358449, 4.42372 ], [ 103.358471, 4.420461 ], [ 103.358206, 4.414018 ], [ 103.359742, 4.4118 ], [ 103.364517, 4.410095 ], [ 103.369969, 4.405255 ], [ 103.372709, 4.400204 ], [ 103.372994, 4.393653 ], [ 103.36827, 4.3867 ], [ 103.369781, 4.3816 ], [ 103.375542, 4.378106 ], [ 103.382619, 4.381673 ], [ 103.388553, 4.387296 ], [ 103.393863, 4.385661 ], [ 103.401841, 4.387652 ], [ 103.410201, 4.383772 ], [ 103.417757, 4.38755 ], [ 103.426634, 4.386322 ], [ 103.435322, 4.388777 ], [ 103.448405, 4.396351 ], [ 103.454349, 4.398383 ], [ 103.455995, 4.399845 ], [ 103.463985, 4.375946 ], [ 103.492747, 4.328943 ], [ 103.49328, 4.312743 ], [ 103.48848, 4.298124 ], [ 103.468778, 4.238115 ], [ 103.452952, 4.235259 ], [ 103.445913, 4.236441 ], [ 103.44774, 4.241062 ], [ 103.439952, 4.243248 ] ] ] } },
{ "type": "Feature", "properties": { "state": "Terengganu", "parlimen": "P.040 Kemaman", "code_parlimen": "P.040", "dun": "N.31 Cukai", "code_dun": "N.31" }, "geometry": { "type": "Polygon", "coordinates": [ [ [ 103.302669, 4.127477 ], [ 103.299553, 4.141662 ], [ 103.295255, 4.157244 ], [ 103.288162, 4.16079 ], [ 103.284401, 4.169279 ], [ 103.287733, 4.176264 ], [ 103.285476, 4.182174 ], [ 103.292353, 4.183679 ], [ 103.295792, 4.180777 ], [ 103.30224, 4.180992 ], [ 103.304926, 4.185076 ], [ 103.302132, 4.188192 ], [ 103.303959, 4.195499 ], [ 103.299177, 4.203021 ], [ 103.30412, 4.209039 ], [ 103.308633, 4.215272 ], [ 103.310783, 4.212908 ], [ 103.316371, 4.216991 ], [ 103.322818, 4.212693 ], [ 103.338002, 4.211561 ], [ 103.343235, 4.219355 ], [ 103.353552, 4.214627 ], [ 103.359784, 4.210544 ], [ 103.36199, 4.215906 ], [ 103.369671, 4.22043 ], [ 103.3805, 4.219683 ], [ 103.387961, 4.222327 ], [ 103.395891, 4.22086 ], [ 103.39103, 4.21005 ], [ 103.394518, 4.203882 ], [ 103.401181, 4.205817 ], [ 103.407872, 4.213875 ], [ 103.410022, 4.22043 ], [ 103.413649, 4.222233 ], [ 103.41379, 4.232621 ], [ 103.409323, 4.23714 ], [ 103.402303, 4.238808 ], [ 103.396509, 4.239295 ], [ 103.396939, 4.243216 ], [ 103.401136, 4.246505 ], [ 103.408761, 4.241074 ], [ 103.412791, 4.243707 ], [ 103.415537, 4.249998 ], [ 103.415585, 4.25354 ], [ 103.419032, 4.254531 ], [ 103.422479, 4.257176 ], [ 103.428003, 4.253681 ], [ 103.433953, 4.256467 ], [ 103.434494, 4.248365 ], [ 103.439952, 4.243248 ], [ 103.44774, 4.241062 ], [ 103.445913, 4.236441 ], [ 103.438418, 4.213945 ], [ 103.441781, 4.202266 ], [ 103.445608, 4.188978 ], [ 103.444294, 4.180302 ], [ 103.440233, 4.186724 ], [ 103.414967, 4.181359 ], [ 103.401132, 4.178088 ], [ 103.385902, 4.177943 ], [ 103.345205, 4.177557 ], [ 103.332155, 4.189775 ], [ 103.326562, 4.187385 ], [ 103.319638, 4.194025 ], [ 103.317241, 4.185525 ], [ 103.322231, 4.179169 ], [ 103.320814, 4.169536 ], [ 103.328426, 4.160557 ], [ 103.324431, 4.157104 ], [ 103.328693, 4.142761 ], [ 103.324165, 4.142229 ], [ 103.323632, 4.125229 ], [ 103.306588, 4.118057 ], [ 103.304819, 4.119203 ], [ 103.302669, 4.127477 ] ] ] } },
{ "type": "Feature", "properties": { "state": "Terengganu", "parlimen": "P.040 Kemaman", "code_parlimen": "P.040", "dun": "N.32 Air Putih", "code_dun": "N.32" }, "geometry": { "type": "Polygon", "coordinates": [ [ [ 103.387961, 4.222327 ], [ 103.3805, 4.219683 ], [ 103.369671, 4.22043 ], [ 103.36199, 4.215906 ], [ 103.359784, 4.210544 ], [ 103.353552, 4.214627 ], [ 103.343235, 4.219355 ], [ 103.338002, 4.211561 ], [ 103.322818, 4.212693 ], [ 103.316371, 4.216991 ], [ 103.310783, 4.212908 ], [ 103.308633, 4.215272 ], [ 103.30412, 4.209039 ], [ 103.299177, 4.203021 ], [ 103.303959, 4.195499 ], [ 103.302132, 4.188192 ], [ 103.304926, 4.185076 ], [ 103.30224, 4.180992 ], [ 103.295792, 4.180777 ], [ 103.292353, 4.183679 ], [ 103.285476, 4.182174 ], [ 103.287733, 4.176264 ], [ 103.284401, 4.169279 ], [ 103.288162, 4.16079 ], [ 103.295255, 4.157244 ], [ 103.299553, 4.141662 ], [ 103.302669, 4.127477 ], [ 103.304819, 4.119203 ], [ 103.306588, 4.118057 ], [ 103.305256, 4.085914 ], [ 103.298598, 4.085914 ], [ 103.305789, 4.064397 ], [ 103.316175, 4.063865 ], [ 103.3231, 4.054833 ], [ 103.327894, 4.039425 ], [ 103.322833, 4.012327 ], [ 103.325497, 3.993464 ], [ 103.333486, 3.981243 ], [ 103.331356, 3.976726 ], [ 103.334818, 3.948829 ], [ 103.326562, 3.929434 ], [ 103.304191, 3.920666 ], [ 103.317773, 3.894893 ], [ 103.312979, 3.888516 ], [ 103.314045, 3.885327 ], [ 103.311115, 3.879481 ], [ 103.300729, 3.891704 ], [ 103.300995, 3.898081 ], [ 103.295178, 3.908082 ], [ 103.27676, 3.940062 ], [ 103.271966, 3.940859 ], [ 103.263976, 3.949361 ], [ 103.267172, 3.959988 ], [ 103.272232, 3.959988 ], [ 103.274363, 3.966631 ], [ 103.264775, 3.980712 ], [ 103.246399, 3.991339 ], [ 103.239741, 4.004091 ], [ 103.240806, 4.015249 ], [ 103.224827, 4.018969 ], [ 103.215772, 4.00967 ], [ 103.205385, 4.012858 ], [ 103.201923, 4.026673 ], [ 103.201923, 4.03544 ], [ 103.194998, 4.038894 ], [ 103.189672, 4.025079 ], [ 103.183813, 4.028798 ], [ 103.163306, 4.030392 ], [ 103.156115, 4.042347 ], [ 103.139071, 4.053771 ], [ 103.133478, 4.051645 ], [ 103.127352, 4.069975 ], [ 103.120961, 4.071304 ], [ 103.121227, 4.077679 ], [ 103.102052, 4.089899 ], [ 103.095926, 4.08618 ], [ 103.084741, 4.095212 ], [ 103.072224, 4.094415 ], [ 103.070093, 4.111416 ], [ 103.051717, 4.118057 ], [ 103.043993, 4.114072 ], [ 103.024552, 4.120448 ], [ 103.017627, 4.115932 ], [ 103.008306, 4.126292 ], [ 102.993658, 4.128151 ], [ 102.98487, 4.118322 ], [ 102.978744, 4.121244 ], [ 102.962499, 4.116729 ], [ 102.960634, 4.11301 ], [ 102.933686, 4.098882 ], [ 102.926667, 4.099357 ], [ 102.916158, 4.102384 ], [ 102.888461, 4.137182 ], [ 102.919621, 4.157636 ], [ 102.918555, 4.196681 ], [ 102.910832, 4.214211 ], [ 102.920153, 4.225632 ], [ 102.917756, 4.232803 ], [ 102.927344, 4.234928 ], [ 102.930806, 4.245286 ], [ 102.927877, 4.26308 ], [ 102.93054, 4.272641 ], [ 102.928143, 4.278219 ], [ 102.937198, 4.289638 ], [ 102.948384, 4.285124 ], [ 102.954509, 4.296012 ], [ 102.957172, 4.313009 ], [ 102.963298, 4.32549 ], [ 102.97688, 4.337441 ], [ 103.00511, 4.329208 ], [ 103.015231, 4.335582 ], [ 103.00511, 4.342486 ], [ 103.002447, 4.380195 ], [ 103.025883, 4.398252 ], [ 103.026461, 4.409382 ], [ 103.024627, 4.409112 ], [ 103.027474, 4.415752 ], [ 103.031187, 4.421271 ], [ 103.036362, 4.425019 ], [ 103.03878, 4.432433 ], [ 103.045664, 4.437822 ], [ 103.048587, 4.439421 ], [ 103.054229, 4.432705 ], [ 103.063845, 4.434099 ], [ 103.06922, 4.432866 ], [ 103.073679, 4.42572 ], [ 103.079804, 4.422658 ], [ 103.08636, 4.426764 ], [ 103.092386, 4.427878 ], [ 103.096514, 4.429535 ], [ 103.100974, 4.434962 ], [ 103.102848, 4.438807 ], [ 103.110875, 4.437579 ], [ 103.114511, 4.442868 ], [ 103.1218, 4.444571 ], [ 103.127921, 4.443623 ], [ 103.132572, 4.440549 ], [ 103.135693, 4.435862 ], [ 103.13745, 4.431346 ], [ 103.142087, 4.424475 ], [ 103.148462, 4.423531 ], [ 103.152617, 4.418242 ], [ 103.153751, 4.412623 ], [ 103.161259, 4.40946 ], [ 103.165209, 4.404016 ], [ 103.179249, 4.396332 ], [ 103.179249, 4.387455 ], [ 103.179663, 4.37691 ], [ 103.184444, 4.3731 ], [ 103.188471, 4.376669 ], [ 103.194811, 4.382687 ], [ 103.20097, 4.378389 ], [ 103.204937, 4.372628 ], [ 103.206731, 4.362334 ], [ 103.214193, 4.351768 ], [ 103.22698, 4.338554 ], [ 103.237519, 4.335513 ], [ 103.241041, 4.330898 ], [ 103.24649, 4.325503 ], [ 103.250362, 4.309826 ], [ 103.259523, 4.306709 ], [ 103.273311, 4.300476 ], [ 103.282736, 4.299198 ], [ 103.336251, 4.286947 ], [ 103.361235, 4.281683 ], [ 103.367562, 4.27375 ], [ 103.37219, 4.2797 ], [ 103.380972, 4.279322 ], [ 103.390228, 4.278094 ], [ 103.396933, 4.277716 ], [ 103.40037, 4.274863 ], [ 103.40397, 4.275024 ], [ 103.405884, 4.282219 ], [ 103.408034, 4.282165 ], [ 103.409108, 4.277706 ], [ 103.414642, 4.27733 ], [ 103.416147, 4.274697 ], [ 103.411414, 4.270343 ], [ 103.416684, 4.26884 ], [ 103.418135, 4.266154 ], [ 103.415341, 4.261587 ], [ 103.413649, 4.255948 ], [ 103.415585, 4.25354 ], [ 103.415537, 4.249998 ], [ 103.412791, 4.243707 ], [ 103.408761, 4.241074 ], [ 103.401136, 4.246505 ], [ 103.396939, 4.243216 ], [ 103.396509, 4.239295 ], [ 103.402303, 4.238808 ], [ 103.409323, 4.23714 ], [ 103.41379, 4.232621 ], [ 103.413649, 4.222233 ], [ 103.410022, 4.22043 ], [ 103.407872, 4.213875 ], [ 103.401181, 4.205817 ], [ 103.394518, 4.203882 ], [ 103.39103, 4.21005 ], [ 103.395891, 4.22086 ], [ 103.387961, 4.222327 ] ] ] } }
]
}
