{"type":"Topology","objects":{"MLK_SE-06":{"type":"GeometryCollection","geometries":[{"type":"Polygon","arcs":[[0]],"properties":{"state":"Melaka","parlimen":"P.095 Alor Gajah","code_parlimen":"P.095","dun":"N.01 Taboh Naning","code_dun":"N.01"}},{"type":"Polygon","arcs":[[1]],"properties":{"state":"Melaka","parlimen":"P.095 Alor Gajah","code_parlimen":"P.095","dun":"N.02 Sungai Bahru","code_dun":"N.02"}},{"type":"Polygon","arcs":[[2]],"properties":{"state":"Melaka","parlimen":"P.095 Alor Gajah","code_parlimen":"P.095","dun":"N.03 Machap","code_dun":"N.03"}},{"type":"Polygon","arcs":[[3]],"properties":{"state":"Melaka","parlimen":"P.095 Alor Gajah","code_parlimen":"P.095","dun":"N.04 Kelemak","code_dun":"N.04"}},{"type":"Polygon","arcs":[[4]],"properties":{"state":"Melaka","parlimen":"P.095 Alor Gajah","code_parlimen":"P.095","dun":"N.05 Masjid Tanah","code_dun":"N.05"}},{"type":"Polygon","arcs":[[5]],"properties":{"state":"Melaka","parlimen":"P.096 Jasin","code_parlimen":"P.096","dun":"N.06 Batang Melaka","code_dun":"N.06"}},{"type":"Polygon","arcs":[[6]],"properties":{"state":"Melaka","parlimen":"P.096 Jasin","code_parlimen":"P.096","dun":"N.07 Nyalas","code_dun":"N.07"}},{"type":"Polygon","arcs":[[7]],"properties":{"state":"Melaka","parlimen":"P.096 Jasin","code_parlimen":"P.096","dun":"N.08 Ayer Panas","code_dun":"N.08"}},{"type":"Polygon","arcs":[[8]],"properties":{"state":"Melaka","parlimen":"P.096 Jasin","code_parlimen":"P.096","dun":"N.09 Serkam","code_dun":"N.09"}},{"type":"Polygon","arcs":[[9]],"properties":{"state":"Melaka","parlimen":"P.096 Jasin","code_parlimen":"P.096","dun":"N.10 Sungei Rambai","code_dun":"N.10"}},{"type":"Polygon","arcs":[[10]],"properties":{"state":"Melaka","parlimen":"P.097 Batu Berendam","code_parlimen":"P.097","dun":"N.11 Tanjong Minyak","code_dun":"N.11"}},{"type":"Polygon","arcs":[[11]],"properties":{"state":"Melaka","parlimen":"P.097 Batu Berendam","code_parlimen":"P.097","dun":"N.12 Ayer Keroh","code_dun":"N.12"}},{"type":"Polygon","arcs":[[12]],"properties":{"state":"Melaka","parlimen":"P.097 Batu Berendam","code_parlimen":"P.097","dun":"N.13 Ayer Molek","code_dun":"N.13"}},{"type":"Polygon","arcs":[[13]],"properties":{"state":"Melaka","parlimen":"P.097 Batu Berendam","code_parlimen":"P.097","dun":"N.14 Sungai Udang","code_dun":"N.14"}},{"type":"Polygon","arcs":[[14]],"properties":{"state":"Melaka","parlimen":"P.097 Batu Berendam","code_parlimen":"P.097","dun":"N.15 Bukit Rambai","code_dun":"N.15"}},{"type":"Polygon","arcs":[[15]],"properties":{"state":"Melaka","parlimen":"P.098 Kota Melaka","code_parlimen":"P.098","dun":"N.16 Pringgit","code_dun":"N.16"}},{"type":"Polygon","arcs":[[16]],"properties":{"state":"Melaka","parlimen":"P.098 Kota Melaka","code_parlimen":"P.098","dun":"N.17 Tranquerah","code_dun":"N.17"}},{"type":"Polygon","arcs":[[17]],"properties":{"state":"Melaka","parlimen":"P.098 Kota Melaka","code_parlimen":"P.098","dun":"N.18 Kubu","code_dun":"N.18"}},{"type":"Polygon","arcs":[[18]],"properties":{"state":"Melaka","parlimen":"P.098 Kota Melaka","code_parlimen":"P.098","dun":"N.19 Durian Daun","code_dun":"N.19"}},{"type":"Polygon","arcs":[[19]],"properties":{"state":"Melaka","parlimen":"P.098 Kota Melaka","code_parlimen":"P.098","dun":"N.20 Bandar Hilir","code_dun":"N.20"}}]}},"arcs":[[[102.18362399635598,2.446128853362612],[102.1836012409752,2.445260651982678],[102.18353303720382,2.444394829722899],[102.18341957198362,2.443533759748958],[102.1832611563149,2.442679802205439],[102.18305822440396,2.441835297746576],[102.18281133247312,2.441002561120549],[102.18252115723595,2.440183874824745],[102.18218849404262,2.439381482849251],[102.18181425469982,2.438597584525953],[102.18139946497159,2.437834328500014],[102.1809452617677,2.437093806840129],[102.18045289002762,2.436378049304009],[102.17992369930803,2.435689017774418],[102.1793591400839,2.435028600881431],[102.17876075977284,2.434398608825301],[102.17813019849373,2.433800768414392],[102.17746918457111,2.433236718331606],[102.17677952979827,2.432708004642398],[102.17606312447097,2.432216076556687],[102.17532193220643,2.43176228245614],[102.17455798456113,2.431347866197946],[102.17377337546247,2.430973963705047],[102.17297025546942,2.430641599852299],[102.1721508258781,2.430351685656895],[102.17131733268803,2.430105015781108],[102.17047206044612,2.429902266353779],[102.16961732598483,2.429743993116905],[102.16875547207191,2.429630629902126],[102.16788886098901,2.429562487441467],[102.16701986805691,2.429539752515521],[102.1661508751248,2.429562487441467],[102.1652842640419,2.429630629902126],[102.16442241012899,2.429743993116905],[102.1635676756677,2.429902266353779],[102.16272240342579,2.430105015781108],[102.1618889102357,2.430351685656895],[102.16106948064439,2.430641599852299],[102.16026636065135,2.430973963705047],[102.15948175155268,2.431347866197946],[102.15871780390738,2.43176228245614],[102.15797661164285,2.432216076556687],[102.15726020631554,2.432708004642398],[102.15657055154269,2.433236718331606],[102.15590953762009,2.433800768414392],[102.15527897634095,2.434398608825301],[102.1546805960299,2.435028600881431],[102.15411603680579,2.435689017774418],[102.15358684608618,2.436378049304009],[102.15309447434609,2.437093806840129],[102.15264027114222,2.437834328500014],[102.15222548141399,2.438597584525953],[102.15185124207117,2.439381482849251],[102.15151857887787,2.440183874824745],[102.15122840364069,2.441002561120549],[102.15098151170983,2.441835297746576],[102.1507785797989,2.442679802205439],[102.15062016413017,2.443533759748958],[102.15050669891,2.444394829722899],[102.15043849513862,2.445260651982678],[102.15041573975785,2.446128853362612],[102.15043849513862,2.446997054180554],[102.15050669891,2.447862874760492],[102.15062016413017,2.448723941955124],[102.1507785797989,2.449577895650363],[102.15098151170983,2.45042239523411],[102.15122840364069,2.451255126011593],[102.15151857887787,2.45207380554952],[102.15185124207117,2.452876189931834],[102.15222548141399,2.45366007990984],[102.15264027114222,2.454423326929835],[102.15309447434609,2.455163839021746],[102.15358684608618,2.455879586532732],[102.15411603680579,2.456568607689847],[102.1546805960299,2.457229013976677],[102.15527897634095,2.457858995309147],[102.15590953762009,2.458456824996408],[102.15657055154269,2.459020864473024],[102.15726020631554,2.459549567789744],[102.15797661164285,2.460041485850321],[102.15871780390738,2.460495270382908],[102.15948175155268,2.460909677635157],[102.16026636065135,2.461283571782764],[102.16106948064439,2.461615928042345],[102.1618889102357,2.46190583547986],[102.16272240342579,2.462152499507115],[102.1635676756677,2.462355244059315],[102.16442241012899,2.462513513447909],[102.1652842640419,2.462626873883392],[102.1661508751248,2.462695014664209],[102.16701986805691,2.462717749028139],[102.16788886098901,2.462695014664209],[102.16875547207191,2.462626873883392],[102.16961732598483,2.462513513447909],[102.17047206044612,2.462355244059315],[102.17131733268803,2.462152499507115],[102.1721508258781,2.46190583547986],[102.17297025546942,2.461615928042345],[102.17377337546247,2.461283571782764],[102.17455798456113,2.460909677635157],[102.17532193220643,2.460495270382908],[102.17606312447097,2.460041485850321],[102.17677952979827,2.459549567789744],[102.17746918457111,2.459020864473024],[102.17813019849373,2.458456824996408],[102.17876075977284,2.457858995309147],[102.1793591400839,2.457229013976677],[102.17992369930803,2.456568607689847],[102.18045289002762,2.455879586532732],[102.1809452617677,2.455163839021746],[102.18139946497159,2.454423326929835],[102.18181425469982,2.45366007990984],[102.18218849404262,2.452876189931834],[102.18252115723595,2.45207380554952],[102.18281133247312,2.451255126011593],[102.18305822440396,2.45042239523411],[102.1832611563149,2.449577895650363],[102.18341957198362,2.448723941955124],[102.18353303720382,2.447862874760492],[102.1836012409752,2.446997054180554],[102.18362399635598,2.446128853362612]],[[102.06659474832927,2.392277148411513],[102.06657199294848,2.391408912562],[102.06650378917712,2.390543055939406],[102.06639032395692,2.389681951803471],[102.0662319082882,2.388827960392146],[102.06602897637727,2.387983422452143],[102.06578208444643,2.387150652823002],[102.06549190920924,2.38633193409199],[102.06515924601592,2.385529510337526],[102.0647850066731,2.384745580977917],[102.06437021694488,2.383982294742612],[102.06391601374101,2.383241743782313],[102.06342364200093,2.38252595793418],[102.06289445128132,2.381836899157681],[102.0623298920572,2.381176456156614],[102.06173151174615,2.380546439201855],[102.06110095046702,2.379948575169043],[102.06043993654441,2.379384502804843],[102.05975028177157,2.378855768234861],[102.05903387644426,2.378363820725273],[102.05829268417973,2.377910008710086],[102.05752873653442,2.377495576094745],[102.05674412743576,2.377121658846223],[102.05594100744273,2.376789281879043],[102.0551215778514,2.376499356245664],[102.05428808466132,2.37625267663911],[102.0534428124194,2.376049919214366],[102.05258807795812,2.37589163973489],[102.05172622404521,2.375778272049091],[102.0508596129623,2.375710126901016],[102.0499906200302,2.375687391078471],[102.04912162709809,2.375710126901016],[102.04825501601519,2.375778272049091],[102.04739316210228,2.37589163973489],[102.04653842764098,2.376049919214366],[102.04569315539908,2.37625267663911],[102.044859662209,2.376499356245664],[102.04404023261769,2.376789281879043],[102.04323711262464,2.377121658846223],[102.04245250352596,2.377495576094745],[102.04168855588068,2.377910008710086],[102.04094736361614,2.378363820725273],[102.04023095828884,2.378855768234861],[102.03954130351599,2.379384502804843],[102.03888028959338,2.379948575169043],[102.03824972831424,2.380546439201855],[102.03765134800321,2.381176456156614],[102.03708678877908,2.381836899157681],[102.03655759805947,2.38252595793418],[102.0360652263194,2.383241743782313],[102.03561102311552,2.383982294742612],[102.03519623338728,2.384745580977917],[102.03482199404448,2.385529510337526],[102.03448933085116,2.38633193409199],[102.03419915561399,2.387150652823002],[102.03395226368313,2.387983422452143],[102.0337493317722,2.388827960392146],[102.03359091610348,2.389681951803471],[102.0334774508833,2.390543055939406],[102.0334092471119,2.391408912562],[102.03338649173114,2.392277148411513],[102.0334092471119,2.393145383711363],[102.0334774508833,2.394011238690997],[102.03359091610348,2.394872340108678],[102.0337493317722,2.395726327756235],[102.03395226368313,2.396570860928192],[102.03419915561399,2.397403624837259],[102.03448933085116,2.398222336958798],[102.03482199404448,2.399024753286857],[102.03519623338728,2.399808674484476],[102.03561102311552,2.400571951911629],[102.0360652263194,2.401312493514101],[102.03655759805947,2.402028269557283],[102.03708678877908,2.402717318189137],[102.03765134800321,2.403377750816977],[102.03824972831424,2.404007757283602],[102.03888028959338,2.404605610828293],[102.03954130351599,2.405169672819267],[102.04023095828884,2.40569839724459],[102.04094736361614,2.406190334949227],[102.04168855588068,2.406644137606599],[102.04245250352596,2.407058561413776],[102.04323711262464,2.407432470500308],[102.04404023261769,2.407764840041083],[102.044859662209,2.408054759065002],[102.04569315539908,2.408301432951482],[102.04653842764098,2.40850418560818],[102.04739316210228,2.408662461323889],[102.04825501601519,2.408775826291434],[102.04912162709809,2.408843969796548],[102.0499906200302,2.40886670506943],[102.0508596129623,2.408843969796548],[102.05172622404521,2.408775826291434],[102.05258807795812,2.408662461323889],[102.0534428124194,2.40850418560818],[102.05428808466132,2.408301432951482],[102.0551215778514,2.408054759065002],[102.05594100744273,2.407764840041083],[102.05674412743576,2.407432470500308],[102.05752873653442,2.407058561413776],[102.05829268417973,2.406644137606599],[102.05903387644426,2.406190334949227],[102.05975028177157,2.40569839724459],[102.06043993654441,2.405169672819267],[102.06110095046702,2.404605610828293],[102.06173151174615,2.404007757283602],[102.0623298920572,2.403377750816977],[102.06289445128132,2.402717318189137],[102.06342364200093,2.402028269557283],[102.06391601374101,2.401312493514101],[102.06437021694488,2.400571951911629],[102.0647850066731,2.399808674484476],[102.06515924601592,2.399024753286857],[102.06549190920924,2.398222336958798],[102.06578208444643,2.397403624837259],[102.06602897637727,2.396570860928192],[102.0662319082882,2.395726327756235],[102.06639032395692,2.394872340108678],[102.06650378917712,2.394011238690997],[102.06657199294848,2.393145383711363],[102.06659474832927,2.392277148411513]],[[102.31223563156286,2.399221820710039],[102.3122128761821,2.398353589262618],[102.31214467241071,2.397487737028464],[102.31203120719053,2.396626637255321],[102.31187279152181,2.395772650169182],[102.31166985961087,2.394928116504977],[102.31142296768002,2.394095351090567],[102.31113279244285,2.393276636501756],[102.31080012924953,2.392474216805681],[102.31042588990672,2.391690291409589],[102.31001110017849,2.390927009032183],[102.30955689697461,2.390186461813704],[102.30906452523452,2.389470679581149],[102.30853533451493,2.388781624284202],[102.30797077529081,2.388121184617247],[102.30737239497975,2.38749117084214],[102.30674183370061,2.386893309825919],[102.30608081977802,2.386329240307119],[102.30539116500518,2.385800508403676],[102.30467475967787,2.385308563374565],[102.30393356741332,2.384854753647125],[102.30316961976803,2.384440323120633],[102.30238501066937,2.384066407756424],[102.30158189067633,2.383734032463971],[102.300762461085,2.383444108291255],[102.29992896789493,2.383197429927332],[102.29908369565301,2.382994673523863],[102.29822896119171,2.382836394841561],[102.2973671072788,2.382723027726735],[102.2965004961959,2.382654882921842],[102.29563150326379,2.382632147213798],[102.29476251033171,2.382654882921842],[102.29389589924881,2.382723027726735],[102.29303404533587,2.382836394841561],[102.29217931087459,2.382994673523863],[102.29133403863268,2.383197429927332],[102.2905005454426,2.383444108291255],[102.28968111585128,2.383734032463971],[102.28887799585823,2.384066407756424],[102.28809338675957,2.384440323120633],[102.28732943911429,2.384854753647125],[102.28658824684973,2.385308563374565],[102.28587184152244,2.385800508403676],[102.2851821867496,2.386329240307119],[102.28452117282698,2.386893309825919],[102.28389061154786,2.38749117084214],[102.2832922312368,2.388121184617247],[102.28272767201267,2.388781624284202],[102.2821984812931,2.389470679581149],[102.281706109553,2.390186461813704],[102.28125190634911,2.390927009032183],[102.28083711662089,2.391690291409589],[102.28046287727808,2.392474216805681],[102.28013021408475,2.393276636501756],[102.2798400388476,2.394095351090567],[102.27959314691674,2.394928116504977],[102.2793902150058,2.395772650169182],[102.27923179933708,2.396626637255321],[102.2791183341169,2.397487737028464],[102.27905013034551,2.398353589262618],[102.27902737496473,2.399221820710039],[102.27905013034551,2.400090051606207],[102.2791183341169,2.400955902192643],[102.27923179933708,2.401816999239669],[102.2793902150058,2.402670982551139],[102.27959314691674,2.403515511433482],[102.2798400388476,2.404348271111239],[102.28013021408475,2.405166979071456],[102.28046287727808,2.405969391319627],[102.28083711662089,2.406753308530089],[102.28125190634911,2.407516582073811],[102.281706109553,2.408257119907376],[102.2821984812931,2.408972892306584],[102.28272767201267,2.409661937429497],[102.2832922312368,2.410322366693189],[102.28389061154786,2.410952369949794],[102.28452117282698,2.411550220447501],[102.2851821867496,2.412114279563037],[102.28587184152244,2.412643001292446],[102.28658824684973,2.41313493648821],[102.28732943911429,2.413588736830723],[102.28809338675957,2.414003158523557],[102.28887799585823,2.414377065702125],[102.28968111585128,2.41470943354666],[102.2905005454426,2.414999351090794],[102.29133403863268,2.415246023718066],[102.29217931087459,2.415448775339685],[102.29303404533587,2.415607050247291],[102.29389589924881,2.415720414636013],[102.29476251033171,2.415788557793188],[102.29563150326379,2.415811292949979],[102.2965004961959,2.415788557793188],[102.2973671072788,2.415720414636013],[102.29822896119171,2.415607050247291],[102.29908369565301,2.415448775339685],[102.29992896789493,2.415246023718066],[102.300762461085,2.414999351090794],[102.30158189067633,2.41470943354666],[102.30238501066937,2.414377065702125],[102.30316961976803,2.414003158523557],[102.30393356741332,2.413588736830723],[102.30467475967787,2.41313493648821],[102.30539116500518,2.412643001292446],[102.30608081977802,2.412114279563037],[102.30674183370061,2.411550220447501],[102.30737239497975,2.410952369949794],[102.30797077529081,2.410322366693189],[102.30853533451493,2.409661937429497],[102.30906452523452,2.408972892306584],[102.30955689697461,2.408257119907376],[102.31001110017849,2.407516582073811],[102.31042588990672,2.406753308530089],[102.31080012924953,2.405969391319627],[102.31113279244285,2.405166979071456],[102.31142296768002,2.404348271111239],[102.31166985961087,2.403515511433482],[102.31187279152181,2.402670982551139],[102.31203120719053,2.401816999239669],[102.31214467241071,2.400955902192643],[102.3122128761821,2.400090051606207],[102.31223563156286,2.399221820710039]],[[102.21124689027052,2.377227606629071],[102.21122413488973,2.376359361283732],[102.21115593111836,2.375493495194764],[102.21104246589817,2.374632381647822],[102.21088405022944,2.373778380906582],[102.21068111831852,2.372933833743225],[102.21043422638766,2.372101055022469],[102.2101440511505,2.371282327356337],[102.20981138795717,2.370479894847575],[102.20943714861436,2.369695956938266],[102.20902235888613,2.368932662381128],[102.20856815568226,2.368192103349421],[102.20807578394216,2.367476309702186],[102.20754659322257,2.36678724342001],[102.20698203399846,2.366126793227022],[102.2063836536874,2.365496769413538],[102.20575309240826,2.364898898873692],[102.20509207848566,2.364334820371772],[102.2044024237128,2.363806080049884],[102.20368601838551,2.363314127189738],[102.20294482612097,2.362860310239768],[102.20218087847567,2.362445873118675],[102.20139626937701,2.362071951805556],[102.20059314938396,2.361739571225864],[102.19977371979265,2.361449642441802],[102.19894022660257,2.361202960154817],[102.19809495436066,2.361000200527119],[102.19724021989937,2.360841919328069],[102.19637836598645,2.360728550410696],[102.19551175490355,2.360660404522341],[102.19464276197145,2.360637668452832],[102.19377376903934,2.360660404522341],[102.19290715795644,2.360728550410696],[102.19204530404353,2.360841919328069],[102.19119056958223,2.361000200527119],[102.19034529734033,2.361202960154817],[102.18951180415026,2.361449642441802],[102.18869237455893,2.361739571225864],[102.18788925456589,2.362071951805556],[102.18710464546722,2.362445873118675],[102.18634069782193,2.362860310239768],[102.18559950555738,2.363314127189738],[102.18488310023008,2.363806080049884],[102.18419344545724,2.364334820371772],[102.18353243153463,2.364898898873692],[102.18290187025549,2.365496769413538],[102.18230348994445,2.366126793227022],[102.18173893072031,2.36678724342001],[102.18120974000072,2.367476309702186],[102.18071736826064,2.368192103349421],[102.18026316505677,2.368932662381128],[102.17984837532853,2.369695956938266],[102.17947413598573,2.370479894847575],[102.1791414727924,2.371282327356337],[102.17885129755523,2.372101055022469],[102.17860440562438,2.372933833743225],[102.17840147371345,2.373778380906582],[102.17824305804471,2.374632381647822],[102.17812959282455,2.375493495194764],[102.17806138905316,2.376359361283732],[102.17803863367239,2.377227606629071],[102.17806138905316,2.378095851428207],[102.17812959282455,2.378961715884533],[102.17824305804471,2.379822826730281],[102.17840147371345,2.380676823731379],[102.17860440562438,2.381521366156613],[102.17885129755523,2.382354139193197],[102.1791414727924,2.383172860291343],[102.17947413598573,2.383975285420328],[102.17984837532853,2.384759215218854],[102.18026316505677,2.38552250102313],[102.18071736826064,2.386263050755748],[102.18120974000072,2.38697883465957],[102.18173893072031,2.387667890860762],[102.18230348994445,2.388328330745635],[102.18290187025549,2.388958344136824],[102.18353243153463,2.389556204254361],[102.18419344545724,2.390120272448167],[102.18488310023008,2.39064900268907],[102.18559950555738,2.391140945805803],[102.18634069782193,2.391594753456684],[102.18710464546722,2.392009181824903],[102.18788925456589,2.392383095027264],[102.18869237455893,2.392715468227153],[102.18951180415026,2.393005390443242],[102.19034529734033,2.393252067046042],[102.19119056958223,2.393454821935642],[102.19204530404353,2.393613099394538],[102.19290715795644,2.393726465610717],[102.19377376903934,2.393794609866417],[102.19464276197145,2.393817345389735],[102.19551175490355,2.393794609866417],[102.19637836598645,2.393726465610717],[102.19724021989937,2.393613099394538],[102.19809495436066,2.393454821935642],[102.19894022660257,2.393252067046042],[102.19977371979265,2.393005390443242],[102.20059314938396,2.392715468227153],[102.20139626937701,2.392383095027264],[102.20218087847567,2.392009181824903],[102.20294482612097,2.391594753456684],[102.20368601838551,2.391140945805803],[102.2044024237128,2.39064900268907],[102.20509207848566,2.390120272448167],[102.20575309240826,2.389556204254361],[102.2063836536874,2.388958344136824],[102.20698203399846,2.388328330745635],[102.20754659322257,2.387667890860762],[102.20807578394216,2.38697883465957],[102.20856815568226,2.386263050755748],[102.20902235888613,2.38552250102313],[102.20943714861436,2.384759215218854],[102.20981138795717,2.383975285420328],[102.2101440511505,2.383172860291343],[102.21043422638766,2.382354139193197],[102.21068111831852,2.381521366156613],[102.21088405022944,2.380676823731379],[102.21104246589817,2.379822826730281],[102.21115593111836,2.378961715884533],[102.21122413488973,2.378095851428207],[102.21124689027052,2.377227606629071]],[[102.12788692298837,2.3348113784678],[102.12786416760758,2.333943106681339],[102.1277959638362,2.33307721423341],[102.12768249861602,2.332216074481814],[102.12752408294729,2.331362047761829],[102.12732115103636,2.330517474916574],[102.12707425910551,2.32968467088079],[102.12678408386834,2.32886591833552],[102.12645142067501,2.328063461451165],[102.1260771813322,2.327279499736142],[102.12566239160398,2.326516182007774],[102.12520818840011,2.325775600502229],[102.12471581666003,2.325059785139426],[102.12418662594042,2.324370697958805],[102.1236220667163,2.323710227741006],[102.12302368640525,2.323080184830492],[102.12239312512612,2.322482296172973],[102.1217321112035,2.32191820058164],[102.12104245643066,2.321389444244692],[102.12032605110336,2.320897476486981],[102.11958485883882,2.320443645797078],[102.11882091119352,2.32002919613063],[102.11803630209486,2.319655263500526],[102.11723318210181,2.319322872862635],[102.1164137525105,2.319032935306171],[102.11558025932042,2.318786245556141],[102.1147349870785,2.318583479794806],[102.11388025261722,2.318425193808005],[102.11301839870431,2.318311821461612],[102.11215178762141,2.318243673512155],[102.1112827946893,2.318220936754985],[102.11041380175719,2.318243673512155],[102.10954719067429,2.318311821461612],[102.10868533676138,2.318425193808005],[102.10783060230008,2.318583479794806],[102.10698533005818,2.318786245556141],[102.10615183686811,2.319032935306171],[102.10533240727678,2.319322872862635],[102.10452928728374,2.319655263500526],[102.10374467818508,2.32002919613063],[102.10298073053977,2.320443645797078],[102.10223953827524,2.320897476486981],[102.10152313294793,2.321389444244692],[102.10083347817508,2.32191820058164],[102.10017246425248,2.322482296172973],[102.09954190297336,2.323080184830492],[102.0989435226623,2.323710227741006],[102.09837896343818,2.324370697958805],[102.09784977271858,2.325059785139426],[102.09735740097848,2.325775600502229],[102.09690319777462,2.326516182007774],[102.09648840804638,2.327279499736142],[102.09611416870356,2.328063461451165],[102.09578150551026,2.32886591833552],[102.09549133027308,2.32968467088079],[102.09524443834222,2.330517474916574],[102.0950415064313,2.331362047761829],[102.09488309076256,2.332216074481814],[102.09476962554238,2.33307721423341],[102.094701421771,2.333943106681339],[102.09467866639024,2.3348113784678],[102.094701421771,2.335679649717764],[102.09476962554238,2.336545540562109],[102.09488309076256,2.3374066776606],[102.0950415064313,2.338260700707045],[102.09524443834222,2.339105268898525],[102.09549133027308,2.339938067351315],[102.09578150551026,2.340756813445543],[102.09611416870356,2.341559263081477],[102.09648840804638,2.342343216830127],[102.09690319777462,2.343106525961456],[102.09735740097848,2.343847098333466],[102.09784977271858,2.34456290412631],[102.09837896343818,2.345251981405419],[102.0989435226623,2.345912441498609],[102.09954190297336,2.346542474172381],[102.10017246425248,2.347140352593132],[102.10083347817508,2.347704438059882],[102.10152313294793,2.348233184495305],[102.10223953827524,2.348725142683057],[102.10298073053977,2.349178964239438],[102.10374467818508,2.349593405308821],[102.10452928728374,2.349967329972552],[102.10533240727678,2.350299713362048],[102.10615183686811,2.350589644467469],[102.10698533005818,2.350836328634506],[102.10783060230008,2.351039089742078],[102.10868533676138,2.351197372055314],[102.10954719067429,2.351310741748616],[102.11041380175719,2.351378888094488],[102.1112827946893,2.351401624315174],[102.11215178762141,2.351378888094488],[102.11301839870431,2.351310741748616],[102.11388025261722,2.351197372055314],[102.1147349870785,2.351039089742078],[102.11558025932042,2.350836328634506],[102.1164137525105,2.350589644467469],[102.11723318210181,2.350299713362048],[102.11803630209486,2.349967329972552],[102.11882091119352,2.349593405308821],[102.11958485883882,2.349178964239438],[102.12032605110336,2.348725142683057],[102.12104245643066,2.348233184495305],[102.1217321112035,2.347704438059882],[102.12239312512612,2.347140352593132],[102.12302368640525,2.346542474172381],[102.1236220667163,2.345912441498609],[102.12418662594042,2.345251981405419],[102.12471581666003,2.34456290412631],[102.12520818840011,2.343847098333466],[102.12566239160398,2.343106525961456],[102.1260771813322,2.342343216830127],[102.12645142067501,2.341559263081477],[102.12678408386834,2.340756813445543],[102.12707425910551,2.339938067351315],[102.12732115103636,2.339105268898525],[102.12752408294729,2.338260700707045],[102.12768249861602,2.3374066776606],[102.1277959638362,2.336545540562109],[102.12786416760758,2.335679649717764],[102.12788692298837,2.3348113784678]],[[102.40286107123576,2.407481281862681],[102.40283831585498,2.406613055667385],[102.40277011208359,2.405747208669061],[102.4026566468634,2.404886114101137],[102.40249823119468,2.404032132175384],[102.40229529928375,2.403187603612636],[102.4020484073529,2.402354843226849],[102.40175823211574,2.401536133580112],[102.4014255689224,2.4007337187261],[102.4010513295796,2.399949798058908],[102.40063653985138,2.399186520284413],[102.40018233664749,2.398445977530326],[102.3996899649074,2.397730199611558],[102.39916077418782,2.3970411484661],[102.39859621496369,2.396380712777102],[102.39799783465263,2.395750702795672],[102.39736727337349,2.395152845378604],[102.3967062594509,2.394588779254704],[102.39601660467805,2.394060050532744],[102.39530019935076,2.393568108463139],[102.3945590070862,2.393114301465239],[102.39379505944092,2.392699873430977],[102.39301045034226,2.392325960314988],[102.39220733034921,2.3919935870207],[102.39138790075789,2.391703664590699],[102.3905544075678,2.391456987709384],[102.3897091353259,2.391254232524437],[102.3888544008646,2.391095954793287],[102.38799254695168,2.39098258835966],[102.38712593586878,2.390914443964231],[102.38625694293668,2.390891708392798],[102.38538795000458,2.390914443964231],[102.38452133892169,2.39098258835966],[102.38365948500878,2.391095954793287],[102.38280475054746,2.391254232524437],[102.38195947830556,2.391456987709384],[102.38112598511549,2.391703664590699],[102.38030655552416,2.3919935870207],[102.37950343553112,2.392325960314988],[102.37871882643245,2.392699873430977],[102.37795487878716,2.393114301465239],[102.37721368652262,2.393568108463139],[102.37649728119531,2.394060050532744],[102.37580762642247,2.394588779254704],[102.37514661249988,2.395152845378604],[102.37451605122074,2.395750702795672],[102.37391767090968,2.396380712777102],[102.37335311168556,2.3970411484661],[102.37282392096597,2.397730199611558],[102.37233154922588,2.398445977530326],[102.371877346022,2.399186520284413],[102.37146255629376,2.399949798058908],[102.37108831695096,2.4007337187261],[102.37075565375764,2.401536133580112],[102.37046547852047,2.402354843226849],[102.37021858658962,2.403187603612636],[102.37001565467868,2.404032132175384],[102.36985723900996,2.404886114101137],[102.36974377378978,2.405747208669061],[102.36967557001839,2.406613055667385],[102.36965281463762,2.407481281862681],[102.36967557001839,2.408349507504827],[102.36974377378978,2.409215352849785],[102.36985723900996,2.410076444682215],[102.37001565467868,2.410930422820335],[102.37021858658962,2.411774946584796],[102.37046547852047,2.412607701214238],[102.37075565375764,2.413426404209608],[102.37108831695096,2.414228811590131],[102.37146255629376,2.415012724043565],[102.371877346022,2.415775992954071],[102.37233154922588,2.416516526291006],[102.37282392096597,2.417232294342651],[102.37335311168556,2.417921335279139],[102.37391767090968,2.418581760529136],[102.37451605122074,2.419211759955921],[102.37514661249988,2.419809606818369],[102.37580762642247,2.420373662503269],[102.37649728119531,2.420902381016259],[102.37721368652262,2.421394313218741],[102.37795487878716,2.421848110799489],[102.37871882643245,2.422262529969748],[102.37950343553112,2.42263643487198],[102.38030655552416,2.422968800692779],[102.38112598511549,2.423258716471413],[102.38195947830556,2.423505387596382],[102.38280475054746,2.423708137983055],[102.38365948500878,2.423866411926571],[102.38452133892169,2.423979775624705],[102.38538795000458,2.424047918366767],[102.38625694293668,2.424070653385052],[102.38712593586878,2.424047918366767],[102.38799254695168,2.423979775624705],[102.3888544008646,2.423866411926571],[102.3897091353259,2.423708137983055],[102.3905544075678,2.423505387596382],[102.39138790075789,2.423258716471413],[102.39220733034921,2.422968800692779],[102.39301045034226,2.42263643487198],[102.39379505944092,2.422262529969748],[102.3945590070862,2.421848110799489],[102.39530019935076,2.421394313218741],[102.39601660467805,2.420902381016259],[102.3967062594509,2.420373662503269],[102.39736727337349,2.419809606818369],[102.39799783465263,2.419211759955921],[102.39859621496369,2.418581760529136],[102.39916077418782,2.417921335279139],[102.3996899649074,2.417232294342651],[102.40018233664749,2.416516526291006],[102.40063653985138,2.415775992954071],[102.4010513295796,2.415012724043565],[102.4014255689224,2.414228811590131],[102.40175823211574,2.413426404209608],[102.4020484073529,2.412607701214238],[102.40229529928375,2.411774946584796],[102.40249823119468,2.410930422820335],[102.4026566468634,2.410076444682215],[102.40277011208359,2.409215352849785],[102.40283831585498,2.408349507504827],[102.40286107123576,2.407481281862681]],[[102.50402770545867,2.378133302238635],[102.50400495007791,2.37726505746306],[102.50393674630652,2.376399191942101],[102.50382328108634,2.375538078959847],[102.50366486541762,2.374684078778411],[102.50346193350668,2.373839532168495],[102.50321504157583,2.373006753993242],[102.50292486633866,2.372188026863237],[102.50259220314534,2.37138559487975],[102.50221796380254,2.370601657483452],[102.5018031740743,2.369838363425623],[102.50134897087042,2.369097804878238],[102.50085659913033,2.368382011698952],[102.50032740841074,2.36769294586713],[102.49976284918662,2.36703249610568],[102.49916446887556,2.366402472703721],[102.49853390759642,2.365804602554307],[102.49787289367383,2.365240524420658],[102.49718323890099,2.364711784443898],[102.49646683357368,2.364219831904797],[102.49572564130914,2.363766015250924],[102.49496169366384,2.363351578400178],[102.49417708456518,2.362977657330945],[102.49337396457214,2.362645276968014],[102.49255453498081,2.362355348372991],[102.49172104179074,2.36210866624684],[102.49087576954882,2.361905906751312],[102.49002103508752,2.361747625655441],[102.48915918117461,2.361634256811958],[102.48829257009172,2.361566110968041],[102.4874235771596,2.361543374913329],[102.48655458422752,2.361566110968041],[102.48568797314462,2.361634256811958],[102.48482611923168,2.361747625655441],[102.4839713847704,2.361905906751312],[102.4831261125285,2.36210866624684],[102.48229261933841,2.362355348372991],[102.48147318974709,2.362645276968014],[102.48067006975405,2.362977657330945],[102.47988546065538,2.363351578400178],[102.4791215130101,2.363766015250924],[102.47838032074554,2.364219831904797],[102.47766391541825,2.364711784443898],[102.4769742606454,2.365240524420658],[102.4763132467228,2.365804602554307],[102.47568268544367,2.366402472703721],[102.47508430513261,2.36703249610568],[102.47451974590848,2.36769294586713],[102.4739905551889,2.368382011698952],[102.47349818344881,2.369097804878238],[102.47304398024492,2.369838363425623],[102.4726291905167,2.370601657483452],[102.4722549511739,2.37138559487975],[102.47192228798056,2.372188026863237],[102.47163211274341,2.373006753993242],[102.47138522081255,2.373839532168495],[102.47118228890162,2.374684078778411],[102.4710238732329,2.375538078959847],[102.47091040801271,2.376399191942101],[102.47084220424132,2.37726505746306],[102.47081944886054,2.378133302238635],[102.47084220424132,2.37900154646779],[102.47091040801271,2.379867410355483],[102.4710238732329,2.380728520635525],[102.47118228890162,2.381582517075383],[102.47138522081255,2.382427058945381],[102.47163211274341,2.383259831434299],[102.47192228798056,2.384078551993824],[102.4722549511739,2.384880976594722],[102.4726291905167,2.385664905877171],[102.47304398024492,2.386428191178793],[102.47349818344881,2.387168740423577],[102.4739905551889,2.387884523855735],[102.47451974590848,2.388573579602731],[102.47508430513261,2.389234019052162],[102.47568268544367,2.389864032027855],[102.4763132467228,2.390461891750991],[102.4769742606454,2.391025959572621],[102.47766391541825,2.391554689464567],[102.47838032074554,2.392046632256539],[102.4791215130101,2.392500439607812],[102.47988546065538,2.392914867702351],[102.48067006975405,2.393288780657735],[102.48147318974709,2.393621153638064],[102.48229261933841,2.39391107566262],[102.4831261125285,2.394157752102423],[102.4839713847704,2.394360506858033],[102.48482611923168,2.394518784212339],[102.48568797314462,2.394632150353597],[102.48655458422752,2.394700294564261],[102.4874235771596,2.394723030072541],[102.48829257009172,2.394700294564261],[102.48915918117461,2.394632150353597],[102.49002103508752,2.394518784212339],[102.49087576954882,2.394360506858033],[102.49172104179074,2.394157752102423],[102.49255453498081,2.39391107566262],[102.49337396457214,2.393621153638064],[102.49417708456518,2.393288780657735],[102.49496169366384,2.392914867702351],[102.49572564130914,2.392500439607812],[102.49646683357368,2.392046632256539],[102.49718323890099,2.391554689464567],[102.49787289367383,2.391025959572621],[102.49853390759642,2.390461891750991],[102.49916446887556,2.389864032027855],[102.49976284918662,2.389234019052162],[102.50032740841074,2.388573579602731],[102.50085659913033,2.387884523855735],[102.50134897087042,2.387168740423577],[102.5018031740743,2.386428191178793],[102.50221796380254,2.385664905877171],[102.50259220314534,2.384880976594722],[102.50292486633866,2.384078551993824],[102.50321504157583,2.383259831434299],[102.50346193350668,2.382427058945381],[102.50366486541762,2.381582517075383],[102.50382328108634,2.380728520635525],[102.50393674630652,2.379867410355483],[102.50400495007791,2.37900154646779],[102.50402770545867,2.378133302238635]],[[102.42186503273159,2.270172807968053],[102.42184227735083,2.269304496802827],[102.42177407357944,2.268438565098812],[102.42166060835926,2.267577386321251],[102.42150219269053,2.266723320912057],[102.4212992607796,2.265878709820021],[102.42105236884875,2.265045868084144],[102.42076219361157,2.264227078488211],[102.42042953041826,2.263424585303421],[102.42005529107544,2.262640588136855],[102.41964050134722,2.261877235902114],[102.41918629814334,2.261136620928978],[102.41869392640325,2.260420773228052],[102.41816473568366,2.259731654926326],[102.41760017645953,2.259071154888626],[102.41700179614847,2.258441083539984],[102.41637123486935,2.257843167902914],[102.41571022094675,2.257279046863378],[102.4150205661739,2.256750266678186],[102.4143041608466,2.256258276736449],[102.41356296858206,2.25580442558642],[102.41279902093676,2.255389957238831],[102.4120144118381,2.255016007756774],[102.41121129184505,2.254683602141384],[102.41039186225373,2.25439365152214],[102.40955836906365,2.254146950659112],[102.40871309682176,2.253944175764395],[102.40785836236044,2.253785882648316],[102.40699650844753,2.253672505195873],[102.40612989736464,2.253604354177309],[102.40526090443252,2.253581616396179],[102.40439191150043,2.253604354177309],[102.40352530041753,2.253672505195873],[102.40266344650462,2.253785882648316],[102.40180871204332,2.253944175764395],[102.40096343980142,2.254146950659112],[102.40012994661133,2.25439365152214],[102.39931051702001,2.254683602141384],[102.39850739702696,2.255016007756774],[102.3977227879283,2.255389957238831],[102.396958840283,2.25580442558642],[102.39621764801846,2.256258276736449],[102.39550124269117,2.256750266678186],[102.39481158791833,2.257279046863378],[102.39415057399572,2.257843167902914],[102.39352001271659,2.258441083539984],[102.39292163240553,2.259071154888626],[102.3923570731814,2.259731654926326],[102.39182788246181,2.260420773228052],[102.39133551072172,2.261136620928978],[102.39088130751784,2.261877235902114],[102.39046651778962,2.262640588136855],[102.39009227844682,2.263424585303421],[102.38975961525348,2.264227078488211],[102.38946944001631,2.265045868084144],[102.38922254808547,2.265878709820021],[102.38901961617454,2.266723320912057],[102.3888612005058,2.267577386321251],[102.38874773528562,2.268438565098812],[102.38867953151424,2.269304496802827],[102.38865677613346,2.270172807968053],[102.38867953151424,2.27104111861163],[102.38874773528562,2.271907048756346],[102.3888612005058,2.272768224954108],[102.38901961617454,2.273622286791234],[102.38922254808547,2.274466893358065],[102.38946944001631,2.275299729665182],[102.38975961525348,2.276118512988297],[102.39009227844682,2.276920999124914],[102.39046651778962,2.277704988545189],[102.39088130751784,2.278468332420376],[102.39133551072172,2.279208938512308],[102.39182788246181,2.279924776907658],[102.3923570731814,2.280613885581412],[102.39292163240553,2.281274375774213],[102.39352001271659,2.281904437168903],[102.39415057399572,2.282502342852007],[102.39481158791833,2.283066454046645],[102.39550124269117,2.283595224603853],[102.39621764801846,2.284087205240024],[102.396958840283,2.284541047508851],[102.3977227879283,2.284955507496885],[102.39850739702696,2.285329449232651],[102.39931051702001,2.285661847799868],[102.40012994661133,2.285951792146282],[102.40096343980142,2.286198487580561],[102.40180871204332,2.286401257950074],[102.40266344650462,2.286559547494085],[102.40352530041753,2.286672922366716],[102.40439191150043,2.286741071826007],[102.40526090443252,2.286763809085463],[102.40612989736464,2.286741071826007],[102.40699650844753,2.286672922366716],[102.40785836236044,2.286559547494085],[102.40871309682176,2.286401257950074],[102.40955836906365,2.286198487580561],[102.41039186225373,2.285951792146282],[102.41121129184505,2.285661847799868],[102.4120144118381,2.285329449232651],[102.41279902093676,2.284955507496885],[102.41356296858206,2.284541047508851],[102.4143041608466,2.284087205240024],[102.4150205661739,2.283595224603853],[102.41571022094675,2.283066454046645],[102.41637123486935,2.282502342852007],[102.41700179614847,2.281904437168903],[102.41760017645953,2.281274375774213],[102.41816473568366,2.280613885581412],[102.41869392640325,2.279924776907658],[102.41918629814334,2.279208938512308],[102.41964050134722,2.278468332420376],[102.42005529107544,2.277704988545189],[102.42042953041826,2.276920999124914],[102.42076219361157,2.276118512988297],[102.42105236884875,2.275299729665182],[102.4212992607796,2.274466893358065],[102.42150219269053,2.273622286791234],[102.42166060835926,2.272768224954108],[102.42177407357944,2.271907048756346],[102.42184227735083,2.27104111861163],[102.42186503273159,2.270172807968053]],[[102.4150122104386,2.173485575152101],[102.41498945505784,2.17261720714647],[102.41492125128644,2.171751218779932],[102.41480778606626,2.170889983672737],[102.41464937039754,2.170035862420802],[102.4144464384866,2.169191196125304],[102.41419954655575,2.168358299975797],[102.4139093713186,2.167539456904231],[102.41357670812526,2.166736911327309],[102.41320246878246,2.16595286299446],[102.41278767905422,2.165189460958199],[102.41233347585035,2.164448797683341],[102.41184110411027,2.163732903311324],[102.41131191339068,2.163043740095446],[102.41074735416655,2.162383197021954],[102.4101489738555,2.161753084632108],[102.40951841257636,2.161155130059209],[102.40885739865375,2.160590972294164],[102.40816774388091,2.16006215769275],[102.40745133855361,2.159570135736708],[102.40671014628906,2.159116255060431],[102.40594619864378,2.158701759754029],[102.4051615895451,2.158327785953018],[102.40435846955207,2.157995358723851],[102.40353903996073,2.157705389254006],[102.40270554677068,2.157458672354138],[102.40186027452876,2.15725588427933],[102.40100554006746,2.157097580875251],[102.40014368615455,2.156984196054481],[102.39927707507165,2.156916040607006],[102.39840808213954,2.156893301348267],[102.39753908920744,2.156916040607006],[102.39667247812454,2.156984196054481],[102.39581062421162,2.157097580875251],[102.39495588975034,2.15725588427933],[102.39411061750842,2.157458672354138],[102.39327712431835,2.157705389254006],[102.39245769472701,2.157995358723851],[102.39165457473399,2.158327785953018],[102.39086996563532,2.158701759754029],[102.39010601799002,2.159116255060431],[102.38936482572548,2.159570135736708],[102.38864842039817,2.16006215769275],[102.38795876562533,2.160590972294164],[102.38729775170273,2.161155130059209],[102.3866671904236,2.161753084632108],[102.38606881011253,2.162383197021954],[102.38550425088842,2.163043740095446],[102.38497506016883,2.163732903311324],[102.38448268842873,2.164448797683341],[102.38402848522486,2.165189460958199],[102.38361369549663,2.16595286299446],[102.38323945615382,2.166736911327309],[102.3829067929605,2.167539456904231],[102.38261661772333,2.168358299975797],[102.38236972579247,2.169191196125304],[102.38216679388154,2.170035862420802],[102.38200837821282,2.170889983672737],[102.38189491299264,2.171751218779932],[102.38182670922126,2.17261720714647],[102.38180395384047,2.173485575152101],[102.38182670922126,2.174353942658245],[102.38189491299264,2.17521992953178],[102.38200837821282,2.176081162168816],[102.38216679388154,2.176935280000523],[102.38236972579247,2.177779941963164],[102.38261661772333,2.178612832914677],[102.3829067929605,2.179431669980059],[102.38323945615382,2.180234208808403],[102.38361369549663,2.181018249724224],[102.38402848522486,2.181781643756276],[102.38448268842873,2.182522298527437],[102.38497506016883,2.183238183989423],[102.38550425088842,2.183927337986577],[102.38606881011253,2.184587871633644],[102.3866671904236,2.185217974492639],[102.38729775170273,2.185815919534688],[102.38795876562533,2.18638006787332],[102.38864842039817,2.186908873256011],[102.38936482572548,2.187400886302021],[102.39010601799002,2.187854758474602],[102.39086996563532,2.188269245776794],[102.39165457473399,2.18864321216079],[102.39245769472701,2.18897563264138],[102.39327712431835,2.189265596105027],[102.39411061750842,2.189512307806902],[102.39495588975034,2.189715091548866],[102.39581062421162,2.189873391532704],[102.39667247812454,2.189986773883328],[102.39753908920744,2.190054927837787],[102.39840808213954,2.190077666597039],[102.39927707507165,2.190054927837787],[102.40014368615455,2.189986773883328],[102.40100554006746,2.189873391532704],[102.40186027452876,2.189715091548866],[102.40270554677068,2.189512307806902],[102.40353903996073,2.189265596105027],[102.40435846955207,2.18897563264138],[102.4051615895451,2.18864321216079],[102.40594619864378,2.188269245776794],[102.40671014628906,2.187854758474602],[102.40745133855361,2.187400886302021],[102.40816774388091,2.186908873256011],[102.40885739865375,2.18638006787332],[102.40951841257636,2.185815919534688],[102.4101489738555,2.185217974492639],[102.41074735416655,2.184587871633644],[102.41131191339068,2.183927337986577],[102.41184110411027,2.183238183989423],[102.41233347585035,2.182522298527437],[102.41278767905422,2.181781643756276],[102.41320246878246,2.181018249724224],[102.41357670812526,2.180234208808403],[102.4139093713186,2.179431669980059],[102.41419954655575,2.178612832914677],[102.4144464384866,2.177779941963164],[102.41464937039754,2.176935280000523],[102.41480778606626,2.176081162168816],[102.41492125128644,2.17521992953178],[102.41498945505784,2.174353942658245],[102.4150122104386,2.173485575152101]],[[102.48886634455891,2.163497346676952],[102.48884358917815,2.162628972940356],[102.48877538540675,2.161762978860868],[102.48866192018657,2.160901738074334],[102.48850350451785,2.160047611192194],[102.48830057260692,2.159202939331005],[102.48805368067606,2.1583700376955],[102.48776350543889,2.157551189232537],[102.48743084224557,2.156748638373503],[102.48705660290277,2.155964584882201],[102.48664181317453,2.155201177825104],[102.48618760997066,2.154460509680652],[102.48569523823056,2.153744610603487],[102.48516604751097,2.153055442859606],[102.48460148828684,2.152394895447519],[102.48400310797578,2.151764778920204],[102.48337254669666,2.151166820422094],[102.48271153277406,2.15060265895468],[102.4820218780012,2.150073840883738],[102.48130547267391,2.149581815700324],[102.48056428040937,2.149127932047506],[102.47980033276407,2.148713434023409],[102.47901572366541,2.148339457770827],[102.47821260367236,2.148007028362801],[102.47739317408104,2.147717056992664],[102.47655968089096,2.147470338476158],[102.47571440864907,2.147267549072692],[102.47485967418777,2.147109244631511],[102.47399782027485,2.146995859067967],[102.47313120919195,2.146927703174031],[102.47226221625985,2.14690496376634],[102.47139322332774,2.146927703174031],[102.47052661224484,2.146995859067967],[102.46966475833193,2.147109244631511],[102.46881002387063,2.147267549072692],[102.46796475162873,2.147470338476158],[102.46713125843864,2.147717056992664],[102.46631182884732,2.148007028362801],[102.46550870885427,2.148339457770827],[102.46472409975561,2.148713434023409],[102.46396015211032,2.149127932047506],[102.46321895984579,2.149581815700324],[102.46250255451848,2.150073840883738],[102.46181289974564,2.15060265895468],[102.46115188582303,2.151166820422094],[102.4605213245439,2.151764778920204],[102.45992294423284,2.152394895447519],[102.45935838500873,2.153055442859606],[102.45882919428912,2.153744610603487],[102.45833682254903,2.154460509680652],[102.45788261934516,2.155201177825104],[102.45746782961693,2.155964584882201],[102.45709359027413,2.156748638373503],[102.45676092708081,2.157551189232537],[102.45647075184363,2.1583700376955],[102.45622385991278,2.159202939331005],[102.45602092800185,2.160047611192194],[102.45586251233311,2.160901738074334],[102.45574904711293,2.161762978860868],[102.45568084334155,2.162628972940356],[102.45565808796078,2.163497346676952],[102.45568084334155,2.164365719916339],[102.45574904711293,2.165231712509682],[102.45586251233311,2.166092950837392],[102.45602092800185,2.166947074314977],[102.45622385991278,2.167791741863182],[102.45647075184363,2.168624638324548],[102.45676092708081,2.169443480808869],[102.45709359027413,2.170246024950279],[102.45746782961693,2.171030071058585],[102.45788261934516,2.171793470148176],[102.45833682254903,2.172534129827939],[102.45882919428912,2.173250020035948],[102.45935838500873,2.173939178603382],[102.45992294423284,2.174599716632285],[102.4605213245439,2.175229823672476],[102.46115188582303,2.175827772683451],[102.46181289974564,2.176391924767668],[102.46250255451848,2.176920733662175],[102.46321895984579,2.177412749976435],[102.46396015211032,2.17786662516455],[102.46472409975561,2.178281115221154],[102.46550870885427,2.178655084090727],[102.46631182884732,2.178987506781129],[102.46713125843864,2.179277472172637],[102.46796475162873,2.179524185514992],[102.46881002387063,2.179726970605472],[102.46966475833193,2.179885271642112],[102.47052661224484,2.179998654746833],[102.47139322332774,2.180066809154622],[102.47226221625985,2.180089548065117],[102.47313120919195,2.180066809154622],[102.47399782027485,2.179998654746833],[102.47485967418777,2.179885271642112],[102.47571440864907,2.179726970605472],[102.47655968089096,2.179524185514992],[102.47739317408104,2.179277472172637],[102.47821260367236,2.178987506781129],[102.47901572366541,2.178655084090727],[102.47980033276407,2.178281115221154],[102.48056428040937,2.17786662516455],[102.48130547267391,2.177412749976435],[102.4820218780012,2.176920733662175],[102.48271153277406,2.176391924767668],[102.48337254669666,2.175827772683451],[102.48400310797578,2.175229823672476],[102.48460148828684,2.174599716632285],[102.48516604751097,2.173939178603382],[102.48569523823056,2.173250020035948],[102.48618760997066,2.172534129827939],[102.48664181317453,2.171793470148176],[102.48705660290277,2.171030071058585],[102.48743084224557,2.170246024950279],[102.48776350543889,2.169443480808869],[102.48805368067606,2.168624638324548],[102.48830057260692,2.167791741863182],[102.48850350451785,2.166947074314977],[102.48866192018657,2.166092950837392],[102.48877538540675,2.165231712509682],[102.48884358917815,2.164365719916339],[102.48886634455891,2.163497346676952]],[[102.2366763810494,2.302843087510346],[102.23665362566862,2.301974796110206],[102.23658542189725,2.301108884109664],[102.23647195667706,2.300247724920006],[102.23631354100833,2.299393678929639],[102.23611060909741,2.298549087034324],[102.23586371716655,2.297716264220737],[102.23557354192938,2.296897493221074],[102.23524087873606,2.296095018255965],[102.23486663939325,2.295311038882961],[102.23445184966502,2.294547703967358],[102.23399764646113,2.293807105791928],[102.23350527472105,2.293091274321804],[102.23297608400146,2.292402171639999],[102.23241152477735,2.291741686569099],[102.23181314446629,2.291111629493717],[102.23118258318715,2.29051372739782],[102.23052156926454,2.289949619130832],[102.2298319144917,2.289420850915149],[102.2291155091644,2.288928872107618],[102.22837431689986,2.288475031226544],[102.22761036925456,2.288060572255053],[102.22682576015589,2.287686631230994],[102.22602264016285,2.287354233132807],[102.22520321057154,2.287064289069754],[102.22436971738146,2.286817593784338],[102.22352444513955,2.28661482347364],[102.22266971067826,2.286456533935736],[102.22180785676534,2.286343159045993],[102.22094124568244,2.286275009567822],[102.22007225275034,2.286252272300618],[102.21920325981823,2.286275009567822],[102.21833664873533,2.286343159045993],[102.21747479482242,2.286456533935736],[102.21662006036112,2.28661482347364],[102.2157747881192,2.286817593784338],[102.21494129492915,2.287064289069754],[102.21412186533782,2.287354233132807],[102.21331874534478,2.287686631230994],[102.2125341362461,2.288060572255053],[102.21177018860081,2.288475031226544],[102.21102899633627,2.288928872107618],[102.21031259100897,2.289420850915149],[102.20962293623613,2.289949619130832],[102.20896192231352,2.29051372739782],[102.20833136103438,2.291111629493717],[102.20773298072334,2.291741686569099],[102.2071684214992,2.292402171639999],[102.20663923077961,2.293091274321804],[102.20614685903954,2.293807105791928],[102.20569265583566,2.294547703967358],[102.20527786610742,2.295311038882961],[102.2049036267646,2.296095018255965],[102.20457096357129,2.296897493221074],[102.20428078833412,2.297716264220737],[102.20403389640326,2.298549087034324],[102.20383096449234,2.299393678929639],[102.2036725488236,2.300247724920006],[102.20355908360342,2.301108884109664],[102.20349087983205,2.301974796110206],[102.20346812445128,2.302843087510346],[102.20349087983205,2.303711378381317],[102.20355908360342,2.304577288800183],[102.2036725488236,2.305438445372994],[102.20383096449234,2.306292487739985],[102.20403389640326,2.30713707504511],[102.20428078833412,2.307969892351987],[102.20457096357129,2.308788656988746],[102.2049036267646,2.309591124804477],[102.20527786610742,2.310375096319947],[102.20569265583566,2.311138422755962],[102.20614685903954,2.311879011922636],[102.20663923077961,2.312594833953561],[102.2071684214992,2.313283926869129],[102.20773298072334,2.313944401953749],[102.20833136103438,2.314574448932231],[102.20896192231352,2.315172340931228],[102.20962293623613,2.315736439211949],[102.21031259100897,2.316265197661395],[102.21102899633627,2.316757167029714],[102.21177018860081,2.317210998902032],[102.2125341362461,2.317625449393949],[102.21331874534478,2.317999382560473],[102.21412186533782,2.318331773509282],[102.21494129492915,2.318621711209431],[102.2157747881192,2.318868400988137],[102.21662006036112,2.319071166708646],[102.21747479482242,2.319229452623185],[102.21833664873533,2.319342824896057],[102.21920325981823,2.319410972792563],[102.22007225275034,2.319433709530612],[102.22094124568244,2.319410972792563],[102.22180785676534,2.319342824896057],[102.22266971067826,2.319229452623185],[102.22352444513955,2.319071166708646],[102.22436971738146,2.318868400988137],[102.22520321057154,2.318621711209431],[102.22602264016285,2.318331773509282],[102.22682576015589,2.317999382560473],[102.22761036925456,2.317625449393949],[102.22837431689986,2.317210998902032],[102.2291155091644,2.316757167029714],[102.2298319144917,2.316265197661395],[102.23052156926454,2.315736439211949],[102.23118258318715,2.315172340931228],[102.23181314446629,2.314574448932231],[102.23241152477735,2.313944401953749],[102.23297608400146,2.313283926869129],[102.23350527472105,2.312594833953561],[102.23399764646113,2.311879011922636],[102.23445184966502,2.311138422755962],[102.23486663939325,2.310375096319947],[102.23524087873606,2.309591124804477],[102.23557354192938,2.308788656988746],[102.23586371716655,2.307969892351987],[102.23611060909741,2.30713707504511],[102.23631354100833,2.306292487739985],[102.23647195667706,2.305438445372994],[102.23658542189725,2.304577288800183],[102.23665362566862,2.303711378381317],[102.2366763810494,2.302843087510346]],[[102.31085238223335,2.272522459932834],[102.31082962685258,2.271654150179697],[102.31076142308119,2.270788219883371],[102.31064795786101,2.269927042505215],[102.31048954219229,2.269072978483367],[102.31028661028135,2.268228368762787],[102.3100397183505,2.267395528378785],[102.30974954311333,2.266576740111407],[102.30941687992001,2.265774248228266],[102.3090426405772,2.264990252332916],[102.30862785084896,2.264226901335487],[102.30817364764509,2.263486287562401],[102.307681275905,2.262770441021041],[102.30715208518541,2.262081323835219],[102.30658752596128,2.261420824866759],[102.30598914565023,2.260790754537815],[102.30535858437109,2.260192839868155],[102.3046975704485,2.259628719741094],[102.30400791567564,2.259099940411013],[102.30329151034834,2.258607951264708],[102.3025503180838,2.258154100848293],[102.30178637043852,2.257739633170542],[102.30100176133985,2.257365684292727],[102.3001986413468,2.257033279214379],[102.29937921175548,2.256743329063504],[102.29854571856539,2.256496628598949],[102.2977004463235,2.256293854031714],[102.2968457118622,2.25613556117125],[102.29598385794928,2.256022183901893],[102.29511724686638,2.255954032993376],[102.29424825393428,2.255931295248962],[102.29337926100219,2.255954032993376],[102.29251264991927,2.256022183901893],[102.29165079600637,2.25613556117125],[102.29079606154507,2.256293854031714],[102.28995078930316,2.256496628598949],[102.28911729611308,2.256743329063504],[102.28829786652176,2.257033279214379],[102.28749474652871,2.257365684292727],[102.28671013743005,2.257739633170542],[102.28594618978475,2.258154100848293],[102.28520499752022,2.258607951264708],[102.28448859219291,2.259099940411013],[102.28379893742007,2.259628719741094],[102.28313792349746,2.260192839868155],[102.28250736221834,2.260790754537815],[102.28190898190728,2.261420824866759],[102.28134442268316,2.262081323835219],[102.28081523196356,2.262770441021041],[102.28032286022348,2.263486287562401],[102.27986865701959,2.264226901335487],[102.27945386729137,2.264990252332916],[102.27907962794856,2.265774248228266],[102.27874696475524,2.266576740111407],[102.27845678951806,2.267395528378785],[102.27820989758722,2.268228368762787],[102.27800696567628,2.269072978483367],[102.27784855000756,2.269927042505215],[102.27773508478737,2.270788219883371],[102.27766688101599,2.271654150179697],[102.27764412563522,2.272522459932834],[102.27766688101599,2.273390769163774],[102.27773508478737,2.274256697899211],[102.27784855000756,2.275117872694896],[102.27800696567628,2.275971933140974],[102.27820989758722,2.276816538331682],[102.27845678951806,2.277649373281324],[102.27874696475524,2.278468155269396],[102.27907962794856,2.279270640097087],[102.27945386729137,2.280054628238156],[102.27986865701959,2.280817970867405],[102.28032286022348,2.281558575750091],[102.28081523196356,2.28227441297628],[102.28134442268316,2.282963520524182],[102.28190898190728,2.283624009637554],[102.28250736221834,2.284254070002278],[102.28313792349746,2.284851974707705],[102.28379893742007,2.28541608497969],[102.28448859219291,2.28594485467185],[102.28520499752022,2.286436834502973],[102.28594618978475,2.286890676028987],[102.28671013743005,2.287305135338559],[102.28749474652871,2.287679076462092],[102.28829786652176,2.28801147448499],[102.28911729611308,2.28830141835656],[102.28995078930316,2.288548113386756],[102.29079606154507,2.288750883424117],[102.29165079600637,2.28890917270881],[102.29251264991927,2.28902254739571],[102.29337926100219,2.289090696743338],[102.29424825393428,2.289113433965531],[102.29511724686638,2.289090696743338],[102.29598385794928,2.28902254739571],[102.2968457118622,2.28890917270881],[102.2977004463235,2.288750883424117],[102.29854571856539,2.288548113386756],[102.29937921175548,2.28830141835656],[102.3001986413468,2.28801147448499],[102.30100176133985,2.287679076462092],[102.30178637043852,2.287305135338559],[102.3025503180838,2.286890676028987],[102.30329151034834,2.286436834502973],[102.30400791567564,2.28594485467185],[102.3046975704485,2.28541608497969],[102.30535858437109,2.284851974707705],[102.30598914565023,2.284254070002278],[102.30658752596128,2.283624009637554],[102.30715208518541,2.282963520524182],[102.307681275905,2.28227441297628],[102.30817364764509,2.281558575750091],[102.30862785084896,2.280817970867405],[102.3090426405772,2.280054628238156],[102.30941687992001,2.279270640097087],[102.30974954311333,2.278468155269396],[102.3100397183505,2.277649373281324],[102.31028661028135,2.276816538331682],[102.31048954219229,2.275971933140974],[102.31064795786101,2.275117872694896],[102.31076142308119,2.274256697899211],[102.31082962685258,2.273390769163774],[102.31085238223335,2.272522459932834]],[[102.36373459804727,2.196628694474576],[102.3637118426665,2.195760339849182],[102.36364363889511,2.194894364820936],[102.36353017367493,2.194033142973588],[102.36337175800621,2.193179034866796],[102.36316882609528,2.192334381565861],[102.36292193416442,2.191501498224932],[102.36263175892725,2.190682667741047],[102.36229909573393,2.189880134496701],[102.36192485639113,2.18909609820781],[102.36151006666289,2.188332707894171],[102.36105586345901,2.18759205598883],[102.36056349171892,2.186876172602461],[102.36003430099933,2.186187019958607],[102.3594697417752,2.185526487014952],[102.35887136146414,2.184896384285405],[102.35824080018502,2.184298438877211],[102.35757978626242,2.183734289756557],[102.35689013148956,2.183205483255939],[102.35617372616227,2.182713468835318],[102.35543253389773,2.182259595108796],[102.35466858625243,2.181845106147829],[102.35388397715377,2.181471138070862],[102.35308085716072,2.181138715929005],[102.3522614275694,2.180848750896085],[102.35142793437932,2.180602037770848],[102.35058266213743,2.180399252798264],[102.34972792767613,2.180240951815681],[102.3488660737632,2.180127568729216],[102.3479994626803,2.180059414324188],[102.34713046974821,2.180036675413223],[102.3462614768161,2.180059414324188],[102.3453948657332,2.180127568729216],[102.34453301182029,2.180240951815681],[102.34367827735899,2.180399252798264],[102.34283300511709,2.180602037770848],[102.341999511927,2.180848750896085],[102.34118008233568,2.181138715929005],[102.34037696234263,2.181471138070862],[102.33959235324397,2.181845106147829],[102.33882840559868,2.182259595108796],[102.33808721333415,2.182713468835318],[102.33737080800684,2.183205483255939],[102.336681153234,2.183734289756557],[102.33602013931139,2.184298438877211],[102.33538957803226,2.184896384285405],[102.3347911977212,2.185526487014952],[102.33422663849709,2.186187019958607],[102.33369744777748,2.186876172602461],[102.33320507603739,2.18759205598883],[102.33275087283351,2.188332707894171],[102.33233608310529,2.18909609820781],[102.33196184376249,2.189880134496701],[102.33162918056917,2.190682667741047],[102.33133900533198,2.191501498224932],[102.33109211340114,2.192334381565861],[102.3308891814902,2.193179034866796],[102.33073076582147,2.194033142973588],[102.33061730060129,2.194894364820936],[102.33054909682991,2.195760339849182],[102.33052634144914,2.196628694474576],[102.33054909682991,2.197497048595152],[102.33061730060129,2.19836302211453],[102.33073076582147,2.199224241465486],[102.3308891814902,2.200078346115702],[102.33109211340114,2.200922995037725],[102.33133900533198,2.201755873125422],[102.33162918056917,2.202574697539282],[102.33196184376249,2.203377223963348],[102.33233608310529,2.204161252756396],[102.33275087283351,2.204924634980765],[102.33320507603739,2.205665278292032],[102.33369744777748,2.206381152673691],[102.33422663849709,2.207070296000848],[102.3347911977212,2.207730819417901],[102.33538957803226,2.208360912515304],[102.33602013931139,2.208958848291379],[102.336681153234,2.209522987885432],[102.33737080800684,2.210051785069353],[102.33808721333415,2.210543790485264],[102.33882840559868,2.210997655617712],[102.33959235324397,2.211412136489408],[102.34037696234263,2.211786097070533],[102.34118008233568,2.212118512392085],[102.341999511927,2.212408471355005],[102.34283300511709,2.212655179226996],[102.34367827735899,2.212857959820695],[102.34453301182029,2.213016257346688],[102.3453948657332,2.213129637936749],[102.3462614768161,2.213197790832922],[102.34713046974821,2.21322052923907],[102.3479994626803,2.213197790832922],[102.3488660737632,2.213129637936749],[102.34972792767613,2.213016257346688],[102.35058266213743,2.212857959820695],[102.35142793437932,2.212655179226996],[102.3522614275694,2.212408471355005],[102.35308085716072,2.212118512392085],[102.35388397715377,2.211786097070533],[102.35466858625243,2.211412136489408],[102.35543253389773,2.210997655617712],[102.35617372616227,2.210543790485264],[102.35689013148956,2.210051785069353],[102.35757978626242,2.209522987885432],[102.35824080018502,2.208958848291379],[102.35887136146414,2.208360912515304],[102.3594697417752,2.207730819417901],[102.36003430099933,2.207070296000848],[102.36056349171892,2.206381152673691],[102.36105586345901,2.205665278292032],[102.36151006666289,2.204924634980765],[102.36192485639113,2.204161252756396],[102.36229909573393,2.203377223963348],[102.36263175892725,2.202574697539282],[102.36292193416442,2.201755873125422],[102.36316882609528,2.200922995037725],[102.36337175800621,2.200078346115702],[102.36353017367493,2.199224241465486],[102.36364363889511,2.19836302211453],[102.3637118426665,2.197497048595152],[102.36373459804727,2.196628694474576]],[[102.16000094237229,2.265725995672455],[102.15997818699151,2.264857681838782],[102.15990998322013,2.263991747474678],[102.15979651799996,2.263130566052601],[102.15963810233121,2.262276498021752],[102.1594351704203,2.261431884338035],[102.15918827848945,2.260599040047561],[102.15889810325227,2.259780247941025],[102.15856544005895,2.25897775229651],[102.15819120071613,2.258193752727734],[102.1577764109879,2.25743039815484],[102.15732220778403,2.256689780913956],[102.15682983604395,2.255973931021831],[102.15630064532435,2.255284810611359],[102.15573608610023,2.254624308553105],[102.15513770578917,2.253994235277542],[102.15450714451005,2.253396317812391],[102.15384613058743,2.252832195048549],[102.15315647581458,2.252303413247457],[102.15244007048729,2.25181142180259],[102.15169887822275,2.251357569266246],[102.15093493057745,2.250943099652873],[102.15015032147879,2.250569149028971],[102.14934720148574,2.250236742398781],[102.14852777189442,2.249946790894439],[102.14769427870435,2.249700089278447],[102.14684900646243,2.24949731376487],[102.14599427200115,2.249339020165741],[102.14513241808824,2.249225642367331],[102.14426580700534,2.249157491140821],[102.14339681407323,2.249134753290317],[102.14252782114112,2.249157491140821],[102.14166121005822,2.249225642367331],[102.14079935614531,2.249339020165741],[102.13994462168401,2.24949731376487],[102.1390993494421,2.249700089278447],[102.13826585625203,2.249946790894439],[102.1374464266607,2.250236742398781],[102.13664330666766,2.250569149028971],[102.135858697569,2.250943099652873],[102.1350947499237,2.251357569266246],[102.13435355765917,2.25181142180259],[102.13363715233187,2.252303413247457],[102.13294749755902,2.252832195048549],[102.1322864836364,2.253396317812391],[102.13165592235728,2.253994235277542],[102.13105754204622,2.254624308553105],[102.1304929828221,2.255284810611359],[102.1299637921025,2.255973931021831],[102.12947142036242,2.256689780913956],[102.12901721715855,2.25743039815484],[102.12860242743032,2.258193752727734],[102.12822818808749,2.25897775229651],[102.12789552489419,2.259780247941025],[102.127605349657,2.260599040047561],[102.12735845772615,2.261431884338035],[102.12715552581524,2.262276498021752],[102.12699711014649,2.263130566052601],[102.12688364492631,2.263991747474678],[102.12681544115493,2.264857681838782],[102.12679268577416,2.265725995672455],[102.12681544115493,2.266594308985472],[102.12688364492631,2.267460241793355],[102.12699711014649,2.26832142064066],[102.12715552581524,2.269175485106412],[102.12735845772615,2.270020094273767],[102.127605349657,2.270852933146102],[102.12789552489419,2.271671718992073],[102.12822818808749,2.272474207602206],[102.12860242743032,2.27325819943983],[102.12901721715855,2.274021545669505],[102.12947142036242,2.274762154046552],[102.1299637921025,2.275477994651292],[102.1304929828221,2.276167105452596],[102.13105754204622,2.276827597685201],[102.13165592235728,2.277457661026263],[102.1322864836364,2.278055568556914],[102.13294749755902,2.278619681495106],[102.13363715233187,2.279148453687043],[102.13435355765917,2.279640435844524],[102.1350947499237,2.280094279517018],[102.135858697569,2.280508740787186],[102.13664330666766,2.280882683679923],[102.1374464266607,2.281215083275744],[102.13826585625203,2.281505028519507],[102.1390993494421,2.281751724717361],[102.13994462168401,2.281954495714575],[102.14079935614531,2.28211278574862],[102.14166121005822,2.282226160972257],[102.14252782114112,2.282294310642534],[102.14339681407323,2.282317047972395],[102.14426580700534,2.282294310642534],[102.14513241808824,2.282226160972257],[102.14599427200115,2.28211278574862],[102.14684900646243,2.281954495714575],[102.14769427870435,2.281751724717361],[102.14852777189442,2.281505028519507],[102.14934720148574,2.281215083275744],[102.15015032147879,2.280882683679923],[102.15093493057745,2.280508740787186],[102.15169887822275,2.280094279517018],[102.15244007048729,2.279640435844524],[102.15315647581458,2.279148453687043],[102.15384613058743,2.278619681495106],[102.15450714451005,2.278055568556914],[102.15513770578917,2.277457661026263],[102.15573608610023,2.276827597685201],[102.15630064532435,2.276167105452596],[102.15682983604395,2.275477994651292],[102.15732220778403,2.274762154046552],[102.1577764109879,2.274021545669505],[102.15819120071613,2.27325819943983],[102.15856544005895,2.272474207602206],[102.15889810325227,2.271671718992073],[102.15918827848945,2.270852933146102],[102.1594351704203,2.270020094273767],[102.15963810233121,2.269175485106412],[102.15979651799996,2.26832142064066],[102.15990998322013,2.267460241793355],[102.15997818699151,2.266594308985472],[102.16000094237229,2.265725995672455]],[[102.2104551276107,2.238842022480366],[102.21043237222995,2.237973692625615],[102.21036416845855,2.237107742290458],[102.21025070323837,2.236246544991102],[102.21009228756965,2.235392461220108],[102.20988935565872,2.234547831976367],[102.20964246372786,2.233714972348407],[102.20935228849068,2.232896165168713],[102.20901962529737,2.232093654756348],[102.20864538595457,2.231309640765194],[102.20823059622633,2.230546272154565],[102.20777639302246,2.229805641298605],[102.20728402128236,2.229089778251006],[102.20675483056276,2.228400645180235],[102.20619027133864,2.227740130991103],[102.20559189102758,2.227110046146845],[102.20496132974846,2.226512117706426],[102.20430031582586,2.225947984590311],[102.203610661053,2.225419193087866],[102.2028942557257,2.224927192618684],[102.20215306346117,2.224473331759325],[102.20138911581587,2.224058854546678],[102.20060450671721,2.2236848970676],[102.19980138672416,2.223352484344751],[102.19898195713284,2.22306252752667],[102.19814846394276,2.222815821390091],[102.19730319170087,2.222613042161207],[102.19644845723955,2.222454745661998],[102.19558660332665,2.222341365786545],[102.19471999224375,2.222273213311579],[102.19385099931164,2.222250475044548],[102.19298200637954,2.222273213311579],[102.19211539529664,2.222341365786545],[102.19125354138372,2.222454745661998],[102.19039880692243,2.222613042161207],[102.18955353468053,2.222815821390091],[102.18872004149044,2.22306252752667],[102.18790061189912,2.223352484344751],[102.18709749190607,2.2236848970676],[102.18631288280741,2.224058854546678],[102.18554893516212,2.224473331759325],[102.18480774289758,2.224927192618684],[102.18409133757028,2.225419193087866],[102.18340168279744,2.225947984590311],[102.18274066887483,2.226512117706426],[102.1821101075957,2.227110046146845],[102.18151172728464,2.227740130991103],[102.18094716806051,2.228400645180235],[102.18041797734092,2.229089778251006],[102.17992560560083,2.229805641298605],[102.17947140239696,2.230546272154565],[102.17905661266873,2.231309640765194],[102.17868237332593,2.232093654756348],[102.1783497101326,2.232896165168713],[102.17805953489543,2.233714972348407],[102.17781264296458,2.234547831976367],[102.17760971105365,2.235392461220108],[102.17745129538491,2.236246544991102],[102.17733783016473,2.237107742290458],[102.17726962639335,2.237973692625615],[102.17724687101257,2.238842022480366],[102.17726962639335,2.239710351820655],[102.17733783016473,2.240576300618002],[102.17745129538491,2.241437495373092],[102.17760971105365,2.242291575621202],[102.17781264296458,2.243136200402065],[102.17805953489543,2.243969054676032],[102.1783497101326,2.244787855669305],[102.17868237332593,2.245590359130581],[102.17905661266873,2.246374365482106],[102.17947140239696,2.24713772584833],[102.17992560560083,2.247878347945399],[102.18041797734092,2.248594201815596],[102.18094716806051,2.249283325390987],[102.18151172728464,2.249943829870815],[102.1821101075957,2.250573904898214],[102.18274066887483,2.251171823521761],[102.18340168279744,2.251735946928572],[102.18409133757028,2.252264728935637],[102.18480774289758,2.252756720227417],[102.18554893516212,2.253210572327872],[102.18631288280741,2.253625041296114],[102.18709749190607,2.253998991135589],[102.18790061189912,2.254331396907335],[102.18872004149044,2.254621347538996],[102.18955353468053,2.254868048321594],[102.19039880692243,2.255070823087588],[102.19125354138372,2.255229116063926],[102.19211539529664,2.2553424933951],[102.19298200637954,2.255410644332268],[102.19385099931164,2.255433382084812],[102.19471999224375,2.255410644332268],[102.19558660332665,2.2553424933951],[102.19644845723955,2.255229116063926],[102.19730319170087,2.255070823087588],[102.19814846394276,2.254868048321594],[102.19898195713284,2.254621347538996],[102.19980138672416,2.254331396907335],[102.20060450671721,2.253998991135589],[102.20138911581587,2.253625041296114],[102.20215306346117,2.253210572327872],[102.2028942557257,2.252756720227417],[102.203610661053,2.252264728935637],[102.20430031582586,2.251735946928572],[102.20496132974846,2.251171823521761],[102.20559189102758,2.250573904898214],[102.20619027133864,2.249943829870815],[102.20675483056276,2.249283325390987],[102.20728402128236,2.248594201815596],[102.20777639302246,2.247878347945399],[102.20823059622633,2.24713772584833],[102.20864538595457,2.246374365482106],[102.20901962529737,2.245590359130581],[102.20935228849068,2.244787855669305],[102.20964246372786,2.243969054676032],[102.20988935565872,2.243136200402065],[102.21009228756965,2.242291575621202],[102.21025070323837,2.241437495373092],[102.21036416845855,2.240576300618002],[102.21043237222995,2.239710351820655],[102.2104551276107,2.238842022480366]],[[102.30305486978223,2.216220909528838],[102.30303211440146,2.215352566341482],[102.30296391063008,2.214486602715436],[102.3028504454099,2.213625392203267],[102.30269202974115,2.212771295333642],[102.30248909783023,2.211926653141214],[102.30224220589939,2.211093780749814],[102.3019520306622,2.2102749610267],[102.3016193674689,2.209472438325041],[102.30124512812607,2.20868841233214],[102.30083033839784,2.207925032039843],[102.30037613519397,2.207184389854035],[102.29988376345389,2.206468515859055],[102.29935457273429,2.205779372253015],[102.29879001351017,2.205118847969183],[102.29819163319911,2.204488753498099],[102.29756107191999,2.203890815924692],[102.29690005799736,2.203326674194045],[102.29621040322452,2.202797874618754],[102.29549399789722,2.202305866640105],[102.2947528056327,2.201851998854909],[102.29398885798739,2.201437515318633],[102.29320424888873,2.201063552135153],[102.29240112889568,2.20073113434245],[102.29158169930436,2.200441173102659],[102.29074820611429,2.200194463204363],[102.28990293387237,2.199991680883878],[102.28904819941108,2.199833381971467],[102.28818634549818,2.199720000367637],[102.28731973441528,2.1996518468538],[102.28645074148316,2.199629108240178],[102.28558174855105,2.1996518468538],[102.28471513746815,2.199720000367637],[102.28385328355525,2.199833381971467],[102.28299854909395,2.199991680883878],[102.28215327685204,2.200194463204363],[102.28131978366197,2.200441173102659],[102.28050035407065,2.20073113434245],[102.2796972340776,2.201063552135153],[102.27891262497894,2.201437515318633],[102.27814867733363,2.201851998854909],[102.2774074850691,2.202305866640105],[102.27669107974181,2.202797874618754],[102.27600142496895,2.203326674194045],[102.27534041104634,2.203890815924692],[102.27470984976722,2.204488753498099],[102.27411146945616,2.205118847969183],[102.27354691023204,2.205779372253015],[102.27301771951244,2.206468515859055],[102.27252534777236,2.207184389854035],[102.27207114456849,2.207925032039843],[102.27165635484026,2.20868841233214],[102.27128211549743,2.209472438325041],[102.27094945230412,2.2102749610267],[102.27065927706694,2.211093780749814],[102.27041238513608,2.211926653141214],[102.27020945322518,2.212771295333642],[102.27005103755643,2.213625392203267],[102.26993757233625,2.214486602715436],[102.26986936856487,2.215352566341482],[102.2698466131841,2.216220909528838],[102.26986936856487,2.217089252206911],[102.26993757233625,2.217955214310667],[102.27005103755643,2.218816422304219],[102.27020945322518,2.219670515686492],[102.27041238513608,2.220515153461041],[102.27065927706694,2.221348020552428],[102.27094945230412,2.222166834151511],[102.27128211549743,2.222969349972168],[102.27165635484026,2.223753368402498],[102.27207114456849,2.224516740533504],[102.27252534777236,2.225257374048739],[102.27301771951244,2.225973238958858],[102.27354691023204,2.226662373165265],[102.27411146945616,2.22732288783769],[102.27470984976722,2.227952972590907],[102.27534041104634,2.228550900446447],[102.27600142496895,2.229115032565687],[102.27669107974181,2.229643822741358],[102.2774074850691,2.230135821635134],[102.27814867733363,2.230589680749769],[102.27891262497894,2.231004156124767],[102.2796972340776,2.231378111745664],[102.28050035407065,2.231710522657365],[102.28131978366197,2.232000477773112],[102.28215327685204,2.232247182371408],[102.28299854909395,2.232449960274014],[102.28385328355525,2.232608255699086],[102.28471513746815,2.232721634784273],[102.28558174855105,2.232789786775833],[102.28645074148316,2.232812524880159],[102.28731973441528,2.232789786775833],[102.28818634549818,2.232721634784273],[102.28904819941108,2.232608255699086],[102.28990293387237,2.232449960274014],[102.29074820611429,2.232247182371408],[102.29158169930436,2.232000477773112],[102.29240112889568,2.231710522657365],[102.29320424888873,2.231378111745664],[102.29398885798739,2.231004156124767],[102.2947528056327,2.230589680749769],[102.29549399789722,2.230135821635134],[102.29621040322452,2.229643822741358],[102.29690005799736,2.229115032565687],[102.29756107191999,2.228550900446447],[102.29819163319911,2.227952972590907],[102.29879001351017,2.22732288783769],[102.29935457273429,2.226662373165265],[102.29988376345389,2.225973238958858],[102.30037613519397,2.225257374048739],[102.30083033839784,2.224516740533504],[102.30124512812607,2.223753368402498],[102.3016193674689,2.222969349972168],[102.3019520306622,2.222166834151511],[102.30224220589939,2.221348020552428],[102.30248909783023,2.220515153461041],[102.30269202974115,2.219670515686492],[102.3028504454099,2.218816422304219],[102.30296391063008,2.217955214310667],[102.30303211440146,2.217089252206911],[102.30305486978223,2.216220909528838]],[[102.23655756509201,2.213069220954457],[102.23653480971124,2.212200875920268],[102.23646660593987,2.211334910453189],[102.23635314071969,2.210473698110789],[102.23619472505095,2.209619599426759],[102.23599179314003,2.208774955440715],[102.23574490120917,2.207942081281347],[102.23545472597199,2.207123259820746],[102.23512206277869,2.206320735416816],[102.23474782343587,2.205536707761464],[102.23433303370763,2.20477332585108],[102.23387883050376,2.204032682095884],[102.23338645876368,2.203316806584518],[102.23285726804407,2.202627661519175],[102.23229270881995,2.201967135837083],[102.2316943285089,2.201337040032532],[102.23106376722977,2.200739101194066],[102.23040275330716,2.200174958270177],[102.2297130985343,2.199646157576666],[102.22899669320701,2.199154148557861],[102.22825550094248,2.198700279813334],[102.22749155329717,2.198285795401145],[102.22670694419851,2.197911831427527],[102.22590382420546,2.19757941293257],[102.22508439461414,2.197289451080319],[102.22425090142407,2.197042740660984],[102.22340562918217,2.196839957912269],[102.22255089472087,2.196681658665582],[102.22168904080796,2.19656827682237],[102.22082242972506,2.19650012316462],[102.21995343679295,2.196477384502984],[102.21908444386084,2.19650012316462],[102.21821783277794,2.19656827682237],[102.21735597886503,2.196681658665582],[102.21650124440374,2.196839957912269],[102.21565597216183,2.197042740660984],[102.21482247897175,2.197289451080319],[102.21400304938044,2.19757941293257],[102.21319992938739,2.197911831427527],[102.21241532028873,2.198285795401145],[102.21165137264342,2.198700279813334],[102.21091018037889,2.199154148557861],[102.2101937750516,2.199646157576666],[102.20950412027875,2.200174958270177],[102.20884310635613,2.200739101194066],[102.208212545077,2.201337040032532],[102.20761416476594,2.201967135837083],[102.20704960554183,2.202627661519175],[102.20652041482222,2.203316806584518],[102.20602804308214,2.204032682095884],[102.20557383987827,2.20477332585108],[102.20515905015004,2.205536707761464],[102.20478481080723,2.206320735416816],[102.2044521476139,2.207123259820746],[102.20416197237672,2.207942081281347],[102.20391508044588,2.208774955440715],[102.20371214853496,2.209619599426759],[102.20355373286621,2.210473698110789],[102.20344026764603,2.211334910453189],[102.20337206387467,2.212200875920268],[102.20334930849388,2.213069220954457],[102.20337206387467,2.213937565480076],[102.20344026764603,2.214803529427027],[102.20355373286621,2.215664739254372],[102.20371214853496,2.216518834456],[102.20391508044588,2.217363474030437],[102.20416197237672,2.218196342897324],[102.2044521476139,2.219015158242582],[102.20478481080723,2.219817675775268],[102.20515905015004,2.220601695878787],[102.20557383987827,2.221365069639471],[102.20602804308214,2.222105704736395],[102.20652041482222,2.222821571175789],[102.20704960554183,2.223510706854844],[102.20761416476594,2.22417122293918],[102.208212545077,2.224801309039642],[102.20884310635613,2.225399238174032],[102.20950412027875,2.225963371500166],[102.2101937750516,2.226492162807388],[102.21091018037889,2.226984162754221],[102.21165137264342,2.227438022840477],[102.21241532028873,2.227852499102978],[102.21319992938739,2.228226455524751],[102.21400304938044,2.228558867148463],[102.21482247897175,2.228848822885372],[102.21565597216183,2.229095528012239],[102.21650124440374,2.229298306349346],[102.21735597886503,2.229456602113619],[102.21821783277794,2.229569981441787],[102.21908444386084,2.229638133579398],[102.21995343679295,2.229660871732476],[102.22082242972506,2.229638133579398],[102.22168904080796,2.229569981441787],[102.22255089472087,2.229456602113619],[102.22340562918217,2.229298306349346],[102.22425090142407,2.229095528012239],[102.22508439461414,2.228848822885372],[102.22590382420546,2.228558867148463],[102.22670694419851,2.228226455524751],[102.22749155329717,2.227852499102978],[102.22825550094248,2.227438022840477],[102.22899669320701,2.226984162754221],[102.2297130985343,2.226492162807388],[102.23040275330716,2.225963371500166],[102.23106376722977,2.225399238174032],[102.2316943285089,2.224801309039642],[102.23229270881995,2.22417122293918],[102.23285726804407,2.223510706854844],[102.23338645876368,2.222821571175789],[102.23387883050376,2.222105704736395],[102.23433303370763,2.221365069639471],[102.23474782343587,2.220601695878787],[102.23512206277869,2.219817675775268],[102.23545472597199,2.219015158242582],[102.23574490120917,2.218196342897324],[102.23599179314003,2.217363474030437],[102.23619472505095,2.216518834456],[102.23635314071969,2.215664739254372],[102.23646660593987,2.214803529427027],[102.23653480971124,2.213937565480076],[102.23655756509201,2.213069220954457]],[[102.26956934162622,2.216673590966196],[102.26954658624545,2.215805248044302],[102.26947838247408,2.214939284682903],[102.2693649172539,2.21407807443383],[102.26920650158517,2.21322397782501],[102.26900356967424,2.212379335890423],[102.26875667774338,2.211546463753176],[102.2684665025062,2.210727644279811],[102.2681338393129,2.209925121822851],[102.26775959997008,2.209141096068924],[102.26734481024185,2.20837771600924],[102.26689060703798,2.207637074049023],[102.26639823529788,2.206921200272],[102.26586904457828,2.206232056875749],[102.26530448535416,2.205571532792916],[102.26470610504312,2.204941438513517],[102.26407554376398,2.204343501121962],[102.26341452984138,2.203779359562836],[102.26272487506853,2.20325056014829],[102.26200846974122,2.202758552319165],[102.26126727747669,2.202304684671865],[102.2605033298314,2.201890201261501],[102.25971872073274,2.201516238191605],[102.25891560073968,2.201183820499852],[102.25809617114837,2.2008938593481],[102.25726267795828,2.200647149524712],[102.25641740571638,2.200444367265777],[102.25556267125508,2.200286068401405],[102.25470081734217,2.200172686832014],[102.25383420625927,2.20010453333885],[102.25296521332716,2.200081794732125],[102.25209622039506,2.20010453333885],[102.25122960931216,2.200172686832014],[102.25036775539924,2.200286068401405],[102.24951302093795,2.200444367265777],[102.24866774869604,2.200647149524712],[102.24783425550596,2.2008938593481],[102.24701482591465,2.201183820499852],[102.2462117059216,2.201516238191605],[102.24542709682294,2.201890201261501],[102.24466314917764,2.202304684671865],[102.2439219569131,2.202758552319165],[102.2432055515858,2.20325056014829],[102.24251589681296,2.203779359562836],[102.24185488289034,2.204343501121962],[102.24122432161123,2.204941438513517],[102.24062594130017,2.205571532792916],[102.24006138207604,2.206232056875749],[102.23953219135645,2.206921200272],[102.23903981961637,2.207637074049023],[102.23858561641248,2.20837771600924],[102.23817082668425,2.209141096068924],[102.23779658734145,2.209925121822851],[102.23746392414812,2.210727644279811],[102.23717374891096,2.211546463753176],[102.2369268569801,2.212379335890423],[102.23672392506917,2.21322397782501],[102.23656550940045,2.21407807443383],[102.23645204418025,2.214939284682903],[102.23638384040888,2.215805248044302],[102.2363610850281,2.216673590966196],[102.23638384040888,2.217541933378679],[102.23645204418025,2.21840789521747],[102.23656550940045,2.219269102947417],[102.23672392506917,2.22012319606816],[102.2369268569801,2.220967833583977],[102.23717374891096,2.221800700420156],[102.23746392414812,2.222619513768218],[102.23779658734145,2.223422029342776],[102.23817082668425,2.224206047532593],[102.23858561641248,2.224969419429332],[102.23903981961637,2.225710052717208],[102.23953219135645,2.2264259174075],[102.24006138207604,2.227115051402222],[102.24062594130017,2.227775565871676],[102.24122432161123,2.228405650431223],[102.24185488289034,2.22900357810294],[102.24251589681296,2.229567710048687],[102.2432055515858,2.230096500061704],[102.2439219569131,2.230588498804111],[102.24466314917764,2.231042357779069],[102.24542709682294,2.231456833026489],[102.2462117059216,2.231830788532275],[102.24701482591465,2.232163199341625],[102.24783425550596,2.232453154368075],[102.24866774869604,2.232699858890395],[102.24951302093795,2.232902636730547],[102.25036775539924,2.233060932106855],[102.25122960931216,2.233174311157119],[102.25209622039506,2.233242463127662],[102.25296521332716,2.233265201225004],[102.25383420625927,2.233242463127662],[102.25470081734217,2.233174311157119],[102.25556267125508,2.233060932106855],[102.25641740571638,2.232902636730547],[102.25726267795828,2.232699858890395],[102.25809617114837,2.232453154368075],[102.25891560073968,2.232163199341625],[102.25971872073274,2.231830788532275],[102.2605033298314,2.231456833026489],[102.26126727747669,2.231042357779069],[102.26200846974122,2.230588498804111],[102.26272487506853,2.230096500061704],[102.26341452984138,2.229567710048687],[102.26407554376398,2.22900357810294],[102.26470610504312,2.228405650431223],[102.26530448535416,2.227775565871676],[102.26586904457828,2.227115051402222],[102.26639823529788,2.2264259174075],[102.26689060703798,2.225710052717208],[102.26734481024185,2.224969419429332],[102.26775959997008,2.224206047532593],[102.2681338393129,2.223422029342776],[102.2684665025062,2.222619513768218],[102.26875667774338,2.221800700420156],[102.26900356967424,2.220967833583977],[102.26920650158517,2.22012319606816],[102.2693649172539,2.219269102947417],[102.26947838247408,2.21840789521747],[102.26954658624545,2.217541933378679],[102.26956934162622,2.216673590966196]],[[102.2582790225824,2.180047395549148],[102.25825626720162,2.179179031322843],[102.25818806343024,2.178313046723799],[102.25807459821006,2.177451815361924],[102.25791618254132,2.176597697822904],[102.2577132506304,2.175753035197792],[102.25746635869955,2.174920142666128],[102.25717618346238,2.174101303150002],[102.25684352026906,2.173298761056462],[102.25646928092624,2.17251471612547],[102.25605449119801,2.171751317400307],[102.25560028799413,2.171010657336792],[102.25510791625405,2.170294766067698],[102.25457872553446,2.169605605837903],[102.25401416631034,2.1689450656256],[102.25341578599928,2.168314955964326],[102.25278522472014,2.167717003980004],[102.25212421079753,2.16715284865657],[102.25143455602469,2.166624036343233],[102.2507181506974,2.166132016515567],[102.24997695843285,2.165678137802253],[102.24921301078756,2.165263644288119],[102.2484284016889,2.16488967210386],[102.24762528169585,2.164557246311604],[102.24680585210453,2.164267278094961],[102.24597235891446,2.164020562261228],[102.24512708667254,2.163817775062637],[102.24427235221125,2.163659472342517],[102.24341049829833,2.163546088011603],[102.24254388721543,2.163477932858559],[102.24167489428334,2.163455193698048],[102.24080590135122,2.163477932858559],[102.23993929026832,2.163546088011603],[102.23907743635542,2.163659472342517],[102.23822270189412,2.163817775062637],[102.2373774296522,2.164020562261228],[102.23654393646214,2.164267278094961],[102.23572450687081,2.164557246311604],[102.23492138687777,2.16488967210386],[102.2341367777791,2.165263644288119],[102.2333728301338,2.165678137802253],[102.23263163786926,2.166132016515567],[102.23191523254197,2.166624036343233],[102.23122557776912,2.16715284865657],[102.23056456384651,2.167717003980004],[102.22993400256738,2.168314955964326],[102.22933562225631,2.1689450656256],[102.2287710630322,2.169605605837903],[102.22824187231261,2.170294766067698],[102.22774950057253,2.171010657336792],[102.22729529736866,2.171751317400307],[102.22688050764042,2.17251471612547],[102.2265062682976,2.173298761056462],[102.22617360510428,2.174101303150002],[102.22588342986711,2.174920142666128],[102.22563653793625,2.175753035197792],[102.22543360602533,2.176597697822904],[102.2252751903566,2.177451815361924],[102.22516172513642,2.178313046723799],[102.22509352136504,2.179179031322843],[102.22507076598427,2.180047395549148],[102.22509352136504,2.180915759274439],[102.22516172513642,2.181781742375989],[102.2252751903566,2.182642971260263],[102.22543360602533,2.183497085368736],[102.22563653793625,2.184341743647952],[102.22588342986711,2.185174630965949],[102.22617360510428,2.185993464457786],[102.2265062682976,2.186795999782431],[102.22688050764042,2.187580037274042],[102.22729529736866,2.188343427970874],[102.22774950057253,2.189084079505071],[102.22824187231261,2.189799961837289],[102.2287710630322,2.190489112820575],[102.22933562225631,2.191149643578057],[102.22993400256738,2.191779743679766],[102.23056456384651,2.192377686104524],[102.23122557776912,2.192941831973124],[102.23191523254197,2.193470635039964],[102.23263163786926,2.193962645930755],[102.2333728301338,2.19441651611475],[102.2341367777791,2.194831001600554],[102.23492138687777,2.195204966345444],[102.23572450687081,2.195537385368793],[102.23654393646214,2.195827347561147],[102.2373774296522,2.196074058181213],[102.23822270189412,2.196276841033907],[102.23907743635542,2.196435140323481],[102.23993929026832,2.196548522176806],[102.24080590135122,2.196616675832343],[102.24167489428334,2.196639414491854],[102.24254388721543,2.196616675832343],[102.24341049829833,2.196548522176806],[102.24427235221125,2.196435140323481],[102.24512708667254,2.196276841033907],[102.24597235891446,2.196074058181213],[102.24680585210453,2.195827347561147],[102.24762528169585,2.195537385368793],[102.2484284016889,2.195204966345444],[102.24921301078756,2.194831001600554],[102.24997695843285,2.19441651611475],[102.2507181506974,2.193962645930755],[102.25143455602469,2.193470635039964],[102.25212421079753,2.192941831973124],[102.25278522472014,2.192377686104524],[102.25341578599928,2.191779743679766],[102.25401416631034,2.191149643578057],[102.25457872553446,2.190489112820575],[102.25510791625405,2.189799961837289],[102.25560028799413,2.189084079505071],[102.25605449119801,2.188343427970874],[102.25646928092624,2.187580037274042],[102.25684352026906,2.186795999782431],[102.25717618346238,2.185993464457786],[102.25746635869955,2.185174630965949],[102.2577132506304,2.184341743647952],[102.25791618254132,2.183497085368736],[102.25807459821006,2.182642971260263],[102.25818806343024,2.181781742375989],[102.25825626720162,2.180915759274439],[102.2582790225824,2.180047395549148]],[[102.29107304456237,2.185272409562556],[102.29105028918158,2.184404048353796],[102.29098208541019,2.183538066762819],[102.29086862019001,2.182676838391339],[102.29071020452129,2.181822723816838],[102.29050727261036,2.180978064122264],[102.2902603806795,2.180145174479217],[102.28997020544234,2.179326337801889],[102.28963754224901,2.178523798489605],[102.2892633029062,2.177739756274781],[102.28884851317798,2.176976360193307],[102.2883943099741,2.176235702693866],[102.28790193823401,2.175519813902272],[102.28737274751442,2.174830656056697],[102.2868081882903,2.174170118128885],[102.28620980797923,2.173540010646202],[102.28557924670011,2.172942060728706],[102.2849182327775,2.172377907354774],[102.28422857800466,2.171849096868323],[102.28351217267736,2.171357078740053],[102.2827709804128,2.170903201594039],[102.28200703276752,2.170488709510926],[102.28122242366886,2.170114738617565],[102.28041930367581,2.169782313972598],[102.2795998740845,2.169492346756571],[102.27876638089441,2.169245631774094],[102.2779211086525,2.169042845275123],[102.27706637419122,2.168884543101092],[102.2762045202783,2.168771159161297],[102.27533790919539,2.16870300424336],[102.2744689162633,2.168680265161281],[102.27359992333119,2.16870300424336],[102.27273331224829,2.168771159161297],[102.27187145833538,2.168884543101092],[102.27101672387408,2.169042845275123],[102.27017145163218,2.169245631774094],[102.2693379584421,2.169492346756571],[102.26851852885076,2.169782313972598],[102.26771540885773,2.170114738617565],[102.26693079975907,2.170488709510926],[102.26616685211377,2.170903201594039],[102.26542565984923,2.171357078740053],[102.26470925452192,2.171849096868323],[102.26401959974908,2.172377907354774],[102.26335858582648,2.172942060728706],[102.26272802454734,2.173540010646202],[102.26212964423628,2.174170118128885],[102.26156508501217,2.174830656056697],[102.26103589429258,2.175519813902272],[102.26054352255248,2.176235702693866],[102.26008931934861,2.176976360193307],[102.25967452962038,2.177739756274781],[102.25930029027757,2.178523798489605],[102.25896762708425,2.179326337801889],[102.25867745184708,2.180145174479217],[102.25843055991622,2.180978064122264],[102.25822762800529,2.181822723816838],[102.25806921233657,2.182676838391339],[102.25795574711638,2.183538066762819],[102.257887543345,2.184404048353796],[102.25786478796424,2.185272409562556],[102.257887543345,2.186140770269107],[102.25795574711638,2.187006750359002],[102.25806921233657,2.187867976246965],[102.25822762800529,2.188722087382726],[102.25843055991622,2.189566742720984],[102.25867745184708,2.190399627137908],[102.25896762708425,2.191218457776534],[102.25930029027757,2.192020990303715],[102.25967452962038,2.192805025061372],[102.26008931934861,2.193568413095305],[102.26054352255248,2.19430906204502],[102.26103589429258,2.195024941878379],[102.26156508501217,2.195714090455334],[102.26212964423628,2.196374618905704],[102.26272802454734,2.197004716805935],[102.26335858582648,2.197602657141005],[102.26401959974908,2.198166801037496],[102.26470925452192,2.198695602255327],[102.26542565984923,2.199187611425348],[102.26616685211377,2.199641480021624],[102.26693079975907,2.200055964057209],[102.26771540885773,2.200429927493402],[102.26851852885076,2.200762345353267],[102.2693379584421,2.201052306530591],[102.27017145163218,2.201299016286946],[102.27101672387408,2.201501798429613],[102.27187145833538,2.201660097164892],[102.27273331224829,2.20177347862117],[102.27359992333119,2.201841632038038],[102.2744689162633,2.20186437061792],[102.27533790919539,2.201841632038038],[102.2762045202783,2.20177347862117],[102.27706637419122,2.201660097164892],[102.2779211086525,2.201501798429613],[102.27876638089441,2.201299016286946],[102.2795998740845,2.201052306530591],[102.28041930367581,2.200762345353267],[102.28122242366886,2.200429927493402],[102.28200703276752,2.200055964057209],[102.2827709804128,2.199641480021624],[102.28351217267736,2.199187611425348],[102.28422857800466,2.198695602255327],[102.2849182327775,2.198166801037496],[102.28557924670011,2.197602657141005],[102.28620980797923,2.197004716805935],[102.2868081882903,2.196374618905704],[102.28737274751442,2.195714090455334],[102.28790193823401,2.195024941878379],[102.2883943099741,2.19430906204502],[102.28884851317798,2.193568413095305],[102.2892633029062,2.192805025061372],[102.28963754224901,2.192020990303715],[102.28997020544234,2.191218457776534],[102.2902603806795,2.190399627137908],[102.29050727261036,2.189566742720984],[102.29071020452129,2.188722087382726],[102.29086862019001,2.187867976246965],[102.29098208541019,2.187006750359002],[102.29105028918158,2.186140770269107],[102.29107304456237,2.185272409562556]]],"bbox":[102.03338649173114,2.14690496376634,102.50402770545867,2.462717749028139]}
