{"type":"Topology","objects":{"PLS_SE-07":{"type":"GeometryCollection","geometries":[{"type":"Polygon","arcs":[[0]],"properties":{"state":"Perlis","parlimen":"P.001 Kangar","code_parlimen":"P.001","dun":"N.01 Titi Tinggi","code_dun":"N.01"}},{"type":"Polygon","arcs":[[1]],"properties":{"state":"Perlis","parlimen":"P.001 Kangar","code_parlimen":"P.001","dun":"N.02 Beseri","code_dun":"N.02"}},{"type":"Polygon","arcs":[[2]],"properties":{"state":"Perlis","parlimen":"P.001 Kangar","code_parlimen":"P.001","dun":"N.03 Oran","code_dun":"N.03"}},{"type":"Polygon","arcs":[[3]],"properties":{"state":"Perlis","parlimen":"P.001 Kangar","code_parlimen":"P.001","dun":"N.04 Padang Pauh","code_dun":"N.04"}},{"type":"Polygon","arcs":[[4]],"properties":{"state":"Perlis","parlimen":"P.001 Kangar","code_parlimen":"P.001","dun":"N.05 Bintong","code_dun":"N.05"}},{"type":"Polygon","arcs":[[5]],"properties":{"state":"Perlis","parlimen":"P.001 Kangar","code_parlimen":"P.001","dun":"N.06 Sena","code_dun":"N.06"}},{"type":"Polygon","arcs":[[6]],"properties":{"state":"Perlis","parlimen":"P.001 Kangar","code_parlimen":"P.001","dun":"N.07 Indera Kayangan","code_dun":"N.07"}},{"type":"Polygon","arcs":[[7]],"properties":{"state":"Perlis","parlimen":"P.002 Arau","code_parlimen":"P.002","dun":"N.08 Kuala Perlis","code_dun":"N.08"}},{"type":"Polygon","arcs":[[8]],"properties":{"state":"Perlis","parlimen":"P.002 Arau","code_parlimen":"P.002","dun":"N.09 Kayang","code_dun":"N.09"}},{"type":"Polygon","arcs":[[9]],"properties":{"state":"Perlis","parlimen":"P.002 Arau","code_parlimen":"P.002","dun":"N.10 Utan Aji","code_dun":"N.10"}},{"type":"Polygon","arcs":[[10]],"properties":{"state":"Perlis","parlimen":"P.002 Arau","code_parlimen":"P.002","dun":"N.11 Kota Raja","code_dun":"N.11"}},{"type":"Polygon","arcs":[[11]],"properties":{"state":"Perlis","parlimen":"P.002 Arau","code_parlimen":"P.002","dun":"N.12 Guar Sanji","code_dun":"N.12"}},{"type":"Polygon","arcs":[[12]],"properties":{"state":"Perlis","parlimen":"P.002 Arau","code_parlimen":"P.002","dun":"N.13 Kurong Anai","code_dun":"N.13"}},{"type":"Polygon","arcs":[[13]],"properties":{"state":"Perlis","parlimen":"P.002 Arau","code_parlimen":"P.002","dun":"N.14 Sanglang","code_dun":"N.14"}}]}},"arcs":[[[100.2623984347998,6.654297080041903],[100.2623794209785,6.653575862475321],[100.26232243163011,6.652856620661292],[100.2622276229585,6.652141326004754],[100.26209525482764,6.651431939100247],[100.26192569004941,6.650730404357877],[100.26171939338901,6.650038644673413],[100.26147693029132,6.649358556157415],[100.26119896533079,6.648692002937611],[100.26088626039007,6.64804081204887],[100.26053967257167,6.647406768424776],[100.26016015184871,6.646791610004551],[100.25974873846108,6.646197022968739],[100.25930656006436,6.645624637116646],[100.25883482863871,6.645076021398341],[100.25833483716723,6.644552679613447],[100.25780795609177,6.644056046288344],[100.25725562955671,6.643587482743386],[100.25667937145074,6.643148273360684],[100.25608076125727,6.642739622062831],[100.2554614397252,6.642362649012101],[100.25482310437182,6.642018387539389],[100.25416750482995,6.641707781311069],[100.25349643805238,6.641431681741722],[100.2528117433865,6.641190845659725],[100.25211529753278,6.640985933232282],[100.2514090094009,6.640817506155297],[100.25069481487756,6.640686026113343],[100.24997467152028,6.640591853513798],[100.24925055319197,6.640535246498698],[100.24852444465058,6.640516360236912],[100.24779833610921,6.640535246498698],[100.24707421778089,6.640591853513798],[100.24635407442362,6.640686026113343],[100.24563987990028,6.640817506155297],[100.2449335917684,6.640985933232282],[100.24423714591468,6.641190845659725],[100.2435524512488,6.641431681741722],[100.24288138447123,6.641707781311069],[100.24222578492936,6.642018387539389],[100.24158744957599,6.642362649012101],[100.24096812804392,6.642739622062831],[100.24036951785044,6.643148273360684],[100.23979325974447,6.643587482743386],[100.23924093320942,6.644056046288344],[100.23871405213396,6.644552679613447],[100.23821406066247,6.645076021398341],[100.23774232923682,6.645624637116646],[100.2373001508401,6.646197022968739],[100.23688873745247,6.646791610004551],[100.2365092167295,6.647406768424776],[100.23616262891112,6.64804081204887],[100.23584992397039,6.648692002937611],[100.23557195900986,6.649358556157415],[100.23532949591217,6.650038644673413],[100.23512319925177,6.650730404357877],[100.23495363447354,6.651431939100247],[100.23482126634268,6.652141326004754],[100.23472645767107,6.652856620661292],[100.23466946832268,6.653575862475321],[100.23465045450136,6.654297080041903],[100.23466946832268,6.655018296549347],[100.23472645767107,6.655737535197604],[100.23482126634268,6.656452824616404],[100.23495363447354,6.657162204268598],[100.23512319925177,6.657863729823541],[100.23532949591217,6.658555478486099],[100.23557195900986,6.659235554266495],[100.23584992397039,6.659902093176537],[100.23616262891112,6.660553268338135],[100.2365092167295,6.661187294989988],[100.23688873745247,6.66180243537886],[100.2373001508401,6.662397003521744],[100.23774232923682,6.662969369826339],[100.23821406066247,6.663517965556728],[100.23871405213396,6.664041287132288],[100.23924093320942,6.664537900248071],[100.23979325974447,6.665006443805113],[100.24036951785044,6.665445633640316],[100.24096812804392,6.665854266045242],[100.24158744957599,6.666231221064619],[100.24222578492936,6.66657546556509],[100.24288138447123,6.666886056066265],[100.2435524512488,6.66716214132584],[100.24423714591468,6.667402964672234],[100.2449335917684,6.667607866077783],[100.24563987990028,6.667776283967341],[100.24635407442362,6.667907756756982],[100.24707421778089,6.668001924118777],[100.24779833610921,6.668058527968106],[100.24852444465058,6.668077413170766],[100.24925055319197,6.668058527968106],[100.24997467152028,6.668001924118777],[100.25069481487756,6.667907756756982],[100.2514090094009,6.667776283967341],[100.25211529753278,6.667607866077783],[100.2528117433865,6.667402964672234],[100.25349643805238,6.66716214132584],[100.25416750482995,6.666886056066265],[100.25482310437182,6.66657546556509],[100.2554614397252,6.666231221064619],[100.25608076125727,6.665854266045242],[100.25667937145074,6.665445633640316],[100.25725562955671,6.665006443805113],[100.25780795609177,6.664537900248071],[100.25833483716723,6.664041287132288],[100.25883482863871,6.663517965556728],[100.25930656006436,6.662969369826339],[100.25974873846108,6.662397003521744],[100.26016015184871,6.66180243537886],[100.26053967257167,6.661187294989988],[100.26088626039007,6.660553268338135],[100.26119896533079,6.659902093176537],[100.26147693029132,6.659235554266495],[100.26171939338901,6.658555478486099],[100.26192569004941,6.657863729823541],[100.26209525482764,6.657162204268598],[100.2622276229585,6.656452824616404],[100.26232243163011,6.655737535197604],[100.2623794209785,6.655018296549347],[100.2623984347998,6.654297080041903]],[[100.22876104642965,6.567573765285114],[100.22874203260834,6.566852421196066],[100.22868504325993,6.566133053219853],[100.22859023458834,6.565417633107049],[100.22845786645748,6.564708121795819],[100.22828830167924,6.564006464036834],[100.22808200501885,6.563314583062578],[100.22783954192116,6.562634375315497],[100.22756157696062,6.561967705249431],[100.2272488720199,6.561316400218774],[100.2269022842015,6.560682245469115],[100.22652276347854,6.560066979243417],[100.22611135009092,6.559472288016718],[100.2256691716942,6.558899801872932],[100.22519744026854,6.558351090036],[100.22469744879704,6.557827656567928],[100.2241705677216,6.557330936245341],[100.22361824118654,6.556862290625978],[100.22304198308058,6.556423004315875],[100.2224433728871,6.556014281447425],[100.22182405135503,6.555637242378112],[100.22118571600166,6.5552929206188],[100.22053011645978,6.554982260000249],[100.21985904968221,6.554706112085248],[100.21917435501634,6.554465233833969],[100.2184779091626,6.55426028552852],[100.21777162103074,6.554091828962552],[100.21705742650738,6.55396032590099],[100.21633728315012,6.553866136813933],[100.21561316482179,6.553809519888325],[100.21488705628042,6.553790630320023],[100.21416094773905,6.553809519888325],[100.21343682941074,6.553866136813933],[100.21271668605345,6.55396032590099],[100.21200249153011,6.554091828962552],[100.21129620339823,6.55426028552852],[100.21059975754451,6.554465233833969],[100.20991506287864,6.554706112085248],[100.20924399610107,6.554982260000249],[100.2085883965592,6.5552929206188],[100.20795006120582,6.555637242378112],[100.20733073967375,6.556014281447425],[100.20673212948027,6.556423004315875],[100.2061558713743,6.556862290625978],[100.20560354483925,6.557330936245341],[100.20507666376379,6.557827656567928],[100.2045766722923,6.558351090036],[100.20410494086666,6.558899801872932],[100.20366276246992,6.559472288016718],[100.20325134908231,6.560066979243417],[100.20287182835933,6.560682245469115],[100.20252524054095,6.561316400218774],[100.20221253560022,6.561967705249431],[100.2019345706397,6.562634375315497],[100.201692107542,6.563314583062578],[100.20148581088161,6.564006464036834],[100.20131624610337,6.564708121795819],[100.20118387797251,6.565417633107049],[100.2010890693009,6.566133053219853],[100.20103207995251,6.566852421196066],[100.20101306613121,6.567573765285114],[100.20103207995251,6.568295108328611],[100.2010890693009,6.569014473179573],[100.20118387797251,6.569729888121686],[100.20131624610337,6.570439392273449],[100.20148581088161,6.571141040962624],[100.201692107542,6.571832911056076],[100.2019345706397,6.572513106230602],[100.20221253560022,6.573179762170096],[100.20252524054095,6.57383105167495],[100.20287182835933,6.574465189669638],[100.20325134908231,6.575080438094827],[100.20366276246992,6.575675110670474],[100.20410494086666,6.576247577516995],[100.2045766722923,6.576796269621906],[100.20507666376379,6.577319683139363],[100.20560354483925,6.577816383511347],[100.2061558713743,6.578285009398677],[100.20673212948027,6.578724276411514],[100.20733073967375,6.579132980628913],[100.20795006120582,6.579510001897717],[100.2085883965592,6.579854306902058],[100.20924399610107,6.580164951994808],[100.20991506287864,6.580441085783235],[100.21059975754451,6.580681951461959],[100.21129620339823,6.580886888886616],[100.21200249153011,6.581055336382775],[100.21271668605345,6.581186832284858],[100.21343682941074,6.581281016201237],[100.21416094773905,6.581337630001592],[100.21488705628042,6.581356518524331],[100.21561316482179,6.581337630001592],[100.21633728315012,6.581281016201237],[100.21705742650738,6.581186832284858],[100.21777162103074,6.581055336382775],[100.2184779091626,6.580886888886616],[100.21917435501634,6.580681951461959],[100.21985904968221,6.580441085783235],[100.22053011645978,6.580164951994808],[100.22118571600166,6.579854306902058],[100.22182405135503,6.579510001897717],[100.2224433728871,6.579132980628913],[100.22304198308058,6.578724276411514],[100.22361824118654,6.578285009398677],[100.2241705677216,6.577816383511347],[100.22469744879704,6.577319683139363],[100.22519744026854,6.576796269621906],[100.2256691716942,6.576247577516995],[100.22611135009092,6.575675110670474],[100.22652276347854,6.575080438094827],[100.2269022842015,6.574465189669638],[100.2272488720199,6.57383105167495],[100.22756157696062,6.573179762170096],[100.22783954192116,6.572513106230602],[100.22808200501885,6.571832911056076],[100.22828830167924,6.571141040962624],[100.22845786645748,6.570439392273449],[100.22859023458834,6.569729888121686],[100.22868504325993,6.569014473179573],[100.22874203260834,6.568295108328611],[100.22876104642965,6.567573765285114]],[[100.32123761189449,6.528348242418896],[100.32121859807317,6.52762684164566],[100.32116160872478,6.526907417146766],[100.32106680005317,6.526191940827593],[100.32093443192231,6.525482373780248],[100.32076486714408,6.524780660908026],[100.32055857048368,6.524088725594222],[100.32031610738599,6.523408464429967],[100.32003814242546,6.522741742015227],[100.31972543748473,6.522090385847512],[100.31937884966635,6.521456181312235],[100.31899932894338,6.520840866788363],[100.31858791555577,6.520246128882953],[100.31814573715903,6.519673597807357],[100.31767400573338,6.519124842908234],[100.3171740142619,6.518601368365142],[100.31664713318644,6.518104609066793],[100.31609480665138,6.517635926677304],[100.31551854854541,6.51719660590299],[100.31491993835193,6.516787850970261],[100.31430061681986,6.516410782324029],[100.31366228146649,6.516066433555803],[100.31300668192462,6.515755748569953],[100.31233561514705,6.515479578995693],[100.31165092048117,6.515238681852238],[100.31095447462745,6.515033717473143],[100.31024818649557,6.514865247695889],[100.30953399197223,6.514733734321365],[100.30881384861496,6.514639537847775],[100.30808973028664,6.514582916482178],[100.30736362174527,6.51456402543255],[100.30663751320388,6.514582916482178],[100.30591339487557,6.514639537847775],[100.30519325151829,6.514733734321365],[100.30447905699495,6.514865247695889],[100.30377276886308,6.515033717473143],[100.30307632300935,6.515238681852238],[100.30239162834347,6.515479578995693],[100.3017205615659,6.515755748569953],[100.30106496202403,6.516066433555803],[100.30042662667067,6.516410782324029],[100.29980730513859,6.516787850970261],[100.29920869494511,6.51719660590299],[100.29863243683914,6.517635926677304],[100.29808011030408,6.518104609066793],[100.29755322922863,6.518601368365142],[100.29705323775714,6.519124842908234],[100.29658150633149,6.519673597807357],[100.29613932793477,6.520246128882953],[100.29572791454714,6.520840866788363],[100.29534839382418,6.521456181312235],[100.29500180600579,6.522090385847512],[100.29468910106506,6.522741742015227],[100.29441113610453,6.523408464429967],[100.29416867300684,6.524088725594222],[100.29396237634644,6.524780660908026],[100.29379281156821,6.525482373780248],[100.29366044343735,6.526191940827593],[100.29356563476574,6.526907417146766],[100.29350864541735,6.52762684164566],[100.29348963159605,6.528348242418896],[100.29350864541735,6.529069642152701],[100.29356563476574,6.529789063544703],[100.29366044343735,6.530504534723526],[100.29379281156821,6.531214094653414],[100.29396237634644,6.531915798509057],[100.29416867300684,6.532607723005921],[100.29441113610453,6.533287971671397],[100.29468910106506,6.533954680042474],[100.29500180600579,6.534606020775493],[100.29534839382418,6.53524020865414],[100.29572791454714,6.53585550548194],[100.29613932793477,6.53645022484576],[100.29658150633149,6.537022736737344],[100.29705323775714,6.537571472020232],[100.29755322922863,6.538094926729803],[100.29808011030408,6.538591666194608],[100.29863243683914,6.539060328967873],[100.29920869494511,6.539499630558176],[100.29980730513859,6.539908366949314],[100.30042662667067,6.540285417899486],[100.30106496202403,6.540629750011084],[100.3017205615659,6.54094041956225],[100.30239162834347,6.541216575092821],[100.30307632300935,6.541457459737511],[100.30377276886308,6.541662413299654],[100.30447905699495,6.541830874060341],[100.30519325151829,6.541962380317406],[100.30591339487557,6.542056571650647],[100.30663751320388,6.542113189909339],[100.30736362174527,6.542132079919549],[100.30808973028664,6.542113189909339],[100.30881384861496,6.542056571650647],[100.30953399197223,6.541962380317406],[100.31024818649557,6.541830874060341],[100.31095447462745,6.541662413299654],[100.31165092048117,6.541457459737511],[100.31233561514705,6.541216575092821],[100.31300668192462,6.54094041956225],[100.31366228146649,6.540629750011084],[100.31430061681986,6.540285417899486],[100.31491993835193,6.539908366949314],[100.31551854854541,6.539499630558176],[100.31609480665138,6.539060328967873],[100.31664713318644,6.538591666194608],[100.3171740142619,6.538094926729803],[100.31767400573338,6.537571472020232],[100.31814573715903,6.537022736737344],[100.31858791555577,6.53645022484576],[100.31899932894338,6.53585550548194],[100.31937884966635,6.53524020865414],[100.31972543748473,6.534606020775493],[100.32003814242546,6.533954680042474],[100.32031610738599,6.533287971671397],[100.32055857048368,6.532607723005921],[100.32076486714408,6.531915798509057],[100.32093443192231,6.531214094653414],[100.32106680005317,6.530504534723526],[100.32116160872478,6.529789063544703],[100.32121859807317,6.529069642152701],[100.32123761189449,6.528348242418896]],[[100.25460198920065,6.486083290718459],[100.25458297537934,6.485361829247263],[100.25452598603094,6.484642344223342],[100.25443117735935,6.483926807717936],[100.25429880922849,6.483217180987952],[100.25412924445024,6.482515409100079],[100.25392294778986,6.481823415599161],[100.25368048469215,6.481143097235505],[100.25340251973164,6.480476318765549],[100.25308981479091,6.479824907840081],[100.2527432269725,6.479190649994192],[100.25236370624955,6.478575283752543],[100.25195229286193,6.477980495863456],[100.25151011446519,6.47740791667482],[100.25103838303954,6.476859115664676],[100.25053839156806,6.476335597138445],[100.2500115104926,6.475838796104882],[100.24945918395755,6.475370074341958],[100.24888292585159,6.474930716663414],[100.24828431565811,6.474521927396305],[100.24766499412603,6.474144827079166],[100.24702665877267,6.473800449389863],[100.2463710592308,6.473489738311582],[100.24569999245323,6.473213545544679],[100.24501529778733,6.472972628171547],[100.24431885193361,6.472767646580869],[100.24361256380175,6.472599162657003],[100.2428983692784,6.472467638239403],[100.24217822592112,6.472373433856346],[100.2414541075928,6.472316807736442],[100.24072799905143,6.472297915100596],[100.24000189051006,6.472316807736442],[100.23927777218174,6.472373433856346],[100.23855762882447,6.472467638239403],[100.23784343430113,6.472599162657003],[100.23713714616925,6.472767646580869],[100.23644070031553,6.472972628171547],[100.23575600564963,6.473213545544679],[100.23508493887206,6.473489738311582],[100.2344293393302,6.473800449389863],[100.23379100397683,6.474144827079166],[100.23317168244475,6.474521927396305],[100.23257307225128,6.474930716663414],[100.23199681414532,6.475370074341958],[100.23144448761026,6.475838796104882],[100.2309176065348,6.476335597138445],[100.23041761506332,6.476859115664676],[100.22994588363767,6.47740791667482],[100.22950370524092,6.477980495863456],[100.2290922918533,6.478575283752543],[100.22871277113035,6.479190649994192],[100.22836618331196,6.479824907840081],[100.22805347837124,6.480476318765549],[100.2277755134107,6.481143097235505],[100.22753305031301,6.481823415599161],[100.22732675365262,6.482515409100079],[100.22715718887437,6.483217180987952],[100.22702482074352,6.483926807717936],[100.2269300120719,6.484642344223342],[100.22687302272352,6.485361829247263],[100.22685400890221,6.486083290718459],[100.22687302272352,6.486804751156853],[100.2269300120719,6.487524233093626],[100.22702482074352,6.488239764491404],[100.22715718887437,6.488949384149222],[100.22732675365262,6.489651147077879],[100.22753305031301,6.490343129830673],[100.2277755134107,6.491023435775077],[100.22805347837124,6.491690200290718],[100.22836618331196,6.492341595879703],[100.22871277113035,6.49297583717494],[100.2290922918533,6.493591185833123],[100.22950370524092,6.494185955298592],[100.22994588363767,6.49475851542526],[100.23041761506332,6.495307296943998],[100.2309176065348,6.495830795762902],[100.23144448761026,6.496327577089124],[100.23199681414532,6.496796279360642],[100.23257307225128,6.497235617977231],[100.23317168244475,6.49764438882071],[100.23379100397683,6.498021471554383],[100.2344293393302,6.498365832693045],[100.23508493887206,6.498676528434832],[100.23575600564963,6.498952707247432],[100.23644070031553,6.499193612201313],[100.23713714616925,6.499398583043879],[100.23784343430113,6.499567058008529],[100.23855762882447,6.499698575353962],[100.23927777218174,6.49979277462938],[100.24000189051006,6.499849397662148],[100.24072799905143,6.499868289265179],[100.2414541075928,6.499849397662148],[100.24217822592112,6.49979277462938],[100.2428983692784,6.499698575353962],[100.24361256380175,6.499567058008529],[100.24431885193361,6.499398583043879],[100.24501529778733,6.499193612201313],[100.24569999245323,6.498952707247432],[100.2463710592308,6.498676528434832],[100.24702665877267,6.498365832693045],[100.24766499412603,6.498021471554383],[100.24828431565811,6.49764438882071],[100.24888292585159,6.497235617977231],[100.24945918395755,6.496796279360642],[100.2500115104926,6.496327577089124],[100.25053839156806,6.495830795762902],[100.25103838303954,6.495307296943998],[100.25151011446519,6.49475851542526],[100.25195229286193,6.494185955298592],[100.25236370624955,6.493591185833123],[100.2527432269725,6.49297583717494],[100.25308981479091,6.492341595879703],[100.25340251973164,6.491690200290718],[100.25368048469215,6.491023435775077],[100.25392294778986,6.490343129830673],[100.25412924445024,6.489651147077879],[100.25429880922849,6.488949384149222],[100.25443117735935,6.488239764491404],[100.25452598603094,6.487524233093626],[100.25458297537934,6.486804751156853],[100.25460198920065,6.486083290718459]],[[100.19037911955286,6.49216007752328],[100.19036010573154,6.491438624754959],[100.19030311638315,6.490719148409143],[100.19020830771154,6.490003620533257],[100.19007593958068,6.489294002360568],[100.18990637480245,6.48859223893437],[100.18970007814205,6.487900253776326],[100.18945761504436,6.487219943613921],[100.18917965008383,6.486553173181151],[100.1888669451431,6.485901770106857],[100.1885203573247,6.485267519904629],[100.18814083660176,6.484652161078277],[100.18772942321414,6.484057380355832],[100.1872872448174,6.483484808065642],[100.18681551339175,6.482936013666892],[100.18631552192025,6.482412501446937],[100.1857886408448,6.481915706397359],[100.18523631430975,6.48144699027978],[100.18466005620378,6.481007637892559],[100.1840614460103,6.4805988535483],[100.18344212447823,6.480221757772115],[100.18280378912486,6.479877384229505],[100.18214818958299,6.479566676892345],[100.18147712280542,6.479290487450788],[100.18079242813954,6.47904957297817],[100.1800959822858,6.478844593855283],[100.17938969415394,6.478676111959759],[100.17867549963059,6.478544589125502],[100.17795535627333,6.478450385876504],[100.177231237945,6.47839376043827],[100.17650512940362,6.478374868029859],[100.17577902086225,6.47839376043827],[100.17505490253394,6.478450385876504],[100.17433475917666,6.478544589125502],[100.17362056465332,6.478676111959759],[100.17291427652144,6.478844593855283],[100.17221783066773,6.47904957297817],[100.17153313600184,6.479290487450788],[100.17086206922427,6.479566676892345],[100.1702064696824,6.479877384229505],[100.16956813432904,6.480221757772115],[100.16894881279694,6.4805988535483],[100.16835020260348,6.481007637892559],[100.16777394449751,6.48144699027978],[100.16722161796245,6.481915706397359],[100.166694736887,6.482412501446937],[100.16619474541551,6.482936013666892],[100.16572301398988,6.483484808065642],[100.16528083559312,6.484057380355832],[100.16486942220551,6.484652161078277],[100.16448990148255,6.485267519904629],[100.16414331366416,6.485901770106857],[100.16383060872343,6.486553173181151],[100.16355264376291,6.487219943613921],[100.1633101806652,6.487900253776326],[100.16310388400481,6.48859223893437],[100.16293431922658,6.489294002360568],[100.16280195109572,6.490003620533257],[100.16270714242411,6.490719148409143],[100.16265015307573,6.491438624754959],[100.16263113925442,6.49216007752328],[100.16265015307573,6.492881529257806],[100.16270714242411,6.493601002513661],[100.16280195109572,6.494316525277214],[100.16293431922658,6.49502613637121],[100.16310388400481,6.495727890829948],[100.1633101806652,6.496419865229982],[100.16355264376291,6.497100162961697],[100.16383060872343,6.497766919427291],[100.16414331366416,6.498418307150994],[100.16448990148255,6.499052540787329],[100.16486942220551,6.499667882014029],[100.16528083559312,6.500262644295873],[100.16572301398988,6.500835197506564],[100.16619474541551,6.501383972395958],[100.166694736887,6.50190746489043],[100.16722161796245,6.502404240214527],[100.16777394449751,6.502872936822736],[100.16835020260348,6.503312270130458],[100.16894881279694,6.503721036034128],[100.16956813432904,6.504098114210651],[100.1702064696824,6.50444247118738],[100.17086206922427,6.504753163173923],[100.17153313600184,6.505029338648316],[100.17221783066773,6.505270240690245],[100.17291427652144,6.505475209055135],[100.17362056465332,6.505643681983199],[100.17433475917666,6.505775197738762],[100.17505490253394,6.505869395875426],[100.17577902086225,6.505926018223675],[100.17650512940362,6.505944909598329],[100.177231237945,6.505926018223675],[100.17795535627333,6.505869395875426],[100.17867549963059,6.505775197738762],[100.17938969415394,6.505643681983199],[100.1800959822858,6.505475209055135],[100.18079242813954,6.505270240690245],[100.18147712280542,6.505029338648316],[100.18214818958299,6.504753163173923],[100.18280378912486,6.50444247118738],[100.18344212447823,6.504098114210651],[100.1840614460103,6.503721036034128],[100.18466005620378,6.503312270130458],[100.18523631430975,6.502872936822736],[100.1857886408448,6.502404240214527],[100.18631552192025,6.50190746489043],[100.18681551339175,6.501383972395958],[100.1872872448174,6.500835197506564],[100.18772942321414,6.500262644295873],[100.18814083660176,6.499667882014029],[100.1885203573247,6.499052540787329],[100.1888669451431,6.498418307150994],[100.18917965008383,6.497766919427291],[100.18945761504436,6.497100162961697],[100.18970007814205,6.496419865229982],[100.18990637480245,6.495727890829948],[100.19007593958068,6.49502613637121],[100.19020830771154,6.494316525277214],[100.19030311638315,6.493601002513661],[100.19036010573154,6.492881529257806],[100.19037911955286,6.49216007752328]],[[100.22773924424915,6.443106352447326],[100.22772023042783,6.442384829658216],[100.22766324107944,6.441665283491147],[100.22756843240784,6.440949686184857],[100.22743606427697,6.44023999916279],[100.22726649949874,6.439538167656679],[100.22706020283835,6.438846115374568],[100.22681773974065,6.438165739227562],[100.22653977478012,6.437498904130159],[100.2262270698394,6.436847437887975],[100.22588048202101,6.43621312618733],[100.22550096129804,6.435597707700032],[100.22508954791043,6.435002869317159],[100.22464736951369,6.434430241524495],[100.22417563808804,6.433881393932775],[100.22367564661656,6.43335783097459],[100.2231487655411,6.432860987779963],[100.22259643900604,6.432392226241887],[100.22202018090007,6.431952831282598],[100.22142157070661,6.431544007330828],[100.22080224917453,6.4311668750197],[100.22016391382115,6.43082246811428],[100.21950831427928,6.430511730677407],[100.21883724750171,6.430235514481279],[100.21815255283583,6.429994576672104],[100.21745610698211,6.429789577694273],[100.21674981885023,6.429621079479515],[100.21603562432689,6.429489543906207],[100.21531548096962,6.429395331533012],[100.2145913626413,6.429338700610293],[100.21386525409993,6.429319806372058],[100.21313914555856,6.429338700610293],[100.21241502723024,6.429395331533012],[100.21169488387297,6.429489543906207],[100.21098068934961,6.429621079479515],[100.21027440121775,6.429789577694273],[100.20957795536401,6.429994576672104],[100.20889326069813,6.430235514481279],[100.20822219392056,6.430511730677407],[100.20756659437869,6.43082246811428],[100.20692825902533,6.4311668750197],[100.20630893749325,6.431544007330828],[100.20571032729977,6.431952831282598],[100.2051340691938,6.432392226241887],[100.20458174265875,6.432860987779963],[100.2040548615833,6.43335783097459],[100.2035548701118,6.433881393932775],[100.20308313868617,6.434430241524495],[100.20264096028943,6.435002869317159],[100.2022295469018,6.435597707700032],[100.20185002617885,6.43621312618733],[100.20150343836045,6.436847437887975],[100.20119073341972,6.437498904130159],[100.20091276845919,6.438165739227562],[100.2006703053615,6.438846115374568],[100.2004640087011,6.439538167656679],[100.20029444392287,6.44023999916279],[100.20016207579201,6.440949686184857],[100.20006726712042,6.441665283491147],[100.20001027777201,6.442384829658216],[100.19999126395071,6.443106352447326],[100.20001027777201,6.44382787421035],[100.20006726712042,6.444547417310398],[100.20016207579201,6.445263009542303],[100.20029444392287,6.44597268953827],[100.2004640087011,6.44667451214351],[100.2006703053615,6.447366553747532],[100.20091276845919,6.448046917556174],[100.20119073341972,6.448713738790163],[100.20150343836045,6.449365189795747],[100.20185002617885,6.449999485053547],[100.2022295469018,6.450614886071915],[100.20264096028943,6.451209706151168],[100.20308313868617,6.451782315006045],[100.2035548701118,6.452331143233303],[100.2040548615833,6.452854686612515],[100.20458174265875,6.453351510228182],[100.2051340691938,6.453820252401793],[100.20571032729977,6.454259628423296],[100.20630893749325,6.454668434071432],[100.20692825902533,6.45504554891363],[100.20756659437869,6.455389939376206],[100.20822219392056,6.45570066157648],[100.20889326069813,6.455976863909194],[100.20957795536401,6.456217789380018],[100.21027440121775,6.456422777679733],[100.21098068934961,6.456591266993634],[100.21169488387297,6.45672279554084],[100.21241502723024,6.456817002839678],[100.21313914555856,6.456873630695362],[100.21386525409993,6.456892523907499],[100.2145913626413,6.456873630695362],[100.21531548096962,6.456817002839678],[100.21603562432689,6.45672279554084],[100.21674981885023,6.456591266993634],[100.21745610698211,6.456422777679733],[100.21815255283583,6.456217789380018],[100.21883724750171,6.455976863909194],[100.21950831427928,6.45570066157648],[100.22016391382115,6.455389939376206],[100.22080224917453,6.45504554891363],[100.22142157070661,6.454668434071432],[100.22202018090007,6.454259628423296],[100.22259643900604,6.453820252401793],[100.2231487655411,6.453351510228182],[100.22367564661656,6.452854686612515],[100.22417563808804,6.452331143233303],[100.22464736951369,6.451782315006045],[100.22508954791043,6.451209706151168],[100.22550096129804,6.450614886071915],[100.22588048202101,6.449999485053547],[100.2262270698394,6.449365189795747],[100.22653977478012,6.448713738790163],[100.22681773974065,6.448046917556174],[100.22706020283835,6.447366553747532],[100.22726649949874,6.44667451214351],[100.22743606427697,6.44597268953827],[100.22756843240784,6.445263009542303],[100.22766324107944,6.444547417310398],[100.22772023042783,6.44382787421035],[100.22773924424915,6.443106352447326]],[[100.19781213100947,6.420292976633516],[100.19779311718817,6.419571421460063],[100.19773612783976,6.418851843000962],[100.19764131916817,6.418136213583436],[100.1975089510373,6.417426494718852],[100.19733938625907,6.41672463172614],[100.19713308959868,6.4160325483995],[100.19689062650099,6.415352141735008],[100.19661266154046,6.414685276730581],[100.19629995659973,6.414033781273655],[100.19595336878133,6.413399441130379],[100.19557384805837,6.412783995050318],[100.19516243467075,6.41218912999988],[100.19472025627402,6.411616476537723],[100.19424852484838,6.411067604344667],[100.19374853337688,6.410544017920437],[100.19322165230143,6.41004715245909],[100.19266932576637,6.409578369914406],[100.19209306766041,6.409138955265894],[100.19149445746693,6.408730112995998],[100.19087513593485,6.408352963787753],[100.19023680058149,6.408008541452344],[100.18958120103962,6.407697790094628],[100.18891013426204,6.407421561524729],[100.18822543959617,6.407180612922621],[100.18752899374243,6.406975604762073],[100.18682270561057,6.406807098999819],[100.18610851108721,6.406675557534815],[100.18538836772994,6.40658134094176],[100.18466424940162,6.406524707482524],[100.18393814086025,6.406505812398019],[100.18321203231888,6.406524707482524],[100.18248791399056,6.40658134094176],[100.18176777063329,6.406675557534815],[100.18105357610995,6.406807098999819],[100.18034728797807,6.406975604762073],[100.17965084212435,6.407180612922621],[100.17896614745847,6.407421561524729],[100.1782950806809,6.407697790094628],[100.17763948113902,6.408008541452344],[100.17700114578565,6.408352963787753],[100.17638182425358,6.408730112995998],[100.1757832140601,6.409138955265894],[100.17520695595414,6.409578369914406],[100.17465462941908,6.41004715245909],[100.17412774834362,6.410544017920437],[100.17362775687214,6.411067604344667],[100.17315602544649,6.411616476537723],[100.17271384704975,6.41218912999988],[100.17230243366214,6.412783995050318],[100.17192291293917,6.413399441130379],[100.17157632512078,6.414033781273655],[100.17126362018006,6.414685276730581],[100.17098565521952,6.415352141735008],[100.17074319212183,6.4160325483995],[100.17053689546144,6.41672463172614],[100.1703673306832,6.417426494718852],[100.17023496255234,6.418136213583436],[100.17014015388074,6.418851843000962],[100.17008316453234,6.419571421460063],[100.17006415071103,6.420292976633516],[100.17008316453234,6.42101453078446],[100.17014015388074,6.421734106187214],[100.17023496255234,6.422449730548039],[100.1703673306832,6.423159442410975],[100.17053689546144,6.423861296533807],[100.17074319212183,6.42455336921952],[100.17098565521952,6.425233763588611],[100.17126362018006,6.425900614777865],[100.17157632512078,6.426552095051232],[100.17192291293917,6.427186418808914],[100.17230243366214,6.427801847480857],[100.17271384704975,6.428396694291386],[100.17315602544649,6.428969328881683],[100.17362775687214,6.429518181777691],[100.17412774834362,6.430041748691113],[100.17465462941908,6.430538594641628],[100.17520695595414,6.431007357889276],[100.1757832140601,6.431446753665929],[100.17638182425358,6.431855577695916],[100.17700114578565,6.432232709496031],[100.17763948113902,6.432577115445846],[100.1782950806809,6.432887851620015],[100.17896614745847,6.43316406637474],[100.17965084212435,6.433405002681447],[100.18034728797807,6.433610000201068],[100.18105357610995,6.433778497093442],[100.18176777063329,6.433910031556811],[100.18248791399056,6.434004243093153],[100.18321203231888,6.434060873496041],[100.18393814086025,6.434079767558036],[100.18466424940162,6.434060873496041],[100.18538836772994,6.434004243093153],[100.18610851108721,6.433910031556811],[100.18682270561057,6.433778497093442],[100.18752899374243,6.433610000201068],[100.18822543959617,6.433405002681447],[100.18891013426204,6.43316406637474],[100.18958120103962,6.432887851620015],[100.19023680058149,6.432577115445846],[100.19087513593485,6.432232709496031],[100.19149445746693,6.431855577695916],[100.19209306766041,6.431446753665929],[100.19266932576637,6.431007357889276],[100.19322165230143,6.430538594641628],[100.19374853337688,6.430041748691113],[100.19424852484838,6.429518181777691],[100.19472025627402,6.428969328881683],[100.19516243467075,6.428396694291386],[100.19557384805837,6.427801847480857],[100.19595336878133,6.427186418808914],[100.19629995659973,6.426552095051232],[100.19661266154046,6.425900614777865],[100.19689062650099,6.425233763588611],[100.19713308959868,6.42455336921952],[100.19733938625907,6.423861296533807],[100.1975089510373,6.423159442410975],[100.19764131916817,6.422449730548039],[100.19773612783976,6.421734106187214],[100.19779311718817,6.42101453078446],[100.19781213100947,6.420292976633516]],[[100.15479628850468,6.41046331332435],[100.15477727468338,6.40974174423261],[100.15472028533497,6.40902215189493],[100.15462547666338,6.408306508676507],[100.15449310853252,6.407596776126542],[100.15432354375429,6.406894899601411],[100.1541172470939,6.406202802932356],[100.1538747839962,6.405522383151943],[100.15359681903567,6.404855505293992],[100.15328411409494,6.404203997281062],[100.15293752627653,6.403569644913643],[100.15255800555359,6.40295418697468],[100.15214659216596,6.402359310462987],[100.15170441376922,6.401786645968541],[100.15123268234359,6.401237763202265],[100.15073269087209,6.400714166692739],[100.15020580979665,6.40021729166156],[100.14965348326159,6.399748500088604],[100.14907722515562,6.399309076978023],[100.14847861496214,6.398900226835313],[100.14785929343006,6.39852307036501],[100.1472209580767,6.398178641398054],[100.14656535853483,6.397867884057422],[100.14589429175726,6.39759165016951],[100.14520959709138,6.397350696928791],[100.14451315123765,6.397145684821671],[100.14380686310578,6.396977175815645],[100.14309266858243,6.396845631818487],[100.14237252522516,6.396751413411817],[100.14164840689683,6.396694778862452],[100.14092229835546,6.396675883414219],[100.14019618981409,6.396694778862452],[100.13947207148577,6.396751413411817],[100.1387519281285,6.396845631818487],[100.13803773360516,6.396977175815645],[100.13733144547328,6.397145684821671],[100.13663499961956,6.397350696928791],[100.13595030495368,6.39759165016951],[100.13527923817611,6.397867884057422],[100.13462363863424,6.398178641398054],[100.13398530328087,6.39852307036501],[100.1333659817488,6.398900226835313],[100.13276737155532,6.399309076978023],[100.13219111344935,6.399748500088604],[100.1316387869143,6.40021729166156],[100.13111190583884,6.400714166692739],[100.13061191436735,6.401237763202265],[100.1301401829417,6.401786645968541],[100.12969800454496,6.402359310462987],[100.12928659115735,6.40295418697468],[100.12890707043438,6.403569644913643],[100.128560482616,6.404203997281062],[100.12824777767527,6.404855505293992],[100.12796981271474,6.405522383151943],[100.12772734961705,6.406202802932356],[100.12752105295665,6.406894899601411],[100.12735148817842,6.407596776126542],[100.12721912004756,6.408306508676507],[100.12712431137594,6.40902215189493],[100.12706732202756,6.40974174423261],[100.12704830820624,6.41046331332435],[100.12706732202756,6.411184881395105],[100.12712431137594,6.411904470681043],[100.12721912004756,6.412620108850361],[100.12735148817842,6.413329834409224],[100.12752105295665,6.414031702077835],[100.12772734961705,6.41472378812198],[100.12796981271474,6.415404195625489],[100.12824777767527,6.416071059689082],[100.128560482616,6.4167225525413],[100.12890707043438,6.417356888547794],[100.12928659115735,6.417972329104846],[100.12969800454496,6.418567187404074],[100.1301401829417,6.41913983305508],[100.13061191436735,6.419688696553366],[100.13111190583884,6.420212273581448],[100.1316387869143,6.420709129131168],[100.13219111344935,6.421177901436134],[100.13276737155532,6.421617305703265],[100.1333659817488,6.42202613763352],[100.13398530328087,6.422403276721914],[100.13462363863424,6.422747689327931],[100.13527923817611,6.423058431507877],[100.13595030495368,6.423334651601418],[100.13663499961956,6.423575592565246],[100.13733144547328,6.423780594047444],[100.13803773360516,6.423949094196947],[100.1387519281285,6.424080631202992],[100.13947207148577,6.42417484456057],[100.14019618981409,6.424231476058206],[100.14092229835546,6.424250370485442],[100.14164840689683,6.424231476058206],[100.14237252522516,6.42417484456057],[100.14309266858243,6.424080631202992],[100.14380686310578,6.423949094196947],[100.14451315123765,6.423780594047444],[100.14520959709138,6.423575592565246],[100.14589429175726,6.423334651601418],[100.14656535853483,6.423058431507877],[100.1472209580767,6.422747689327931],[100.14785929343006,6.422403276721914],[100.14847861496214,6.42202613763352],[100.14907722515562,6.421617305703265],[100.14965348326159,6.421177901436134],[100.15020580979665,6.420709129131168],[100.15073269087209,6.420212273581448],[100.15123268234359,6.419688696553366],[100.15170441376922,6.41913983305508],[100.15214659216596,6.418567187404074],[100.15255800555359,6.417972329104846],[100.15293752627653,6.417356888547794],[100.15328411409494,6.4167225525413],[100.15359681903567,6.416071059689082],[100.1538747839962,6.415404195625489],[100.1541172470939,6.41472378812198],[100.15432354375429,6.414031702077835],[100.15449310853252,6.413329834409224],[100.15462547666338,6.412620108850361],[100.15472028533497,6.411904470681043],[100.15477727468338,6.411184881395105],[100.15479628850468,6.41046331332435]],[[100.17952287882451,6.37441636246412],[100.1795038650032,6.373694742513593],[100.17944687565482,6.372975099462146],[100.17935206698321,6.372259405813943],[100.17921969885236,6.371549623256219],[100.1790501340741,6.370847697282329],[100.17884383741372,6.370155551858806],[100.17860137431603,6.369475084151646],[100.17832340935549,6.368808159325744],[100.17801070441477,6.368156605432053],[100.17766411659638,6.367522208396491],[100.17728459587342,6.366906707124074],[100.1768731824858,6.366311788731994],[100.17643100408907,6.365739083924578],[100.1759592726634,6.365190162522845],[100.17545928119193,6.36466652916083],[100.17493240011646,6.364169619160712],[100.17438007358142,6.363700794597732],[100.17380381547544,6.363261340566052],[100.17320520528197,6.362852461655506],[100.1725858837499,6.36247527864902],[100.17194754839652,6.362130825449928],[100.17129194885467,6.361820046247218],[100.1706208820771,6.361543792926881],[100.1699361874112,6.361302822736338],[100.16923974155748,6.361097796208162],[100.16853345342561,6.360929275349151],[100.16781925890226,6.360797722099364],[100.16709911554499,6.360703497065614],[100.16637499721666,6.360646858532744],[100.16564888867529,6.360627961755485],[100.16492278013392,6.360646858532744],[100.16419866180561,6.360703497065614],[100.16347851844833,6.360797722099364],[100.16276432392499,6.360929275349151],[100.16205803579311,6.361097796208162],[100.1613615899394,6.361302822736338],[100.1606768952735,6.361543792926881],[100.16000582849593,6.361820046247218],[100.15935022895408,6.362130825449928],[100.1587118936007,6.36247527864902],[100.15809257206861,6.362852461655506],[100.15749396187515,6.363261340566052],[100.15691770376917,6.363700794597732],[100.15636537723412,6.364169619160712],[100.15583849615867,6.36466652916083],[100.15533850468718,6.365190162522845],[100.15486677326155,6.365739083924578],[100.15442459486479,6.366311788731994],[100.15401318147718,6.366906707124074],[100.15363366075422,6.367522208396491],[100.15328707293581,6.368156605432053],[100.1529743679951,6.368808159325744],[100.15269640303457,6.369475084151646],[100.15245393993686,6.370155551858806],[100.15224764327648,6.370847697282329],[100.15207807849823,6.371549623256219],[100.15194571036739,6.372259405813943],[100.15185090169578,6.372975099462146],[100.1517939123474,6.373694742513593],[100.15177489852609,6.37441636246412],[100.1517939123474,6.375137981399311],[100.15185090169578,6.375857621415886],[100.15194571036739,6.376573310042922],[100.15207807849823,6.377283085648195],[100.15224764327648,6.377985002814531],[100.15245393993686,6.378677137671882],[100.15269640303457,6.379357593170051],[100.1529743679951,6.380024504277877],[100.15328707293581,6.380676043094695],[100.15363366075422,6.3813104238598],[100.15401318147718,6.38192590784641],[100.15442459486479,6.382520808126758],[100.15486677326155,6.383093494194906],[100.15533850468718,6.383642396435197],[100.15583849615867,6.384166010423487],[100.15636537723412,6.384662901049904],[100.15691770376917,6.385131706451428],[100.15749396187515,6.385571141743865],[100.15809257206861,6.385980002542667],[100.1587118936007,6.386357168263347],[100.15935022895408,6.386701605191981],[100.16000582849593,6.387012369317843],[100.1606768952735,6.38728860892008],[100.1613615899394,6.387529566901631],[100.16205803579311,6.387734582863636],[100.16276432392499,6.387903094915092],[100.16347851844833,6.388034641212441],[100.16419866180561,6.388128861225024],[100.16492278013392,6.388185496723009],[100.16564888867529,6.388204392484946],[100.16637499721666,6.388185496723009],[100.16709911554499,6.388128861225024],[100.16781925890226,6.388034641212441],[100.16853345342561,6.387903094915092],[100.16923974155748,6.387734582863636],[100.1699361874112,6.387529566901631],[100.1706208820771,6.38728860892008],[100.17129194885467,6.387012369317843],[100.17194754839652,6.386701605191981],[100.1725858837499,6.386357168263347],[100.17320520528197,6.385980002542667],[100.17380381547544,6.385571141743865],[100.17438007358142,6.385131706451428],[100.17493240011646,6.384662901049904],[100.17545928119193,6.384166010423487],[100.1759592726634,6.383642396435197],[100.17643100408907,6.383093494194906],[100.1768731824858,6.382520808126758],[100.17728459587342,6.38192590784641],[100.17766411659638,6.3813104238598],[100.17801070441477,6.380676043094695],[100.17832340935549,6.380024504277877],[100.17860137431603,6.379357593170051],[100.17884383741372,6.378677137671882],[100.1790501340741,6.377985002814531],[100.17921969885236,6.377283085648195],[100.17935206698321,6.376573310042922],[100.17944687565482,6.375857621415886],[100.1795038650032,6.375137981399311],[100.17952287882451,6.37441636246412]],[[100.21925722854834,6.379162424839441],[100.21923821472703,6.37844081156883],[100.21918122537863,6.377721175178241],[100.21908641670704,6.377005488153594],[100.21895404857618,6.376295712164008],[100.21878448379793,6.375593792684823],[100.21857818713755,6.374901653664826],[100.21833572403986,6.374221192252466],[100.21805775907933,6.373554273595416],[100.2177450541386,6.372902725727807],[100.2173984663202,6.372268334559045],[100.21701894559725,6.37165283897813],[100.21660753220962,6.371057926086704],[100.2161653538129,6.370485226574072],[100.21569362238725,6.369936310246787],[100.21519363091575,6.369412681725054],[100.21466674984029,6.368915776317809],[100.21411442330525,6.368446956087801],[100.21353816519928,6.368007506117347],[100.2129395550058,6.367598630985209],[100.21232023347373,6.367221451464053],[100.21168189812036,6.366877001447651],[100.21102629857849,6.366566225116334],[100.21035523180092,6.366289974348289],[100.20967053713503,6.366049006383958],[100.2089740912813,6.365843981749878],[100.20826780314944,6.365675462447647],[100.20755360862609,6.365543910413125],[100.20683346526883,6.365449686249778],[100.2061093469405,6.365393048240109],[100.20538323839912,6.365374151637399],[100.20465712985775,6.365393048240109],[100.20393301152944,6.365449686249778],[100.20321286817216,6.365543910413125],[100.20249867364882,6.365675462447647],[100.20179238551694,6.365843981749878],[100.20109593966322,6.366049006383958],[100.20041124499734,6.366289974348289],[100.19974017821977,6.366566225116334],[100.1990845786779,6.366877001447651],[100.19844624332454,6.367221451464053],[100.19782692179244,6.367598630985209],[100.19722831159898,6.368007506117347],[100.19665205349301,6.368446956087801],[100.19609972695795,6.368915776317809],[100.1955728458825,6.369412681725054],[100.19507285441101,6.369936310246787],[100.19460112298536,6.370485226574072],[100.19415894458862,6.371057926086704],[100.19374753120101,6.37165283897813],[100.19336801047804,6.372268334559045],[100.19302142265965,6.372902725727807],[100.19270871771893,6.373554273595416],[100.1924307527584,6.374221192252466],[100.1921882896607,6.374901653664826],[100.19198199300031,6.375593792684823],[100.19181242822208,6.376295712164008],[100.19168006009122,6.377005488153594],[100.19158525141961,6.377721175178241],[100.19152826207122,6.37844081156883],[100.19150924824991,6.379162424839441],[100.19152826207122,6.379884037093979],[100.19158525141961,6.380603670447456],[100.19168006009122,6.381319352447274],[100.19181242822208,6.382029121479319],[100.19198199300031,6.382731032144499],[100.1921882896607,6.383423160590604],[100.1924307527584,6.384103609785027],[100.19270871771893,6.384770514713939],[100.19302142265965,6.385422047493645],[100.19336801047804,6.386056422380028],[100.19374753120101,6.386671900662492],[100.19415894458862,6.387266795428928],[100.19460112298536,6.387839476188577],[100.19507285441101,6.388388373340388],[100.1955728458825,6.38891198247421],[100.19609972695795,6.389408868493556],[100.19665205349301,6.389877669548089],[100.19722831159898,6.390317100765561],[100.19782692179244,6.390725957772684],[100.19844624332454,6.391103119995401],[100.1990845786779,6.391447553729436],[100.19974017821977,6.391758314972838],[100.20041124499734,6.392034552012756],[100.20109593966322,6.392275507759141],[100.20179238551694,6.392480521819339],[100.20249867364882,6.392649032307554],[100.20321286817216,6.392780577384548],[100.20393301152944,6.392874796523051],[100.20465712985775,6.392931431495621],[100.20538323839912,6.392950327082247],[100.2061093469405,6.392931431495621],[100.20683346526883,6.392874796523051],[100.20755360862609,6.392780577384548],[100.20826780314944,6.392649032307554],[100.2089740912813,6.392480521819339],[100.20967053713503,6.392275507759141],[100.21035523180092,6.392034552012756],[100.21102629857849,6.391758314972838],[100.21168189812036,6.391447553729436],[100.21232023347373,6.391103119995401],[100.2129395550058,6.390725957772684],[100.21353816519928,6.390317100765561],[100.21411442330525,6.389877669548089],[100.21466674984029,6.389408868493556],[100.21519363091575,6.38891198247421],[100.21569362238725,6.388388373340388],[100.2161653538129,6.387839476188577],[100.21660753220962,6.387266795428928],[100.21701894559725,6.386671900662492],[100.2173984663202,6.386056422380028],[100.2177450541386,6.385422047493645],[100.21805775907933,6.384770514713939],[100.21833572403986,6.384103609785027],[100.21857818713755,6.383423160590604],[100.21878448379793,6.382731032144499],[100.21895404857618,6.382029121479319],[100.21908641670704,6.381319352447274],[100.21918122537863,6.380603670447456],[100.21923821472703,6.379884037093979],[100.21925722854834,6.379162424839441]],[[100.25788569340439,6.422019693619043],[100.25786667958309,6.421298140892707],[100.2578096902347,6.420578564873779],[100.25771488156309,6.419862937882737],[100.25758251343223,6.419153221424344],[100.257412948654,6.418451360810916],[100.2572066519936,6.417759279830164],[100.2569641888959,6.417078875471727],[100.25668622393538,6.416412012727225],[100.25637351899465,6.41576051947792],[100.25602693117625,6.41512618148391],[100.25564741045329,6.414510737488895],[100.25523599706567,6.413915874453606],[100.25479381866894,6.413343222931167],[100.2543220872433,6.412794352597106],[100.25382209577181,6.412270767946088],[100.25329521469635,6.411773904167343],[100.2527428881613,6.41130512321001],[100.25216663005533,6.410865710049323],[100.25156801986185,6.41045686916363],[100.25094869832978,6.410079721232213],[100.2503103629764,6.409735300062781],[100.24965476343453,6.409424549756976],[100.24898369665696,6.409148322122111],[100.24829900199109,6.408907374335573],[100.24760255613737,6.408702366868907],[100.24689626800549,6.40853386167699],[100.24618207348215,6.408402320657188],[100.24546193012486,6.408308104383003],[100.24473781179655,6.408251471115439],[100.24401170325517,6.408232576094889],[100.2432855947138,6.408251471115439],[100.24256147638548,6.408308104383003],[100.2418413330282,6.408402320657188],[100.24112713850487,6.40853386167699],[100.24042085037298,6.408702366868907],[100.23972440451927,6.408907374335573],[100.23903970985339,6.409148322122111],[100.23836864307582,6.409424549756976],[100.23771304353394,6.409735300062781],[100.23707470818057,6.410079721232213],[100.2364553866485,6.41045686916363],[100.23585677645502,6.410865710049323],[100.23528051834906,6.41130512321001],[100.234728191814,6.411773904167343],[100.23420131073854,6.412270767946088],[100.23370131926706,6.412794352597106],[100.23322958784141,6.413343222931167],[100.23278740944468,6.413915874453606],[100.23237599605706,6.414510737488895],[100.23199647533409,6.41512618148391],[100.2316498875157,6.41576051947792],[100.23133718257498,6.416412012727225],[100.23105921761444,6.417078875471727],[100.23081675451675,6.417759279830164],[100.23061045785636,6.418451360810916],[100.23044089307812,6.419153221424344],[100.23030852494726,6.419862937882737],[100.23021371627566,6.420578564873779],[100.23015672692726,6.421298140892707],[100.23013771310595,6.422019693619043],[100.23015672692726,6.422741245322588],[100.23021371627566,6.423460818284368],[100.23030852494726,6.424176440217361],[100.23044089307812,6.424886149672262],[100.23061045785636,6.425588001413468],[100.23081675451675,6.426280071750469],[100.23105921761444,6.426960463810261],[100.23133718257498,6.42762731273594],[100.2316498875157,6.428278790797676],[100.23199647533409,6.42891311240174],[100.23237599605706,6.429528538984046],[100.23278740944468,6.430123383774605],[100.23322958784141,6.430696016420185],[100.23370131926706,6.431244867452095],[100.23420131073854,6.431768432587141],[100.234728191814,6.432265276849925],[100.23528051834906,6.432734038505096],[100.23585677645502,6.433173432788936],[100.2364553866485,6.433582255429899],[100.23707470818057,6.43395938594858],[100.23771304353394,6.434303790728105],[100.23836864307582,6.434614525846317],[100.23903970985339,6.434890739662372],[100.23972440451927,6.435131675150264],[100.24042085037298,6.435336671973179],[100.24112713850487,6.435505168292874],[100.2418413330282,6.435636702309185],[100.24256147638548,6.43573091352532],[100.2432855947138,6.435787543735722],[100.24401170325517,6.435806437733494],[100.24473781179655,6.435787543735722],[100.24546193012486,6.43573091352532],[100.24618207348215,6.435636702309185],[100.24689626800549,6.435505168292874],[100.24760255613737,6.435336671973179],[100.24829900199109,6.435131675150264],[100.24898369665696,6.434890739662372],[100.24965476343453,6.434614525846317],[100.2503103629764,6.434303790728105],[100.25094869832978,6.43395938594858],[100.25156801986185,6.433582255429899],[100.25216663005533,6.433173432788936],[100.2527428881613,6.432734038505096],[100.25329521469635,6.432265276849925],[100.25382209577181,6.431768432587141],[100.2543220872433,6.431244867452095],[100.25479381866894,6.430696016420185],[100.25523599706567,6.430123383774605],[100.25564741045329,6.429528538984046],[100.25602693117625,6.42891311240174],[100.25637351899465,6.428278790797676],[100.25668622393538,6.42762731273594],[100.2569641888959,6.426960463810261],[100.2572066519936,6.426280071750469],[100.257412948654,6.425588001413468],[100.25758251343223,6.424886149672262],[100.25771488156309,6.424176440217361],[100.2578096902347,6.423460818284368],[100.25786667958309,6.422741245322588],[100.25788569340439,6.422019693619043]],[[100.32948849825287,6.448469615515364],[100.32946948443156,6.447748100356189],[100.32941249508316,6.447028561797311],[100.32931768641157,6.446312972056633],[100.32918531828071,6.445603292536846],[100.32901575350246,6.444901468449163],[100.32880945684208,6.444209423481323],[100.32856699374439,6.443529054524431],[100.32828902878386,6.442862226473305],[100.32797632384313,6.442210767114299],[100.32762973602473,6.441576462114905],[100.32725021530177,6.440961050128649],[100.32683880191415,6.440366218028807],[100.32639662351743,6.439793596284045],[100.32592489209176,6.439244754488568],[100.32542490062028,6.438721197059127],[100.32489801954482,6.438224359110685],[100.32434569300978,6.437755602521897],[100.32376943490381,6.437316212201524],[100.32317082471033,6.436907392565638],[100.32255150317826,6.43653026423556],[100.32191316782489,6.436185860965566],[100.32125756828302,6.435875126808543],[100.32058650150545,6.435598913527737],[100.31990180683955,6.435357978261466],[100.31920536098583,6.435152981447152],[100.31849907285397,6.434984485010627],[100.31778487833061,6.434852950825442],[100.31706473497336,6.434758739446475],[100.31634061664502,6.434702109121383],[100.31561450810365,6.434683215082529],[100.31488839956228,6.434702109121383],[100.31416428123397,6.434758739446475],[100.31344413787669,6.434852950825442],[100.31272994335335,6.434984485010627],[100.31202365522147,6.435152981447152],[100.31132720936775,6.435357978261466],[100.31064251470187,6.435598913527737],[100.3099714479243,6.435875126808543],[100.30931584838243,6.436185860965566],[100.30867751302905,6.43653026423556],[100.30805819149697,6.436907392565638],[100.3074595813035,6.437316212201524],[100.30688332319754,6.437755602521897],[100.30633099666248,6.438224359110685],[100.30580411558702,6.438721197059127],[100.30530412411554,6.439244754488568],[100.30483239268989,6.439793596284045],[100.30439021429315,6.440366218028807],[100.30397880090554,6.440961050128649],[100.30359928018257,6.441576462114905],[100.30325269236418,6.442210767114299],[100.30293998742346,6.442862226473305],[100.30266202246293,6.443529054524431],[100.30241955936522,6.444209423481323],[100.30221326270484,6.444901468449163],[100.3020436979266,6.445603292536846],[100.30191132979574,6.446312972056633],[100.30181652112414,6.447028561797311],[100.30175953177574,6.447748100356189],[100.30174051795444,6.448469615515364],[100.30175953177574,6.449191129647615],[100.30181652112414,6.449910665136952],[100.30191132979574,6.450626249799123],[100.3020436979266,6.451335922287061],[100.30221326270484,6.452037737466583],[100.30241955936522,6.452729771747594],[100.30266202246293,6.45341012835602],[100.30293998742346,6.454076942532384],[100.30325269236418,6.454728386642322],[100.30359928018257,6.455362675185424],[100.30397880090554,6.455978069688451],[100.30439021429315,6.456572883469684],[100.30483239268989,6.457145486261164],[100.30530412411554,6.457694308676352],[100.30580411558702,6.458217846510776],[100.30633099666248,6.458714664864242],[100.30688332319754,6.459183402072714],[100.3074595813035,6.459622773439818],[100.30805819149697,6.460031574757096],[100.30867751302905,6.460408685603945],[100.30931584838243,6.460753072417648],[100.3099714479243,6.461063791325603],[100.31064251470187,6.461339990731633],[100.31132720936775,6.461580913649464],[100.31202365522147,6.461785899776937],[100.31272994335335,6.4619543873053],[100.31344413787669,6.462085914458648],[100.31416428123397,6.462180120759096],[100.31488839956228,6.462236748014648],[100.31561450810365,6.462255641026563],[100.31634061664502,6.462236748014648],[100.31706473497336,6.462180120759096],[100.31778487833061,6.462085914458648],[100.31849907285397,6.4619543873053],[100.31920536098583,6.461785899776937],[100.31990180683955,6.461580913649464],[100.32058650150545,6.461339990731633],[100.32125756828302,6.461063791325603],[100.32191316782489,6.460753072417648],[100.32255150317826,6.460408685603945],[100.32317082471033,6.460031574757096],[100.32376943490381,6.459622773439818],[100.32434569300978,6.459183402072714],[100.32489801954482,6.458714664864242],[100.32542490062028,6.458217846510776],[100.32592489209176,6.457694308676352],[100.32639662351743,6.457145486261164],[100.32683880191415,6.456572883469684],[100.32725021530177,6.455978069688451],[100.32762973602473,6.455362675185424],[100.32797632384313,6.454728386642322],[100.32828902878386,6.454076942532384],[100.32856699374439,6.45341012835602],[100.32880945684208,6.452729771747594],[100.32901575350246,6.452037737466583],[100.32918531828071,6.451335922287061],[100.32931768641157,6.450626249799123],[100.32941249508316,6.449910665136952],[100.32946948443156,6.449191129647615],[100.32948849825287,6.448469615515364]],[[100.27479714983922,6.376060064099007],[100.2747781360179,6.37533844646138],[100.27472114666952,6.37461880571623],[100.27462633799792,6.373903114361384],[100.27449396986707,6.373193334077858],[100.27432440508882,6.372491410352736],[100.27411810842844,6.371799267146403],[100.27387564533073,6.371118801618787],[100.2735976803702,6.370451878928819],[100.27328497542949,6.369800327121635],[100.27293838761108,6.36916593211743],[100.27255886688813,6.368550432815672],[100.27214745350051,6.367955516328159],[100.27170527510377,6.367382813354053],[100.27123354367812,6.366833893709321],[100.27073355220664,6.366310262023229],[100.27020667113118,6.365813353613377],[100.26965434459613,6.365344530550665],[100.26907808649017,6.364905077925171],[100.26847947629669,6.364496200322876],[100.2678601547646,6.364119018523169],[100.26722181941123,6.363774566426063],[100.26656621986938,6.363463788217556],[100.2658951530918,6.363187535780955],[100.2652104584259,6.362946566361226],[100.26451401257219,6.362741540488868],[100.26380772444033,6.362573020168885],[100.26309352991697,6.362441467339873],[100.2623733865597,6.362347242607499],[100.26164926823138,6.362290604255781],[100.26092315969001,6.362271707538965],[100.26019705114864,6.362290604255781],[100.25947293282032,6.362347242607499],[100.25875278946305,6.362441467339873],[100.2580385949397,6.362573020168885],[100.25733230680783,6.362741540488868],[100.2566358609541,6.362946566361226],[100.25595116628821,6.363187535780955],[100.25528009951064,6.363463788217556],[100.25462449996878,6.363774566426063],[100.2539861646154,6.364119018523169],[100.25336684308333,6.364496200322876],[100.25276823288986,6.364905077925171],[100.25219197478388,6.365344530550665],[100.25163964824884,6.365813353613377],[100.25111276717337,6.366310262023229],[100.2506127757019,6.366833893709321],[100.25014104427625,6.367382813354053],[100.2496988658795,6.367955516328159],[100.24928745249188,6.368550432815672],[100.24890793176893,6.36916593211743],[100.24856134395054,6.369800327121635],[100.24824863900982,6.370451878928819],[100.24797067404928,6.371118801618787],[100.24772821095158,6.371799267146403],[100.2475219142912,6.372491410352736],[100.24735234951295,6.373193334077858],[100.24721998138209,6.373903114361384],[100.24712517271048,6.37461880571623],[100.2470681833621,6.37533844646138],[100.24704916954079,6.376060064099007],[100.2470681833621,6.376781680721058],[100.24712517271048,6.377501318430559],[100.24721998138209,6.378217004762953],[100.24735234951295,6.378926778092271],[100.2475219142912,6.379628693007614],[100.24772821095158,6.380320825645104],[100.24797067404928,6.381001278960611],[100.24824863900982,6.381668187929018],[100.24856134395054,6.382319724655511],[100.24890793176893,6.382954103385124],[100.24928745249188,6.383569585396712],[100.2496988658795,6.384164483767888],[100.25014104427625,6.384737167997993],[100.2506127757019,6.385286068476409],[100.25111276717337,6.385809680783878],[100.25163964824884,6.386306569815107],[100.25219197478388,6.386775373711504],[100.25276823288986,6.387214807592996],[100.25336684308333,6.387623667078967],[100.2539861646154,6.38800083158849],[100.25462449996878,6.388345267410992],[100.25528009951064,6.388656030538821],[100.25595116628821,6.388932269253861],[100.2566358609541,6.389173226461494],[100.25733230680783,6.38937824176501],[100.2580385949397,6.389546753275201],[100.25875278946305,6.389678299150005],[100.25947293282032,6.38977251885994],[100.26019705114864,6.389829154176009],[100.26092315969001,6.389848049877236],[100.26164926823138,6.389829154176009],[100.2623733865597,6.38977251885994],[100.26309352991697,6.389678299150005],[100.26380772444033,6.389546753275201],[100.26451401257219,6.38937824176501],[100.2652104584259,6.389173226461494],[100.2658951530918,6.388932269253861],[100.26656621986938,6.388656030538821],[100.26722181941123,6.388345267410992],[100.2678601547646,6.38800083158849],[100.26847947629669,6.387623667078967],[100.26907808649017,6.387214807592996],[100.26965434459613,6.386775373711504],[100.27020667113118,6.386306569815107],[100.27073355220664,6.385809680783878],[100.27123354367812,6.385286068476409],[100.27170527510377,6.384737167997993],[100.27214745350051,6.384164483767888],[100.27255886688813,6.383569585396712],[100.27293838761108,6.382954103385124],[100.27328497542949,6.382319724655511],[100.2735976803702,6.381668187929018],[100.27387564533073,6.381001278960611],[100.27411810842844,6.380320825645104],[100.27432440508882,6.379628693007614],[100.27449396986707,6.378926778092271],[100.27462633799792,6.378217004762953],[100.27472114666952,6.377501318430559],[100.2747781360179,6.376781680721058],[100.27479714983922,6.376060064099007]],[[100.20796848468049,6.310348948005737],[100.20794947085918,6.30962723836722],[100.20789248151078,6.308907505883614],[100.20779767283919,6.308191723304061],[100.20766530470833,6.30748185255939],[100.20749573993008,6.30677983938436],[100.2072894432697,6.306087607984172],[100.20704698017201,6.30540705576003],[100.20676901521148,6.304740048107994],[100.20645631027075,6.304088413305495],[100.20610972245234,6.30345393749959],[100.2057302017294,6.302838359810556],[100.20531878834177,6.302243367564304],[100.20487660994503,6.301670591666898],[100.20440487851938,6.301121602133409],[100.2039048870479,6.300597903783871],[100.20337800597244,6.300100932117759],[100.2028256794374,6.299632049378593],[100.20224942133143,6.299192540819191],[100.20165081113795,6.298783611178084],[100.20103148960587,6.29840638137653],[100.20039315425251,6.298061885445388],[100.19973755471064,6.297751067690132],[100.19906648793307,6.297474780101823],[100.19838179326717,6.29723378002123],[100.19768534741345,6.297028728062369],[100.19697905928159,6.296860186301313],[100.19626486475823,6.296728616735039],[100.19554472140096,6.296634380014812],[100.19482060307264,6.296577734457305],[100.19409449453127,6.296558835336358],[100.1933683859899,6.296577734457305],[100.19264426766158,6.296634380014812],[100.19192412430431,6.296728616735039],[100.19120992978097,6.296860186301313],[100.19050364164909,6.297028728062369],[100.18980719579537,6.29723378002123],[100.18912250112949,6.297474780101823],[100.18845143435192,6.297751067690132],[100.18779583481005,6.298061885445388],[100.18715749945667,6.29840638137653],[100.18653817792459,6.298783611178084],[100.18593956773113,6.299192540819191],[100.18536330962516,6.299632049378593],[100.1848109830901,6.300100932117759],[100.18428410201464,6.300597903783871],[100.18378411054316,6.301121602133409],[100.18331237911751,6.301670591666898],[100.18287020072077,6.302243367564304],[100.18245878733316,6.302838359810556],[100.18207926661019,6.30345393749959],[100.1817326787918,6.304088413305495],[100.18141997385108,6.304740048107994],[100.18114200889055,6.30540705576003],[100.18089954579284,6.306087607984172],[100.18069324913246,6.30677983938436],[100.18052368435423,6.30748185255939],[100.18039131622336,6.308191723304061],[100.18029650755174,6.308907505883614],[100.18023951820336,6.30962723836722],[100.18022050438205,6.310348948005737],[100.18023951820336,6.311070656638957],[100.18029650755174,6.31179038611769],[100.18039131622336,6.312506163725718],[100.18052368435423,6.313216027586677],[100.18069324913246,6.313918032041236],[100.18089954579284,6.314610252979728],[100.18114200889055,6.315290793115573],[100.18141997385108,6.315957787185154],[100.1817326787918,6.316609407059846],[100.18207926661019,6.317243866756139],[100.18245878733316,6.317859427330303],[100.18287020072077,6.318454401643862],[100.18331237911751,6.319027158987287],[100.18378411054316,6.31957612954878],[100.18428410201464,6.320099808716152],[100.1848109830901,6.320596761200095],[100.18536330962516,6.321065624967254],[100.18593956773113,6.321505114972673],[100.18653817792459,6.321914026681113],[100.18715749945667,6.322291239367771],[100.18779583481005,6.322635719189303],[100.18845143435192,6.322946522016752],[100.18912250112949,6.323222796022604],[100.18980719579537,6.323463784014901],[100.19050364164909,6.323668825512065],[100.19120992978097,6.323837358552652],[100.19192412430431,6.323968921235226],[100.19264426766158,6.324063152983928],[100.1933683859899,6.324119795536562],[100.19409449453127,6.324138693652197],[100.19482060307264,6.324119795536562],[100.19554472140096,6.324063152983928],[100.19626486475823,6.323968921235226],[100.19697905928159,6.323837358552652],[100.19768534741345,6.323668825512065],[100.19838179326717,6.323463784014901],[100.19906648793307,6.323222796022604],[100.19973755471064,6.322946522016752],[100.20039315425251,6.322635719189303],[100.20103148960587,6.322291239367771],[100.20165081113795,6.321914026681113],[100.20224942133143,6.321505114972673],[100.2028256794374,6.321065624967254],[100.20337800597244,6.320596761200095],[100.2039048870479,6.320099808716152],[100.20440487851938,6.31957612954878],[100.20487660994503,6.319027158987287],[100.20531878834177,6.318454401643862],[100.2057302017294,6.317859427330303],[100.20610972245234,6.317243866756139],[100.20645631027075,6.316609407059846],[100.20676901521148,6.315957787185154],[100.20704698017201,6.315290793115573],[100.2072894432697,6.314610252979728],[100.20749573993008,6.313918032041236],[100.20766530470833,6.313216027586677],[100.20779767283919,6.312506163725718],[100.20789248151078,6.31179038611769],[100.20794947085918,6.311070656638957],[100.20796848468049,6.310348948005737]]],"bbox":[100.12704830820624,6.296558835336358,100.32948849825287,6.668077413170766]}
