{"type":"Topology","objects":{"PLS_SE-03":{"type":"GeometryCollection","geometries":[{"type":"Polygon","arcs":[[0]],"properties":{"state":"Perlis","parlimen":"P.001 Perlis Utara","code_parlimen":"P.001","dun":"N.01 Kaki Bukit","code_dun":"N.01"}},{"type":"Polygon","arcs":[[1]],"properties":{"state":"Perlis","parlimen":"P.001 Perlis Utara","code_parlimen":"P.001","dun":"N.02 Paya","code_dun":"N.02"}},{"type":"Polygon","arcs":[[2]],"properties":{"state":"Perlis","parlimen":"P.001 Perlis Utara","code_parlimen":"P.001","dun":"N.03 Mata Ayer","code_dun":"N.03"}},{"type":"Polygon","arcs":[[3]],"properties":{"state":"Perlis","parlimen":"P.001 Perlis Utara","code_parlimen":"P.001","dun":"N.04 Bandar Kangar","code_dun":"N.04"}},{"type":"Polygon","arcs":[[4]],"properties":{"state":"Perlis","parlimen":"P.001 Perlis Utara","code_parlimen":"P.001","dun":"N.05 Sena","code_dun":"N.05"}},{"type":"Polygon","arcs":[[5]],"properties":{"state":"Perlis","parlimen":"P.001 Perlis Utara","code_parlimen":"P.001","dun":"N.06 Bintong","code_dun":"N.06"}},{"type":"Polygon","arcs":[[6]],"properties":{"state":"Perlis","parlimen":"P.002 Perlis Selatan","code_parlimen":"P.002","dun":"N.07 Kurong Anai","code_dun":"N.07"}},{"type":"Polygon","arcs":[[7]],"properties":{"state":"Perlis","parlimen":"P.002 Perlis Selatan","code_parlimen":"P.002","dun":"N.08 Arau","code_dun":"N.08"}},{"type":"Polygon","arcs":[[8]],"properties":{"state":"Perlis","parlimen":"P.002 Perlis Selatan","code_parlimen":"P.002","dun":"N.09 Hutan Aji","code_dun":"N.09"}},{"type":"Polygon","arcs":[[9]],"properties":{"state":"Perlis","parlimen":"P.002 Perlis Selatan","code_parlimen":"P.002","dun":"N.10 Kayang","code_dun":"N.10"}},{"type":"Polygon","arcs":[[10]],"properties":{"state":"Perlis","parlimen":"P.002 Perlis Selatan","code_parlimen":"P.002","dun":"N.11 Kuala Perlis","code_dun":"N.11"}},{"type":"Polygon","arcs":[[11]],"properties":{"state":"Perlis","parlimen":"P.002 Perlis Selatan","code_parlimen":"P.002","dun":"N.12 Sanglang","code_dun":"N.12"}}]}},"arcs":[[[100.24852599262545,6.621536577342059],[100.24850739326565,6.620831033877779],[100.24845164616586,6.620127423254797],[100.24835890412497,6.619427674033371],[100.24822942134246,6.618733704198099],[100.24806355272163,6.618047415900521],[100.2478617528969,6.61737069024515],[100.2476245749875,6.616705382133157],[100.24735266908162,6.616053315177714],[100.24704678045445,6.615416276705025],[100.24670774752543,6.614796012854813],[100.2463364995603,6.614194223793562],[100.2459340541239,6.613612559053784],[100.24550151429118,6.613052613011983],[100.24504006562378,6.612515920517755],[100.24455097292041,6.612003952686037],[100.24403557675018,6.611518112864062],[100.24349528977818,6.611059732783983],[100.24293159289341,6.610630068911812],[100.24234603114988,6.610230299002752],[100.24174020953163,6.609861518872097],[100.24111578855359,6.609524739391011],[100.24047447971024,6.609220883714908],[100.23981804078458,6.608950784752484],[100.23914827103007,6.608715182882102],[100.23846700623903,6.608514723921838],[100.23777611371092,6.608349957358798],[100.23707748713412,6.60822133484256],[100.23637304139552,6.608129208946797],[100.23566470733195,6.608073832202638],[100.2349544264378,6.608055356406243],[100.23424414554366,6.608073832202638],[100.23353581148008,6.608129208946797],[100.23283136574149,6.60822133484256],[100.23213273916468,6.608349957358798],[100.23144184663657,6.608514723921838],[100.23076058184553,6.608715182882102],[100.230090812091,6.608950784752484],[100.22943437316536,6.609220883714908],[100.22879306432202,6.609524739391011],[100.22816864334398,6.609861518872097],[100.22756282172571,6.610230299002752],[100.22697725998218,6.610630068911812],[100.22641356309742,6.611059732783983],[100.22587327612541,6.611518112864062],[100.2253578799552,6.612003952686037],[100.22486878725184,6.612515920517755],[100.22440733858441,6.613052613011983],[100.22397479875171,6.613612559053784],[100.2235723533153,6.614194223793562],[100.22320110535016,6.614796012854813],[100.22286207242115,6.615416276705025],[100.22255618379398,6.616053315177714],[100.22228427788811,6.616705382133157],[100.22204709997871,6.61737069024515],[100.22184530015396,6.618047415900521],[100.22167943153315,6.618733704198099],[100.22154994875063,6.619427674033371],[100.22145720670974,6.620127423254797],[100.22140145960994,6.620831033877779],[100.22138286025016,6.621536577342059],[100.22140145960994,6.622242119797786],[100.22145720670974,6.622945727406162],[100.22154994875063,6.62364547163993],[100.22167943153315,6.624339434569163],[100.22184530015396,6.625025714117989],[100.22204709997871,6.62570242927772],[100.22228427788811,6.626367725262208],[100.22255618379398,6.627019778591124],[100.22286207242115,6.627656802087598],[100.22320110535016,6.628277049775962],[100.2235723533153,6.628878821666797],[100.22397479875171,6.629460468415729],[100.22440733858441,6.630020395843373],[100.22486878725184,6.630557069304054],[100.2253578799552,6.631069017891381],[100.22587327612541,6.631554838468964],[100.22641356309742,6.632013199515498],[100.22697725998218,6.632442844773498],[100.22756282172571,6.632842596691725],[100.22816864334398,6.633211359651952],[100.22879306432202,6.633548122971201],[100.22943437316536,6.633851963671078],[100.230090812091,6.634122049006987],[100.23076058184553,6.634357638749864],[100.23144184663657,6.634558087214488],[100.23213273916468,6.634722845028764],[100.23283136574149,6.634851460638974],[100.23353581148008,6.634943581547081],[100.23424414554366,6.634998955276633],[100.2349544264378,6.635017430064463],[100.23566470733195,6.634998955276633],[100.23637304139552,6.634943581547081],[100.23707748713412,6.634851460638974],[100.23777611371092,6.634722845028764],[100.23846700623903,6.634558087214488],[100.23914827103007,6.634357638749864],[100.23981804078458,6.634122049006987],[100.24047447971024,6.633851963671078],[100.24111578855359,6.633548122971201],[100.24174020953163,6.633211359651952],[100.24234603114988,6.632842596691725],[100.24293159289341,6.632442844773498],[100.24349528977818,6.632013199515498],[100.24403557675018,6.631554838468964],[100.24455097292041,6.631069017891381],[100.24504006562378,6.630557069304054],[100.24550151429118,6.630020395843373],[100.2459340541239,6.629460468415729],[100.2463364995603,6.628878821666797],[100.24670774752543,6.628277049775962],[100.24704678045445,6.627656802087598],[100.24735266908162,6.627019778591124],[100.2476245749875,6.626367725262208],[100.2478617528969,6.62570242927772],[100.24806355272163,6.625025714117989],[100.24822942134246,6.624339434569163],[100.24835890412497,6.62364547163993],[100.24845164616586,6.622945727406162],[100.24850739326565,6.622242119797786],[100.24852599262545,6.621536577342059]],[[100.24066047505498,6.487012344953274],[100.24064187569518,6.48630661114492],[100.24058612859537,6.485602810719628],[100.24049338655448,6.484902872757688],[100.24036390377198,6.484208715760551],[100.24019803515115,6.483522242392222],[100.23999623532642,6.48284533426376],[100.23975905741703,6.482179846775619],[100.23948715151114,6.481527604031619],[100.23918126288397,6.480890393838696],[100.23884222995495,6.480269962805998],[100.2384709819898,6.479668011556941],[100.23806853655341,6.479086190067152],[100.2376359967207,6.4785260931413],[100.23717454805329,6.477989256041043],[100.23668545534991,6.477477150276084],[100.2361700591797,6.476991179570162],[100.23562977220769,6.476532676012591],[100.23506607532293,6.476102896406257],[100.2344805135794,6.475703018822062],[100.23387469196115,6.475334139368969],[100.23325027098309,6.474997269188935],[100.23260896213975,6.474693331684666],[100.2319525232141,6.474423159987931],[100.2312827534596,6.474187494675316],[100.23060148866854,6.473986981737808],[100.22991059614043,6.47382217080958],[100.22921196956364,6.473693513661109],[100.22850752382504,6.473601362960416],[100.22779918976146,6.473545971306224],[100.22708890886732,6.473527490535301],[100.22637862797318,6.473545971306224],[100.22567029390959,6.473601362960416],[100.224965848171,6.473693513661109],[100.22426722159419,6.47382217080958],[100.22357632906608,6.473986981737808],[100.22289506427505,6.474187494675316],[100.22222529452053,6.474423159987931],[100.22156885559487,6.474693331684666],[100.22092754675154,6.474997269188935],[100.22030312577348,6.475334139368969],[100.21969730415523,6.475703018822062],[100.2191117424117,6.476102896406257],[100.21854804552694,6.476532676012591],[100.21800775855493,6.476991179570162],[100.2174923623847,6.477477150276084],[100.21700326968136,6.477989256041043],[100.21654182101393,6.4785260931413],[100.21610928118122,6.479086190067152],[100.21570683574481,6.479668011556941],[100.21533558777968,6.480269962805998],[100.21499655485066,6.480890393838696],[100.21469066622349,6.481527604031619],[100.21441876031761,6.482179846775619],[100.21418158240822,6.48284533426376],[100.21397978258348,6.483522242392222],[100.21381391396267,6.484208715760551],[100.21368443118016,6.484902872757688],[100.21359168913926,6.485602810719628],[100.21353594203946,6.48630661114492],[100.21351734267967,6.487012344953274],[100.21353594203946,6.487718077773188],[100.21359168913926,6.488421875244051],[100.21368443118016,6.48912180831791],[100.21381391396267,6.489815958546878],[100.21397978258348,6.490502423341119],[100.21418158240822,6.491179321183489],[100.21441876031761,6.491844796786228],[100.21469066622349,6.49249702617574],[100.21499655485066,6.493134221691434],[100.21533558777968,6.493754636884931],[100.21570683574481,6.494356571306373],[100.21610928118122,6.49493837516449],[100.21654182101393,6.495498453847775],[100.21700326968136,6.496035272294486],[100.2174923623847,6.496547359199251],[100.21800775855493,6.497033311044967],[100.21854804552694,6.497491795948992],[100.2191117424117,6.497921557312758],[100.21969730415523,6.498321417265294],[100.22030312577348,6.498690279890772],[100.22092754675154,6.499027134231606],[100.22156885559487,6.499331057058621],[100.22222529452053,6.499601215400893],[100.22289506427505,6.499836868828106],[100.22357632906608,6.500037371479522],[100.22426722159419,6.500202173833649],[100.224965848171,6.500330824213963],[100.22567029390959,6.500422970026576],[100.22637862797318,6.500478358726338],[100.22708890886732,6.500496838508833],[100.22779918976146,6.500478358726338],[100.22850752382504,6.500422970026576],[100.22921196956364,6.500330824213963],[100.22991059614043,6.500202173833649],[100.23060148866854,6.500037371479522],[100.2312827534596,6.499836868828106],[100.2319525232141,6.499601215400893],[100.23260896213975,6.499331057058621],[100.23325027098309,6.499027134231606],[100.23387469196115,6.498690279890772],[100.2344805135794,6.498321417265294],[100.23506607532293,6.497921557312758],[100.23562977220769,6.497491795948992],[100.2361700591797,6.497033311044967],[100.23668545534991,6.496547359199251],[100.23717454805329,6.496035272294486],[100.2376359967207,6.495498453847775],[100.23806853655341,6.49493837516449],[100.2384709819898,6.494356571306373],[100.23884222995495,6.493754636884931],[100.23918126288397,6.493134221691434],[100.23948715151114,6.49249702617574],[100.23975905741703,6.491844796786228],[100.23999623532642,6.491179321183489],[100.24019803515115,6.490502423341119],[100.24036390377198,6.489815958546878],[100.24049338655448,6.48912180831791],[100.24058612859537,6.488421875244051],[100.24064187569518,6.487718077773188],[100.24066047505498,6.487012344953274]],[[100.30259969065723,6.537175213681979],[100.30258109129745,6.536469550396382],[100.30252534419765,6.535765820293077],[100.30243260215676,6.535065952259678],[100.30230311937423,6.534371864606152],[100.30213725075343,6.533685459806599],[100.30193545092868,6.533008619284453],[100.30169827301928,6.53234319825516],[100.30142636711341,6.531691020640777],[100.30112047848624,6.531053874070093],[100.30078144555723,6.530433504978379],[100.30041019759209,6.529831613819733],[100.30000775215568,6.529249850405625],[100.29957521232298,6.528689809382093],[100.29911376365555,6.528153025858114],[100.2986246709522,6.527640971197176],[100.29810927478198,6.527155048983479],[100.29756898780997,6.52669659117404],[100.29700529092521,6.526266854446939],[100.29641972918166,6.525867016756098],[100.29581390756341,6.525498174101704],[100.29518948658537,6.525161337525375],[100.29454817774203,6.524857430338192],[100.29389173881637,6.524587285589291],[100.29322196906186,6.524351643781828],[100.29254070427082,6.524151150842707],[100.29184981174271,6.523986356351636],[100.2911511851659,6.523857712034286],[100.29044673942731,6.523765570523742],[100.28973840536374,6.523710184393652],[100.2890281244696,6.523691705465784],[100.28831784357544,6.523710184393652],[100.28760950951187,6.523765570523742],[100.28690506377328,6.523857712034286],[100.28620643719647,6.523986356351636],[100.28551554466836,6.524151150842707],[100.28483427987732,6.524351643781828],[100.2841645101228,6.524587285589291],[100.28350807119715,6.524857430338192],[100.2828667623538,6.525161337525375],[100.28224234137576,6.525498174101704],[100.28163651975751,6.525867016756098],[100.28105095801398,6.526266854446939],[100.28048726112921,6.52669659117404],[100.27994697415721,6.527155048983479],[100.27943157798698,6.527640971197176],[100.27894248528361,6.528153025858114],[100.27848103661621,6.528689809382093],[100.2780484967835,6.529249850405625],[100.27764605134709,6.529831613819733],[100.27727480338194,6.530433504978379],[100.27693577045294,6.531053874070093],[100.27662988182577,6.531691020640777],[100.27635797591988,6.53234319825516],[100.2761207980105,6.533008619284453],[100.27591899818576,6.533685459806599],[100.27575312956493,6.534371864606152],[100.27562364678242,6.535065952259678],[100.27553090474153,6.535765820293077],[100.27547515764172,6.536469550396382],[100.27545655828193,6.537175213681979],[100.27547515764172,6.53788087597163],[100.27553090474153,6.53858460309805],[100.27562364678242,6.539284466206221],[100.27575312956493,6.539978547040167],[100.27591899818576,6.540664943200455],[100.2761207980105,6.541341773358344],[100.27635797591988,6.54200718241192],[100.27662988182577,6.542659346570368],[100.27693577045294,6.543296478352286],[100.27727480338194,6.543916831484448],[100.27764605134709,6.544518705687608],[100.2780484967835,6.545100451336066],[100.27848103661621,6.545660473978423],[100.27894248528361,6.546197238707092],[100.27943157798698,6.546709274364534],[100.27994697415721,6.547195177574721],[100.28048726112921,6.547653616588864],[100.28105095801398,6.548083334934788],[100.28163651975751,6.54848315485998],[100.28224234137576,6.548851980558887],[100.2828667623538,6.549188801175664],[100.28350807119715,6.549492693574082],[100.2841645101228,6.549762824867022],[100.28483427987732,6.549998454698781],[100.28551554466836,6.550198937273645],[100.28620643719647,6.550363723125464],[100.28690506377328,6.550492360623222],[100.28760950951187,6.55058449720855],[100.28831784357544,6.550639880361754],[100.2890281244696,6.550658358293689],[100.28973840536374,6.550639880361754],[100.29044673942731,6.55058449720855],[100.2911511851659,6.550492360623222],[100.29184981174271,6.550363723125464],[100.29254070427082,6.550198937273645],[100.29322196906186,6.549998454698781],[100.29389173881637,6.549762824867022],[100.29454817774203,6.549492693574082],[100.29518948658537,6.549188801175664],[100.29581390756341,6.548851980558887],[100.29641972918166,6.54848315485998],[100.29700529092521,6.548083334934788],[100.29756898780997,6.547653616588864],[100.29810927478198,6.547195177574721],[100.2986246709522,6.546709274364534],[100.29911376365555,6.546197238707092],[100.29957521232298,6.545660473978423],[100.30000775215568,6.545100451336066],[100.30041019759209,6.544518705687608],[100.30078144555723,6.543916831484448],[100.30112047848624,6.543296478352286],[100.30142636711341,6.542659346570368],[100.30169827301928,6.54200718241192],[100.30193545092868,6.541341773358344],[100.30213725075343,6.540664943200455],[100.30230311937423,6.539978547040167],[100.30243260215676,6.539284466206221],[100.30252534419765,6.53858460309805],[100.30258109129745,6.53788087597163],[100.30259969065723,6.537175213681979]],[[100.2063365544167,6.440217745015265],[100.20631795505692,6.439511945907223],[100.2062622079571,6.43880808036819],[100.2061694659162,6.438108077656862],[100.2060399831337,6.43741385645201],[100.20587411451288,6.436727319593436],[100.20567231468814,6.436050348865971],[100.20543513677875,6.435384799841361],[100.20516323087286,6.434732496791741],[100.20485734224569,6.434095227688928],[100.20451830931668,6.433474739303146],[100.20414706135153,6.432872732414521],[100.20374461591514,6.432290857150725],[100.20331207608243,6.431730708463278],[100.20285062741502,6.431193821755184],[100.20236153471164,6.430681668671601],[100.20184613854143,6.430195653065368],[100.20130585156942,6.429737107148356],[100.20074215468466,6.429307287839018],[100.20015659294113,6.428907373316522],[100.19955077132288,6.428538459790567],[100.19892635034482,6.428201558496006],[100.19828504150148,6.42789759292039],[100.19762860257583,6.427627396271988],[100.19695883282132,6.427391709195384],[100.19627756803027,6.427191177740878],[100.19558667550216,6.427026351593097],[100.19488804892536,6.42689768256397],[100.19418360318677,6.426805523353906],[100.19347526912318,6.426750126584797],[100.19276498822904,6.426731644107367],[100.1920547073349,6.426750126584797],[100.19134637327132,6.426805523353906],[100.19064192753272,6.42689768256397],[100.18994330095592,6.427026351593097],[100.1892524084278,6.427191177740878],[100.18857114363678,6.427391709195384],[100.18790137388226,6.427627396271988],[100.1872449349566,6.42789759292039],[100.18660362611327,6.428201558496006],[100.18597920513521,6.428538459790567],[100.18537338351696,6.428907373316522],[100.18478782177343,6.429307287839018],[100.18422412488866,6.429737107148356],[100.18368383791666,6.430195653065368],[100.18316844174643,6.430681668671601],[100.18267934904307,6.431193821755184],[100.18221790037566,6.431730708463278],[100.18178536054295,6.432290857150725],[100.18138291510654,6.432872732414521],[100.1810116671414,6.433474739303146],[100.18067263421239,6.434095227688928],[100.18036674558522,6.434732496791741],[100.18009483967934,6.435384799841361],[100.17985766176994,6.436050348865971],[100.17965586194521,6.436727319593436],[100.1794899933244,6.43741385645201],[100.17936051054188,6.438108077656862],[100.17926776850099,6.43880808036819],[100.17921202140118,6.439511945907223],[100.1791934220414,6.440217745015265],[100.17921202140118,6.440923543141915],[100.17926776850099,6.441627405747459],[100.17936051054188,6.442327403605375],[100.1794899933244,6.443021618090059],[100.17965586194521,6.443708146435332],[100.17985766176994,6.444385106949642],[100.18009483967934,6.445050644173134],[100.18036674558522,6.445702933962982],[100.18067263421239,6.446340188492634],[100.1810116671414,6.44696066115154],[100.18138291510654,6.447562651331859],[100.18178536054295,6.448144509089031],[100.18221790037566,6.448704639663281],[100.18267934904307,6.449241507850089],[100.18316844174643,6.449753642207216],[100.18368383791666,6.450239639086978],[100.18422412488866,6.450698166482717],[100.18478782177343,6.451127967678873],[100.18537338351696,6.45152786469473],[100.18597920513521,6.451896761512406],[100.18660362611327,6.452233647080065],[100.1872449349566,6.452537598082519],[100.18790137388226,6.452807781471151],[100.18857114363678,6.453043456746649],[100.1892524084278,6.453243977988],[100.18994330095592,6.453408795622479],[100.19064192753272,6.453537457931438],[100.19134637327132,6.453629612288077],[100.1920547073349,6.453685006123697],[100.19276498822904,6.453703487619736],[100.19347526912318,6.453685006123697],[100.19418360318677,6.453629612288077],[100.19488804892536,6.453537457931438],[100.19558667550216,6.453408795622479],[100.19627756803027,6.453243977988],[100.19695883282132,6.453043456746649],[100.19762860257583,6.452807781471151],[100.19828504150148,6.452537598082519],[100.19892635034482,6.452233647080065],[100.19955077132288,6.451896761512406],[100.20015659294113,6.45152786469473],[100.20074215468466,6.451127967678873],[100.20130585156942,6.450698166482717],[100.20184613854143,6.450239639086978],[100.20236153471164,6.449753642207216],[100.20285062741502,6.449241507850089],[100.20331207608243,6.448704639663281],[100.20374461591514,6.448144509089031],[100.20414706135153,6.447562651331859],[100.20451830931668,6.44696066115154],[100.20485734224569,6.446340188492634],[100.20516323087286,6.445702933962982],[100.20543513677875,6.445050644173134],[100.20567231468814,6.444385106949642],[100.20587411451288,6.443708146435332],[100.2060399831337,6.443021618090059],[100.2061694659162,6.442327403605375],[100.2062622079571,6.441627405747459],[100.20631795505692,6.440923543141915],[100.2063365544167,6.440217745015265]],[[100.24673751790144,6.437779709868423],[100.24671891854165,6.437073907371104],[100.24666317144182,6.436370038452465],[100.24657042940095,6.435670032380435],[100.24644094661843,6.434975807843012],[100.24627507799762,6.434289267689089],[100.24607327817289,6.433612293712548],[100.24583610026349,6.432946741494],[100.2455641943576,6.432294435314345],[100.24525830573043,6.431657163153938],[100.24491927280143,6.431036671791347],[100.24454802483628,6.430434662014868],[100.24414557939988,6.429852783960033],[100.24371303956717,6.429292632586023],[100.24325159089975,6.42875574330313],[100.24276249819638,6.428243587763572],[100.24224710202617,6.427757569826897],[100.24170681505416,6.427299021711295],[100.2411431181694,6.426869200341263],[100.24055755642587,6.426469283901555],[100.23995173480762,6.426100368607121],[100.23932731382956,6.425763465697639],[100.23868600498622,6.425459498665037],[100.23802956606058,6.425189300721564],[100.23735979630605,6.424953612515355],[100.23667853151501,6.424753080099761],[100.2359876389869,6.424588253162045],[100.2352890124101,6.424459583516285],[100.23458456667151,6.424367423864569],[100.23387623260793,6.424312026829973],[100.23316595171379,6.42429354426397],[100.23245567081965,6.424312026829973],[100.23174733675606,6.424367423864569],[100.23104289101747,6.424459583516285],[100.23034426444066,6.424588253162045],[100.22965337191255,6.424753080099761],[100.2289721071215,6.424953612515355],[100.228302337367,6.425189300721564],[100.22764589844134,6.425459498665037],[100.22700458959801,6.425763465697639],[100.22638016861995,6.426100368607121],[100.2257743470017,6.426469283901555],[100.22518878525817,6.426869200341263],[100.22462508837341,6.427299021711295],[100.2240848014014,6.427757569826897],[100.22356940523117,6.428243587763572],[100.22308031252781,6.42875574330313],[100.2226188638604,6.429292632586023],[100.22218632402769,6.429852783960033],[100.22178387859128,6.430434662014868],[100.22141263062615,6.431036671791347],[100.22107359769711,6.431657163153938],[100.22076770906996,6.432294435314345],[100.22049580316407,6.432946741494],[100.22025862525469,6.433612293712548],[100.22005682542995,6.434289267689089],[100.21989095680912,6.434975807843012],[100.21976147402663,6.435670032380435],[100.21966873198572,6.436370038452465],[100.21961298488591,6.437073907371104],[100.21959438552612,6.437779709868423],[100.21961298488591,6.438485511384691],[100.21966873198572,6.439189377370936],[100.21976147402663,6.43988937859136],[100.21989095680912,6.440583596411109],[100.22005682542995,6.441270128054898],[100.22025862525469,6.441947091822088],[100.22049580316407,6.44261263224392],[100.22076770906996,6.44326492516874],[100.22107359769711,6.443902182761405],[100.22141263062615,6.44452265840296],[100.22178387859128,6.445124651477367],[100.22218632402769,6.445706512032078],[100.2226188638604,6.446266645299635],[100.22308031252781,6.446803516068137],[100.22356940523117,6.447315652888222],[100.2240848014014,6.447801652105412],[100.22462508837341,6.448260181706612],[100.22518878525817,6.448689984970204],[100.2257743470017,6.449089883909788],[100.22638016861995,6.449458782502148],[100.22700458959801,6.449795669690594],[100.22764589844134,6.450099622155454],[100.228302337367,6.450369806844093],[100.2289721071215,6.450605483253586],[100.22965337191255,6.450806005459829],[100.23034426444066,6.450970823887411],[100.23104289101747,6.451099486815509],[100.23174733675606,6.451191641615619],[100.23245567081965,6.451247035717808],[100.23316595171379,6.451265517302774],[100.23387623260793,6.451247035717808],[100.23458456667151,6.451191641615619],[100.2352890124101,6.451099486815509],[100.2359876389869,6.450970823887411],[100.23667853151501,6.450806005459829],[100.23735979630605,6.450605483253586],[100.23802956606058,6.450369806844093],[100.23868600498622,6.450099622155454],[100.23932731382956,6.449795669690594],[100.23995173480762,6.449458782502148],[100.24055755642587,6.449089883909788],[100.2411431181694,6.448689984970204],[100.24170681505416,6.448260181706612],[100.24224710202617,6.447801652105412],[100.24276249819638,6.447315652888222],[100.24325159089975,6.446803516068137],[100.24371303956717,6.446266645299635],[100.24414557939988,6.445706512032078],[100.24454802483628,6.445124651477367],[100.24491927280143,6.44452265840296],[100.24525830573043,6.443902182761405],[100.2455641943576,6.44326492516874],[100.24583610026349,6.44261263224392],[100.24607327817289,6.441947091822088],[100.24627507799762,6.441270128054898],[100.24644094661843,6.440583596411109],[100.24657042940095,6.43988937859136],[100.24666317144182,6.439189377370936],[100.24671891854165,6.438485511384691],[100.24673751790144,6.437779709868423]],[[100.18588172104721,6.49523024883274],[100.18586312168743,6.494524526540691],[100.18580737458763,6.493820737598918],[100.18571463254673,6.493120811056239],[100.18558514976422,6.492426665382844],[100.18541928114341,6.491740203211708],[100.18521748131866,6.491063306123269],[100.18498030340926,6.490397829487779],[100.18470839750339,6.489745597379363],[100.18440250887622,6.489108397575862],[100.18406347594721,6.488487976658041],[100.18369222798206,6.487886035221656],[100.18328978254566,6.48730422321553],[100.18285724271296,6.486744135418443],[100.18239579404553,6.486207307067103],[100.18190670134217,6.485695209647347],[100.18139130517196,6.485209246860116],[100.18085101819995,6.484750750773133],[100.18028732131519,6.484320978168918],[100.17970175957166,6.483921107099224],[100.1790959379534,6.483552233655293],[100.17847151697535,6.483215368962682],[100.17783020813201,6.482911436409137],[100.17717376920636,6.482641269112929],[100.17650399945184,6.482405607638658],[100.1758227346608,6.482205097966842],[100.17513184213269,6.482040289722773],[100.17443321555588,6.481911634669588],[100.17372876981729,6.481819485469633],[100.17302043575371,6.481764094717524],[100.17231015485957,6.481745614247557],[100.17159987396542,6.481764094717524],[100.17089153990185,6.481819485469633],[100.17018709416325,6.481911634669588],[100.16948846758645,6.482040289722773],[100.16879757505833,6.482205097966842],[100.1681163102673,6.482405607638658],[100.16744654051278,6.482641269112929],[100.16679010158713,6.482911436409137],[100.16614879274378,6.483215368962682],[100.16552437176574,6.483552233655293],[100.16491855014749,6.483921107099224],[100.16433298840396,6.484320978168918],[100.16376929151919,6.484750750773133],[100.16322900454719,6.485209246860116],[100.16271360837696,6.485695209647347],[100.16222451567359,6.486207307067103],[100.16176306700619,6.486744135418443],[100.16133052717348,6.48730422321553],[100.16092808173707,6.487886035221656],[100.16055683377193,6.488487976658041],[100.16021780084291,6.489108397575862],[100.15991191221575,6.489745597379363],[100.15964000630986,6.490397829487779],[100.15940282840047,6.491063306123269],[100.15920102857574,6.491740203211708],[100.15903515995491,6.492426665382844],[100.1589056771724,6.493120811056239],[100.15881293513151,6.493820737598918],[100.15875718803171,6.494524526540691],[100.15873858867191,6.49523024883274],[100.15875718803171,6.49593597013514],[100.15881293513151,6.496639756118807],[100.1589056771724,6.497339677767325],[100.15903515995491,6.498033816664129],[100.15920102857574,6.49872027025049],[100.15940282840047,6.499397157040012],[100.15964000630986,6.500062621775317],[100.15991191221575,6.50071484051263],[100.16021780084291,6.50135202562062],[100.16055683377193,6.501972430679522],[100.16092808173707,6.50257435526735],[100.16133052717348,6.503156149619833],[100.16176306700619,6.503716219151657],[100.16222451567359,6.50425302882622],[100.16271360837696,6.504765107362284],[100.16322900454719,6.505251051265837],[100.16376929151919,6.505709528676043],[100.16433298840396,6.506139283014995],[100.16491855014749,6.506539136431058],[100.16552437176574,6.50690799302642],[100.16614879274378,6.507244841860123],[100.16679010158713,6.507548759718144],[100.16744654051278,6.507818913643263],[100.1681163102673,6.508054563217335],[100.16879757505833,6.508255062590248],[100.16948846758645,6.508419862249542],[100.17018709416325,6.508548510526135],[100.17089153990185,6.508640654831929],[100.17159987396542,6.508696042625933],[100.17231015485957,6.508714522106237],[100.17302043575371,6.508696042625933],[100.17372876981729,6.508640654831929],[100.17443321555588,6.508548510526135],[100.17513184213269,6.508419862249542],[100.1758227346608,6.508255062590248],[100.17650399945184,6.508054563217335],[100.17717376920636,6.507818913643263],[100.17783020813201,6.507548759718144],[100.17847151697535,6.507244841860123],[100.1790959379534,6.50690799302642],[100.17970175957166,6.506539136431058],[100.18028732131519,6.506139283014995],[100.18085101819995,6.505709528676043],[100.18139130517196,6.505251051265837],[100.18190670134217,6.504765107362284],[100.18239579404553,6.50425302882622],[100.18285724271296,6.503716219151657],[100.18328978254566,6.503156149619833],[100.18369222798206,6.50257435526735],[100.18406347594721,6.501972430679522],[100.18440250887622,6.50135202562062],[100.18470839750339,6.50071484051263],[100.18498030340926,6.500062621775317],[100.18521748131866,6.499397157040012],[100.18541928114341,6.49872027025049],[100.18558514976422,6.498033816664129],[100.18571463254673,6.497339677767325],[100.18580737458763,6.496639756118807],[100.18586312168743,6.49593597013514],[100.18588172104721,6.49523024883274]],[[100.33816778751999,6.474109858770392],[100.3381491881602,6.473404106910215],[100.3380934410604,6.472700288484509],[100.33800069901949,6.472000332622853],[100.33787121623699,6.471306157875754],[100.33770534761618,6.470619666955787],[100.33750354779143,6.469942741522067],[100.33726636988204,6.469277237022386],[100.33699446397617,6.468624977607127],[100.336688575349,6.467987751128785],[100.33634954241998,6.467367304241022],[100.33597829445485,6.466765337610586],[100.33557584901844,6.466183501255151],[100.33514330918572,6.465623390019983],[100.3346818605183,6.465086539205798],[100.33419276781495,6.464574420359752],[100.33367737164473,6.464088437241283],[100.33313708467271,6.463629921973571],[100.33257338778795,6.463200131391462],[100.33198782604443,6.462800243595778],[100.33138200442616,6.462431354723345],[100.33075758344812,6.462094475941793],[100.33011627460478,6.461790530677275],[100.32945983567912,6.46152035208272],[100.32879006592461,6.461284680753513],[100.32810880113358,6.46108416269703],[100.32741790860547,6.460919347561398],[100.32671928202866,6.460790687128546],[100.32601483629007,6.460698534075465],[100.32530650222647,6.460643141007262],[100.32459622133234,6.460624659764586],[100.3238859404382,6.460643141007262],[100.32317760637461,6.460698534075465],[100.32247316063601,6.460790687128546],[100.32177453405922,6.460919347561398],[100.3210836415311,6.46108416269703],[100.32040237674006,6.461284680753513],[100.31973260698555,6.46152035208272],[100.31907616805991,6.461790530677275],[100.31843485921655,6.462094475941793],[100.31781043823851,6.462431354723345],[100.31720461662026,6.462800243595778],[100.31661905487672,6.463200131391462],[100.31605535799197,6.463629921973571],[100.31551507101996,6.464088437241283],[100.31499967484974,6.464574420359752],[100.31451058214637,6.465086539205798],[100.31404913347895,6.465623390019983],[100.31361659364623,6.466183501255151],[100.31321414820984,6.466765337610586],[100.31284290024469,6.467367304241022],[100.31250386731568,6.467987751128785],[100.31219797868852,6.468624977607127],[100.31192607278263,6.469277237022386],[100.31168889487324,6.469942741522067],[100.31148709504849,6.470619666955787],[100.31132122642768,6.471306157875754],[100.31119174364518,6.472000332622853],[100.31109900160429,6.472700288484509],[100.31104325450447,6.473404106910215],[100.31102465514468,6.474109858770392],[100.31104325450447,6.474815609644089],[100.31109900160429,6.47551942512114],[100.31119174364518,6.476219376104283],[100.31132122642768,6.476913544096445],[100.31148709504849,6.477600026459077],[100.31168889487324,6.478276941626807],[100.31192607278263,6.478942434264317],[100.31219797868852,6.479594680351207],[100.31250386731568,6.480231892181021],[100.31284290024469,6.480852323260536],[100.31321414820984,6.481454273096257],[100.31361659364623,6.482036091854484],[100.31404913347895,6.482596184882757],[100.31451058214637,6.483133017079871],[100.31499967484974,6.48364511710258],[100.31551507101996,6.484131081397725],[100.31605535799197,6.48458957804834],[100.31661905487672,6.485019350423556],[100.31720461662026,6.485419220622044],[100.31781043823851,6.485788092699762],[100.31843485921655,6.48612495567308],[100.31907616805991,6.486428886289043],[100.31973260698555,6.486699051555231],[100.32040237674006,6.486934711022278],[100.3210836415311,6.487135218812797],[100.32177453405922,6.487300025391082],[100.32247316063601,6.487428679068995],[100.32317760637461,6.487520827243564],[100.3238859404382,6.487576217363101],[100.32459622133234,6.487594697619295],[100.32530650222647,6.487576217363101],[100.32601483629007,6.487520827243564],[100.32671928202866,6.487428679068995],[100.32741790860547,6.487300025391082],[100.32810880113358,6.487135218812797],[100.32879006592461,6.486934711022278],[100.32945983567912,6.486699051555231],[100.33011627460478,6.486428886289043],[100.33075758344812,6.48612495567308],[100.33138200442616,6.485788092699762],[100.33198782604443,6.485419220622044],[100.33257338778795,6.485019350423556],[100.33313708467271,6.48458957804834],[100.33367737164473,6.484131081397725],[100.33419276781495,6.48364511710258],[100.3346818605183,6.483133017079871],[100.33514330918572,6.482596184882757],[100.33557584901844,6.482036091854484],[100.33597829445485,6.481454273096257],[100.33634954241998,6.480852323260536],[100.336688575349,6.480231892181021],[100.33699446397617,6.479594680351207],[100.33726636988204,6.478942434264317],[100.33750354779143,6.478276941626807],[100.33770534761618,6.477600026459077],[100.33787121623699,6.476913544096445],[100.33800069901949,6.476219376104283],[100.3380934410604,6.47551942512114],[100.3381491881602,6.474815609644089],[100.33816778751999,6.474109858770392]],[[100.27876546499262,6.414428114750938],[100.27874686563283,6.41372227985588],[100.27869111853302,6.413018378631786],[100.27859837649211,6.412318340435073],[100.27846889370961,6.411624084041735],[100.2783030250888,6.410937512387892],[100.27810122526405,6.410260507353641],[100.27786404735467,6.409594924604554],[100.27759214144879,6.408942588505028],[100.27728625282163,6.40830528711727],[100.2769472198926,6.407684767299731],[100.27657597192747,6.407082729918442],[100.27617352649106,6.40650082518439],[100.27574098665835,6.405940648129602],[100.27527953799093,6.405403734234521],[100.27479044528758,6.404891555218513],[100.27427504911735,6.404405515005233],[100.27373476214534,6.403946945873644],[100.27317106526057,6.403517104805571],[100.27258550351705,6.403117170039494],[100.27197968189878,6.402748237840362],[100.27135526092074,6.402411319493906],[100.2707139520774,6.402107338534176],[100.27005751315174,6.401837128211335],[100.26938774339723,6.401601429207283],[100.2687064786062,6.401400887604772],[100.26801558607809,6.401236053116139],[100.26731695950129,6.401107377575983],[100.2666125137627,6.401015213702489],[100.26590417969909,6.40095981413023],[100.26519389880497,6.400941330717551],[100.26448361791083,6.40095981413023],[100.26377528384722,6.401015213702489],[100.26307083810863,6.401107377575983],[100.26237221153184,6.401236053116139],[100.26168131900373,6.401400887604772],[100.26100005421269,6.401601429207283],[100.26033028445818,6.401837128211335],[100.25967384553253,6.402107338534176],[100.25903253668918,6.402411319493906],[100.25840811571113,6.402748237840362],[100.25780229409287,6.403117170039494],[100.25721673234935,6.403517104805571],[100.2566530354646,6.403946945873644],[100.25611274849258,6.404405515005233],[100.25559735232237,6.404891555218513],[100.25510825961899,6.405403734234521],[100.25464681095157,6.405940648129602],[100.25421427111885,6.40650082518439],[100.25381182568246,6.407082729918442],[100.25344057771731,6.407684767299731],[100.25310154478831,6.40830528711727],[100.25279565616114,6.408942588505028],[100.25252375025525,6.409594924604554],[100.25228657234587,6.410260507353641],[100.25208477252112,6.410937512387892],[100.2519189039003,6.411624084041735],[100.2517894211178,6.412318340435073],[100.25169667907691,6.413018378631786],[100.2516409319771,6.41372227985588],[100.2516223326173,6.414428114750938],[100.2516409319771,6.415133948668459],[100.25169667907691,6.415837846970628],[100.2517894211178,6.416537880333025],[100.2519189039003,6.417232130032644],[100.25208477252112,6.417918693206708],[100.25228657234587,6.418595688068019],[100.25252375025525,6.419261259062463],[100.25279565616114,6.419913581954417],[100.25310154478831,6.420550868826392],[100.25344057771731,6.421171372978972],[100.25381182568246,6.421773393717755],[100.25421427111885,6.422355281014074],[100.25464681095157,6.422915440026999],[100.25510825961899,6.423452335473718],[100.25559735232237,6.423964495837007],[100.25611274849258,6.424450517397568],[100.2566530354646,6.424909068080782],[100.25721673234935,6.425338891106979],[100.25780229409287,6.425738808435335],[100.25840811571113,6.426107723991973],[100.25903253668918,6.426444626673459],[100.25967384553253,6.426748593117417],[100.26033028445818,6.427018790232688],[100.26100005421269,6.427254477482096],[100.26168131900373,6.427455008911642],[100.26237221153184,6.427619834920509],[100.26307083810863,6.427748503766945],[100.26377528384722,6.427840662806136],[100.26448361791083,6.42789605945647],[100.26519389880497,6.427914541891599],[100.26590417969909,6.42789605945647],[100.2666125137627,6.427840662806136],[100.26731695950129,6.427748503766945],[100.26801558607809,6.427619834920509],[100.2687064786062,6.427455008911642],[100.26938774339723,6.427254477482096],[100.27005751315174,6.427018790232688],[100.2707139520774,6.426748593117417],[100.27135526092074,6.426444626673459],[100.27197968189878,6.426107723991973],[100.27258550351705,6.425738808435335],[100.27317106526057,6.425338891106979],[100.27373476214534,6.424909068080782],[100.27427504911735,6.424450517397568],[100.27479044528758,6.423964495837007],[100.27527953799093,6.423452335473718],[100.27574098665835,6.422915440026999],[100.27617352649106,6.422355281014074],[100.27657597192747,6.421773393717755],[100.2769472198926,6.421171372978972],[100.27728625282163,6.420550868826392],[100.27759214144879,6.419913581954417],[100.27786404735467,6.419261259062463],[100.27810122526405,6.418595688068019],[100.2783030250888,6.417918693206708],[100.27846889370961,6.417232130032644],[100.27859837649211,6.416537880333025],[100.27869111853302,6.415837846970628],[100.27874686563283,6.415133948668459],[100.27876546499262,6.414428114750938]],[[100.23399503852266,6.376144654865781],[100.23397643916289,6.375438767110337],[100.23392069206308,6.374734813176451],[100.23382795002219,6.37403472256496],[100.23369846723966,6.373340414195416],[100.23353259861886,6.372653791146202],[100.23333079879411,6.371976735438094],[100.23309362088472,6.371311102875325],[100.23282171497884,6.370658717958547],[100.23251582635167,6.370021368883434],[100.23217679342267,6.369400802638805],[100.23180554545752,6.368798720217579],[100.23140310002111,6.36821677195378],[100.23097056018841,6.367656552998327],[100.230509111521,6.367119598946059],[100.23002001881763,6.366607381626007],[100.2295046226474,6.366121305066341],[100.2289643356754,6.365662701645192],[100.22840063879063,6.36523282843792],[100.2278150770471,6.364832863770685],[100.22720925542885,6.364463903989948],[100.2265848344508,6.364126960456667],[100.22594352560746,6.363822956773502],[100.2252870866818,6.363552726252612],[100.2246173169273,6.363317009630882],[100.22393605213625,6.363116453039116],[100.22324515960814,6.362951606230453],[100.22254653303133,6.362822921073076],[100.22184208729274,6.362730750311365],[100.22113375322917,6.362675346598647],[100.22042347233503,6.362656861804564],[100.21971319144087,6.362675346598647],[100.2190048573773,6.362730750311365],[100.21830041163871,6.362822921073076],[100.2176017850619,6.362951606230453],[100.21691089253379,6.363116453039116],[100.21622962774276,6.363317009630882],[100.21555985798824,6.363552726252612],[100.21490341906258,6.363822956773502],[100.21426211021924,6.364126960456667],[100.2136376892412,6.364463903989948],[100.21303186762295,6.364832863770685],[100.21244630587941,6.36523282843792],[100.21188260899464,6.365662701645192],[100.21134232202265,6.366121305066341],[100.21082692585242,6.366607381626007],[100.21033783314905,6.367119598946059],[100.20987638448165,6.367656552998327],[100.20944384464893,6.36821677195378],[100.20904139921252,6.368798720217579],[100.20867015124738,6.369400802638805],[100.20833111831837,6.370021368883434],[100.2080252296912,6.370658717958547],[100.20775332378533,6.371311102875325],[100.20751614587593,6.371976735438094],[100.20731434605119,6.372653791146202],[100.20714847743038,6.373340414195416],[100.20701899464785,6.37403472256496],[100.20692625260696,6.374734813176451],[100.20687050550715,6.375438767110337],[100.20685190614738,6.376144654865781],[100.20687050550715,6.376850541649414],[100.20692625260696,6.377554492678513],[100.20701899464785,6.378254578484071],[100.20714847743038,6.378948880199194],[100.20731434605119,6.3796354948184],[100.20751614587593,6.380312540413272],[100.20775332378533,6.380978161290377],[100.2080252296912,6.381630533077102],[100.20833111831837,6.38226786772163],[100.20867015124738,6.382888418393233],[100.20904139921252,6.383490484269621],[100.20944384464893,6.384072415198047],[100.20987638448165,6.384632616217526],[100.21033783314905,6.385169551929698],[100.21082692585242,6.385681750706505],[100.21134232202265,6.386167808722927],[100.21188260899464,6.386626393803993],[100.21244630587941,6.387056249075277],[100.21303186762295,6.387456196407141],[100.2136376892412,6.387825139643052],[100.21426211021924,6.388162067603307],[100.21490341906258,6.388466056855876],[100.21555985798824,6.388736274246736],[100.21622962774276,6.388971979182802],[100.21691089253379,6.38917252566132],[100.2176017850619,6.389337364039988],[100.21830041163871,6.389466042542919],[100.2190048573773,6.38955820849871],[100.21971319144087,6.38961360930664],[100.22042347233503,6.389632093128911],[100.22113375322917,6.38961360930664],[100.22184208729274,6.38955820849871],[100.22254653303133,6.389466042542919],[100.22324515960814,6.389337364039988],[100.22393605213625,6.38917252566132],[100.2246173169273,6.388971979182802],[100.2252870866818,6.388736274246736],[100.22594352560746,6.388466056855876],[100.2265848344508,6.388162067603307],[100.22720925542885,6.387825139643052],[100.2278150770471,6.387456196407141],[100.22840063879063,6.387056249075277],[100.2289643356754,6.386626393803993],[100.2295046226474,6.386167808722927],[100.23002001881763,6.385681750706505],[100.230509111521,6.385169551929698],[100.23097056018841,6.384632616217526],[100.23140310002111,6.384072415198047],[100.23180554545752,6.383490484269621],[100.23217679342267,6.382888418393233],[100.23251582635167,6.38226786772163],[100.23282171497884,6.381630533077102],[100.23309362088472,6.380978161290377],[100.23333079879411,6.380312540413272],[100.23353259861886,6.3796354948184],[100.23369846723966,6.378948880199194],[100.23382795002219,6.378254578484071],[100.23392069206308,6.377554492678513],[100.23397643916289,6.376850541649414],[100.23399503852266,6.376144654865781]],[[100.19032584506135,6.368664987512632],[100.19030724570158,6.367959089466351],[100.19025149860177,6.367255125270939],[100.19015875656088,6.366555024455363],[100.19002927377836,6.365860705967102],[100.18986340515755,6.365174072912269],[100.1896616053328,6.364497007338997],[100.1894244274234,6.363831365078538],[100.18915252151753,6.363178970658059],[100.18884663289036,6.362541612299212],[100.18850759996135,6.361921037016198],[100.1881363519962,6.361318945826653],[100.1877339065598,6.360736989088521],[100.1873013667271,6.360176761975899],[100.18683991805968,6.359639800105879],[100.18635082535631,6.359127575328839],[100.1858354291861,6.358641491693303],[100.18529514221409,6.358182881596704],[100.18473144532933,6.357753002132633],[100.1841458835858,6.357353031644283],[100.18354006196753,6.356984066493993],[100.18291564098949,6.356647118057379],[100.18227433214615,6.356343109950443],[100.1816178932205,6.356072875497434],[100.18094812346598,6.355837155445921],[100.18026685867494,6.355636595936073],[100.17957596614683,6.355471746728965],[100.17887733957002,6.355343059699337],[100.17817289383143,6.355250887596627],[100.17746455976786,6.355195483077855],[100.17675427887372,6.35517699801485],[100.17604399797956,6.355195483077855],[100.17533566391599,6.355250887596627],[100.1746312181774,6.355343059699337],[100.17393259160059,6.355471746728965],[100.17324169907248,6.355636595936073],[100.17256043428144,6.355837155445921],[100.17189066452693,6.356072875497434],[100.17123422560127,6.356343109950443],[100.17059291675793,6.356647118057379],[100.16996849577988,6.356984066493993],[100.16936267416163,6.357353031644283],[100.1687771124181,6.357753002132633],[100.16821341553333,6.358182881596704],[100.16767312856133,6.358641491693303],[100.1671577323911,6.359127575328839],[100.16666863968773,6.359639800105879],[100.16620719102033,6.360176761975899],[100.16577465118762,6.360736989088521],[100.16537220575121,6.361318945826653],[100.16500095778606,6.361921037016198],[100.16466192485706,6.362541612299212],[100.16435603622989,6.363178970658059],[100.164084130324,6.363831365078538],[100.16384695241462,6.364497007338997],[100.16364515258988,6.365174072912269],[100.16347928396905,6.365860705967102],[100.16334980118654,6.366555024455363],[100.16325705914565,6.367255125270939],[100.16320131204586,6.367959089466351],[100.16318271268605,6.368664987512632],[100.16320131204586,6.369370884588235],[100.16325705914565,6.370074845882217],[100.16334980118654,6.370774941897407],[100.16347928396905,6.37146925373892],[100.16364515258988,6.372155878373463],[100.16384695241462,6.372832933845154],[100.164084130324,6.373498564433435],[100.16435603622989,6.374150945739024],[100.16466192485706,6.374788289683927],[100.16500095778606,6.37540884941188],[100.16537220575121,6.376010924075695],[100.16577465118762,6.376592863498442],[100.16620719102033,6.377153072695788],[100.16666863968773,6.37769001624687],[100.1671577323911,6.378202222502051],[100.16767312856133,6.378688287615741],[100.16821341553333,6.379146879393401],[100.1687771124181,6.379576740942198],[100.16936267416163,6.379976694115162],[100.16996849577988,6.380345642739709],[100.17059291675793,6.380682575621274],[100.17123422560127,6.380986569314266],[100.17189066452693,6.381256790652386],[100.17256043428144,6.381492499031708],[100.17324169907248,6.381693048439987],[100.17393259160059,6.381857889226818],[100.1746312181774,6.381986569609698],[100.17533566391599,6.38207873691201],[100.17604399797956,6.38213413852934],[100.17675427887372,6.382152622621665],[100.17746455976786,6.38213413852934],[100.17817289383143,6.38207873691201],[100.17887733957002,6.381986569609698],[100.17957596614683,6.381857889226818],[100.18026685867494,6.381693048439987],[100.18094812346598,6.381492499031708],[100.1816178932205,6.381256790652386],[100.18227433214615,6.380986569314266],[100.18291564098949,6.380682575621274],[100.18354006196753,6.380345642739709],[100.1841458835858,6.379976694115162],[100.18473144532933,6.379576740942198],[100.18529514221409,6.379146879393401],[100.1858354291861,6.378688287615741],[100.18635082535631,6.378202222502051],[100.18683991805968,6.37769001624687],[100.1873013667271,6.377153072695788],[100.1877339065598,6.376592863498442],[100.1881363519962,6.376010924075695],[100.18850759996135,6.37540884941188],[100.18884663289036,6.374788289683927],[100.18915252151753,6.374150945739024],[100.1894244274234,6.373498564433435],[100.1896616053328,6.372832933845154],[100.18986340515755,6.372155878373463],[100.19002927377836,6.37146925373892],[100.19015875656088,6.370774941897407],[100.19025149860177,6.370074845882217],[100.19030724570158,6.369370884588235],[100.19032584506135,6.368664987512632]],[[100.15627327166389,6.401551025339679],[100.15625467230412,6.400845172629228],[100.15619892520431,6.400141253640502],[100.15610618316342,6.399441197778594],[100.15597670038089,6.398746923867855],[100.15581083176009,6.398060334892367],[100.15560903193534,6.39738331277962],[100.15537185402594,6.396717713241949],[100.15509994812007,6.396065360689668],[100.1547940594929,6.395428043229956],[100.1544550265639,6.394807507765196],[100.15408377859875,6.3942054552042],[100.15368133316234,6.393623535799419],[100.15324879332964,6.393063344622931],[100.15278734466222,6.39252641719375],[100.15229825195885,6.392014225268201],[100.15178285578862,6.391528172805168],[100.15124256881663,6.391069592117046],[100.15067887193186,6.390639740217149],[100.15009331018832,6.390239795373549],[100.14948748857007,6.389870853878622],[100.14886306759203,6.389533927043495],[100.14822175874869,6.389229938425319],[100.14756531982303,6.388959721295163],[100.14689555006852,6.388724016353447],[100.14621428527748,6.388523469699146],[100.14552339274937,6.3883586310583],[100.14482476617256,6.38822995227688],[100.14412032043397,6.388137786081847],[100.1434119863704,6.388082385114139],[100.14270170547626,6.38806390123589],[100.1419914245821,6.388082385114139],[100.14128309051853,6.388137786081847],[100.14057864477994,6.38822995227688],[100.13988001820313,6.3883586310583],[100.13918912567502,6.388523469699146],[100.13850786088398,6.388724016353447],[100.13783809112947,6.388959721295163],[100.13718165220381,6.389229938425319],[100.13654034336047,6.389533927043495],[100.13591592238242,6.389870853878622],[100.13531010076417,6.390239795373549],[100.13472453902064,6.390639740217149],[100.13416084213587,6.391069592117046],[100.13362055516387,6.391528172805168],[100.13310515899364,6.392014225268201],[100.13261606629027,6.39252641719375],[100.13215461762287,6.393063344622931],[100.13172207779016,6.393623535799419],[100.13131963235375,6.3942054552042],[100.1309483843886,6.394807507765196],[100.1306093514596,6.395428043229956],[100.13030346283243,6.396065360689668],[100.13003155692654,6.396717713241949],[100.12979437901716,6.39738331277962],[100.12959257919242,6.398060334892367],[100.1294267105716,6.398746923867855],[100.12929722778908,6.399441197778594],[100.12920448574819,6.400141253640502],[100.12914873864838,6.400845172629228],[100.12913013928859,6.401551025339679],[100.12914873864838,6.402256877074502],[100.12920448574819,6.402960793147066],[100.12929722778908,6.403660844184213],[100.1294267105716,6.404355111414452],[100.12959257919242,6.405041691926903],[100.12979437901716,6.405718703886773],[100.13003155692654,6.406384291693006],[100.13030346283243,6.407036631063783],[100.1306093514596,6.407673934036374],[100.1309483843886,6.408294453867092],[100.13131963235375,6.40889648981843],[100.13172207779016,6.409478391819929],[100.13215461762287,6.410038564990152],[100.13261606629027,6.410575474007381],[100.13310515899364,6.411087647317029],[100.13362055516387,6.411573681164149],[100.13416084213587,6.412032243440332],[100.13472453902064,6.412462077333964],[100.13531010076417,6.412862004774269],[100.13591592238242,6.413230929659537],[100.13654034336047,6.413567840860636],[100.13718165220381,6.413871814991677],[100.13783809112947,6.414142018940343],[100.13850786088398,6.414377712150607],[100.13918912567502,6.414578248652056],[100.13988001820313,6.414743078829854],[100.14057864477994,6.414871750930773],[100.14128309051853,6.414963912301032],[100.1419914245821,6.415019310352578],[100.14270170547626,6.415037793255212],[100.1434119863704,6.415019310352578],[100.14412032043397,6.414963912301032],[100.14482476617256,6.414871750930773],[100.14552339274937,6.414743078829854],[100.14621428527748,6.414578248652056],[100.14689555006852,6.414377712150607],[100.14756531982303,6.414142018940343],[100.14822175874869,6.413871814991677],[100.14886306759203,6.413567840860636],[100.14948748857007,6.413230929659537],[100.15009331018832,6.412862004774269],[100.15067887193186,6.412462077333964],[100.15124256881663,6.412032243440332],[100.15178285578862,6.411573681164149],[100.15229825195885,6.411087647317029],[100.15278734466222,6.410575474007381],[100.15324879332964,6.410038564990152],[100.15368133316234,6.409478391819929],[100.15408377859875,6.40889648981843],[100.1544550265639,6.408294453867092],[100.1547940594929,6.407673934036374],[100.15509994812007,6.407036631063783],[100.15537185402594,6.406384291693006],[100.15560903193534,6.405718703886773],[100.15581083176009,6.405041691926903],[100.15597670038089,6.404355111414452],[100.15610618316342,6.403660844184213],[100.15619892520431,6.402960793147066],[100.15625467230412,6.402256877074502],[100.15627327166389,6.401551025339679]],[[100.20584804718604,6.305439584182524],[100.20582944782626,6.304733599628653],[100.20577370072644,6.304029549172222],[100.20568095868555,6.303329362578499],[100.20555147590304,6.302634959029865],[100.20538560728222,6.30194824186534],[100.20518380745747,6.301271093363252],[100.20494662954809,6.300605369581742],[100.2046747236422,6.299952895270932],[100.20436883501503,6.299315458870968],[100.20402980208603,6.298694807609349],[100.20365855412088,6.298092642711341],[100.20325610868447,6.297510614736251],[100.20282356885177,6.29695031905274],[100.20236212018436,6.296413291465146],[100.20187302748099,6.295901004003228],[100.20135763131077,6.295414860886574],[100.20081734433876,6.294956194674927],[100.200253647454,6.294526262614913],[100.19966808571047,6.294126243193208],[100.19906226409222,6.293757232905556],[100.19843784311416,6.293420243250644],[100.19779653427082,6.293116197956829],[100.19714009534518,6.292845930449675],[100.19647032559067,6.292610181566855],[100.19578906079961,6.292409597527093],[100.1950981682715,6.292244728158271],[100.1943995416947,6.292116025390087],[100.1936950959561,6.29202384201483],[100.19298676189253,6.291968430720217],[100.19227648099839,6.29194994339655],[100.19156620010423,6.291968430720217],[100.19085786604066,6.29202384201483],[100.19015342030207,6.292116025390087],[100.18945479372526,6.292244728158271],[100.18876390119715,6.292409597527093],[100.18808263640612,6.292610181566855],[100.1874128666516,6.292845930449675],[100.18675642772594,6.293116197956829],[100.1861151188826,6.293420243250644],[100.18549069790456,6.293757232905556],[100.1848848762863,6.294126243193208],[100.18429931454277,6.294526262614913],[100.183735617658,6.294956194674927],[100.183195330686,6.295414860886574],[100.18267993451578,6.295901004003228],[100.18219084181241,6.296413291465146],[100.181729393145,6.29695031905274],[100.18129685331229,6.297510614736251],[100.18089440787588,6.298092642711341],[100.18052315991075,6.298694807609349],[100.18018412698173,6.299315458870968],[100.17987823835456,6.299952895270932],[100.17960633244869,6.300605369581742],[100.17936915453929,6.301271093363252],[100.17916735471455,6.30194824186534],[100.17900148609374,6.302634959029865],[100.17887200331121,6.303329362578499],[100.17877926127032,6.304029549172222],[100.17872351417053,6.304733599628653],[100.17870491481074,6.305439584182524],[100.17872351417053,6.30614556777518],[100.17877926127032,6.306849615358502],[100.17887200331121,6.307549797198734],[100.17900148609374,6.308244194165515],[100.17916735471455,6.308930902991987],[100.17936915453929,6.309608041491154],[100.17960633244869,6.31027375371449],[100.17987823835456,6.310926215038459],[100.18018412698173,6.311563637165264],[100.18052315991075,6.312184273023724],[100.18089440787588,6.312786421557385],[100.18129685331229,6.313368432386205],[100.181729393145,6.31392871032937],[100.18219084181241,6.31446571977694],[100.18267993451578,6.314977988897883],[100.183195330686,6.315464113673576],[100.183735617658,6.315922761745195],[100.18429931454277,6.316352676064877],[100.1848848762863,6.316752678340314],[100.18549069790456,6.317121672263606],[100.1861151188826,6.317458646515384],[100.18675642772594,6.317762677536014],[100.1874128666516,6.318032932056352],[100.18808263640612,6.318268669380974],[100.18876390119715,6.318469243417828],[100.18945479372526,6.318634104448583],[100.19015342030207,6.31876280063494],[100.19085786604066,6.318854979256693],[100.19156620010423,6.318910387678196],[100.19227648099839,6.318928874040648],[100.19298676189253,6.318910387678196],[100.1936950959561,6.318854979256693],[100.1943995416947,6.31876280063494],[100.1950981682715,6.318634104448583],[100.19578906079961,6.318469243417828],[100.19647032559067,6.318268669380974],[100.19714009534518,6.318032932056352],[100.19779653427082,6.317762677536014],[100.19843784311416,6.317458646515384],[100.19906226409222,6.317121672263606],[100.19966808571047,6.316752678340314],[100.200253647454,6.316352676064877],[100.20081734433876,6.315922761745195],[100.20135763131077,6.315464113673576],[100.20187302748099,6.314977988897883],[100.20236212018436,6.31446571977694],[100.20282356885177,6.31392871032937],[100.20325610868447,6.313368432386205],[100.20365855412088,6.312786421557385],[100.20402980208603,6.312184273023724],[100.20436883501503,6.311563637165264],[100.2046747236422,6.310926215038459],[100.20494662954809,6.31027375371449],[100.20518380745747,6.309608041491154],[100.20538560728222,6.308930902991987],[100.20555147590304,6.308244194165515],[100.20568095868555,6.307549797198734],[100.20577370072644,6.306849615358502],[100.20582944782626,6.30614556777518],[100.20584804718604,6.305439584182524]]],"bbox":[100.12913013928859,6.29194994339655,100.33816778751999,6.635017430064463]}
