{"type":"Topology","objects":{"PLS_SE-15":{"type":"GeometryCollection","geometries":[{"type":"Polygon","arcs":[[0]],"properties":{"state":"Perlis","parlimen":"P.001 Padang Besar","code_parlimen":"P.001","dun":"N.01 Titi Tinggi","code_dun":"N.01"}},{"type":"Polygon","arcs":[[1]],"properties":{"state":"Perlis","parlimen":"P.001 Padang Besar","code_parlimen":"P.001","dun":"N.02 Beseri","code_dun":"N.02"}},{"type":"Polygon","arcs":[[2]],"properties":{"state":"Perlis","parlimen":"P.001 Padang Besar","code_parlimen":"P.001","dun":"N.03 Chuping","code_dun":"N.03"}},{"type":"Polygon","arcs":[[3]],"properties":{"state":"Perlis","parlimen":"P.001 Padang Besar","code_parlimen":"P.001","dun":"N.04 Mata Ayer","code_dun":"N.04"}},{"type":"Polygon","arcs":[[4]],"properties":{"state":"Perlis","parlimen":"P.001 Padang Besar","code_parlimen":"P.001","dun":"N.05 Santan","code_dun":"N.05"}},{"type":"Polygon","arcs":[[5]],"properties":{"state":"Perlis","parlimen":"P.002 Kangar","code_parlimen":"P.002","dun":"N.06 Bintong","code_dun":"N.06"}},{"type":"Polygon","arcs":[[6]],"properties":{"state":"Perlis","parlimen":"P.002 Kangar","code_parlimen":"P.002","dun":"N.07 Sena","code_dun":"N.07"}},{"type":"Polygon","arcs":[[7]],"properties":{"state":"Perlis","parlimen":"P.002 Kangar","code_parlimen":"P.002","dun":"N.08 Indera Kayangan","code_dun":"N.08"}},{"type":"Polygon","arcs":[[8]],"properties":{"state":"Perlis","parlimen":"P.002 Kangar","code_parlimen":"P.002","dun":"N.09 Kuala Perlis","code_dun":"N.09"}},{"type":"Polygon","arcs":[[9]],"properties":{"state":"Perlis","parlimen":"P.002 Kangar","code_parlimen":"P.002","dun":"N.10 Kayang","code_dun":"N.10"}},{"type":"Polygon","arcs":[[10]],"properties":{"state":"Perlis","parlimen":"P.003 Arau","code_parlimen":"P.003","dun":"N.11 Pauh","code_dun":"N.11"}},{"type":"Polygon","arcs":[[11]],"properties":{"state":"Perlis","parlimen":"P.003 Arau","code_parlimen":"P.003","dun":"N.12 Tambun Tulang","code_dun":"N.12"}},{"type":"Polygon","arcs":[[12]],"properties":{"state":"Perlis","parlimen":"P.003 Arau","code_parlimen":"P.003","dun":"N.13 Guar Sanji","code_dun":"N.13"}},{"type":"Polygon","arcs":[[13]],"properties":{"state":"Perlis","parlimen":"P.003 Arau","code_parlimen":"P.003","dun":"N.14 Simpang Empat","code_dun":"N.14"}},{"type":"Polygon","arcs":[[14]],"properties":{"state":"Perlis","parlimen":"P.003 Arau","code_parlimen":"P.003","dun":"N.15 Sanglang","code_dun":"N.15"}}]}},"arcs":[[[100.27850729625634,6.648323790822317],[100.27848839768784,6.647606936225257],[100.278431753782,6.646892045435833],[100.27833751979585,6.646181077932935],[100.27820595401819,6.645475982450405],[100.27803741706164,6.644778691635463],[100.27783237087432,6.644091116751089],[100.27759137747357,6.643415142437005],[100.27731509740553,6.642752621543523],[100.27700428793469,6.642105370052394],[100.27665980096819,6.641475162098788],[100.27628258072085,6.640863725107713],[100.27587366112716,6.640272735058541],[100.27543416300732,6.639703811890515],[100.27496529099508,6.639158515061695],[100.2744683302361,6.638638339273766],[100.27394464286522,6.638144710374264],[100.27339566427314,6.63767898144756],[100.27282289917204,6.637242429105201],[100.27222791747123,6.636836249985977],[100.27161234997422,6.636461557475101],[100.27097788390869,6.636119378651705],[100.27032625830205,6.635810651472854],[100.26965925921478,6.635536222201961],[100.26897871484503,6.635296843088478],[100.26828649051761,6.635093170305453],[100.26758448357128,6.634925762150456],[100.26687461815833,6.634795077514759],[100.26615883997043,6.634701474625227],[100.2654391109059,6.634645210062052],[100.26471740369206,6.63462643805532],[100.26399569647823,6.634645210062052],[100.2632759674137,6.634701474625227],[100.26256018922582,6.634795077514759],[100.26185032381284,6.634925762150456],[100.26114831686652,6.635093170305453],[100.2604560925391,6.635296843088478],[100.25977554816936,6.635536222201961],[100.25910854908209,6.635810651472854],[100.25845692347546,6.636119378651705],[100.25782245740993,6.636461557475101],[100.25720688991291,6.636836249985977],[100.25661190821211,6.637242429105201],[100.25603914311098,6.63767898144756],[100.25549016451892,6.638144710374264],[100.25496647714805,6.638638339273766],[100.25446951638904,6.639158515061695],[100.25400064437682,6.639703811890515],[100.25356114625697,6.640272735058541],[100.25315222666329,6.640863725107713],[100.25277500641594,6.641475162098788],[100.25243051944943,6.642105370052394],[100.25211970997861,6.642752621543523],[100.25184342991056,6.643415142437005],[100.2516024365098,6.644091116751089],[100.2513973903225,6.644778691635463],[100.25122885336594,6.645475982450405],[100.25109728758828,6.646181077932935],[100.25100305360212,6.646892045435833],[100.2509464096963,6.647606936225257],[100.2509275111278,6.648323790822317],[100.2509464096963,6.649040644373968],[100.25100305360212,6.649755532038637],[100.25109728758828,6.650466494371658],[100.25122885336594,6.651171582695842],[100.2513973903225,6.651868864442385],[100.2516024365098,6.652556428447685],[100.25184342991056,6.653232390191186],[100.25211970997861,6.653894896960321],[100.25243051944943,6.654542132928066],[100.25277500641594,6.65517232412936],[100.25315222666329,6.655783743322712],[100.25356114625697,6.656374714723759],[100.25400064437682,6.65694361859756],[100.25446951638904,6.657488895697463],[100.25496647714805,6.658009051537907],[100.25549016451892,6.658502660489937],[100.25603914311098,6.658968369687711],[100.25661190821211,6.659404902735846],[100.25720688991291,6.659811063206943],[100.25782245740993,6.660185737920097],[100.25845692347546,6.660527899991179],[100.25910854908209,6.660836611646648],[100.25977554816936,6.661111026793193],[100.2604560925391,6.661350393336106],[100.26114831686652,6.661554055240032],[100.26185032381284,6.661721454326643],[100.26256018922582,6.661852131803993],[100.2632759674137,6.661945729523661],[100.26399569647823,6.662001990962068],[100.26471740369206,6.662020761923416],[100.2654391109059,6.662001990962068],[100.26615883997043,6.661945729523661],[100.26687461815833,6.661852131803993],[100.26758448357128,6.661721454326643],[100.26828649051761,6.661554055240032],[100.26897871484503,6.661350393336106],[100.26965925921478,6.661111026793193],[100.27032625830205,6.660836611646648],[100.27097788390869,6.660527899991179],[100.27161234997422,6.660185737920097],[100.27222791747123,6.659811063206943],[100.27282289917204,6.659404902735846],[100.27339566427314,6.658968369687711],[100.27394464286522,6.658502660489937],[100.2744683302361,6.658009051537907],[100.27496529099508,6.657488895697463],[100.27543416300732,6.65694361859756],[100.27587366112716,6.656374714723759],[100.27628258072085,6.655783743322712],[100.27665980096819,6.65517232412936],[100.27700428793469,6.654542132928066],[100.27731509740553,6.653894896960321],[100.27759137747357,6.653232390191186],[100.27783237087432,6.652556428447685],[100.27803741706164,6.651868864442385],[100.27820595401819,6.651171582695842],[100.27833751979585,6.650466494371658],[100.278431753782,6.649755532038637],[100.27848839768784,6.649040644373968],[100.27850729625634,6.648323790822317]],[[100.2226757766119,6.603003941643862],[100.2226568780434,6.602287021183709],[100.22260023413756,6.601572064718669],[100.22250600015141,6.600861031907596],[100.22237443437375,6.600155871663171],[100.2222058974172,6.599458516809924],[100.22200085122988,6.598770878786119],[100.22175985782911,6.598094842404249],[100.22148357776108,6.597432260684376],[100.22117276829024,6.596784949774621],[100.22082828132375,6.596154683972552],[100.2204510610764,6.595543190861302],[100.22004214148271,6.594952146573558],[100.21960264336288,6.594383171196714],[100.21913377135064,6.593837824331421],[100.21863681059165,6.593317600815936],[100.21811312322077,6.592823926628108],[100.2175641446287,6.592358154975855],[100.21699137952758,6.591921562587298],[100.21639639782678,6.591515346210446],[100.21578083032976,6.591140619332163],[100.21514636426423,6.590798409125242],[100.2144947386576,6.590489653632354],[100.21382773957033,6.590215199194038],[100.21314719520059,6.589975798128379],[100.21245497087317,6.589772106668246],[100.21175296392684,6.589604683162074],[100.21104309851387,6.589473986543001],[100.21032732032599,6.589380375070513],[100.20960759126145,6.589324105348186],[100.20888588404762,6.589305331620174],[100.20816417683378,6.589324105348186],[100.20744444776926,6.589380375070513],[100.20672866958137,6.589473986543001],[100.2060188041684,6.589604683162074],[100.20531679722208,6.589772106668246],[100.20462457289466,6.589975798128379],[100.2039440285249,6.590215199194038],[100.20327702943764,6.590489653632354],[100.20262540383101,6.590798409125242],[100.20199093776547,6.591140619332163],[100.20137537026847,6.591515346210446],[100.20078038856765,6.591921562587298],[100.20020762346654,6.592358154975855],[100.19965864487448,6.592823926628108],[100.19913495750359,6.593317600815936],[100.19863799674458,6.593837824331421],[100.19816912473237,6.594383171196714],[100.19772962661251,6.594952146573558],[100.19732070701885,6.595543190861302],[100.1969434867715,6.596154683972552],[100.19659899980499,6.596784949774621],[100.19628819033416,6.597432260684376],[100.19601191026612,6.598094842404249],[100.19577091686536,6.598770878786119],[100.19556587067804,6.599458516809924],[100.1953973337215,6.600155871663171],[100.19526576794384,6.600861031907596],[100.19517153395768,6.601572064718669],[100.19511489005185,6.602287021183709],[100.19509599148336,6.603003941643862],[100.19511489005185,6.603720861065601],[100.19517153395768,6.604435814426802],[100.19526576794384,6.605146842102627],[100.1953973337215,6.605851995236629],[100.19556587067804,6.606549341082202],[100.19577091686536,6.607236968299754],[100.19601191026612,6.607912992195212],[100.19628819033416,6.608575559885303],[100.19659899980499,6.609222855375614],[100.1969434867715,6.609853104537517],[100.19732070701885,6.610464579970214],[100.19772962661251,6.611055605734674],[100.19816912473237,6.611624561946462],[100.19863799674458,6.612169889214933],[100.19913495750359,6.61269009291648],[100.19965864487448,6.613183747290392],[100.20020762346654,6.613649499345823],[100.20078038856765,6.614086072569324],[100.20137537026847,6.614492270422893],[100.20199093776547,6.614866979622623],[100.20262540383101,6.615209173189378],[100.20327702943764,6.615517913262835],[100.2039440285249,6.615792353671368],[100.20462457289466,6.616031742250602],[100.20531679722208,6.616235422904483],[100.2060188041684,6.61640283740298],[100.20672866958137,6.61653352691163],[100.20744444776926,6.616627133248872],[100.20816417683378,6.616683399867359],[100.20888588404762,6.61670217255697],[100.20960759126145,6.616683399867359],[100.21032732032599,6.616627133248872],[100.21104309851387,6.61653352691163],[100.21175296392684,6.61640283740298],[100.21245497087317,6.616235422904483],[100.21314719520059,6.616031742250602],[100.21382773957033,6.615792353671368],[100.2144947386576,6.615517913262835],[100.21514636426423,6.615209173189378],[100.21578083032976,6.614866979622623],[100.21639639782678,6.614492270422893],[100.21699137952758,6.614086072569324],[100.2175641446287,6.613649499345823],[100.21811312322077,6.613183747290392],[100.21863681059165,6.61269009291648],[100.21913377135064,6.612169889214933],[100.21960264336288,6.611624561946462],[100.22004214148271,6.611055605734674],[100.2204510610764,6.610464579970214],[100.22082828132375,6.609853104537517],[100.22117276829024,6.609222855375614],[100.22148357776108,6.608575559885303],[100.22175985782911,6.607912992195212],[100.22200085122988,6.607236968299754],[100.2222058974172,6.606549341082202],[100.22237443437375,6.605851995236629],[100.22250600015141,6.605146842102627],[100.22260023413756,6.604435814426802],[100.2226568780434,6.603720861065601],[100.2226757766119,6.603003941643862]],[[100.32324414445137,6.53111485917287],[100.32322524588288,6.530397835156771],[100.32316860197705,6.529682775430697],[100.32307436799088,6.528971639936371],[100.32294280221323,6.528266377867722],[100.32277426525668,6.52756892232805],[100.32256921906935,6.526881185031195],[100.3223282256686,6.526205051061269],[100.32205194560056,6.525542373705284],[100.32174113612973,6.52489496937288],[100.32139664916322,6.524264612616998],[100.32101942891587,6.523653031269337],[100.3206105093222,6.52306190170367],[100.32017101120235,6.52249284424031],[100.31970213919013,6.521947418704061],[100.31920517843113,6.521427120147941],[100.31868149106025,6.520933374754632],[100.31813251246818,6.520467535926317],[100.31755974736707,6.520030880574418],[100.31696476566626,6.519624605618669],[100.31634919816923,6.51924982470565],[100.31571473210371,6.518907565155515],[100.31506310649708,6.518598765145446],[100.3143961074098,6.518324271137315],[100.31371556304008,6.518084835557053],[100.31302333871265,6.517881114731583],[100.31232133176633,6.517713667089352],[100.31161146635336,6.517582951629258],[100.31089568816547,6.517489326662109],[100.31017595910093,6.517433048828273],[100.3094542518871,6.517414272393954],[100.30873254467326,6.517433048828273],[100.30801281560875,6.517489326662109],[100.30729703742085,6.517582951629258],[100.30658717200788,6.517713667089352],[100.30588516506155,6.517881114731583],[100.30519294073413,6.518084835557053],[100.30451239636439,6.518324271137315],[100.30384539727713,6.518598765145446],[100.3031937716705,6.518907565155515],[100.30255930560496,6.51924982470565],[100.30194373810794,6.519624605618669],[100.30134875640712,6.520030880574418],[100.30077599130603,6.520467535926317],[100.30022701271395,6.520933374754632],[100.29970332534306,6.521427120147941],[100.29920636458407,6.521947418704061],[100.29873749257186,6.52249284424031],[100.298297994452,6.52306190170367],[100.29788907485833,6.523653031269337],[100.29751185461099,6.524264612616998],[100.29716736764448,6.52489496937288],[100.29685655817364,6.525542373705284],[100.2965802781056,6.526205051061269],[100.29633928470484,6.526881185031195],[100.29613423851752,6.52756892232805],[100.29596570156099,6.528266377867722],[100.29583413578332,6.528971639936371],[100.29573990179716,6.529682775430697],[100.29568325789133,6.530397835156771],[100.29566435932283,6.53111485917287],[100.29568325789133,6.531831882161677],[100.29573990179716,6.532546938817116],[100.29583413578332,6.533258069231129],[100.29596570156099,6.533963324265409],[100.29613423851752,6.534660770893765],[100.29633928470484,6.535348497499961],[100.2965802781056,6.536024619117033],[100.29685655817364,6.536687282593306],[100.29716736764448,6.53733467167121],[100.29751185461099,6.537965011964923],[100.29788907485833,6.538576575823146],[100.298297994452,6.539167687063665],[100.29873749257186,6.539736725566988],[100.29920636458407,6.540282131716039],[100.29970332534306,6.540802410670171],[100.30022701271395,6.541296136461519],[100.30077599130603,6.541761955902623],[100.30134875640712,6.542198592294485],[100.30194373810794,6.542604848925098],[100.30255930560496,6.542979612348668],[100.3031937716705,6.543321855436621],[100.30384539727713,6.543630640192214],[100.30451239636439,6.543905120320634],[100.30519294073413,6.544144543548041],[100.30588516506155,6.544348253682853],[100.30658717200788,6.544515692413754],[100.30729703742085,6.544646400839505],[100.30801281560875,6.544740020726316],[100.30873254467326,6.54479629548953],[100.3094542518871,6.544815070896542],[100.31017595910093,6.54479629548953],[100.31089568816547,6.544740020726316],[100.31161146635336,6.544646400839505],[100.31232133176633,6.544515692413754],[100.31302333871265,6.544348253682853],[100.31371556304008,6.544144543548041],[100.3143961074098,6.543905120320634],[100.31506310649708,6.543630640192214],[100.31571473210371,6.543321855436621],[100.31634919816923,6.542979612348668],[100.31696476566626,6.542604848925098],[100.31755974736707,6.542198592294485],[100.31813251246818,6.541761955902623],[100.31868149106025,6.541296136461519],[100.31920517843113,6.540802410670171],[100.31970213919013,6.540282131716039],[100.32017101120235,6.539736725566988],[100.3206105093222,6.539167687063665],[100.32101942891587,6.538576575823146],[100.32139664916322,6.537965011964923],[100.32174113612973,6.53733467167121],[100.32205194560056,6.536687282593306],[100.3223282256686,6.536024619117033],[100.32256921906935,6.535348497499961],[100.32277426525668,6.534660770893765],[100.32294280221323,6.533963324265409],[100.32307436799088,6.533258069231129],[100.32316860197705,6.532546938817116],[100.32322524588288,6.531831882161677],[100.32324414445137,6.53111485917287]],[[100.27040316120582,6.478206232570106],[100.27038426263732,6.477489133060413],[100.27032761873149,6.476773998055825],[100.27023338474532,6.476062787704269],[100.27010181896767,6.47535745140473],[100.26993328201114,6.474659922463696],[100.2697282358238,6.473972112795915],[100.26948724242305,6.473295907683532],[100.26921096235502,6.472633160608148],[100.26890015288417,6.471985688170017],[100.26855566591766,6.471355265108272],[100.26817844567032,6.470743619435813],[100.26776952607665,6.470152427702172],[100.26733002795679,6.469583310397427],[100.26686115594458,6.469037827509797],[100.26636419518559,6.468517474248876],[100.2658405078147,6.468023676946599],[100.26529152922262,6.46755778914685],[100.26471876412153,6.467121087894598],[100.26412378242071,6.466714770234788],[100.26350821492369,6.466339949930459],[100.26287374885815,6.465997654409142],[100.26222212325152,6.465688821946054],[100.26155512416426,6.465414299091577],[100.26087457979452,6.465174838350213],[100.2601823554671,6.464971096117448],[100.25948034852077,6.464803630880084],[100.25877048310781,6.464672901684917],[100.25805470491991,6.464579266880198],[100.25733497585539,6.464522983133063],[100.25661326864154,6.464504204725857],[100.25589156142772,6.464522983133063],[100.25517183236319,6.464579266880198],[100.25445605417531,6.464672901684917],[100.25374618876232,6.464803630880084],[100.253044181816,6.464971096117448],[100.25235195748857,6.465174838350213],[100.25167141311884,6.465414299091577],[100.25100441403157,6.465688821946054],[100.25035278842495,6.465997654409142],[100.24971832235941,6.466339949930459],[100.24910275486239,6.466714770234788],[100.24850777316158,6.467121087894598],[100.24793500806047,6.46755778914685],[100.2473860294684,6.468023676946599],[100.24686234209751,6.468517474248876],[100.24636538133852,6.469037827509797],[100.2458965093263,6.469583310397427],[100.24545701120645,6.470152427702172],[100.24504809161277,6.470743619435813],[100.24467087136543,6.471355265108272],[100.24432638439892,6.471985688170017],[100.24401557492808,6.472633160608148],[100.24373929486005,6.473295907683532],[100.2434983014593,6.473972112795915],[100.24329325527198,6.474659922463696],[100.24312471831543,6.47535745140473],[100.24299315253776,6.476062787704269],[100.2428989185516,6.476773998055825],[100.24284227464577,6.477489133060413],[100.24282337607727,6.478206232570106],[100.24284227464577,6.478923331060675],[100.2428989185516,6.47963846301908],[100.24299315253776,6.480349668330754],[100.24312471831543,6.481054997651952],[100.24329325527198,6.481752517752609],[100.2434983014593,6.482440316814857],[100.24373929486005,6.48311650967274],[100.24401557492808,6.48377924297893],[100.24432638439892,6.484426700284007],[100.24467087136543,6.485057107014661],[100.24504809161277,6.4856687353369],[100.24545701120645,6.486259908891318],[100.2458965093263,6.486829007386975],[100.24636538133852,6.487374471041766],[100.24686234209751,6.487894804856788],[100.2473860294684,6.488388582713154],[100.24793500806047,6.488854451280051],[100.24850777316158,6.489291133723227],[100.24910275486239,6.4896974332038],[100.24971832235941,6.490072236157936],[100.25035278842495,6.490414515348149],[100.25100441403157,6.490723332678183],[100.25167141311884,6.490997841763466],[100.25235195748857,6.49123729025033],[100.253044181816,6.491441021877561],[100.25374618876232,6.491608478274549],[100.25445605417531,6.491739200491363],[100.25517183236319,6.491832830256214],[100.25589156142772,6.491889110957153],[100.25661326864154,6.491907888345245],[100.25733497585539,6.491889110957153],[100.25805470491991,6.491832830256214],[100.25877048310781,6.491739200491363],[100.25948034852077,6.491608478274549],[100.2601823554671,6.491441021877561],[100.26087457979452,6.49123729025033],[100.26155512416426,6.490997841763466],[100.26222212325152,6.490723332678183],[100.26287374885815,6.490414515348149],[100.26350821492369,6.490072236157936],[100.26412378242071,6.4896974332038],[100.26471876412153,6.489291133723227],[100.26529152922262,6.488854451280051],[100.2658405078147,6.488388582713154],[100.26636419518559,6.487894804856788],[100.26686115594458,6.487374471041766],[100.26733002795679,6.486829007386975],[100.26776952607665,6.486259908891318],[100.26817844567032,6.4856687353369],[100.26855566591766,6.485057107014661],[100.26890015288417,6.484426700284007],[100.26921096235502,6.48377924297893],[100.26948724242305,6.48311650967274],[100.2697282358238,6.482440316814857],[100.26993328201114,6.481752517752609],[100.27010181896767,6.481054997651952],[100.27023338474532,6.480349668330754],[100.27032761873149,6.47963846301908],[100.27038426263732,6.478923331060675],[100.27040316120582,6.478206232570106]],[[100.23316692721181,6.503003466900536],[100.23314802864331,6.502286402697073],[100.23309138473748,6.501571302898121],[100.23299715075133,6.500860127555172],[100.23286558497367,6.5001548259713],[100.23269704801713,6.499457331357991],[100.2324920018298,6.498769555536019],[100.23225100842905,6.498093383694923],[100.23197472836101,6.497430669225275],[100.23166391889016,6.496783228638224],[100.23131943192367,6.496152836585805],[100.23094221167632,6.495541220996178],[100.23053329208264,6.494950058336674],[100.2300937939628,6.494380969017999],[100.22962492195057,6.493835512951897],[100.22912796119158,6.493315185274811],[100.2286042738207,6.492821412248817],[100.22805529522861,6.492355547351555],[100.22748253012752,6.491918867565529],[100.22688754842672,6.491512569877134],[100.2262719809297,6.491137767994934],[100.22563751486416,6.49079548929627],[100.22498588925752,6.490486672010484],[100.22431889017027,6.490212162646571],[100.22363834580052,6.489972713672306],[100.22294612147309,6.489768981451087],[100.22224411452677,6.489601524442428],[100.2215342491138,6.489470801670735],[100.2208184709259,6.489377171466765],[100.22009874186138,6.489320890485096],[100.21937703464754,6.489302113000544],[100.21865532743371,6.489320890485096],[100.21793559836918,6.489377171466765],[100.2172198201813,6.489470801670735],[100.21650995476831,6.489601524442428],[100.215807947822,6.489768981451087],[100.21511572349458,6.489972713672306],[100.21443517912483,6.490212162646571],[100.21376818003758,6.490486672010484],[100.21311655443094,6.49079548929627],[100.2124820883654,6.491137767994934],[100.21186652086838,6.491512569877134],[100.21127153916758,6.491918867565529],[100.21069877406646,6.492355547351555],[100.21014979547441,6.492821412248817],[100.20962610810352,6.493315185274811],[100.20912914734451,6.493835512951897],[100.20866027533229,6.494380969017999],[100.20822077721245,6.494950058336674],[100.20781185761876,6.495541220996178],[100.20743463737143,6.496152836585805],[100.20709015040491,6.496783228638224],[100.20677934093409,6.497430669225275],[100.20650306086605,6.498093383694923],[100.20626206746529,6.498769555536019],[100.20605702127797,6.499457331357991],[100.20588848432142,6.5001548259713],[100.20575691854376,6.500860127555172],[100.2056626845576,6.501571302898121],[100.20560604065177,6.502286402697073],[100.20558714208329,6.503003466900536],[100.20560604065177,6.503720530081031],[100.2056626845576,6.50443562682235],[100.20575691854376,6.505146797106462],[100.20588848432142,6.505852091685722],[100.20605702127797,6.506549577425398],[100.20626206746529,6.507237342601939],[100.20650306086605,6.507913502142443],[100.20677934093409,6.50857620279108],[100.20709015040491,6.509223628188158],[100.20743463737143,6.509854003848049],[100.20781185761876,6.510465602022205],[100.20822077721245,6.511056746434078],[100.20866027533229,6.51162581687293],[100.20912914734451,6.512171253633816],[100.20962610810352,6.512691561791851],[100.21014979547441,6.51318531529878],[100.21069877406646,6.513651160890838],[100.21127153916758,6.514087821797029],[100.21186652086838,6.514494101237791],[100.2124820883654,6.514868885704521],[100.21311655443094,6.515211148010658],[100.21376818003758,6.51551995010647],[100.21443517912483,6.515794445649385],[100.21511572349458,6.516033882323058],[100.215807947822,6.516237603898833],[100.21650995476831,6.51640505203386],[100.2172198201813,6.51653576780094],[100.21793559836918,6.516629392946086],[100.21865532743371,6.51668567087011],[100.21937703464754,6.516704447331705],[100.22009874186138,6.51668567087011],[100.2208184709259,6.516629392946086],[100.2215342491138,6.51653576780094],[100.22224411452677,6.51640505203386],[100.22294612147309,6.516237603898833],[100.22363834580052,6.516033882323058],[100.22431889017027,6.515794445649385],[100.22498588925752,6.51551995010647],[100.22563751486416,6.515211148010658],[100.2262719809297,6.514868885704521],[100.22688754842672,6.514494101237791],[100.22748253012752,6.514087821797029],[100.22805529522861,6.513651160890838],[100.2286042738207,6.51318531529878],[100.22912796119158,6.512691561791851],[100.22962492195057,6.512171253633816],[100.2300937939628,6.51162581687293],[100.23053329208264,6.511056746434078],[100.23094221167632,6.510465602022205],[100.23131943192367,6.509854003848049],[100.23166391889016,6.509223628188158],[100.23197472836101,6.50857620279108],[100.23225100842905,6.507913502142443],[100.2324920018298,6.507237342601939],[100.23269704801713,6.506549577425398],[100.23286558497367,6.505852091685722],[100.23299715075133,6.505146797106462],[100.23309138473748,6.50443562682235],[100.23314802864331,6.503720530081031],[100.23316692721181,6.503003466900536]],[[100.18999815525379,6.491103624089916],[100.1899792566853,6.490386542926743],[100.18992261277948,6.489671426216375],[100.18982837879332,6.488960234056676],[100.18969681301566,6.488254915796747],[100.18952827605911,6.48755740469374],[100.18932322987179,6.486869612613573],[100.18908223647104,6.486193424790253],[100.18880595640299,6.485530694658078],[100.18849514693217,6.484883238771007],[100.18815065996566,6.484252831822919],[100.18777343971831,6.483641201782658],[100.18736452012463,6.483050025157058],[100.18692502200479,6.482480922394967],[100.18645614999257,6.481935453444845],[100.18595918923357,6.481415113478261],[100.18543550186268,6.480921328790891],[100.18488652327062,6.480455452892154],[100.1843137581695,6.480018762794578],[100.1837187764687,6.479612455512677],[100.18310320897167,6.479237644781194],[100.18246874290614,6.47889535800158],[100.1818171172995,6.4785865334252],[100.18115011821224,6.478312017580945],[100.1804695738425,6.47807256295421],[100.17977734951508,6.47786882592384],[100.17907534256877,6.477701364962426],[100.17836547715578,6.477570639105137],[100.1776496989679,6.477477006691139],[100.17692996990337,6.477420724381054],[100.17620826268954,6.477401946453299],[100.1754865554757,6.477420724381054],[100.17476682641117,6.477477006691139],[100.17405104822328,6.477570639105137],[100.17334118281032,6.477701364962426],[100.17263917586399,6.47786882592384],[100.17194695153657,6.47807256295421],[100.17126640716683,6.478312017580945],[100.17059940807955,6.4785865334252],[100.16994778247292,6.47889535800158],[100.1693133164074,6.479237644781194],[100.16869774891036,6.479612455512677],[100.16810276720956,6.480018762794578],[100.16753000210846,6.480455452892154],[100.16698102351639,6.480921328790891],[100.1664573361455,6.481415113478261],[100.1659603753865,6.481935453444845],[100.16549150337428,6.482480922394967],[100.16505200525444,6.483050025157058],[100.16464308566077,6.483641201782658],[100.16426586541341,6.484252831822919],[100.16392137844691,6.484883238771007],[100.16361056897607,6.485530694658078],[100.16333428890803,6.486193424790253],[100.16309329550728,6.486869612613573],[100.16288824931995,6.48755740469374],[100.16271971236341,6.488254915796747],[100.16258814658576,6.488960234056676],[100.1624939125996,6.489671426216375],[100.16243726869376,6.490386542926743],[100.16241837012527,6.491103624089916],[100.16243726869376,6.491820704231992],[100.1624939125996,6.492535817890198],[100.16258814658576,6.493247005000168],[100.16271971236341,6.493952316268092],[100.16288824931995,6.494649818513421],[100.16309329550728,6.495337599967304],[100.16333428890803,6.496013775512155],[100.16361056897607,6.496676491848178],[100.16392137844691,6.497323932572591],[100.16426586541341,6.497954323157642],[100.16464308566077,6.498565935813729],[100.16505200525444,6.499157094224533],[100.16549150337428,6.499726178140744],[100.1659603753865,6.500271627820381],[100.1664573361455,6.500791948303002],[100.16698102351639,6.501285713506421],[100.16753000210846,6.501751570134673],[100.16810276720956,6.502188241386356],[100.16869774891036,6.502594530453449],[100.1693133164074,6.502969323800784],[100.16994778247292,6.503311594217361],[100.17059940807955,6.503620403631069],[100.17126640716683,6.503894905679185],[100.17194695153657,6.504134348027439],[100.17263917586399,6.504338074431537],[100.17334118281032,6.504505526535272],[100.17405104822328,6.504636245400545],[100.17476682641117,6.504729872764814],[100.1754865554757,6.504786152022762],[100.17620826268954,6.504804928929406],[100.17692996990337,6.504786152022762],[100.1776496989679,6.504729872764814],[100.17836547715578,6.504636245400545],[100.17907534256877,6.504505526535272],[100.17977734951508,6.504338074431537],[100.1804695738425,6.504134348027439],[100.18115011821224,6.503894905679185],[100.1818171172995,6.503620403631069],[100.18246874290614,6.503311594217361],[100.18310320897167,6.502969323800784],[100.1837187764687,6.502594530453449],[100.1843137581695,6.502188241386356],[100.18488652327062,6.501751570134673],[100.18543550186268,6.501285713506421],[100.18595918923357,6.500791948303002],[100.18645614999257,6.500271627820381],[100.18692502200479,6.499726178140744],[100.18736452012463,6.499157094224533],[100.18777343971831,6.498565935813729],[100.18815065996566,6.497954323157642],[100.18849514693217,6.497323932572591],[100.18880595640299,6.496676491848178],[100.18908223647104,6.496013775512155],[100.18932322987179,6.495337599967304],[100.18952827605911,6.494649818513421],[100.18969681301566,6.493952316268092],[100.18982837879332,6.493247005000168],[100.18992261277948,6.492535817890198],[100.1899792566853,6.491820704231992],[100.18999815525379,6.491103624089916]],[[100.23244962984488,6.443811438448852],[100.23243073127638,6.443094290190325],[100.23237408737056,6.442379106575806],[100.2322798533844,6.441667847886409],[100.23214828760673,6.440962463653482],[100.2319797506502,6.440264887314778],[100.23177470446286,6.439577030914751],[100.23153371106211,6.438900779863416],[100.23125743099408,6.438237987767993],[100.23094662152324,6.437590471351887],[100.23060213455672,6.436960005474431],[100.23022491430939,6.436348318265505],[100.22981599471571,6.435757086388137],[100.22937649659586,6.43518793044207],[100.22890762458364,6.434642410520977],[100.22841066382465,6.434122021935594],[100.22788697645376,6.43362819111424],[100.22733799786168,6.433162271692259],[100.22676523276058,6.432725540800901],[100.22617025105977,6.432319195565899],[100.22555468356275,6.431944349825529],[100.22492021749721,6.431602031076646],[100.22426859189058,6.431293177657801],[100.22360159280332,6.431018636176468],[100.22292104843359,6.430779159187928],[100.22222882410617,6.430575403131925],[100.22152681715984,6.430407926532919],[100.22081695174687,6.430277188468649],[100.22010117355899,6.43018354731156],[100.21938144449445,6.430127259746067],[100.21865973728062,6.430108480064923],[100.21793803006678,6.430127259746067],[100.21721830100225,6.43018354731156],[100.21650252281437,6.430277188468649],[100.21579265740138,6.430407926532919],[100.21509065045507,6.430575403131925],[100.21439842612763,6.430779159187928],[100.2137178817579,6.431018636176468],[100.21305088267064,6.431293177657801],[100.212399257064,6.431602031076646],[100.21176479099847,6.431944349825529],[100.21114922350145,6.432319195565899],[100.21055424180064,6.432725540800901],[100.20998147669954,6.433162271692259],[100.20943249810746,6.43362819111424],[100.20890881073657,6.434122021935594],[100.20841184997758,6.434642410520977],[100.20794297796537,6.43518793044207],[100.20750347984551,6.435757086388137],[100.20709456025183,6.436348318265505],[100.2067173400045,6.436960005474431],[100.20637285303799,6.437590471351887],[100.20606204356714,6.438237987767993],[100.20578576349911,6.438900779863416],[100.20554477009836,6.439577030914751],[100.20533972391104,6.440264887314778],[100.2051711869545,6.440962463653482],[100.20503962117682,6.441667847886409],[100.20494538719066,6.442379106575806],[100.20488874328484,6.443094290190325],[100.20486984471634,6.443811438448852],[100.20488874328484,6.444528585693583],[100.20494538719066,6.445243766277834],[100.20503962117682,6.445955019953646],[100.2051711869545,6.446660397244644],[100.20533972391104,6.447357964789114],[100.20554477009836,6.448045810638949],[100.20578576349911,6.448722049499752],[100.20606204356714,6.449384827897837],[100.20637285303799,6.450032329259881],[100.2067173400045,6.450662778891484],[100.20709456025183,6.451274448840747],[100.20750347984551,6.451865662633774],[100.20794297796537,6.452434799868943],[100.20841184997758,6.452980300657562],[100.20890881073657,6.453500669898531],[100.20943249810746,6.45399448137546],[100.20998147669954,6.454460381664966],[100.21055424180064,6.454897093845426],[100.21114922350145,6.455303420996062],[100.21176479099847,6.455678249476795],[100.212399257064,6.456020551979813],[100.21305088267064,6.456329390344597],[100.2137178817579,6.45660391812859],[100.21439842612763,6.456843382926599],[100.21509065045507,6.457047128432409],[100.21579265740138,6.457214596237194],[100.21650252281437,6.457345327359523],[100.21721830100225,6.457438963503052],[100.21793803006678,6.457495248038252],[100.21865973728062,6.457514026705601],[100.21938144449445,6.457495248038252],[100.22010117355899,6.457438963503052],[100.22081695174687,6.457345327359523],[100.22152681715984,6.457214596237194],[100.22222882410617,6.457047128432409],[100.22292104843359,6.456843382926599],[100.22360159280332,6.45660391812859],[100.22426859189058,6.456329390344597],[100.22492021749721,6.456020551979813],[100.22555468356275,6.455678249476795],[100.22617025105977,6.455303420996062],[100.22676523276058,6.454897093845426],[100.22733799786168,6.454460381664966],[100.22788697645376,6.45399448137546],[100.22841066382465,6.453500669898531],[100.22890762458364,6.452980300657562],[100.22937649659586,6.452434799868943],[100.22981599471571,6.451865662633774],[100.23022491430939,6.451274448840747],[100.23060213455672,6.450662778891484],[100.23094662152324,6.450032329259881],[100.23125743099408,6.449384827897837],[100.23153371106211,6.448722049499752],[100.23177470446286,6.448045810638962],[100.2319797506502,6.447357964789114],[100.23214828760673,6.446660397244644],[100.2322798533844,6.445955019953646],[100.23237408737056,6.445243766277834],[100.23243073127638,6.444528585693583],[100.23244962984488,6.443811438448852]],[[100.20840036476072,6.425631457291789],[100.20838146619224,6.424914283370589],[100.2083248222864,6.424199074166536],[100.20823058830024,6.42348779003087],[100.20809902252257,6.422782380564579],[100.20793048556602,6.422084779274538],[100.2077254393787,6.421396898273505],[100.20748444597795,6.420720623038747],[100.20720816590992,6.420057807243688],[100.20689735643909,6.419410267676503],[100.20655286947256,6.418779779259804],[100.20617564922523,6.418168070185099],[100.20576672963155,6.417576817175134],[100.2053272315117,6.417007640887346],[100.20485835949948,6.416462101470979],[100.20436139874049,6.415941694289987],[100.2038377113696,6.415447845823424],[100.20328873277754,6.41498190975479],[100.20271596767643,6.414545163260724],[100.20212098597561,6.414138803509544],[100.20150541847859,6.413763944379051],[100.20087095241306,6.413421613402678],[100.20021932680642,6.413112748952257],[100.19955232771916,6.412838197665337],[100.19887178334943,6.412598712123917],[100.19817955902201,6.41239494879106],[100.19747755207568,6.412227466211033],[100.1967676866627,6.412096723477887],[100.19605190847481,6.412003078976762],[100.19533217941029,6.411946789401211],[100.19461047219646,6.411928009049428],[100.19388876498262,6.411946789401211],[100.19316903591809,6.412003078976762],[100.1924532577302,6.412096723477887],[100.19174339231722,6.412227466211033],[100.19104138537091,6.41239494879106],[100.19034916104347,6.412598712123917],[100.18966861667374,6.412838197665337],[100.18900161758648,6.413112748952257],[100.18834999197985,6.413421613402678],[100.18771552591431,6.413763944379051],[100.18709995841729,6.414138803509544],[100.18650497671648,6.414545163260724],[100.18593221161538,6.41498190975479],[100.1853832330233,6.415447845823424],[100.18485954565242,6.415941694289987],[100.18436258489342,6.416462101470979],[100.1838937128812,6.417007640887346],[100.18345421476135,6.417576817175134],[100.18304529516769,6.418168070185099],[100.18266807492034,6.418779779259804],[100.18232358795383,6.419410267676503],[100.18201277848299,6.420057807243688],[100.18173649841495,6.420720623038747],[100.1814955050142,6.421396898273505],[100.18129045882687,6.422084779274538],[100.18112192187033,6.422782380564579],[100.18099035609266,6.42348779003087],[100.18089612210652,6.424199074166536],[100.18083947820068,6.424914283370589],[100.18082057963218,6.425631457291789],[100.18083947820068,6.426348630202007],[100.18089612210652,6.427063836384177],[100.18099035609266,6.427775115520176],[100.18112192187033,6.428480518063786],[100.18129045882687,6.429178110583981],[100.1814955050142,6.429865981064109],[100.18173649841495,6.430542244142138],[100.18201277848299,6.43120504627786],[100.18232358795383,6.431852570832738],[100.18266807492034,6.432483043048633],[100.18304529516769,6.433094734911561],[100.18345421476135,6.43368596988735],[100.1838937128812,6.434255127516121],[100.18436258489342,6.434800647853078],[100.18485954565242,6.435321035743319],[100.1853832330233,6.435814864919118],[100.18593221161538,6.436280781908356],[100.18650497671648,6.436717509743429],[100.18709995841729,6.437123851460421],[100.18771552591431,6.437498693379125],[100.18834999197985,6.437841008154707],[100.18900161758648,6.438149857592808],[100.18966861667374,6.43842439522039],[100.19034916104347,6.438663868605081],[100.19104138537091,6.43886762141702],[100.19174339231722,6.439035095227214],[100.1924532577302,6.43916583103768],[100.19316903591809,6.439259470539137],[100.19388876498262,6.439315757092807],[100.19461047219646,6.439334536433606],[100.19533217941029,6.439315757092807],[100.19605190847481,6.439259470539137],[100.1967676866627,6.43916583103768],[100.19747755207568,6.439035095227214],[100.19817955902201,6.43886762141702],[100.19887178334943,6.438663868605081],[100.19955232771916,6.43842439522039],[100.20021932680642,6.438149857592808],[100.20087095241306,6.437841008154707],[100.20150541847859,6.437498693379125],[100.20212098597561,6.437123851460421],[100.20271596767643,6.436717509743429],[100.20328873277754,6.436280781908356],[100.2038377113696,6.435814864919118],[100.20436139874049,6.435321035743319],[100.20485835949948,6.434800647853078],[100.2053272315117,6.434255127516121],[100.20576672963155,6.43368596988735],[100.20617564922523,6.433094734911561],[100.20655286947256,6.432483043048633],[100.20689735643909,6.431852570832738],[100.20720816590992,6.43120504627786],[100.20748444597795,6.430542244142138],[100.2077254393787,6.429865981064121],[100.20793048556602,6.429178110583981],[100.20809902252257,6.428480518063786],[100.20823058830024,6.427775115520176],[100.2083248222864,6.427063836384177],[100.20838146619224,6.426348630202007],[100.20840036476072,6.425631457291789]],[[100.15469247953227,6.41086848752161],[100.15467358096377,6.410151292814288],[100.15461693705795,6.40943606288335],[100.1545227030718,6.408724758136824],[100.15439113729413,6.408019328232174],[100.15422260033759,6.407321706732189],[100.15401755415027,6.406633805804943],[100.1537765607495,6.405957510982268],[100.15350028068147,6.405294675991111],[100.15318947121064,6.404647117672164],[100.15284498424413,6.40401661099931],[100.1524677639968,6.403404884213904],[100.15205884440311,6.402813614087096],[100.15161934628327,6.402244421323081],[100.15115047427105,6.401698866116087],[100.15065351351204,6.401178443873158],[100.15012982614115,6.40068458111448],[100.14958084754909,6.400218631562507],[100.14900808244798,6.399781872430687],[100.14841310074718,6.399375500921797],[100.14779753325016,6.399000630945714],[100.14716306718462,6.398658290065412],[100.14651144157799,6.398349416679731],[100.14584444249073,6.39807485745056],[100.14516389812098,6.39783536498156],[100.14447167379355,6.397631595754665],[100.14376966684725,6.397464108330182],[100.14305980143426,6.397333361815382],[100.14234402324638,6.397239714605698],[100.14162429418184,6.397183423402044],[100.14090258696801,6.397164642507073],[100.14018087975418,6.397183423402044],[100.13946115068966,6.397239714605698],[100.13874537250176,6.397333361815382],[100.13803550708877,6.397464108330182],[100.13733350014247,6.397631595754665],[100.13664127581504,6.39783536498156],[100.1359607314453,6.39807485745056],[100.13529373235804,6.398349416679731],[100.1346421067514,6.398658290065412],[100.13400764068587,6.399000630945714],[100.13339207318884,6.399375500921797],[100.13279709148804,6.399781872430687],[100.13222432638693,6.400218631562507],[100.13167534779487,6.40068458111448],[100.13115166042398,6.401178443873158],[100.13065469966497,6.401698866116087],[100.13018582765277,6.402244421323081],[100.1297463295329,6.402813614087096],[100.12933740993923,6.403404884213904],[100.1289601896919,6.40401661099931],[100.12861570272538,6.404647117672164],[100.12830489325455,6.405294675991111],[100.12802861318652,6.405957510982268],[100.12778761978575,6.406633805804943],[100.12758257359843,6.407321706732189],[100.1274140366419,6.408019328232174],[100.12728247086422,6.408724758136824],[100.12718823687807,6.40943606288335],[100.12713159297225,6.410151292814288],[100.12711269440375,6.41086848752161],[100.12713159297225,6.411585681220238],[100.12718823687807,6.412300908136113],[100.12728247086422,6.413012207894269],[100.1274140366419,6.413717630891886],[100.12758257359843,6.414415243641835],[100.12778761978575,6.415103134071927],[100.12802861318652,6.415779416765341],[100.12830489325455,6.416442238127999],[100.12861570272538,6.417089781468555],[100.1289601896919,6.41772027197722],[100.12933740993923,6.418331981589718],[100.1297463295329,6.418923233723085],[100.13018582765277,6.419492407870233],[100.13065469966497,6.420037944040932],[100.13115166042398,6.420558347036683],[100.13167534779487,6.421052190548183],[100.13222432638693,6.421518121063849],[100.13279709148804,6.421954861578815],[100.13339207318884,6.422361215094252],[100.13400764068587,6.422736067897437],[100.1346421067514,6.423078392613551],[100.13529373235804,6.423387251020841],[100.1359607314453,6.423661796621514],[100.13664127581504,6.423901276961252],[100.13733350014247,6.424105035690994],[100.13803550708877,6.424272514365439],[100.13874537250176,6.424403253973208],[100.13946115068966,6.424496896194523],[100.14018087975418,6.424553184383124],[100.14090258696801,6.424571964269389],[100.14162429418184,6.424553184383124],[100.14234402324638,6.424496896194523],[100.14305980143426,6.424403253973208],[100.14376966684725,6.424272514365439],[100.14447167379355,6.424105035690994],[100.14516389812098,6.423901276961252],[100.14584444249073,6.423661796621514],[100.14651144157799,6.423387251020841],[100.14716306718462,6.423078392613551],[100.14779753325016,6.422736067897437],[100.14841310074718,6.422361215094252],[100.14900808244798,6.421954861578815],[100.14958084754909,6.421518121063849],[100.15012982614115,6.421052190548183],[100.15065351351204,6.420558347036683],[100.15115047427105,6.420037944040932],[100.15161934628327,6.419492407870233],[100.15205884440311,6.418923233723085],[100.1524677639968,6.418331981589718],[100.15284498424413,6.41772027197722],[100.15318947121064,6.417089781468555],[100.15350028068147,6.416442238127999],[100.1537765607495,6.415779416765341],[100.15401755415027,6.415103134071927],[100.15422260033759,6.414415243641835],[100.15439113729413,6.413717630891886],[100.1545227030718,6.413012207894269],[100.15461693705795,6.412300908136113],[100.15467358096377,6.411585681220238],[100.15469247953227,6.41086848752161]],[[100.18741105861929,6.403779647119284],[100.1873921600508,6.403062442447857],[100.18733551614497,6.402347202581208],[100.18724128215882,6.401635887954621],[100.18710971638114,6.400930448252565],[100.18694117942461,6.400232817064699],[100.18673613323729,6.399544906585586],[100.18649513983654,6.398868602373176],[100.18621885976849,6.398205758180152],[100.18590805029766,6.397558190872309],[100.18556356333114,6.396927675448134],[100.1851863430838,6.396315940172898],[100.18477742349013,6.395724661840921],[100.18433792537027,6.395155461178825],[100.18386905335807,6.394609898402403],[100.18337209259907,6.394089468939361],[100.18284840522819,6.393595599329578],[100.1822994266361,6.393129643314209],[100.181726661535,6.392692878124334],[100.1811316798342,6.392286500979259],[100.18051611233717,6.391911625804205],[100.17988164627164,6.39156928017634],[100.179230020665,6.391260402507443],[100.17856302157774,6.390985839471072],[100.177882477208,6.390746343681256],[100.17719025288056,6.390542571628984],[100.17648824593427,6.390375081882264],[100.17577838052128,6.390244333554688],[100.17506260233338,6.390150685046612],[100.17434287326887,6.390094393062501],[100.17362116605503,6.390075611907157],[100.1728994588412,6.390094393062501],[100.17217972977666,6.390150685046612],[100.17146395158878,6.390244333554688],[100.1707540861758,6.390375081882264],[100.17005207922948,6.390542571628984],[100.16935985490205,6.390746343681256],[100.16867931053233,6.390985839471072],[100.16801231144505,6.391260402507443],[100.16736068583842,6.39156928017634],[100.16672621977288,6.391911625804205],[100.16611065227586,6.392286500979259],[100.16551567057506,6.392692878124334],[100.16494290547395,6.393129643314209],[100.16439392688189,6.393595599329578],[100.163870239511,6.394089468939361],[100.163373278752,6.394609898402403],[100.16290440673977,6.395155461178825],[100.16246490861994,6.395724661840921],[100.16205598902626,6.396315940172898],[100.16167876877891,6.396927675448134],[100.1613342818124,6.397558190872309],[100.16102347234157,6.398205758180152],[100.16074719227353,6.398868602373176],[100.16050619887278,6.399544906585586],[100.16030115268545,6.400232817064699],[100.1601326157289,6.400930448252565],[100.16000104995125,6.401635887954621],[100.15990681596509,6.402347202581208],[100.15985017205927,6.403062442447857],[100.15983127349077,6.403779647119284],[100.15985017205927,6.404496850783111],[100.15990681596509,6.405212087637965],[100.16000104995125,6.405923397281616],[100.1601326157289,6.406628830084146],[100.16030115268545,6.407326452531503],[100.16050619887278,6.408014352524862],[100.16074719227353,6.408690644621191],[100.16102347234157,6.409353475200563],[100.1613342818124,6.410001027546287],[100.16167876877891,6.410631526823843],[100.16205598902626,6.411243244944859],[100.16246490861994,6.411834505302936],[100.16290440673977,6.412403687368418],[100.163373278752,6.412949231129232],[100.163870239511,6.413469641366037],[100.16439392688189,6.413963491749558],[100.16494290547395,6.41442942874932],[100.16551567057506,6.41486617534258],[100.16611065227586,6.415272534513768],[100.16672621977288,6.41564739253459],[100.16736068583842,6.415989722015835],[100.16801231144505,6.416298584722639],[100.16867931053233,6.416573134145333],[100.16935985490205,6.416812617819067],[100.17005207922948,6.41701637938561],[100.1707540861758,6.417183860391822],[100.17146395158878,6.41731460181986],[100.17217972977666,6.417408245344986],[100.1728994588412,6.417464534317315],[100.17362116605503,6.417483314465072],[100.17434287326887,6.417464534317315],[100.17506260233338,6.417408245344986],[100.17577838052128,6.41731460181986],[100.17648824593427,6.417183860391822],[100.17719025288056,6.41701637938561],[100.177882477208,6.416812617819067],[100.17856302157774,6.416573134145333],[100.179230020665,6.416298584722639],[100.17988164627164,6.415989722015835],[100.18051611233717,6.41564739253459],[100.1811316798342,6.415272534513768],[100.181726661535,6.41486617534258],[100.1822994266361,6.41442942874932],[100.18284840522819,6.413963491749558],[100.18337209259907,6.413469641366037],[100.18386905335807,6.412949231129232],[100.18433792537027,6.412403687368418],[100.18477742349013,6.411834505302936],[100.1851863430838,6.411243244944859],[100.18556356333114,6.410631526823843],[100.18590805029766,6.410001027546287],[100.18621885976849,6.409353475200563],[100.18649513983654,6.408690644621191],[100.18673613323729,6.408014352524862],[100.18694117942461,6.407326452531503],[100.18710971638114,6.406628830084146],[100.18724128215882,6.405923397281616],[100.18733551614497,6.405212087637965],[100.1873921600508,6.404496850783111],[100.18741105861929,6.403779647119284]],[[100.3278388693746,6.446178284223305],[100.3278199708061,6.445461139311104],[100.32776332690028,6.444745959033356],[100.32766909291414,6.444034703662079],[100.32753752713646,6.443329322719512],[100.32736899017992,6.442631749634375],[100.3271639439926,6.441943896442242],[100.32692295059184,6.441267648544339],[100.3266466705238,6.440604859539283],[100.32633586105297,6.439957346141994],[100.32599137408646,6.439326883203586],[100.32561415383911,6.438715198845902],[100.32520523424543,6.438123969724153],[100.32476573612558,6.437554816430567],[100.32429686411336,6.437009299051602],[100.32379990335437,6.436488912891036],[100.32327621598348,6.435995084370571],[100.3227272373914,6.435529167119255],[100.32215447229031,6.435092438262435],[100.32155949058951,6.434686094920321],[100.32094392309249,6.434311250925973],[100.32030945702695,6.433968933771528],[100.31965783142032,6.433660081791171],[100.31899083233306,6.433385541588459],[100.31831028796331,6.433146065715174],[100.31761806363588,6.432942310608058],[100.31691605668956,6.43277483478895],[100.31620619127659,6.432644097333501],[100.3154904130887,6.432550456612454],[100.31477068402417,6.432494169309076],[100.31404897681034,6.432475389715372],[100.31332726959651,6.432494169309076],[100.31260754053197,6.432550456612454],[100.31189176234409,6.432644097333501],[100.3111818969311,6.43277483478895],[100.31047988998479,6.432942310608058],[100.30978766565737,6.433146065715174],[100.30910712128762,6.433385541588459],[100.30844012220037,6.433660081791171],[100.30778849659373,6.433968933771528],[100.3071540305282,6.434311250925973],[100.30653846303117,6.434686094920321],[100.30594348133037,6.435092438262435],[100.30537071622926,6.435529167119255],[100.3048217376372,6.435995084370571],[100.30429805026631,6.436488912891036],[100.3038010895073,6.437009299051602],[100.30333221749508,6.437554816430567],[100.30289271937524,6.438123969724153],[100.30248379978156,6.438715198845902],[100.30210657953423,6.439326883203586],[100.3017620925677,6.439957346141994],[100.30145128309688,6.440604859539283],[100.30117500302885,6.441267648544339],[100.30093400962808,6.441943896442242],[100.30072896344076,6.442631749634375],[100.30056042648421,6.443329322719512],[100.30042886070655,6.444034703662079],[100.30033462672039,6.444745959033356],[100.30027798281458,6.445461139311104],[100.30025908424608,6.446178284223305],[100.30027798281458,6.446895428121342],[100.30033462672039,6.447610605367704],[100.30042886070655,6.448321855723589],[100.30056042648421,6.449027229721733],[100.30072896344076,6.449724794009455],[100.30093400962808,6.450412636647592],[100.30117500302885,6.451088872350561],[100.30145128309688,6.451751647653331],[100.3017620925677,6.452399145991112],[100.30210657953423,6.453029592677814],[100.30248379978156,6.453641259769603],[100.30289271937524,6.454232470800472],[100.30333221749508,6.454801605376391],[100.3038010895073,6.455347103615974],[100.30429805026631,6.455867470425142],[100.3048217376372,6.456361279594222],[100.30537071622926,6.456827177706143],[100.30594348133037,6.457263887845297],[100.30653846303117,6.457670213096531],[100.3071540305282,6.458045039825008],[100.30778849659373,6.458387340727723],[100.30844012220037,6.458696177648585],[100.30910712128762,6.458970704149023],[100.30978766565737,6.459210167827348],[100.31047988998479,6.45941391238048],[100.3111818969311,6.459581379402175],[100.31189176234409,6.459712109913188],[100.31260754053197,6.459805745618857],[100.31332726959651,6.45986202989086],[100.31404897681034,6.459880808470387],[100.31477068402417,6.45986202989086],[100.3154904130887,6.459805745618857],[100.31620619127659,6.459712109913188],[100.31691605668956,6.459581379402175],[100.31761806363588,6.45941391238048],[100.31831028796331,6.459210167827348],[100.31899083233306,6.458970704149023],[100.31965783142032,6.458696177648585],[100.32030945702695,6.458387340727723],[100.32094392309249,6.458045039825008],[100.32155949058951,6.457670213096531],[100.32215447229031,6.457263887845297],[100.3227272373914,6.456827177706143],[100.32327621598348,6.456361279594222],[100.32379990335437,6.455867470425142],[100.32429686411336,6.455347103615974],[100.32476573612558,6.454801605376391],[100.32520523424543,6.454232470800472],[100.32561415383911,6.453641259769603],[100.32599137408646,6.453029592677814],[100.32633586105297,6.452399145991112],[100.3266466705238,6.451751647653331],[100.32692295059184,6.451088872350561],[100.3271639439926,6.450412636647592],[100.32736899017992,6.449724794009455],[100.32753752713646,6.449027229721733],[100.32766909291414,6.448321855723589],[100.32776332690028,6.447610605367704],[100.3278199708061,6.446895428121342],[100.3278388693746,6.446178284223305]],[[100.24900942746292,6.408701050060378],[100.24899052889442,6.407983852305321],[100.24893388498859,6.407268619335349],[100.24883965100243,6.4065573115668],[100.24870808522478,6.40585187866542],[100.24853954826823,6.405154254202189],[100.2483345020809,6.404466350353323],[100.24809350868014,6.403790052658595],[100.2478172286121,6.403127214852862],[100.24750641914127,6.402479653784479],[100.24716193217478,6.401849144434845],[100.24678471192743,6.401237415052655],[100.24637579233374,6.400646142416136],[100.2459362942139,6.400076947236323],[100.24546742220167,6.399531389714077],[100.24497046144268,6.399010965262724],[100.2444467740718,6.398517100408481],[100.24389779547973,6.39805114887955],[100.24332503037861,6.397614387894738],[100.24273004867781,6.397208014661912],[100.24211448118079,6.396833143095616],[100.24148001511526,6.396490800763174],[100.24082838950864,6.396181926067384],[100.24016139042135,6.39590736567371],[100.23948084605162,6.395667872188969],[100.2387886217242,6.395464102097866],[100.23808661477787,6.395296613963089],[100.2373767493649,6.395165866893816],[100.23666097117702,6.395072219286982],[100.23594124211247,6.39501592784461],[100.23521953489865,6.394997146869998],[100.2344978276848,6.39501592784461],[100.23377809862029,6.395072219286982],[100.2330623204324,6.395165866893816],[100.23235245501942,6.395296613963089],[100.23165044807311,6.395464102097866],[100.23095822374569,6.395667872188969],[100.23027767937593,6.39590736567371],[100.22961068028867,6.396181926067384],[100.22895905468204,6.396490800763174],[100.2283245886165,6.396833143095616],[100.2277090211195,6.397208014661912],[100.22711403941868,6.397614387894738],[100.22654127431757,6.39805114887955],[100.22599229572549,6.398517100408481],[100.2254686083546,6.399010965262724],[100.22497164759561,6.399531389714077],[100.2245027755834,6.400076947236323],[100.22406327746354,6.400646142416136],[100.22365435786988,6.401237415052655],[100.22327713762253,6.401849144434845],[100.22293265065602,6.402479653784479],[100.22262184118519,6.403127214852862],[100.22234556111714,6.403790052658595],[100.22210456771639,6.404466350353323],[100.22189952152907,6.405154254202189],[100.22173098457253,6.40585187866542],[100.22159941879487,6.4065573115668],[100.2215051848087,6.407268619335349],[100.22144854090288,6.407983852305321],[100.22142964233439,6.408701050060378],[100.22144854090288,6.409418246807058],[100.2215051848087,6.410133476762971],[100.22159941879487,6.410844779544805],[100.22173098457253,6.411550205541456],[100.22189952152907,6.412247821257551],[100.22210456771639,6.412935714612774],[100.22234556111714,6.413612000182262],[100.22262184118519,6.414274824364036],[100.22293265065602,6.414922370459005],[100.22327713762253,6.415552863649805],[100.22365435786988,6.416164575864811],[100.22406327746354,6.416755830513869],[100.2245027755834,6.417325007082996],[100.22497164759561,6.417870545575298],[100.2254686083546,6.418390950785859],[100.22599229572549,6.418884796399312],[100.22654127431757,6.41935072889827],[100.22711403941868,6.419787471272397],[100.2277090211195,6.420193826517763],[100.2283245886165,6.420568680916875],[100.22895905468204,6.420911007090496],[100.22961068028867,6.421219866812883],[100.23027767937593,6.421494413582588],[100.23095822374569,6.4217338949421],[100.23165044807311,6.421937654539536],[100.23235245501942,6.422105133927202],[100.2330623204324,6.422235874091732],[100.23377809862029,6.422329516711851],[100.2344978276848,6.422385805140165],[100.23521953489865,6.422404585106413],[100.23594124211247,6.422385805140165],[100.23666097117702,6.422329516711851],[100.2373767493649,6.422235874091732],[100.23808661477787,6.422105133927202],[100.2387886217242,6.421937654539536],[100.23948084605162,6.4217338949421],[100.24016139042135,6.421494413582588],[100.24082838950864,6.421219866812883],[100.24148001511526,6.420911007090496],[100.24211448118079,6.420568680916875],[100.24273004867781,6.420193826517763],[100.24332503037861,6.419787471272397],[100.24389779547973,6.41935072889827],[100.2444467740718,6.418884796399312],[100.24497046144268,6.418390950785859],[100.24546742220167,6.417870545575298],[100.2459362942139,6.417325007082996],[100.24637579233374,6.416755830513869],[100.24678471192743,6.416164575864811],[100.24716193217478,6.415552863649805],[100.24750641914127,6.414922370459005],[100.2478172286121,6.414274824364036],[100.24809350868014,6.413612000182262],[100.2483345020809,6.412935714612774],[100.24853954826823,6.412247821257551],[100.24870808522478,6.411550205541456],[100.24883965100243,6.410844779544805],[100.24893388498859,6.410133476762971],[100.24899052889442,6.409418246807058],[100.24900942746292,6.408701050060378]],[[100.2694324875072,6.371258577408734],[100.2694135889387,6.370541327166282],[100.2693569450329,6.369826041858527],[100.26926271104674,6.369114682045225],[100.26913114526907,6.368409197534626],[100.26896260831252,6.367711522039051],[100.2687575621252,6.367023567874332],[100.26851656872444,6.366347220717932],[100.2682402886564,6.36568433444],[100.26792947918558,6.365036726021414],[100.26758499221906,6.364406170573011],[100.26720777197173,6.36379439646945],[100.26679885237805,6.363203080611138],[100.2663593542582,6.362633843827164],[100.26589048224598,6.362088246431945],[100.26539352148697,6.361567783947697],[100.26486983411608,6.361073883004412],[100.26432085552402,6.360607897428738],[100.26374809042291,6.360171104532378],[100.26315310872211,6.359764701610192],[100.26253754122509,6.359389802657705],[100.26190307515955,6.359047435316892],[100.26125144955292,6.358738538058706],[100.26058445046566,6.358463957610121],[100.25990390609591,6.358224446632583],[100.25921168176849,6.358020661658468],[100.25850967482218,6.357853161291],[100.25779980940919,6.357722404672683],[100.25708403122131,6.357628750226474],[100.25636430215677,6.357572454673018],[100.25564259494294,6.357553672326785],[100.25492088772911,6.357572454673018],[100.25420115866459,6.357628750226474],[100.25348538047669,6.357722404672683],[100.25277551506372,6.357853161291],[100.2520735081174,6.358020661658468],[100.25138128378997,6.358224446632583],[100.25070073942022,6.358463957610121],[100.25003374033297,6.358738538058706],[100.24938211472633,6.359047435316892],[100.2487476486608,6.359389802657705],[100.24813208116377,6.359764701610192],[100.24753709946297,6.360171104532378],[100.24696433436188,6.360607897428738],[100.2464153557698,6.361073883004412],[100.24589166839891,6.361567783947697],[100.24539470763992,6.362088246431945],[100.2449258356277,6.362633843827164],[100.24448633750784,6.363203080611138],[100.24407741791416,6.36379439646945],[100.24370019766683,6.364406170573011],[100.24335571070031,6.365036726021414],[100.24304490122948,6.36568433444],[100.24276862116145,6.366347220717932],[100.24252762776068,6.367023567874332],[100.24232258157336,6.367711522039051],[100.24215404461683,6.368409197534626],[100.24202247883915,6.369114682045225],[100.241928244853,6.369826041858527],[100.24187160094718,6.370541327166282],[100.24185270237868,6.371258577408734],[100.24187160094718,6.371975826648637],[100.241928244853,6.372691108959648],[100.24202247883915,6.373402463814885],[100.24215404461683,6.37410794146041],[100.24232258157336,6.374805608259127],[100.24252762776068,6.375493551990481],[100.24276862116145,6.376169887091307],[100.24304490122948,6.376832759823563],[100.24335571070031,6.37748035335476],[100.24370019766683,6.378110892737176],[100.24407741791416,6.378722649772177],[100.24448633750784,6.379313947746382],[100.2449258356277,6.379883166026614],[100.24539470763992,6.380428744501184],[100.24589166839891,6.380949187855197],[100.2464153557698,6.38144306966826],[100.24696433436188,6.381909036323284],[100.24753709946297,6.382345810715916],[100.24813208116377,6.382752195753969],[100.2487476486608,6.383127077637908],[100.24938211472633,6.383469428912747],[100.25003374033297,6.383778311283545],[100.25070073942022,6.384052878186441],[100.25138128378997,6.384292377108417],[100.2520735081174,6.384496151649167],[100.25277551506372,6.384663643319766],[100.25348538047669,6.38479439307302],[100.25420115866459,6.384888042561164],[100.25492088772911,6.384944335117889],[100.25564259494294,6.384963116461547],[100.25636430215677,6.384944335117889],[100.25708403122131,6.384888042561164],[100.25779980940919,6.38479439307302],[100.25850967482218,6.384663643319766],[100.25921168176849,6.384496151649167],[100.25990390609591,6.384292377108417],[100.26058445046566,6.384052878186441],[100.26125144955292,6.383778311283545],[100.26190307515955,6.383469428912747],[100.26253754122509,6.383127077637908],[100.26315310872211,6.382752195753969],[100.26374809042291,6.382345810715916],[100.26432085552402,6.381909036323284],[100.26486983411608,6.38144306966826],[100.26539352148697,6.380949187855197],[100.26589048224598,6.380428744501184],[100.2663593542582,6.379883166026614],[100.26679885237805,6.379313947746382],[100.26720777197173,6.378722649772177],[100.26758499221906,6.378110892737176],[100.26792947918558,6.37748035335476],[100.2682402886564,6.376832759823563],[100.26851656872444,6.376169887091307],[100.2687575621252,6.375493551990481],[100.26896260831252,6.374805608259127],[100.26913114526907,6.37410794146041],[100.26926271104674,6.373402463814885],[100.2693569450329,6.372691108959648],[100.2694135889387,6.371975826648637],[100.2694324875072,6.371258577408734]],[[100.18891560858575,6.352070252543335],[100.18889671001725,6.351352975521109],[100.18884006611141,6.350637663509951],[100.18874583212525,6.349926277142758],[100.1886142663476,6.349220766300512],[100.18844572939105,6.348523064767593],[100.18824068320373,6.347835084931116],[100.18799968980298,6.347158712538821],[100.18772340973493,6.346495801529812],[100.1874126002641,6.345848168952624],[100.18706811329758,6.34521758998412],[100.18669089305024,6.344605793063247],[100.18628197345656,6.344014455152725],[100.18584247533671,6.343445197141869],[100.18537360332449,6.342899579403084],[100.18487664256551,6.342379097514068],[100.18435295519463,6.341885178157802],[100.18380397660255,6.341419175211159],[100.18323121150144,6.340982366033222],[100.18263622980062,6.34057594796325],[100.18202066230361,6.34020103503809],[100.18138619623808,6.339858654937783],[100.18073457063144,6.339549746168062],[100.18006757154417,6.339275155487276],[100.17938702717444,6.339035635584771],[100.17869480284702,6.33883184301721],[100.17799279590069,6.338664336408526],[100.17728293048772,6.33853357491821],[100.17656715229984,6.338439916982487],[100.17584742323531,6.338383619331506],[100.17512571602147,6.338364836285475],[100.17440400880763,6.338383619331506],[100.17368427974311,6.338439916982487],[100.17296850155522,6.33853357491821],[100.17225863614225,6.338664336408526],[100.17155662919592,6.33883184301721],[100.1708644048685,6.339035635584771],[100.17018386049877,6.339275155487276],[100.1695168614115,6.339549746168062],[100.16886523580487,6.339858654937783],[100.16823076973934,6.34020103503809],[100.16761520224232,6.34057594796325],[100.1670202205415,6.340982366033222],[100.16644745544039,6.341419175211159],[100.16589847684831,6.341885178157802],[100.16537478947744,6.342379097514068],[100.16487782871845,6.342899579403084],[100.16440895670623,6.343445197141869],[100.16396945858638,6.344014455152725],[100.1635605389927,6.344605793063247],[100.16318331874535,6.34521758998412],[100.16283883177884,6.345848168952624],[100.16252802230801,6.346495801529812],[100.16225174223996,6.347158712538821],[100.16201074883921,6.347835084931116],[100.16180570265189,6.348523064767593],[100.16163716569535,6.349220766300512],[100.16150559991769,6.349926277142758],[100.16141136593153,6.350637663509951],[100.16135472202569,6.351352975521109],[100.1613358234572,6.352070252543335],[100.16135472202569,6.352787528565965],[100.16141136593153,6.353502837589271],[100.16150559991769,6.354214219013093],[100.16163716569535,6.354919723010608],[100.16180570265189,6.355617415872419],[100.16201074883921,6.35630538530642],[100.16225174223996,6.356981745678877],[100.16252802230801,6.357644643182323],[100.16283883177884,6.358292260916219],[100.16318331874535,6.358922823866329],[100.1635605389927,6.359534603769212],[100.16396945858638,6.360125923848591],[100.16440895670623,6.360695163410499],[100.16487782871845,6.361240762284702],[100.16537478947744,6.361761225100147],[100.16589847684831,6.362255125382844],[100.16644745544039,6.362721109464903],[100.1670202205415,6.363157900193906],[100.16761520224232,6.363564300432722],[100.16823076973934,6.363939196339891],[100.16886523580487,6.364281560421818],[100.1695168614115,6.364590454348234],[100.17018386049877,6.364865031523469],[100.1708644048685,6.365104539406111],[100.17155662919592,6.36530832157121],[100.17225863614225,6.365475819508799],[100.17296850155522,6.365606574154382],[100.17368427974311,6.365700227146722],[100.17440400880763,6.365756521809852],[100.17512571602147,6.365775303856273],[100.17584742323531,6.365756521809852],[100.17656715229984,6.365700227146722],[100.17728293048772,6.365606574154382],[100.17799279590069,6.365475819508799],[100.17869480284702,6.36530832157121],[100.17938702717444,6.365104539406111],[100.18006757154417,6.364865031523469],[100.18073457063144,6.364590454348234],[100.18138619623808,6.364281560421818],[100.18202066230361,6.363939196339891],[100.18263622980062,6.363564300432722],[100.18323121150144,6.363157900193906],[100.18380397660255,6.362721109464903],[100.18435295519463,6.362255125382844],[100.18487664256551,6.361761225100147],[100.18537360332449,6.361240762284702],[100.18584247533671,6.360695163410499],[100.18628197345656,6.360125923848591],[100.18669089305024,6.359534603769212],[100.18706811329758,6.358922823866329],[100.1874126002641,6.358292260916219],[100.18772340973493,6.357644643182323],[100.18799968980298,6.356981745678877],[100.18824068320373,6.35630538530642],[100.18844572939105,6.355617415872419],[100.1886142663476,6.354919723010608],[100.18874583212525,6.354214219013093],[100.18884006611141,6.353502837589271],[100.18889671001725,6.352787528565965],[100.18891560858575,6.352070252543335]],[[100.20911725770488,6.305495448192812],[100.20909835913638,6.304778106504082],[100.20904171523054,6.304062730010854],[100.20894748124438,6.303351279522675],[100.20881591546672,6.302645705096127],[100.20864737851018,6.301947940689673],[100.20844233232285,6.301259898862506],[100.2082013389221,6.300583465531929],[100.20792505885406,6.299920494803781],[100.20761424938323,6.299272803889838],[100.20726976241671,6.298642168126437],[100.20689254216937,6.298030316107721],[100.20648362257569,6.297438924946915],[100.20604412445584,6.296869615678787],[100.20557525244362,6.296323948815635],[100.20507829168463,6.295803420069314],[100.20455460431376,6.295309456250624],[100.20400562572168,6.294843411357745],[100.20343286062057,6.294406562864195],[100.20283787891975,6.294000108216432],[100.20222231142273,6.293625161551032],[100.20158784535721,6.293282750640016],[100.20093621975057,6.2929738140731],[100.2002692206633,6.292699198684379],[100.19958867629357,6.2924596572305],[100.19889645196615,6.292255846326862],[100.19819444501982,6.292088324647335],[100.19748457960685,6.291957551392479],[100.19676880141897,6.29186388503055],[100.19604907235443,6.291807582314651],[100.1953273651406,6.291788797578779],[100.19460565792676,6.291807582314651],[100.19388592886224,6.29186388503055],[100.19317015067435,6.291957551392479],[100.19246028526138,6.292088324647335],[100.19175827831505,6.292255846326862],[100.19106605398763,6.2924596572305],[100.19038550961788,6.292699198684379],[100.18971851053062,6.2929738140731],[100.18906688492399,6.293282750640016],[100.18843241885845,6.293625161551032],[100.18781685136145,6.294000108216432],[100.18722186966062,6.294406562864195],[100.18664910455952,6.294843411357745],[100.18610012596744,6.295309456250624],[100.18557643859656,6.295803420069314],[100.18507947783756,6.296323948815635],[100.18461060582536,6.296869615678787],[100.1841711077055,6.297438924946915],[100.18376218811183,6.298030316107721],[100.18338496786448,6.298642168126437],[100.18304048089797,6.299272803889838],[100.18272967142714,6.299920494803781],[100.18245339135909,6.300583465531929],[100.18221239795834,6.301259898862506],[100.18200735177102,6.301947940689673],[100.18183881481448,6.302645705096127],[100.18170724903682,6.303351279522675],[100.18161301505066,6.304062730010854],[100.18155637114482,6.304778106504082],[100.18153747257632,6.305495448192812],[100.18155637114482,6.306212788889133],[100.18161301505066,6.306928162416048],[100.18170724903682,6.307639607996517],[100.18183881481448,6.308345175627695],[100.18200735177102,6.309042931425596],[100.18221239795834,6.309730962925337],[100.18245339135909,6.31040738432274],[100.18272967142714,6.311070341642763],[100.18304048089797,6.311718017820484],[100.18338496786448,6.312348637681022],[100.18376218811183,6.312960472804505],[100.1841711077055,6.313551846262777],[100.18461060582536,6.314121137215044],[100.18507947783756,6.314666785349665],[100.18557643859656,6.315187295160007],[100.18610012596744,6.315681240042705],[100.18664910455952,6.316147266207053],[100.18722186966062,6.316584096384743],[100.18781685136145,6.316990533329971],[100.18843241885845,6.317365463100137],[100.18906688492399,6.317707858108303],[100.18971851053062,6.318016779938984],[100.19038550961788,6.318291381919581],[100.19106605398763,6.318530911440299],[100.19175827831505,6.318734712016497],[100.19246028526138,6.318902225087471],[100.19317015067435,6.319032991546971],[100.19388592886224,6.319126653001176],[100.19460565792676,6.319182952750763],[100.1953273651406,6.319201736494239],[100.19604907235443,6.319182952750763],[100.19676880141897,6.319126653001176],[100.19748457960685,6.319032991546971],[100.19819444501982,6.318902225087471],[100.19889645196615,6.318734712016497],[100.19958867629357,6.318530911440299],[100.2002692206633,6.318291381919581],[100.20093621975057,6.318016779938984],[100.20158784535721,6.317707858108303],[100.20222231142273,6.317365463100137],[100.20283787891975,6.316990533329971],[100.20343286062057,6.316584096384743],[100.20400562572168,6.316147266207053],[100.20455460431376,6.315681240042705],[100.20507829168463,6.315187295160007],[100.20557525244362,6.314666785349665],[100.20604412445584,6.314121137215044],[100.20648362257569,6.313551846262777],[100.20689254216937,6.312960472804505],[100.20726976241671,6.312348637681022],[100.20761424938323,6.311718017820484],[100.20792505885406,6.311070341642763],[100.2082013389221,6.31040738432274],[100.20844233232285,6.309730962925337],[100.20864737851018,6.309042931425596],[100.20881591546672,6.308345175627695],[100.20894748124438,6.307639607996517],[100.20904171523054,6.306928162416048],[100.20909835913638,6.306212788889133],[100.20911725770488,6.305495448192812]]],"bbox":[100.12711269440375,6.291788797578779,100.3278388693746,6.662020761923416]}
