{"type":"Topology","objects":{"PLS_SE-13":{"type":"GeometryCollection","geometries":[{"type":"Polygon","arcs":[[0]],"properties":{"state":"Perlis","parlimen":"P.001 Padang Besar","code_parlimen":"P.001","dun":"N.01 Titi Tinggi","code_dun":"N.01"}},{"type":"Polygon","arcs":[[1]],"properties":{"state":"Perlis","parlimen":"P.001 Padang Besar","code_parlimen":"P.001","dun":"N.02 Beseri","code_dun":"N.02"}},{"type":"Polygon","arcs":[[2]],"properties":{"state":"Perlis","parlimen":"P.001 Padang Besar","code_parlimen":"P.001","dun":"N.03 Chuping","code_dun":"N.03"}},{"type":"Polygon","arcs":[[3]],"properties":{"state":"Perlis","parlimen":"P.001 Padang Besar","code_parlimen":"P.001","dun":"N.04 Mata Ayer","code_dun":"N.04"}},{"type":"Polygon","arcs":[[4]],"properties":{"state":"Perlis","parlimen":"P.001 Padang Besar","code_parlimen":"P.001","dun":"N.05 Santan","code_dun":"N.05"}},{"type":"Polygon","arcs":[[5]],"properties":{"state":"Perlis","parlimen":"P.002 Kangar","code_parlimen":"P.002","dun":"N.06 Bintong","code_dun":"N.06"}},{"type":"Polygon","arcs":[[6]],"properties":{"state":"Perlis","parlimen":"P.002 Kangar","code_parlimen":"P.002","dun":"N.07 Sena","code_dun":"N.07"}},{"type":"Polygon","arcs":[[7]],"properties":{"state":"Perlis","parlimen":"P.002 Kangar","code_parlimen":"P.002","dun":"N.08 Indera Kayangan","code_dun":"N.08"}},{"type":"Polygon","arcs":[[8]],"properties":{"state":"Perlis","parlimen":"P.002 Kangar","code_parlimen":"P.002","dun":"N.09 Kuala Perlis","code_dun":"N.09"}},{"type":"Polygon","arcs":[[9]],"properties":{"state":"Perlis","parlimen":"P.002 Kangar","code_parlimen":"P.002","dun":"N.10 Kayang","code_dun":"N.10"}},{"type":"Polygon","arcs":[[10]],"properties":{"state":"Perlis","parlimen":"P.003 Arau","code_parlimen":"P.003","dun":"N.11 Pauh","code_dun":"N.11"}},{"type":"Polygon","arcs":[[11]],"properties":{"state":"Perlis","parlimen":"P.003 Arau","code_parlimen":"P.003","dun":"N.12 Tambun Tulang","code_dun":"N.12"}},{"type":"Polygon","arcs":[[12]],"properties":{"state":"Perlis","parlimen":"P.003 Arau","code_parlimen":"P.003","dun":"N.13 Guar Sanji","code_dun":"N.13"}},{"type":"Polygon","arcs":[[13]],"properties":{"state":"Perlis","parlimen":"P.003 Arau","code_parlimen":"P.003","dun":"N.14 Simpang Empat","code_dun":"N.14"}},{"type":"Polygon","arcs":[[14]],"properties":{"state":"Perlis","parlimen":"P.003 Arau","code_parlimen":"P.003","dun":"N.15 Sanglang","code_dun":"N.15"}}]}},"arcs":[[[100.28096795952207,6.647868637029593],[100.28094907420463,6.647152284404275],[100.28089247001562,6.646437894212225],[100.28079830210321,6.64572742456024],[100.28066682857508,6.645022822817554],[100.28049840979104,6.644326020278046],[100.28029350737529,6.643638926866294],[100.2800526829511,6.642963425902281],[100.27977659660144,6.642301368938817],[100.27946600505985,6.641654570685993],[100.27912175963614,6.641024804036562],[100.2787448038831,6.640413795205855],[100.27833617101021,6.639823218999592],[100.27789698105182,6.639254694222567],[100.27742843779706,6.638709779240774],[100.2769318254904,6.638189967709152],[100.27640850531168,6.637696684476746],[100.27585991164514,6.637231281680316],[100.27528754814786,6.636795035037416],[100.27469298362841,6.63638914034881],[100.27407784774684,6.636014710219994],[100.27344382654779,6.635672771010835],[100.27279265783933,6.635364260021511],[100.27212612642967,6.635090022922799],[100.27144605923499,6.63485081143732],[100.27075432027223,6.63464728127861],[100.27005280554982,6.634479990353212],[100.26934343787084,6.634349397231067],[100.2686281615628,6.634255859888149],[100.26790893714835,6.634199634724947],[100.26718773597158,6.634180875863549],[100.26646653479482,6.634199634724947],[100.26574731038036,6.634255859888149],[100.26503203407232,6.634349397231067],[100.26432266639335,6.634479990353212],[100.26362115167093,6.63464728127861],[100.26292941270819,6.63485081143732],[100.26224934551351,6.635090022922799],[100.26158281410383,6.635364260021511],[100.26093164539539,6.635672771010835],[100.26029762419634,6.636014710219994],[100.25968248831475,6.63638914034881],[100.25908792379532,6.636795035037416],[100.25851556029804,6.637231281680316],[100.25796696663149,6.637696684476746],[100.25744364645277,6.638189967709152],[100.25694703414612,6.638709779240774],[100.25647849089134,6.639254694222567],[100.25603930093295,6.639823218999592],[100.25563066806008,6.640413795205855],[100.25525371230704,6.641024804036562],[100.25490946688332,6.641654570685993],[100.25459887534174,6.642301368938817],[100.25432278899208,6.642963425902281],[100.25408196456789,6.643638926866294],[100.25387706215213,6.644326020278046],[100.25370864336809,6.645022822817554],[100.25357716983997,6.64572742456024],[100.25348300192756,6.646437894212225],[100.25342639773855,6.647152284404275],[100.25340751242109,6.647868637029593],[100.25342639773855,6.648584988611066],[100.25348300192756,6.649299375682954],[100.25357716983997,6.650009840172657],[100.25370864336809,6.650714434767504],[100.25387706215213,6.651411228251948],[100.25408196456789,6.652098310800592],[100.25432278899208,6.652773799212494],[100.25459887534174,6.653435842072348],[100.25490946688332,6.6540826248246],[100.25525371230704,6.654712374746323],[100.25563066806008,6.655323365805452],[100.25603930093295,6.655913923390991],[100.25647849089134,6.656482428902125],[100.25694703414612,6.657027324183983],[100.25744364645277,6.657547115797432],[100.25796696663149,6.658040379111664],[100.25851556029804,6.658505762208146],[100.25908792379532,6.658941989585167],[100.25968248831475,6.659347865653037],[100.26029762419634,6.659722278010262],[100.26093164539539,6.660064200491727],[100.26158281410383,6.660372695980477],[100.26224934551351,6.660646918975592],[100.26292941270819,6.66088611790896],[100.26362115167093,6.661089637204575],[100.26432266639335,6.661256919074884],[100.26503203407232,6.661387505049203],[100.26574731038036,6.661481037229852],[100.26646653479482,6.661537259272878],[100.26718773597158,6.661556017090418],[100.26790893714835,6.661537259272878],[100.2686281615628,6.661481037229852],[100.26934343787084,6.661387505049203],[100.27005280554982,6.661256919074884],[100.27075432027223,6.661089637204575],[100.27144605923499,6.66088611790896],[100.27212612642967,6.660646918975592],[100.27279265783933,6.660372695980477],[100.27344382654779,6.660064200491727],[100.27407784774684,6.659722278010262],[100.27469298362841,6.659347865653037],[100.27528754814786,6.658941989585167],[100.27585991164514,6.658505762208146],[100.27640850531168,6.658040379111664],[100.2769318254904,6.657547115797432],[100.27742843779706,6.657027324183983],[100.27789698105182,6.656482428902125],[100.27833617101021,6.655913923390991],[100.2787448038831,6.655323365805452],[100.27912175963614,6.654712374746323],[100.27946600505985,6.6540826248246],[100.27977659660144,6.653435842072348],[100.2800526829511,6.652773799212494],[100.28029350737529,6.652098310800592],[100.28049840979104,6.651411228251948],[100.28066682857508,6.650714434767504],[100.28079830210321,6.650009840172657],[100.28089247001562,6.649299375682954],[100.28094907420463,6.648584988611066],[100.28096795952207,6.647868637029593]],[[100.22350041025601,6.605646649213683],[100.22348152493855,6.604930235260299],[100.22342492074955,6.604215783914769],[100.22333075283713,6.603505253451444],[100.22319927930901,6.602800591406077],[100.22303086052499,6.602103729237633],[100.22282595810923,6.601416577033937],[100.22258513368502,6.600741018275824],[100.22230904733536,6.600078904674187],[100.22199845579378,6.59943205109401],[100.22165421037008,6.598802230579266],[100.22127725461702,6.598191169492528],[100.22086862174415,6.597600542782277],[100.22042943178576,6.597031969391262],[100.21996088853098,6.596487007818235],[100.21946427622433,6.595967151845346],[100.21894095604563,6.595473826442895],[100.21839236237908,6.595008383862763],[100.21781999888178,6.594572099931027],[100.21722543436235,6.594166170550153],[100.21661029848076,6.593791708420275],[100.21597627728171,6.593449739988484],[100.21532510857327,6.593141202634652],[100.21465857716359,6.592866942101397],[100.21397850996891,6.592627710175231],[100.21328677100617,6.592424162625401],[100.21258525628375,6.592256857405839],[100.21187588860478,6.592126253125418],[100.21116061229674,6.592032707790503],[100.21044138788228,6.591976477823392],[100.20972018670552,6.591957717359236],[100.20899898552875,6.591976477823392],[100.2082797611143,6.592032707790503],[100.20756448480627,6.592126253125418],[100.20685511712729,6.592256857405839],[100.20615360240487,6.592424162625401],[100.20546186344211,6.592627710175231],[100.20478179624745,6.592866942101397],[100.20411526483777,6.593141202634652],[100.20346409612931,6.593449739988484],[100.20283007493026,6.593791708420275],[100.20221493904869,6.594166170550153],[100.20162037452924,6.594572099931027],[100.20104801103197,6.595008383862763],[100.20049941736542,6.595473826442895],[100.1999760971867,6.595967151845346],[100.19947948488004,6.596487007818235],[100.19901094162527,6.597031969391262],[100.19857175166689,6.597600542782277],[100.198163118794,6.598191169492528],[100.19778616304096,6.598802230579266],[100.19744191761725,6.59943205109401],[100.19713132607566,6.600078904674187],[100.19685523972602,6.600741018275824],[100.19661441530181,6.601416577033937],[100.19640951288606,6.602103729237633],[100.19624109410202,6.602800591406077],[100.1961096205739,6.603505253451444],[100.19601545266148,6.604215783914769],[100.19595884847249,6.604930235260299],[100.19593996315503,6.605646649213683],[100.19595884847249,6.60636306212971],[100.19601545266148,6.607077510374529],[100.1961096205739,6.607788035707798],[100.19624109410202,6.608492690649918],[100.19640951288606,6.609189543819771],[100.19661441530181,6.609876685228117],[100.19685523972602,6.610552231512413],[100.19713132607566,6.611214331098426],[100.19744191761725,6.611861169274731],[100.19778616304096,6.612490973166103],[100.198163118794,6.613102016592124],[100.19857175166689,6.613692624797794],[100.19901094162527,6.614261179043105],[100.19947948488004,6.614806121039067],[100.1999760971867,6.61532595721804],[100.20049941736542,6.615819262826563],[100.20104801103197,6.616284685829631],[100.20162037452924,6.616720950615674],[100.20221493904869,6.617126861491954],[100.20283007493026,6.617501305961128],[100.20346409612931,6.617843257769558],[100.20411526483777,6.618151779719506],[100.20478179624745,6.618426026237127],[100.20546186344211,6.618665245689474],[100.20615360240487,6.618868782443967],[100.20685511712729,6.619036078664939],[100.20756448480627,6.619166675842125],[100.2082797611143,6.619260216046958],[100.20899898552875,6.619316442913371],[100.20972018670552,6.619335202340183],[100.21044138788228,6.619316442913371],[100.21116061229674,6.619260216046958],[100.21187588860478,6.619166675842125],[100.21258525628375,6.619036078664939],[100.21328677100617,6.618868782443967],[100.21397850996891,6.618665245689474],[100.21465857716359,6.618426026237127],[100.21532510857327,6.618151779719506],[100.21597627728171,6.617843257769558],[100.21661029848076,6.617501305961128],[100.21722543436235,6.617126861491954],[100.21781999888178,6.616720950615674],[100.21839236237908,6.616284685829631],[100.21894095604563,6.615819262826563],[100.21946427622433,6.61532595721804],[100.21996088853098,6.614806121039067],[100.22042943178576,6.614261179043105],[100.22086862174415,6.613692624797794],[100.22127725461702,6.613102016592124],[100.22165421037008,6.612490973166103],[100.22199845579378,6.611861169274731],[100.22230904733536,6.611214331098426],[100.22258513368502,6.610552231512413],[100.22282595810923,6.609876685228117],[100.22303086052499,6.609189543819771],[100.22319927930901,6.608492690649918],[100.22333075283713,6.607788035707798],[100.22342492074955,6.607077510374529],[100.22348152493855,6.60636306212971],[100.22350041025601,6.605646649213683]],[[100.32372131394472,6.530273568202772],[100.32370242862726,6.529557045736076],[100.32364582443826,6.528842486186232],[100.32355165652584,6.52813184812403],[100.32342018299772,6.527427079379932],[100.3232517642137,6.526730111705022],[100.32304686179793,6.526042855475878],[100.32280603737372,6.52536719445797],[100.32252995102408,6.524704980641928],[100.32221935948249,6.524058029166734],[100.32187511405878,6.523428113344022],[100.32149815830574,6.522816959796792],[100.32108952543287,6.522226243726147],[100.32065033547447,6.521657584318925],[100.32018179221971,6.521112540308746],[100.31968517991305,6.520592605702825],[100.31916185973434,6.520099205686088],[100.31861326606779,6.519633692713996],[100.31804090257052,6.519197342804669],[100.31744633805107,6.518791352040539],[100.31683120216948,6.518416833289142],[100.31619718097043,6.518074813151914],[100.31554601226198,6.517766229149739],[100.3148794808523,6.517491927152342],[100.31419941365763,6.517252659059262],[100.31350767469488,6.517049080738278],[100.31280615997245,6.516881750227187],[100.31209679229349,6.516751126203753],[100.31138151598546,6.516657566728155],[100.31066229157099,6.51660132826119],[100.30994109039423,6.516582564961175],[100.30921988921746,6.51660132826119],[100.308500664803,6.516657566728155],[100.30778538849498,6.516751126203753],[100.307076020816,6.516881750227187],[100.30637450609359,6.517049080738278],[100.30568276713085,6.517252659059262],[100.30500269993615,6.517491927152342],[100.30433616852648,6.517766229149739],[100.30368499981803,6.518074813151914],[100.30305097861898,6.518416833289142],[100.3024358427374,6.518791352040539],[100.30184127821796,6.519197342804669],[100.30126891472068,6.519633692713996],[100.30072032105413,6.520099205686088],[100.30019700087541,6.520592605702825],[100.29970038856877,6.521112540308746],[100.29923184531398,6.521657584318925],[100.2987926553556,6.522226243726147],[100.29838402248272,6.522816959796792],[100.29800706672967,6.523428113344022],[100.29766282130598,6.524058029166734],[100.29735222976439,6.524704980641928],[100.29707614341473,6.52536719445797],[100.29683531899053,6.526042855475878],[100.29663041657477,6.526730111705022],[100.29646199779073,6.527427079379932],[100.29633052426261,6.52813184812403],[100.29623635635019,6.528842486186232],[100.2961797521612,6.529557045736076],[100.29616086684375,6.530273568202772],[100.2961797521612,6.530990089643765],[100.29623635635019,6.531704646127657],[100.29633052426261,6.532415279117294],[100.29646199779073,6.533120040837797],[100.29663041657477,6.533816999615005],[100.29683531899053,6.534504245169825],[100.29707614341473,6.535179893853745],[100.29735222976439,6.535842093811297],[100.29766282130598,6.536489030055298],[100.29800706672967,6.537118929441018],[100.29838402248272,6.537730065525527],[100.2987926553556,6.53832076329904],[100.29923184531398,6.538889403775205],[100.29970038856877,6.539434428427791],[100.30019700087541,6.539954343461697],[100.30072032105413,6.54044772390642],[100.30126891472068,6.540913217520931],[100.30184127821796,6.541349548499189],[100.3024358427374,6.541755520966186],[100.30305097861898,6.542130022254875],[100.30368499981803,6.542472025955086],[100.30433616852648,6.54278059472608],[100.30500269993615,6.543054882864974],[100.30568276713085,6.543294138624079],[100.30637450609359,6.543497706270752],[100.307076020816,6.54366502788414],[100.30778538849498,6.543795644883955],[100.308500664803,6.543889199287],[100.30921988921746,6.543945434688013],[100.30994109039423,6.543964196962312],[100.31066229157099,6.543945434688013],[100.31138151598546,6.543889199287],[100.31209679229349,6.543795644883955],[100.31280615997245,6.54366502788414],[100.31350767469488,6.543497706270752],[100.31419941365763,6.543294138624079],[100.3148794808523,6.543054882864974],[100.31554601226198,6.54278059472608],[100.31619718097043,6.542472025955086],[100.31683120216948,6.542130022254875],[100.31744633805107,6.541755520966186],[100.31804090257052,6.541349548499189],[100.31861326606779,6.540913217520931],[100.31916185973434,6.54044772390642],[100.31968517991305,6.539954343461697],[100.32018179221971,6.539434428427791],[100.32065033547447,6.538889403775205],[100.32108952543287,6.53832076329904],[100.32149815830574,6.537730065525527],[100.32187511405878,6.537118929441018],[100.32221935948249,6.536489030055298],[100.32252995102408,6.535842093811297],[100.32280603737372,6.535179893853745],[100.32304686179793,6.534504245169825],[100.3232517642137,6.533816999615005],[100.32342018299772,6.533120040837797],[100.32355165652584,6.532415279117294],[100.32364582443826,6.531704646127657],[100.32370242862726,6.530990089643765],[100.32372131394472,6.530273568202772]],[[100.27290584782108,6.47938176260573],[100.27288696250363,6.478665167572223],[100.27283035831462,6.47795053566233],[100.27273619040221,6.477239825645015],[100.27260471687408,6.476534985547832],[100.27243629809006,6.475837947317213],[100.2722313956743,6.475150621522864],[100.2719905712501,6.474474892120575],[100.27171448490046,6.473812611288007],[100.27140389335885,6.473165594347442],[100.27105964793516,6.472535614789404],[100.27068269218212,6.471924399411122],[100.27027405930923,6.471333623582625],[100.26983486935083,6.470764906653953],[100.26936632609608,6.470219807515779],[100.26886971378941,6.469699820325837],[100.2683463936107,6.469206370412532],[100.26779779994416,6.468740810367519],[100.26722543644688,6.468304416337295],[100.26663087192743,6.467898384524648],[100.26601573604584,6.467523827909013],[100.26538171484681,6.467181773195123],[100.26473054613837,6.466873157998068],[100.26406401472867,6.466598828272608],[100.263383947534,6.466359535993853],[100.26269220857124,6.466155937095494],[100.26199069384883,6.465988589671371],[100.26128132616986,6.465857952445353],[100.26056604986182,6.465764383513546],[100.25984682544735,6.465708139362548],[100.2591256242706,6.465689374166121],[100.25840442309384,6.465708139362548],[100.25768519867938,6.465764383513546],[100.25696992237134,6.465857952445353],[100.25626055469237,6.465988589671371],[100.25555903996997,6.466155937095494],[100.25486730100721,6.466359535993853],[100.25418723381253,6.466598828272608],[100.25352070240284,6.466873157998068],[100.2528695336944,6.467181773195123],[100.25223551249535,6.467523827909013],[100.25162037661377,6.467898384524648],[100.25102581209433,6.468304416337295],[100.25045344859704,6.468740810367519],[100.2499048549305,6.469206370412532],[100.24938153475178,6.469699820325837],[100.24888492244513,6.470219807515779],[100.24841637919036,6.470764906653953],[100.24797718923197,6.471333623582625],[100.24756855635908,6.471924399411122],[100.24719160060604,6.472535614789404],[100.24684735518234,6.473165594347442],[100.24653676364075,6.473812611288007],[100.2462606772911,6.474474892120575],[100.24601985286691,6.475150621522864],[100.24581495045115,6.475837947317213],[100.2456465316671,6.476534985547832],[100.24551505813899,6.477239825645015],[100.24542089022657,6.47795053566233],[100.24536428603756,6.478665167572223],[100.24534540072011,6.47938176260573],[100.24536428603756,6.480098356621371],[100.24542089022657,6.480812985488821],[100.24551505813899,6.481523690472413],[100.2456465316671,6.482228523599779],[100.24581495045115,6.482925553000847],[100.24601985286691,6.483612868202639],[100.2462606772911,6.484288585365428],[100.24653676364075,6.484950852445635],[100.24684735518234,6.485597854271681],[100.24719160060604,6.486227817518601],[100.24756855635908,6.48683901556791],[100.24797718923197,6.487429773239421],[100.24841637919036,6.487998471382046],[100.24888492244513,6.488543551310904],[100.24938153475178,6.489063519078738],[100.2499048549305,6.489556949569921],[100.25045344859704,6.490022490405631],[100.25102581209433,6.490458865649794],[100.25162037661377,6.490864879305457],[100.25223551249535,6.491239418592106],[100.2528695336944,6.491581456994891],[100.25352070240284,6.491890057077429],[100.25418723381253,6.492164373050526],[100.25486730100721,6.492403653089782],[100.25555903996997,6.492607241395583],[100.25626055469237,6.492774579990156],[100.25696992237134,6.492905210246371],[100.25768519867938,6.492998774144453],[100.25840442309384,6.493055015252995],[100.2591256242706,6.493073779431557],[100.25984682544735,6.493055015252995],[100.26056604986182,6.492998774144453],[100.26128132616986,6.492905210246371],[100.26199069384883,6.492774579990156],[100.26269220857124,6.492607241395583],[100.263383947534,6.492403653089782],[100.26406401472867,6.492164373050526],[100.26473054613837,6.491890057077429],[100.26538171484681,6.491581456994891],[100.26601573604584,6.491239418592106],[100.26663087192743,6.490864879305457],[100.26722543644688,6.490458865649794],[100.26779779994416,6.490022490405631],[100.2683463936107,6.489556949569921],[100.26886971378941,6.489063519078738],[100.26936632609608,6.488543551310904],[100.26983486935083,6.487998471382046],[100.27027405930923,6.487429773239421],[100.27068269218212,6.48683901556791],[100.27105964793516,6.486227817518601],[100.27140389335885,6.485597854271681],[100.27171448490046,6.484950852445635],[100.2719905712501,6.484288585365428],[100.2722313956743,6.483612868202639],[100.27243629809006,6.482925553000847],[100.27260471687408,6.482228523599779],[100.27273619040221,6.481523690472413],[100.27283035831462,6.480812985488821],[100.27288696250363,6.480098356621371],[100.27290584782108,6.47938176260573]],[[100.23360608365869,6.506183620581736],[100.23358719834123,6.50546706369462],[100.23353059415221,6.504752469822443],[100.2334364262398,6.50404179762995],[100.23330495271169,6.503336995041125],[100.23313653392766,6.502639993899705],[100.2329316315119,6.501952704673847],[100.23269080708769,6.501277011219331],[100.23241472073805,6.500614765615477],[100.23210412919646,6.499967783088223],[100.23175988377277,6.499337837034059],[100.23138292801971,6.498726654158602],[100.23097429514682,6.498135909743121],[100.23053510518844,6.497567223051843],[100.23006656193367,6.497022152892898],[100.22956994962702,6.496502193344851],[100.22904662944829,6.496008769660754],[100.22849803578175,6.495543234360622],[100.22792567228447,6.495106863523486],[100.22733110776504,6.494700853288866],[100.22671597188344,6.49432631657736],[100.2260819506844,6.493984280039424],[100.22543078197596,6.493675681240608],[100.22476425056627,6.493401366090982],[100.22408418337159,6.493162086525934],[100.22339244440884,6.492958498444502],[100.22269092968642,6.492791159911072],[100.22198156200746,6.492660529625265],[100.22126628569943,6.49256696566431],[100.22054706128496,6.49251072450124],[100.2198258601082,6.492491960301701],[100.21910465893144,6.49251072450124],[100.21838543451697,6.49256696566431],[100.21767015820895,6.492660529625265],[100.21696079052997,6.492791159911072],[100.21625927580756,6.492958498444502],[100.2155675368448,6.493162086525934],[100.21488746965014,6.493401366090982],[100.21422093824044,6.493675681240608],[100.21356976953199,6.493984280039424],[100.21293574833294,6.49432631657736],[100.21232061245136,6.494700853288866],[100.21172604793192,6.495106863523486],[100.21115368443463,6.495543234360622],[100.2106050907681,6.496008769660754],[100.21008177058938,6.496502193344851],[100.20958515828272,6.497022152892898],[100.20911661502797,6.497567223051843],[100.20867742506957,6.498135909743121],[100.20826879219668,6.498726654158602],[100.20789183644364,6.499337837034059],[100.20754759101995,6.499967783088223],[100.20723699947834,6.500614765615477],[100.2069609131287,6.501277011219331],[100.2067200887045,6.501952704673847],[100.20651518628874,6.502639993899705],[100.20634676750471,6.503336995041125],[100.20621529397658,6.50404179762995],[100.20612112606416,6.504752469822443],[100.20606452187516,6.50546706369462],[100.20604563655772,6.506183620581736],[100.20606452187516,6.506900176446839],[100.20612112606416,6.507614767264208],[100.20621529397658,6.508325434402519],[100.20634676750471,6.509030229993195],[100.20651518628874,6.509727222269175],[100.2067200887045,6.510414500859412],[100.2069609131287,6.51109018202467],[100.20723699947834,6.511752413820261],[100.20754759101995,6.51239938117155],[100.20789183644364,6.5130293108483],[100.20826879219668,6.513640476324328],[100.20867742506957,6.51423120250901],[100.20911661502797,6.514799870337856],[100.20958515828272,6.515344921209408],[100.21008177058938,6.515864861256368],[100.2106050907681,6.516358265439415],[100.21115368443463,6.516823781452129],[100.21172604793192,6.517260133426833],[100.21232061245136,6.517666125430666],[100.21293574833294,6.518040644742745],[100.21356976953199,6.518382664903267],[100.21422093824044,6.518691248526117],[100.21488746965014,6.518965549867479],[100.2155675368448,6.519204817143271],[100.21625927580756,6.519408394589081],[100.21696079052997,6.519575724257071],[100.21767015820895,6.519706347544728],[100.21838543451697,6.519799906451502],[100.21910465893144,6.519856144559752],[100.2198258601082,6.519874907737277],[100.22054706128496,6.519856144559752],[100.22126628569943,6.519799906451502],[100.22198156200746,6.519706347544728],[100.22269092968642,6.519575724257071],[100.22339244440884,6.519408394589081],[100.22408418337159,6.519204817143271],[100.22476425056627,6.518965549867479],[100.22543078197596,6.518691248526117],[100.2260819506844,6.518382664903267],[100.22671597188344,6.518040644742745],[100.22733110776504,6.517666125430666],[100.22792567228447,6.517260133426833],[100.22849803578175,6.516823781452129],[100.22904662944829,6.516358265439415],[100.22956994962702,6.515864861256368],[100.23006656193367,6.515344921209408],[100.23053510518844,6.514799870337856],[100.23097429514682,6.51423120250901],[100.23138292801971,6.513640476324328],[100.23175988377277,6.5130293108483],[100.23210412919646,6.51239938117155],[100.23241472073805,6.511752413820261],[100.23269080708769,6.51109018202467],[100.2329316315119,6.510414500859412],[100.23313653392766,6.509727222269175],[100.23330495271169,6.509030229993195],[100.2334364262398,6.508325434402519],[100.23353059415221,6.507614767264208],[100.23358719834123,6.506900176446839],[100.23360608365869,6.506183620581736]],[[100.19040575780743,6.492175491440064],[100.19038687248997,6.491458914595971],[100.19033026830097,6.490744300823675],[100.19023610038856,6.490033608842444],[100.19010462686043,6.48932878663045],[100.18993620807639,6.48863176608514],[100.18973130566064,6.487944457727813],[100.18949048123643,6.487268745466563],[100.18921439488679,6.486606481432171],[100.18890380334518,6.485959480900954],[100.1885595579215,6.485329517318625],[100.18818260216845,6.484718317438716],[100.18777396929556,6.484127556588927],[100.18733477933718,6.483558854078396],[100.18686623608241,6.483013768758421],[100.18636962377575,6.482493794749016],[100.18584630359703,6.482000357342607],[100.1852977099305,6.481534809096726],[100.18472534643321,6.481098426125699],[100.18413078191377,6.480692404602119],[100.18351564603219,6.480317857477401],[100.18288162483314,6.479975811430382],[100.18223045612469,6.479667204052504],[100.18156392471502,6.479392881277269],[100.18088385752033,6.479153595060803],[100.18019211855758,6.478950001320274],[100.17949060383516,6.478782658135511],[100.1787812361562,6.478652024218796],[100.17806595984815,6.478558457657254],[100.1773467354337,6.478502214930992],[100.17662553425693,6.478483450209918],[100.17590433308017,6.478502214930992],[100.17518510866572,6.478558457657254],[100.17446983235767,6.478652024218796],[100.17376046467871,6.478782658135511],[100.17305894995629,6.478950001320274],[100.17236721099354,6.479153595060803],[100.17168714379886,6.479392881277269],[100.17102061238919,6.479667204052504],[100.17036944368074,6.479975811430382],[100.1697354224817,6.480317857477401],[100.1691202866001,6.480692404602119],[100.16852572208066,6.481098426125699],[100.16795335858338,6.481534809096726],[100.16740476491684,6.482000357342607],[100.16688144473812,6.482493794749016],[100.16638483243146,6.483013768758421],[100.16591628917669,6.483558854078396],[100.16547709921831,6.484127556588927],[100.16506846634543,6.484718317438716],[100.16469151059239,6.485329517318625],[100.16434726516867,6.485959480900954],[100.1640366736271,6.486606481432171],[100.16376058727744,6.487268745466563],[100.16351976285323,6.487944457727813],[100.16331486043747,6.48863176608514],[100.16314644165344,6.48932878663045],[100.16301496812532,6.490033608842444],[100.16292080021292,6.490744300823675],[100.1628641960239,6.491458914595971],[100.16284531070644,6.492175491440064],[100.1628641960239,6.492892067264292],[100.16292080021292,6.493606677988231],[100.16301496812532,6.494317364925979],[100.16314644165344,6.495022180154645],[100.16331486043747,6.495719191853269],[100.16351976285323,6.496406489597479],[100.16376058727744,6.497082189595477],[100.1640366736271,6.497744439850829],[100.16434726516867,6.498391425238191],[100.16469151059239,6.499021372477761],[100.16506846634543,6.49963255499506],[100.16547709921831,6.500223297652624],[100.16591628917669,6.500791981340631],[100.16638483243146,6.501337047414014],[100.16688144473812,6.501857001963629],[100.16740476491684,6.50235041991022],[100.16795335858338,6.502815948909522],[100.16852572208066,6.503252313058027],[100.1691202866001,6.50365831638938],[100.1697354224817,6.504032846151502],[100.17036944368074,6.504374875855762],[100.17102061238919,6.504683468089786],[100.17168714379886,6.504957777085992],[100.17236721099354,6.505197051039193],[100.17305894995629,6.505400634166594],[100.17376046467871,6.505567968504669],[100.17446983235767,6.505698595438043],[100.17518510866572,6.505792156956104],[100.17590433308017,6.505848396634007],[100.17662553425693,6.505867160335243],[100.1773467354337,6.505848396634007],[100.17806595984815,6.505792156956104],[100.1787812361562,6.505698595438043],[100.17949060383516,6.505567968504669],[100.18019211855758,6.505400634166594],[100.18088385752033,6.505197051039193],[100.18156392471502,6.504957777085992],[100.18223045612469,6.504683468089786],[100.18288162483314,6.504374875855762],[100.18351564603219,6.504032846151502],[100.18413078191377,6.50365831638938],[100.18472534643321,6.503252313058027],[100.1852977099305,6.502815948909522],[100.18584630359703,6.50235041991022],[100.18636962377575,6.501857001963629],[100.18686623608241,6.501337047414014],[100.18733477933718,6.500791981340631],[100.18777396929556,6.500223297652624],[100.18818260216845,6.49963255499506],[100.1885595579215,6.499021372477761],[100.18890380334518,6.498391425238191],[100.18921439488679,6.497744439850829],[100.18949048123643,6.497082189595477],[100.18973130566064,6.496406489597479],[100.18993620807639,6.495719191853269],[100.19010462686043,6.495022180154645],[100.19023610038856,6.494317364925979],[100.19033026830097,6.493606677988231],[100.19038687248997,6.492892067264292],[100.19040575780743,6.492175491440064]],[[100.23573601449365,6.442105190850669],[100.23571712917621,6.441388543023084],[100.23566052498721,6.44067385846954],[100.23556635707479,6.439963096103258],[100.23543488354666,6.439258204095124],[100.23526646476263,6.438561114533711],[100.23506156234687,6.437873738129193],[100.23482073792266,6.437197958975853],[100.23454465157303,6.436535629387429],[100.23423406003143,6.43588856481951],[100.23388981460774,6.435258538892839],[100.2335128588547,6.434647278531323],[100.2331042259818,6.434056459227901],[100.2326650360234,6.433487700451348],[100.23219649276865,6.43294256120662],[100.23169988046199,6.432422535760903],[100.23117656028327,6.431929049547051],[100.23062796661674,6.43146345525572],[100.23005560311945,6.431027029126855],[100.22946103860001,6.430620967450783],[100.22884590271843,6.430246383288365],[100.22821188151939,6.42990430341943],[100.22756071281093,6.429595665527653],[100.22689418140125,6.42932131562964],[100.22621411420657,6.429082005755471],[100.22552237524381,6.428878391886776],[100.22482086052139,6.428711032158206],[100.22411149284244,6.428580385327103],[100.2233962165344,6.428486809515795],[100.22267699211993,6.428430561229581],[100.22195579094317,6.428411794653492],[100.22123458976641,6.428430561229581],[100.22051536535196,6.428486809515795],[100.21980008904391,6.428580385327103],[100.21909072136495,6.428711032158206],[100.21838920664253,6.428878391886776],[100.21769746767978,6.429082005755471],[100.2170174004851,6.42932131562964],[100.21635086907541,6.429595665527653],[100.21569970036697,6.42990430341943],[100.21506567916792,6.430246383288365],[100.21445054328635,6.430620967450783],[100.2138559787669,6.431027029126855],[100.21328361526962,6.43146345525572],[100.21273502160308,6.431929049547051],[100.21221170142435,6.432422535760903],[100.2117150891177,6.43294256120662],[100.21124654586293,6.433487700451348],[100.21080735590455,6.434056459227901],[100.21039872303166,6.434647278531323],[100.21002176727862,6.435258538892839],[100.20967752185491,6.43588856481951],[100.20936693031332,6.436535629387429],[100.20909084396368,6.437197958975853],[100.20885001953947,6.437873738129193],[100.20864511712371,6.438561114533711],[100.20847669833968,6.439258204095124],[100.20834522481157,6.439963096103258],[100.20825105689914,6.44067385846954],[100.20819445271013,6.441388543023084],[100.20817556739269,6.442105190850669],[100.20819445271013,6.442821837666138],[100.20825105689914,6.443536519194439],[100.20834522481157,6.444247276555482],[100.20847669833968,6.444952161633227],[100.20864511712371,6.44564924241501],[100.20885001953947,6.446336608286881],[100.20909084396368,6.447012375269942],[100.20936693031332,6.447674691183787],[100.20967752185491,6.448321740722657],[100.21002176727862,6.448951750430472],[100.21039872303166,6.449562993561027],[100.21080735590455,6.450153794810145],[100.21124654586293,6.45072253490688],[100.2117150891177,6.451267655050926],[100.21221170142435,6.45178766118438],[100.21273502160308,6.452281128085967],[100.21328361526962,6.452746703276617],[100.2138559787669,6.453183110725664],[100.21445054328635,6.453589154347445],[100.21506567916792,6.45396372127889],[100.21569970036697,6.454305784928955],[100.21635086907541,6.454614407791707],[100.2170174004851,6.454888744015142],[100.21769746767978,6.45512804171902],[100.21838920664253,6.455331645055067],[100.21909072136495,6.455498996004021],[100.21980008904391,6.455629635904721],[100.22051536535196,6.45572320671079],[100.22123458976641,6.455779451971763],[100.22195579094317,6.455798217535735],[100.22267699211993,6.455779451971763],[100.2233962165344,6.45572320671079],[100.22411149284244,6.455629635904721],[100.22482086052139,6.455498996004021],[100.22552237524381,6.455331645055067],[100.22621411420657,6.45512804171902],[100.22689418140125,6.454888744015142],[100.22756071281093,6.454614407791707],[100.22821188151939,6.454305784928955],[100.22884590271843,6.45396372127889],[100.22946103860001,6.453589154347445],[100.23005560311945,6.453183110725664],[100.23062796661674,6.452746703276617],[100.23117656028327,6.452281128085967],[100.23169988046199,6.45178766118438],[100.23219649276865,6.451267655050926],[100.2326650360234,6.45072253490688],[100.2331042259818,6.450153794810145],[100.2335128588547,6.449562993561027],[100.23388981460774,6.448951750430472],[100.23423406003143,6.448321740722657],[100.23454465157303,6.447674691183787],[100.23482073792266,6.447012375269942],[100.23506156234687,6.446336608286881],[100.23526646476263,6.44564924241501],[100.23543488354666,6.444952161633227],[100.23556635707479,6.444247276555482],[100.23566052498721,6.443536519194439],[100.23571712917621,6.442821837666138],[100.23573601449365,6.442105190850669]],[[100.21263682080419,6.423547556520774],[100.21261793548673,6.422830882523471],[100.21256133129772,6.422116171874799],[100.21246716338531,6.42140538355944],[100.2123356898572,6.420700465819397],[100.21216727107314,6.420003350813649],[100.2119623686574,6.419315949322034],[100.2117215442332,6.418640145507462],[100.21144545788354,6.417977791751136],[100.21113486634196,6.417330703574697],[100.21079062091825,6.416700654663442],[100.2104136651652,6.416089372004114],[100.21000503229232,6.415498531150538],[100.20956584233394,6.414929751630344],[100.20909729907916,6.414384592505153],[100.20860068677251,6.413864548096395],[100.20807736659378,6.413371043888682],[100.20752877292725,6.412905432621777],[100.20695640942996,6.41246899058192],[100.20636184491052,6.412062914102822],[100.20574670902894,6.411688316285735],[100.2051126878299,6.411346223947702],[100.20446151912145,6.411037574806367],[100.20379498771177,6.410763214909021],[100.2031149205171,6.410523896312982],[100.20242318155434,6.410320275023659],[100.20172166683193,6.410152909195879],[100.20101229915295,6.410022257603651],[100.20029702284491,6.409928678382229],[100.19957779843047,6.409872428046236],[100.1988565972537,6.409853660786277],[100.19813539607694,6.409872428046236],[100.19741617166247,6.409928678382229],[100.19670089535443,6.410022257603651],[100.19599152767546,6.410152909195879],[100.19529001295305,6.410320275023659],[100.1945982739903,6.410523896312982],[100.19391820679562,6.410763214909021],[100.19325167538594,6.411037574806367],[100.1926005066775,6.411346223947702],[100.19196648547845,6.411688316285735],[100.19135134959686,6.412062914102822],[100.19075678507743,6.41246899058192],[100.19018442158014,6.412905432621777],[100.18963582791359,6.413371043888682],[100.18911250773489,6.413864548096395],[100.18861589542823,6.414384592505153],[100.18814735217346,6.414929751630344],[100.18770816221507,6.415498531150538],[100.18729952934218,6.416089372004114],[100.18692257358914,6.416700654663442],[100.18657832816544,6.417330703574697],[100.18626773662385,6.417977791751136],[100.18599165027419,6.418640145507462],[100.18575082585,6.419315949322034],[100.18554592343423,6.420003350813649],[100.1853775046502,6.420700465819397],[100.18524603112208,6.42140538355944],[100.18515186320967,6.422116171874799],[100.18509525902066,6.422830882523471],[100.18507637370321,6.423547556520774],[100.18509525902066,6.424264229508823],[100.18515186320967,6.424978937140816],[100.18524603112208,6.425689720465095],[100.1853775046502,6.426394631294391],[100.18554592343423,6.42709173754537],[100.18575082585,6.427779128534183],[100.18599165027419,6.428454920212928],[100.18626773662385,6.429117260333415],[100.18657832816544,6.429764333523374],[100.18692257358914,6.430394366261698],[100.18729952934218,6.431005631738856],[100.18770816221507,6.431596454589271],[100.18814735217346,6.432165215482547],[100.18861589542823,6.432710355561165],[100.18911250773489,6.433230380712337],[100.18963582791359,6.433723865662479],[100.19018442158014,6.434189457882811],[100.19075678507743,6.434625881295762],[100.19135134959686,6.435031939771687],[100.19196648547845,6.435406520406603],[100.1926005066775,6.435748596571718],[100.19325167538594,6.436057230726572],[100.19391820679562,6.436331576988066],[100.1945982739903,6.436570883448291],[100.19529001295305,6.4367744942348],[100.19599152767546,6.436941851307823],[100.19670089535443,6.437072495989291],[100.19741617166247,6.437166070219634],[100.19813539607694,6.437222317538961],[100.1988565972537,6.437241083789678],[100.19957779843047,6.437222317538961],[100.20029702284491,6.437166070219634],[100.20101229915295,6.437072495989291],[100.20172166683193,6.436941851307823],[100.20242318155434,6.4367744942348],[100.2031149205171,6.436570883448291],[100.20379498771177,6.436331576988066],[100.20446151912145,6.436057230726572],[100.2051126878299,6.435748596571718],[100.20574670902894,6.435406520406603],[100.20636184491052,6.435031939771687],[100.20695640942996,6.434625881295762],[100.20752877292725,6.434189457882811],[100.20807736659378,6.433723865662479],[100.20860068677251,6.433230380712337],[100.20909729907916,6.432710355561165],[100.20956584233394,6.432165215482547],[100.21000503229232,6.431596454589271],[100.2104136651652,6.431005631738856],[100.21079062091825,6.430394366261698],[100.21113486634196,6.429764333523374],[100.21144545788354,6.429117260333415],[100.2117215442332,6.428454920212928],[100.2119623686574,6.427779128534183],[100.21216727107314,6.42709173754537],[100.2123356898572,6.426394631294391],[100.21246716338531,6.425689720465095],[100.21256133129772,6.424978937140816],[100.21261793548673,6.424264229508823],[100.21263682080419,6.423547556520774]],[[100.15504252920758,6.410734149408551],[100.15502364389012,6.410017457385848],[100.15496703970112,6.409302728763124],[100.1548728717887,6.408591922574371],[100.15474139826058,6.407886987110471],[100.15457297947655,6.407189854578975],[100.1543680770608,6.406502435807662],[100.15412725263658,6.405826615006727],[100.15385116628693,6.405164244603848],[100.15354057474535,6.404517140166162],[100.15319632932164,6.403887075423442],[100.15281937356859,6.403275777405647],[100.15241074069571,6.402684921708613],[100.15197155073733,6.40211612790049],[100.15150300748256,6.401570955081878],[100.1510063951759,6.401050897611639],[100.1504830749972,6.400557381010016],[100.14993448133065,6.400091758050553],[100.14936211783336,6.399655305051421],[100.14876755331393,6.399249218376227],[100.14815241743233,6.398874611153985],[100.14751839623328,6.398532510227413],[100.14686722752484,6.398223853337559],[100.14620069611516,6.397949486552811],[100.14552062892048,6.397710161949277],[100.14482888995774,6.397506535548713],[100.14412737523531,6.397339165519904],[100.14341800755635,6.397208510648283],[100.14270273124832,6.397114929078033],[100.14198350683385,6.397058677330166],[100.1412623056571,6.397039909599155],[100.14054110448032,6.397058677330166],[100.13982188006587,6.397114929078033],[100.13910660375784,6.397208510648283],[100.13839723607886,6.397339165519904],[100.13769572135644,6.397506535548713],[100.1370039823937,6.397710161949277],[100.13632391519901,6.397949486552811],[100.13565738378934,6.398223853337559],[100.13500621508088,6.398532510227413],[100.13437219388183,6.398874611153985],[100.13375705800026,6.399249218376227],[100.13316249348081,6.399655305051421],[100.13259012998354,6.400091758050553],[100.13204153631699,6.400557381010016],[100.13151821613828,6.401050897611639],[100.13102160383161,6.401570955081878],[100.13055306057684,6.40211612790049],[100.13011387061846,6.402684921708613],[100.12970523774557,6.403275777405647],[100.12932828199253,6.403887075423442],[100.12898403656882,6.404517140166162],[100.12867344502723,6.405164244603848],[100.12839735867759,6.405826615006727],[100.12815653425338,6.406502435807662],[100.12795163183763,6.407189854578975],[100.12778321305359,6.407886987110471],[100.12765173952548,6.408591922574371],[100.12755757161305,6.409302728763124],[100.12750096742406,6.410017457385848],[100.1274820821066,6.410734149408551],[100.12750096742406,6.411450840423984],[100.12755757161305,6.412165566035932],[100.12765173952548,6.412876367243414],[100.12778321305359,6.413581295810104],[100.12795163183763,6.414278419604018],[100.12815653425338,6.414965827893101],[100.12839735867759,6.415641636582025],[100.12867344502723,6.416303993375807],[100.12898403656882,6.416951082856401],[100.12932828199253,6.41758113145792],[100.12970523774557,6.418192412327232],[100.13011387061846,6.418783250056422],[100.13055306057684,6.419352025274179],[100.13102160383161,6.419897179083543],[100.13151821613828,6.420417217333983],[100.13204153631699,6.420910714715819],[100.13259012998354,6.421376318666062],[100.13316249348081,6.421812753074802],[100.13375705800026,6.422218821782151],[100.13437219388183,6.422593411855923],[100.13500621508088,6.422935496641283],[100.13565738378934,6.423244138574068],[100.13632391519901,6.423518491749706],[100.1370039823937,6.423757804241218],[100.13769572135644,6.423961420159564],[100.13839723607886,6.424128781450792],[100.13910660375784,6.424259429425202],[100.13982188006587,6.424353006014168],[100.14054110448032,6.424409254751271],[100.1412623056571,6.424428021475014],[100.14198350683385,6.424409254751271],[100.14270273124832,6.424353006014168],[100.14341800755635,6.424259429425202],[100.14412737523531,6.424128781450792],[100.14482888995774,6.423961420159564],[100.14552062892048,6.423757804241218],[100.14620069611516,6.423518491749706],[100.14686722752484,6.423244138574068],[100.14751839623328,6.422935496641283],[100.14815241743233,6.422593411855923],[100.14876755331393,6.422218821782151],[100.14936211783336,6.421812753074802],[100.14993448133065,6.421376318666062],[100.1504830749972,6.420910714715819],[100.1510063951759,6.420417217333983],[100.15150300748256,6.419897179083543],[100.15197155073733,6.419352025274179],[100.15241074069571,6.418783250056422],[100.15281937356859,6.418192412327232],[100.15319632932164,6.41758113145792],[100.15354057474535,6.416951082856401],[100.15385116628693,6.416303993375807],[100.15412725263658,6.415641636582025],[100.1543680770608,6.414965827893101],[100.15457297947655,6.414278419604018],[100.15474139826058,6.413581295810104],[100.1548728717887,6.412876367243414],[100.15496703970112,6.412165566035932],[100.15502364389012,6.411450840423984],[100.15504252920758,6.410734149408551]],[[100.18989894664226,6.404745831320946],[100.18988006132481,6.404029130886388],[100.1898234571358,6.403314393875804],[100.1897292892234,6.402603579346136],[100.18959781569527,6.401898635611126],[100.18942939691124,6.401201494900961],[100.18922449449548,6.400514068065823],[100.18898367007127,6.39983823933794],[100.18870758372164,6.399175861166671],[100.18839699218003,6.398528749140436],[100.18805274675634,6.397898677009707],[100.1876757910033,6.397287371824673],[100.18726715813041,6.396696509200696],[100.18682796817201,6.396127708724882],[100.18635942491726,6.395582529516053],[100.1858628126106,6.395062465950472],[100.18533949243188,6.394568943565036],[100.18479089876534,6.394103315149077],[100.18421853526806,6.393666857035638],[100.18362397074861,6.39326076560227],[100.18300883486702,6.392886153990979],[100.18237481366799,6.392544049056435],[100.18172364495953,6.39223538855061],[100.18105711354985,6.391961018551771],[100.18037704635518,6.391721691144756],[100.17968530739242,6.391518062358954],[100.17898379267,6.391350690369677],[100.17827442499105,6.391220033967661],[100.177559148683,6.391126451301305],[100.17683992426853,6.391070198894579],[100.17611872309178,6.39105143094374],[100.17539752191502,6.391070198894579],[100.17467829750056,6.391126451301305],[100.17396302119252,6.391220033967661],[100.17325365351356,6.391350690369677],[100.17255213879113,6.391518062358954],[100.17186039982839,6.391721691144756],[100.17118033263371,6.391961018551771],[100.17051380122402,6.39223538855061],[100.16986263251557,6.392544049056435],[100.16922861131653,6.392886153990979],[100.16861347543495,6.39326076560227],[100.1680189109155,6.393666857035638],[100.16744654741822,6.394103315149077],[100.16689795375169,6.394568943565036],[100.16637463357296,6.395062465950472],[100.16587802126631,6.395582529516053],[100.16540947801154,6.396127708724882],[100.16497028805315,6.396696509200696],[100.16456165518026,6.397287371824673],[100.16418469942722,6.397898677009707],[100.16384045400352,6.398528749140436],[100.16352986246193,6.399175861166671],[100.16325377611228,6.39983823933794],[100.16301295168807,6.400514068065823],[100.16280804927231,6.401201494900961],[100.16263963048829,6.401898635611126],[100.16250815696017,6.402603579346136],[100.16241398904775,6.403314393875804],[100.16235738485874,6.404029130886388],[100.16233849954129,6.404745831320946],[100.16235738485874,6.405462530749163],[100.16241398904775,6.406177264751731],[100.16250815696017,6.406888074304709],[100.16263963048829,6.407593011148844],[100.16280804927231,6.408290143129442],[100.16301295168807,6.408977559492007],[100.16325377611228,6.409653376118985],[100.16352986246193,6.41031574069365],[100.16384045400352,6.410962837776546],[100.16418469942722,6.411592893780882],[100.16456165518026,6.41220418183321],[100.16497028805315,6.412795026505831],[100.16540947801154,6.413363808408337],[100.16587802126631,6.4139089686254],[100.16637463357296,6.41442901298884],[100.16689795375169,6.414922516172123],[100.16744654741822,6.415388125596329],[100.1680189109155,6.415824565136448],[100.16861347543495,6.416230638618472],[100.16922861131653,6.416605233097032],[100.16986263251557,6.416947321905195],[100.17051380122402,6.417255967467681],[100.17118033263371,6.417530323869916],[100.17186039982839,6.417769639176052],[100.17255213879113,6.417973257489255],[100.17325365351356,6.418140620748979],[100.17396302119252,6.418271270260118],[100.17467829750056,6.418364847949773],[100.17539752191502,6.418421097348495],[100.17611872309178,6.418439864292993],[100.17683992426853,6.418421097348495],[100.177559148683,6.418364847949773],[100.17827442499105,6.418271270260118],[100.17898379267,6.418140620748979],[100.17968530739242,6.417973257489255],[100.18037704635518,6.417769639176052],[100.18105711354985,6.417530323869916],[100.18172364495953,6.417255967467681],[100.18237481366799,6.416947321905195],[100.18300883486702,6.416605233097032],[100.18362397074861,6.416230638618472],[100.18421853526806,6.415824565136448],[100.18479089876534,6.415388125596329],[100.18533949243188,6.414922516172123],[100.1858628126106,6.41442901298884],[100.18635942491726,6.4139089686254],[100.18682796817201,6.413363808408337],[100.18726715813041,6.412795026505831],[100.1876757910033,6.41220418183321],[100.18805274675634,6.411592893780882],[100.18839699218003,6.410962837776546],[100.18870758372164,6.41031574069365],[100.18898367007127,6.409653376118985],[100.18922449449548,6.408977559492007],[100.18942939691124,6.408290143129442],[100.18959781569527,6.407593011148844],[100.1897292892234,6.406888074304709],[100.1898234571358,6.406177264751731],[100.18988006132481,6.405462530749163],[100.18989894664226,6.404745831320946]],[[100.32932593815818,6.448010467704192],[100.32930705284072,6.447293828219914],[100.32925044865172,6.4465791519859],[100.3291562807393,6.445868397892572],[100.32902480721118,6.445163514088182],[100.32885638842714,6.444466432638812],[100.3286514860114,6.443779064232459],[100.32841066158718,6.443103292941514],[100.32813457523754,6.442440971058201],[100.32782398369595,6.441793914017039],[100.32747973827225,6.441163895418213],[100.32710278251919,6.440552642165606],[100.32669414964631,6.439961829732717],[100.32625495968793,6.439393077569567],[100.32578641643316,6.438847944663062],[100.3252898041265,6.43832792526307],[100.32476648394778,6.437834444785945],[100.32421789028123,6.437368855906711],[100.32364552678396,6.436932434850525],[100.32305096226452,6.4365263778939],[100.32243582638294,6.436151798084821],[100.3218018051839,6.435809722191249],[100.32115063647544,6.435501087886006],[100.32048410506576,6.435226741175939],[100.31980403787108,6.434987434082453],[100.31911229890834,6.434783822579582],[100.31841078418591,6.434616464795526],[100.31770141650695,6.434485819482362],[100.3169861401989,6.434392244758245],[100.31626691578445,6.434335997125544],[100.31554571460768,6.434317230767476],[100.31482451343092,6.434335997125544],[100.31410528901647,6.434392244758245],[100.31339001270842,6.434485819482362],[100.31268064502946,6.434616464795526],[100.31197913030704,6.434783822579582],[100.3112873913443,6.434987434082453],[100.31060732414961,6.435226741175939],[100.30994079273994,6.435501087886006],[100.30928962403149,6.435809722191249],[100.30865560283243,6.436151798084821],[100.30804046695086,6.4365263778939],[100.30744590243143,6.436932434850525],[100.30687353893414,6.437368855906711],[100.30632494526758,6.437834444785945],[100.30580162508888,6.43832792526307],[100.30530501278223,6.438847944663062],[100.30483646952744,6.439393077569567],[100.30439727956906,6.439961829732717],[100.30398864669618,6.440552642165606],[100.30361169094313,6.441163895418213],[100.30326744551942,6.441793914017039],[100.30295685397785,6.442440971058201],[100.30268076762819,6.443103292941514],[100.30243994320398,6.443779064232459],[100.30223504078822,6.444466432638812],[100.30206662200419,6.445163514088182],[100.30193514847608,6.445868397892572],[100.30184098056365,6.4465791519859],[100.30178437637466,6.447293828219914],[100.3017654910572,6.448010467704192],[100.30178437637466,6.448727106175437],[100.30184098056365,6.449441779381474],[100.30193514847608,6.450152528465047],[100.30206662200419,6.450857405332799],[100.30223504078822,6.45155447799464],[100.30243994320398,6.452241835858853],[100.30268076762819,6.452917594968554],[100.30295685397785,6.453579903164961],[100.30326744551942,6.454226945163538],[100.30361169094313,6.454856947528888],[100.30398864669618,6.455468183535],[100.30439727956906,6.456058977897315],[100.30483646952744,6.456627711363816],[100.30530501278223,6.457172825152439],[100.30580162508888,6.457692825222749],[100.30632494526758,6.458186286370205],[100.30687353893414,6.458651856131559],[100.30744590243143,6.459088258491083],[100.30804046695086,6.459494297377158],[100.30865560283243,6.459868859939729],[100.30928962403149,6.460210919599827],[100.30994079273994,6.460519538862483],[100.31060732414961,6.460793871885644],[100.3112873913443,6.461033166797886],[100.31197913030704,6.461236767758618],[100.31268064502946,6.461404116755144],[100.31339001270842,6.461534755131671],[100.31410528901647,6.461628324846034],[100.31482451343092,6.461684569450757],[100.31554571460768,6.461703334795792],[100.31626691578445,6.461684569450757],[100.3169861401989,6.461628324846034],[100.31770141650695,6.461534755131671],[100.31841078418591,6.461404116755144],[100.31911229890834,6.461236767758618],[100.31980403787108,6.461033166797886],[100.32048410506576,6.460793871885644],[100.32115063647544,6.460519538862483],[100.3218018051839,6.460210919599827],[100.32243582638294,6.459868859939729],[100.32305096226452,6.459494297377158],[100.32364552678396,6.459088258491083],[100.32421789028123,6.458651856131559],[100.32476648394778,6.458186286370205],[100.3252898041265,6.457692825222749],[100.32578641643316,6.457172825152439],[100.32625495968793,6.456627711363816],[100.32669414964631,6.456058977897315],[100.32710278251919,6.455468183535],[100.32747973827225,6.454856947528888],[100.32782398369595,6.454226945163538],[100.32813457523754,6.453579903164961],[100.32841066158718,6.452917594968554],[100.3286514860114,6.452241835858853],[100.32885638842714,6.45155447799464],[100.32902480721118,6.450857405332799],[100.3291562807393,6.450152528465047],[100.32925044865172,6.449441779381474],[100.32930705284072,6.448727106175437],[100.32932593815818,6.448010467704192]],[[100.25333057116401,6.407634806357649],[100.25331168584657,6.406918109980296],[100.25325508165756,6.406203377015339],[100.25316091374515,6.40549256650864],[100.25302944021702,6.404787626762949],[100.25286102143298,6.404090489997512],[100.25265611901723,6.403403067051707],[100.25241529459304,6.402727242147145],[100.25213920824338,6.402064867722721],[100.25182861670179,6.401417759356579],[100.25148437127808,6.40078769078923],[100.25110741552504,6.400176389061089],[100.25069878265215,6.399585529778107],[100.25025959269377,6.399016732518242],[100.249791049439,6.398471556391535],[100.24929443713233,6.397951495765855],[100.24877111695362,6.397457976170059],[100.24822252328708,6.396992350385868],[100.2476501597898,6.396555894739152],[100.24705559527035,6.396149805600734],[100.24644045938878,6.395775196106381],[100.24580643818973,6.395433093104954],[100.24515526948129,6.395124434343179],[100.24448873807161,6.394850065894542],[100.24380867087692,6.394610739839709],[100.24311693191417,6.394407112204352],[100.24241541719176,6.39423974116064],[100.24170604951279,6.394109085496768],[100.24099077320474,6.394015503359083],[100.24027154879029,6.393959251270132],[100.23955034761352,6.393940483425334],[100.23882914643676,6.393959251270132],[100.2381099220223,6.394015503359083],[100.23739464571426,6.394109085496768],[100.2366852780353,6.39423974116064],[100.23598376331289,6.394407112204352],[100.23529202435013,6.394610739839709],[100.23461195715545,6.394850065894542],[100.23394542574577,6.395124434343179],[100.23329425703733,6.395433093104954],[100.23266023583828,6.395775196106381],[100.2320450999567,6.396149805600734],[100.23145053543725,6.396555894739152],[100.23087817193996,6.396992350385868],[100.23032957827343,6.397457976170059],[100.22980625809471,6.397951495765855],[100.22930964578805,6.398471556391535],[100.2288411025333,6.399016732518242],[100.2284019125749,6.399585529778107],[100.22799327970202,6.400176389061089],[100.22761632394898,6.40078769078923],[100.22727207852526,6.401417759356579],[100.22696148698368,6.402064867722721],[100.22668540063403,6.402727242147145],[100.22644457620983,6.403403067051707],[100.22623967379407,6.404090489997512],[100.22607125501003,6.404787626762949],[100.22593978148191,6.40549256650864],[100.2258456135695,6.406203377015339],[100.22578900938049,6.406918109980296],[100.22577012406303,6.407634806357649],[100.22578900938049,6.408351501728228],[100.2258456135695,6.409066231683846],[100.22593978148191,6.409777037211629],[100.22607125501003,6.410481970063391],[100.22623967379407,6.411179098095394],[100.22644457620983,6.411866510563968],[100.22668540063403,6.41254232336227],[100.22696148698368,6.413204684184072],[100.22727207852526,6.413851777600221],[100.22761632394898,6.414481830034041],[100.22799327970202,6.415093114621867],[100.2284019125749,6.415683955945542],[100.2288411025333,6.416252734623856],[100.22930964578805,6.416797891750374],[100.22980625809471,6.417317933165389],[100.23032957827343,6.417811433550534],[100.23087817193996,6.418277040334536],[100.23145053543725,6.418713477399701],[100.2320450999567,6.4191195485788],[100.23266023583828,6.419494140932851],[100.23329425703733,6.419836227800737],[100.23394542574577,6.420144871612543],[100.23461195715545,6.420419226458532],[100.23529202435013,6.420658540407119],[100.23598376331289,6.420862157565245],[100.2366852780353,6.421029519875523],[100.23739464571426,6.421160168645466],[100.2381099220223,6.421253745804234],[100.23882914643676,6.421309994883845],[100.23955034761352,6.421328761721871],[100.24027154879029,6.421309994883845],[100.24099077320474,6.421253745804234],[100.24170604951279,6.421160168645466],[100.24241541719176,6.421029519875523],[100.24311693191417,6.420862157565245],[100.24380867087692,6.420658540407119],[100.24448873807161,6.420419226458532],[100.24515526948129,6.420144871612543],[100.24580643818973,6.419836227800737],[100.24644045938878,6.419494140932851],[100.24705559527035,6.4191195485788],[100.2476501597898,6.418713477399701],[100.24822252328708,6.418277040334536],[100.24877111695362,6.417811433550534],[100.24929443713233,6.417317933165389],[100.249791049439,6.416797891750374],[100.25025959269377,6.416252734623856],[100.25069878265215,6.415683955945542],[100.25110741552504,6.415093114621867],[100.25148437127808,6.414481830034041],[100.25182861670179,6.413851777600221],[100.25213920824338,6.413204684184072],[100.25241529459304,6.41254232336227],[100.25265611901723,6.411866510563968],[100.25286102143298,6.411179098095394],[100.25302944021702,6.410481970063391],[100.25316091374515,6.409777037211629],[100.25325508165756,6.409066231683846],[100.25331168584657,6.408351501728228],[100.25333057116401,6.407634806357649]],[[100.27455294531507,6.377106570840819],[100.27453405999762,6.376389831682589],[100.27447745580861,6.375675056058735],[100.27438328789619,6.37496420313196],[100.27425181436807,6.374259221321181],[100.27408339558404,6.373562042960832],[100.27387849316828,6.372874579004116],[100.27363766874407,6.372198713784853],[100.27336158239443,6.37153629985219],[100.27305099085284,6.370889152892344],[100.27270674542915,6.37025904675127],[100.27232978967609,6.36964770857209],[100.27192115680322,6.369056814060317],[100.27148196684482,6.368487982890142],[100.27101342359006,6.367942774264185],[100.2705168112834,6.367422682639011],[100.26999349110469,6.366929133628097],[100.26944489743813,6.366463480093427],[100.26887253394086,6.366026998436542],[100.26827796942142,6.365620885099217],[100.26766283353983,6.365246253283171],[100.26702881234078,6.364904129898154],[100.26637764363234,6.364595452746437],[100.26571111222265,6.364321067951633],[100.26503104502797,6.364081727638919],[100.26433930606522,6.363878087872863],[100.2636377913428,6.363710706858647],[100.26292842366384,6.363580043411627],[100.26221314735581,6.363486455699357],[100.26149392294134,6.363430200259579],[100.26077272176458,6.363411431296815],[100.26005152058782,6.363430200259579],[100.25933229617335,6.363486455699357],[100.25861701986533,6.363580043411627],[100.25790765218636,6.363710706858647],[100.25720613746394,6.363878087872863],[100.2565143985012,6.364081727638919],[100.25583433130652,6.364321067951633],[100.25516779989682,6.364595452746437],[100.25451663118838,6.364904129898154],[100.25388260998932,6.365246253283171],[100.25326747410774,6.365620885099217],[100.2526729095883,6.366026998436542],[100.25210054609103,6.366463480093427],[100.25155195242448,6.366929133628097],[100.25102863224576,6.367422682639011],[100.2505320199391,6.367942774264185],[100.25006347668435,6.368487982890142],[100.24962428672595,6.369056814060317],[100.24921565385307,6.36964770857209],[100.24883869810002,6.37025904675127],[100.24849445267633,6.370889152892344],[100.24818386113473,6.37153629985219],[100.24790777478509,6.372198713784853],[100.24766695036088,6.372874579004116],[100.24746204794512,6.373562042960832],[100.24729362916109,6.374259221321181],[100.24716215563298,6.37496420313196],[100.24706798772054,6.375675056058735],[100.24701138353154,6.376389831682589],[100.2469924982141,6.377106570840819],[100.24701138353154,6.377823308996958],[100.24706798772054,6.378538081625583],[100.24716215563298,6.379248929596786],[100.24729362916109,6.379953904545925],[100.24746204794512,6.380651074213767],[100.24766695036088,6.381338527742335],[100.24790777478509,6.382014380912067],[100.24818386113473,6.382676781305809],[100.24849445267633,6.383323913385734],[100.24883869810002,6.383954003468862],[100.24921565385307,6.38456532458803],[100.24962428672595,6.385156201224627],[100.25006347668435,6.385725013900323],[100.2505320199391,6.386270203615109],[100.25102863224576,6.386790276119615],[100.25155195242448,6.387283806009874],[100.25210054609103,6.387749440633386],[100.2526729095883,6.388185903795778],[100.25326747410774,6.388591999257953],[100.25388260998932,6.388966614013974],[100.25451663118838,6.389308721341045],[100.25516779989682,6.389617383612829],[100.25583433130652,6.389891754868724],[100.2565143985012,6.390131083131907],[100.25720613746394,6.390334712469827],[100.25790765218636,6.390502084791537],[100.25861701986533,6.390632741376917],[100.25933229617335,6.390726324133603],[100.26005152058782,6.390782576578138],[100.26077272176458,6.390801344538836],[100.26149392294134,6.390782576578138],[100.26221314735581,6.390726324133603],[100.26292842366384,6.390632741376917],[100.2636377913428,6.390502084791537],[100.26433930606522,6.390334712469827],[100.26503104502797,6.390131083131907],[100.26571111222265,6.389891754868724],[100.26637764363234,6.389617383612829],[100.26702881234078,6.389308721341045],[100.26766283353983,6.388966614013974],[100.26827796942142,6.388591999257953],[100.26887253394086,6.388185903795778],[100.26944489743813,6.387749440633386],[100.26999349110469,6.387283806009874],[100.2705168112834,6.386790276119615],[100.27101342359006,6.386270203615109],[100.27148196684482,6.385725013900323],[100.27192115680322,6.385156201224627],[100.27232978967609,6.38456532458803],[100.27270674542915,6.383954003468862],[100.27305099085284,6.383323913385734],[100.27336158239443,6.382676781305809],[100.27363766874407,6.382014380912067],[100.27387849316828,6.381338527742335],[100.27408339558404,6.380651074213767],[100.27425181436807,6.379953904545925],[100.27438328789619,6.379248929596786],[100.27447745580861,6.378538081625583],[100.27453405999762,6.377823308996958],[100.27455294531507,6.377106570840819]],[[100.18934560868605,6.351955454086157],[100.1893267233686,6.351238679835201],[100.1892701191796,6.350523869218655],[100.18917595126719,6.349812981495123],[100.18904447773906,6.349107965178813],[100.18887605895503,6.348410752698605],[100.18867115653927,6.347723255101099],[100.18843033211506,6.34704735681217],[100.18815424576542,6.346384910471398],[100.18784365422383,6.345737731853597],[100.18749940880012,6.345107594891282],[100.18712245304708,6.344496226811809],[100.18671382017419,6.343905303402343],[100.1862746302158,6.343336444416003],[100.18580608696104,6.342791209131374],[100.18530947465437,6.342271092077781],[100.18478615447567,6.341777518938084],[100.18423756080912,6.341311842640095],[100.18366519731184,6.34087533964749],[100.18307063279241,6.340469206460157],[100.18245549691082,6.340094556334002],[100.18182147571177,6.339752416228656],[100.18117030700331,6.339443723991963],[100.18050377559365,6.339169325788678],[100.17982370839897,6.338929973780467],[100.17913196943621,6.338726324063791],[100.1784304547138,6.338558934870932],[100.17772108703484,6.338428265039533],[100.17700581072678,6.338334672754542],[100.17628658631233,6.338278414566128],[100.17556538513557,6.338259644686309],[100.1748441839588,6.338278414566128],[100.17412495954436,6.338334672754542],[100.17340968323632,6.338428265039533],[100.17270031555734,6.338558934870932],[100.17199880083491,6.338726324063791],[100.17130706187217,6.338929973780467],[100.17062699467749,6.339169325788678],[100.16996046326781,6.339443723991963],[100.16930929455937,6.339752416228656],[100.16867527336032,6.340094556334002],[100.16806013747875,6.340469206460157],[100.1674655729593,6.34087533964749],[100.16689320946202,6.341311842640095],[100.16634461579548,6.341777518938084],[100.16582129561675,6.342271092077781],[100.1653246833101,6.342791209131374],[100.16485614005532,6.343336444416003],[100.16441695009695,6.343905303402343],[100.16400831722406,6.344496226811809],[100.16363136147102,6.345107594891282],[100.1632871160473,6.345737731853597],[100.16297652450572,6.346384910471398],[100.16270043815607,6.34704735681217],[100.16245961373187,6.347723255101099],[100.16225471131611,6.348410752698605],[100.16208629253207,6.349107965178813],[100.16195481900395,6.349812981495123],[100.16186065109154,6.350523869218655],[100.16180404690253,6.351238679835201],[100.16178516158507,6.351955454086157],[100.16180404690253,6.352672227338942],[100.16186065109154,6.353387034971861],[100.16195481900395,6.354097917759031],[100.16208629253207,6.354802927240329],[100.16225471131611,6.355500131061757],[100.16245961373187,6.356187618271546],[100.16270043815607,6.356863504557685],[100.16297652450572,6.357525937412078],[100.1632871160473,6.358173101207655],[100.16363136147102,6.358803222174313],[100.16400831722406,6.359414573259967],[100.16441695009695,6.360005478863593],[100.16485614005532,6.360574319427181],[100.1653246833101,6.361119535873996],[100.16582129561675,6.361639633881104],[100.16634461579548,6.362133187974304],[100.16689320946202,6.362598845434478],[100.1674655729593,6.363035330004356],[100.16806013747875,6.36344144538585],[100.16867527336032,6.363816078518174],[100.16930929455937,6.364158202627862],[100.16996046326781,6.364466880042342],[100.17062699467749,6.364741264759249],[100.17130706187217,6.364980604764657],[100.17199880083491,6.365184244093629],[100.17270031555734,6.365351624627708],[100.17340968323632,6.365482287624082],[100.17412495954436,6.365575874972725],[100.1748441839588,6.365632130177512],[100.17556538513557,6.365650899059146],[100.17628658631233,6.365632130177512],[100.17700581072678,6.365575874972725],[100.17772108703484,6.365482287624082],[100.1784304547138,6.365351624627708],[100.17913196943621,6.365184244093629],[100.17982370839897,6.364980604764657],[100.18050377559365,6.364741264759249],[100.18117030700331,6.364466880042342],[100.18182147571177,6.364158202627862],[100.18245549691082,6.363816078518174],[100.18307063279241,6.36344144538585],[100.18366519731184,6.363035330004356],[100.18423756080912,6.362598845434478],[100.18478615447567,6.362133187974304],[100.18530947465437,6.361639633881104],[100.18580608696104,6.361119535873996],[100.1862746302158,6.360574319427181],[100.18671382017419,6.360005478863593],[100.18712245304708,6.359414573259967],[100.18749940880012,6.358803222174313],[100.18784365422383,6.358173101207655],[100.18815424576542,6.357525937412078],[100.18843033211506,6.356863504557685],[100.18867115653927,6.356187618271546],[100.18887605895503,6.355500131061757],[100.18904447773906,6.354802927240329],[100.18917595126719,6.354097917759031],[100.1892701191796,6.353387034971861],[100.1893267233686,6.352672227338942],[100.18934560868605,6.351955454086157]],[[100.21232786871714,6.307754950562952],[100.2123089833997,6.307038114974769],[100.2122523792107,6.306323243195915],[100.21215821129826,6.30561229465257],[100.21202673777015,6.304907218025475],[100.21185831898612,6.304209945908658],[100.21165341657036,6.303522389511919],[100.21141259214615,6.30284643342202],[100.2111365057965,6.302183930436613],[100.21082591425491,6.301536696485403],[100.21048166883122,6.300906505652163],[100.21010471307817,6.300295085311406],[100.20969608020529,6.299704111393129],[100.20925689024689,6.299135203788372],[100.20878834699212,6.298589921908438],[100.20829173468547,6.298069760409851],[100.20776841450676,6.297576145096762],[100.20721982084021,6.297110429012031],[100.20664745734292,6.296673888727855],[100.2060528928235,6.296267720845837],[100.20543775694192,6.295893038716456],[100.20480373574286,6.295550869386609],[100.20415256703441,6.29524215078378],[100.20348603562472,6.294967729144552],[100.20280596843004,6.294728356694484],[100.2021142294673,6.294524689585708],[100.20141271474488,6.294357286097883],[100.20070334706591,6.294226605107598],[100.19998807075788,6.294133004830191],[100.19926884634341,6.294076741837612],[100.19854764516666,6.294057970354946],[100.1978264439899,6.294076741837612],[100.19710721957543,6.294133004830191],[100.1963919432674,6.294226605107598],[100.19568257558844,6.294357286097883],[100.19498106086601,6.294524689585708],[100.19428932190327,6.294728356694484],[100.19360925470859,6.294967729144552],[100.1929427232989,6.29524215078378],[100.19229155459044,6.295550869386609],[100.1916575333914,6.295893038716456],[100.19104239750982,6.296267720845837],[100.19044783299037,6.296673888727855],[100.1898754694931,6.297110429012031],[100.18932687582655,6.297576145096762],[100.18880355564784,6.298069760409851],[100.18830694334117,6.298589921908438],[100.18783840008642,6.299135203788372],[100.18739921012802,6.299704111393129],[100.18699057725513,6.300295085311406],[100.18661362150209,6.300906505652163],[100.1862693760784,6.301536696485403],[100.1859587845368,6.302183930436613],[100.18568269818716,6.30284643342202],[100.18544187376295,6.303522389511919],[100.1852369713472,6.304209945908658],[100.18506855256317,6.304907218025475],[100.18493707903505,6.30561229465257],[100.18484291112263,6.306323243195915],[100.18478630693362,6.307038114974769],[100.18476742161617,6.307754950562952],[100.18478630693362,6.308471785159794],[100.18484291112263,6.30918665397544],[100.18493707903505,6.309897597616227],[100.18506855256317,6.31060266745509],[100.1852369713472,6.311299930972386],[100.18544187376295,6.311987477052525],[100.18568269818716,6.312663421221807],[100.1859587845368,6.313325910813148],[100.1862693760784,6.313973130043606],[100.18661362150209,6.314603304990688],[100.18699057725513,6.315214708453933],[100.18739921012802,6.315805664688262],[100.18783840008642,6.316374553996383],[100.18830694334117,6.316919817167467],[100.18880355564784,6.317439959749934],[100.18932687582655,6.317933556146915],[100.1898754694931,6.318399253522784],[100.19044783299037,6.318835775510335],[100.19104239750982,6.319241925708394],[100.1916575333914,6.319616590960262],[100.19229155459044,6.319958744403964],[100.1929427232989,6.320267448286041],[100.19360925470859,6.320541856531203],[100.19428932190327,6.320781217060642],[100.19498106086601,6.32098487385283],[100.19568257558844,6.321152268741135],[100.1963919432674,6.321282942943188],[100.19710721957543,6.321376538318024],[100.1978264439899,6.321432798347407],[100.19854764516666,6.32145156883872],[100.19926884634341,6.321432798347407],[100.19998807075788,6.321376538318024],[100.20070334706591,6.321282942943188],[100.20141271474488,6.321152268741135],[100.2021142294673,6.32098487385283],[100.20280596843004,6.320781217060642],[100.20348603562472,6.320541856531203],[100.20415256703441,6.320267448286041],[100.20480373574286,6.319958744403964],[100.20543775694192,6.319616590960262],[100.2060528928235,6.319241925708394],[100.20664745734292,6.318835775510335],[100.20721982084021,6.318399253522784],[100.20776841450676,6.317933556146915],[100.20829173468547,6.317439959749934],[100.20878834699212,6.316919817167467],[100.20925689024689,6.316374553996383],[100.20969608020529,6.315805664688262],[100.21010471307817,6.315214708453933],[100.21048166883122,6.314603304990688],[100.21082591425491,6.313973130043606],[100.2111365057965,6.313325910813148],[100.21141259214615,6.312663421221807],[100.21165341657036,6.311987477052525],[100.21185831898612,6.311299930972386],[100.21202673777015,6.31060266745509],[100.21215821129826,6.309897597616227],[100.2122523792107,6.30918665397544],[100.2123089833997,6.308471785159794],[100.21232786871714,6.307754950562952]]],"bbox":[100.1274820821066,6.294057970354946,100.32932593815818,6.661556017090418]}
