{
"type": "FeatureCollection",
"name": "PLS_SE-14",
"crs": { "type": "name", "properties": { "name": "urn:ogc:def:crs:OGC:1.3:CRS84" } },
"features": [
{ "type": "Feature", "properties": { "state": "Perlis", "parlimen": "P.001 Padang Besar", "code_parlimen": "P.001", "dun": "N.01 Titi Tinggi", "code_dun": "N.01", "voters_total": 10111 }, "geometry": { "type": "Polygon", "coordinates": [ [ [ 100.277218624490914, 6.648323790822317 ], [ 100.277201492002291, 6.647673926659406 ], [ 100.277150141495355, 6.647025842873477 ], [ 100.277064713718289, 6.646381315827741 ], [ 100.276945442822708, 6.64574211214356 ], [ 100.276792655721806, 6.645109983858045 ], [ 100.276606771194452, 6.644486663621587 ], [ 100.276388298737189, 6.643873859948365 ], [ 100.276137837167838, 6.643273252533151 ], [ 100.275856072984155, 6.642686487646833 ], [ 100.275543778482188, 6.642115173623591 ], [ 100.275201809639455, 6.641560876452036 ], [ 100.274831103768761, 6.64102511548224 ], [ 100.274432676949161, 6.640509359260708 ], [ 100.274007621240884, 6.640015021504522 ], [ 100.273557101692049, 6.639543457225645 ], [ 100.273082353145412, 6.639095959016283 ], [ 100.272584676853782, 6.638673753505185 ], [ 100.27206543691328, 6.638277997994869 ], [ 100.271526056524465, 6.637909777288706 ], [ 100.270968014091494, 6.63757010071695 ], [ 100.270392839169887, 6.637259899369463 ], [ 100.269802108274135, 6.63698002354305 ], [ 100.269197440556553, 6.636731240410222 ], [ 100.268580493369342, 6.636514231915846 ], [ 100.267952957721832, 6.636329592907498 ], [ 100.267316553645642, 6.636177829504543 ], [ 100.266673025480088, 6.636059357710455 ], [ 100.266024137091136, 6.635974502272308 ], [ 100.265371667036774, 6.635923495790403 ], [ 100.26471740369206, 6.635906478080473 ], [ 100.264063140347346, 6.635923495790403 ], [ 100.263410670292984, 6.635974502272308 ], [ 100.262761781904047, 6.636059357710455 ], [ 100.262118253738478, 6.636177829504543 ], [ 100.261481849662303, 6.636329592907498 ], [ 100.260854314014793, 6.636514231915846 ], [ 100.260237366827582, 6.636731240410222 ], [ 100.25963269911, 6.63698002354305 ], [ 100.259041968214248, 6.637259899369463 ], [ 100.258466793292641, 6.63757010071695 ], [ 100.25790875085967, 6.637909777288706 ], [ 100.257369370470855, 6.638277997994869 ], [ 100.256850130530339, 6.638673753505185 ], [ 100.256352454238723, 6.639095959016283 ], [ 100.255877705692086, 6.639543457225645 ], [ 100.255427186143251, 6.640015021504522 ], [ 100.255002130434974, 6.640509359260708 ], [ 100.254603703615359, 6.64102511548224 ], [ 100.254232997744694, 6.641560876452036 ], [ 100.253891028901947, 6.642115173623591 ], [ 100.253578734399966, 6.642686487646833 ], [ 100.253296970216283, 6.643273252533151 ], [ 100.253046508646946, 6.643873859948365 ], [ 100.252828036189683, 6.644486663621587 ], [ 100.252642151662315, 6.645109983858045 ], [ 100.252489364561427, 6.64574211214356 ], [ 100.252370093665846, 6.646381315827741 ], [ 100.25228466588878, 6.647025842873477 ], [ 100.252233315381858, 6.647673926659406 ], [ 100.252216182893207, 6.648323790822317 ], [ 100.252233315381858, 6.648973654126072 ], [ 100.25228466588878, 6.649621735343984 ], [ 100.252370093665846, 6.650266258140957 ], [ 100.252489364561427, 6.650905455942167 ], [ 100.252642151662315, 6.651537576774981 ], [ 100.252828036189683, 6.652160888070672 ], [ 100.253046508646946, 6.652773681412993 ], [ 100.253296970216283, 6.653374277220354 ], [ 100.253578734399966, 6.653961029349071 ], [ 100.253891028901947, 6.654532329604711 ], [ 100.254232997744694, 6.65508661214953 ], [ 100.254603703615359, 6.655622357793697 ], [ 100.255002130434974, 6.656138098158611 ], [ 100.255427186143251, 6.656632419700941 ], [ 100.255877705692086, 6.657103967586336 ], [ 100.256352454238723, 6.657551449402228 ], [ 100.256850130530339, 6.657973638699455 ], [ 100.257369370470855, 6.658369378353169 ], [ 100.25790875085967, 6.658737583733688 ], [ 100.258466793292641, 6.659077245678723 ], [ 100.259041968214248, 6.659387433258606 ], [ 100.25963269911, 6.659667296327419 ], [ 100.260237366827582, 6.659916067852405 ], [ 100.260854314014793, 6.66013306601587 ], [ 100.261481849662303, 6.660317696083424 ], [ 100.262118253738478, 6.660469452033703 ], [ 100.262761781904047, 6.660587917944834 ], [ 100.263410670292984, 6.660672769134204 ], [ 100.264063140347346, 6.660723773048091 ], [ 100.26471740369206, 6.660740789898878 ], [ 100.265371667036774, 6.660723773048091 ], [ 100.266024137091136, 6.660672769134204 ], [ 100.266673025480088, 6.660587917944834 ], [ 100.267316553645642, 6.660469452033703 ], [ 100.267952957721832, 6.660317696083424 ], [ 100.268580493369342, 6.66013306601587 ], [ 100.269197440556553, 6.659916067852405 ], [ 100.269802108274135, 6.659667296327419 ], [ 100.270392839169887, 6.659387433258606 ], [ 100.270968014091494, 6.659077245678723 ], [ 100.271526056524465, 6.658737583733688 ], [ 100.27206543691328, 6.658369378353169 ], [ 100.272584676853782, 6.657973638699455 ], [ 100.273082353145412, 6.657551449402228 ], [ 100.273557101692049, 6.657103967586336 ], [ 100.274007621240884, 6.656632419700941 ], [ 100.274432676949161, 6.656138098158611 ], [ 100.274831103768761, 6.655622357793697 ], [ 100.275201809639455, 6.65508661214953 ], [ 100.275543778482188, 6.654532329604711 ], [ 100.275856072984155, 6.653961029349071 ], [ 100.276137837167838, 6.653374277220354 ], [ 100.276388298737189, 6.652773681412993 ], [ 100.276606771194452, 6.652160888070672 ], [ 100.276792655721806, 6.651537576774981 ], [ 100.276945442822708, 6.650905455942167 ], [ 100.277064713718289, 6.650266258140957 ], [ 100.277150141495355, 6.649621735343984 ], [ 100.277201492002291, 6.648973654126072 ], [ 100.277218624490914, 6.648323790822317 ] ] ] } },
{ "type": "Feature", "properties": { "state": "Perlis", "parlimen": "P.001 Padang Besar", "code_parlimen": "P.001", "dun": "N.02 Beseri", "code_dun": "N.02", "voters_total": 8914 }, "geometry": { "type": "Polygon", "coordinates": [ [ [ 100.220623818649756, 6.603003941643862 ], [ 100.220607732218326, 6.602393700155011 ], [ 100.220559517015857, 6.601785130546471 ], [ 100.220479305196818, 6.601179900874521 ], [ 100.220367316616262, 6.60057967004698 ], [ 100.220223858227115, 6.599986083276049 ], [ 100.22004932323884, 6.599400767568646 ], [ 100.219844190039694, 6.598825327266667 ], [ 100.2196090208855, 6.59826133964916 ], [ 100.219344460358613, 6.597710350608789 ], [ 100.219051233601036, 6.597173870414093 ], [ 100.218730144326898, 6.596653369569532 ], [ 100.218382072619605, 6.596150274784367 ], [ 100.218007972519516, 6.59566596506154 ], [ 100.217608869408991, 6.595201767917336 ], [ 100.217185857201912, 6.59475895574216 ], [ 100.216740095345358, 6.594338742312316 ], [ 100.216272805641538, 6.593942279462553 ], [ 100.215785268899126, 6.593570653928204 ], [ 100.215278821422402, 6.593224884366051 ], [ 100.214754851348687, 6.592905918561452 ], [ 100.214214794843556, 6.592614630830086 ], [ 100.21366013216435, 6.592351819620805 ], [ 100.213092383602898, 6.5921182053267 ], [ 100.21251310531855, 6.591914428310003 ], [ 100.211923885072835, 6.591741047146467 ], [ 100.211326337877466, 6.5915985370939 ], [ 100.210722101567782, 6.591487288789237 ], [ 100.210112832313513, 6.591407607177457 ], [ 100.209500200079333, 6.59135971067557 ], [ 100.208885884047618, 6.591343730573795 ], [ 100.208271568015888, 6.59135971067557 ], [ 100.207658935781737, 6.591407607177457 ], [ 100.207049666527467, 6.591487288789237 ], [ 100.206445430217784, 6.5915985370939 ], [ 100.205847883022415, 6.591741047146467 ], [ 100.2052586627767, 6.591914428310003 ], [ 100.204679384492351, 6.5921182053267 ], [ 100.2041116359309, 6.592351819620805 ], [ 100.203556973251679, 6.592614630830086 ], [ 100.203016916746563, 6.592905918561452 ], [ 100.202492946672834, 6.593224884366051 ], [ 100.20198649919611, 6.593570653928204 ], [ 100.201498962453698, 6.593942279462553 ], [ 100.201031672749892, 6.594338742312316 ], [ 100.200585910893324, 6.59475895574216 ], [ 100.200162898686258, 6.595201767917336 ], [ 100.199763795575734, 6.59566596506154 ], [ 100.199389695475631, 6.596150274784367 ], [ 100.199041623768352, 6.596653369569532 ], [ 100.198720534494214, 6.597173870414093 ], [ 100.198427307736637, 6.597710350608789 ], [ 100.19816274720975, 6.59826133964916 ], [ 100.197927578055555, 6.598825327266667 ], [ 100.19772244485641, 6.599400767568646 ], [ 100.197547909868121, 6.599986083276049 ], [ 100.197404451478974, 6.60057967004698 ], [ 100.197292462898432, 6.601179900874521 ], [ 100.197212251079392, 6.601785130546471 ], [ 100.197164035876924, 6.602393700155011 ], [ 100.19714794944548, 6.603003941643862 ], [ 100.197164035876924, 6.603614182380346 ], [ 100.197212251079392, 6.604222749740043 ], [ 100.197292462898432, 6.604827975691291 ], [ 100.197404451478974, 6.605428201367058 ], [ 100.197547909868121, 6.606021781611593 ], [ 100.19772244485641, 6.60660708948945 ], [ 100.197927578055555, 6.607182520744532 ], [ 100.19816274720975, 6.607746498196909 ], [ 100.198427307736637, 6.608297476065302 ], [ 100.198720534494214, 6.608833944203545 ], [ 100.199041623768352, 6.609354432239301 ], [ 100.199389695475631, 6.609857513603631 ], [ 100.199763795575734, 6.610341809440653 ], [ 100.200162898686258, 6.610805992386187 ], [ 100.200585910893324, 6.611248790205408 ], [ 100.201031672749892, 6.611668989279284 ], [ 100.201498962453698, 6.612065437930402 ], [ 100.20198649919611, 6.61243704957892 ], [ 100.202492946672834, 6.612782805720252 ], [ 100.203016916746563, 6.613101758716033 ], [ 100.203556973251679, 6.613393034390971 ], [ 100.2041116359309, 6.613655834428261 ], [ 100.204679384492351, 6.61388943855725 ], [ 100.2052586627767, 6.614093206527051 ], [ 100.205847883022415, 6.61426657986104 ], [ 100.206445430217784, 6.614409083387197 ], [ 100.207049666527467, 6.614520326540087 ], [ 100.207658935781737, 6.614600004431178 ], [ 100.208271568015888, 6.61464789868421 ], [ 100.208885884047618, 6.614663878033618 ], [ 100.209500200079333, 6.61464789868421 ], [ 100.210112832313513, 6.614600004431178 ], [ 100.210722101567782, 6.614520326540087 ], [ 100.211326337877466, 6.614409083387197 ], [ 100.211923885072835, 6.61426657986104 ], [ 100.21251310531855, 6.614093206527051 ], [ 100.213092383602898, 6.61388943855725 ], [ 100.21366013216435, 6.613655834428261 ], [ 100.214214794843556, 6.613393034390971 ], [ 100.214754851348687, 6.613101758716033 ], [ 100.215278821422388, 6.612782805720252 ], [ 100.215785268899126, 6.61243704957892 ], [ 100.216272805641538, 6.612065437930402 ], [ 100.216740095345358, 6.611668989279284 ], [ 100.217185857201912, 6.611248790205408 ], [ 100.217608869408991, 6.610805992386187 ], [ 100.218007972519516, 6.610341809440653 ], [ 100.218382072619605, 6.609857513603631 ], [ 100.218730144326898, 6.609354432239301 ], [ 100.219051233601036, 6.608833944203545 ], [ 100.219344460358613, 6.608297476065302 ], [ 100.2196090208855, 6.607746498196909 ], [ 100.219844190039694, 6.607182520744532 ], [ 100.22004932323884, 6.60660708948945 ], [ 100.220223858227115, 6.606021781611593 ], [ 100.220367316616262, 6.605428201367058 ], [ 100.220479305196818, 6.604827975691291 ], [ 100.220559517015857, 6.604222749740043 ], [ 100.220607732218326, 6.603614182380346 ], [ 100.220623818649756, 6.603003941643862 ] ] ] } },
{ "type": "Feature", "properties": { "state": "Perlis", "parlimen": "P.001 Padang Besar", "code_parlimen": "P.001", "dun": "N.03 Chuping", "code_dun": "N.03", "voters_total": 10542 }, "geometry": { "type": "Polygon", "coordinates": [ [ [ 100.32221913600587, 6.53111485917287 ], [ 100.322201642175841, 6.530451131885227 ], [ 100.322149208635068, 6.529789222951393 ], [ 100.322061979100255, 6.529130946628651 ], [ 100.321940192661529, 6.52847810722459 ], [ 100.321784183127008, 6.527832494151474 ], [ 100.321594378108031, 6.527195877021303 ], [ 100.321371297846909, 6.526570000795063 ], [ 100.321115553791131, 6.525956580999509 ], [ 100.320827846917439, 6.525357299024531 ], [ 100.320508965810333, 6.524773797514106 ], [ 100.32015978450076, 6.524207675863247 ], [ 100.319781260070414, 6.523660485833616 ], [ 100.319374430028475, 6.523133727299498 ], [ 100.318940409467785, 6.522628844136144 ], [ 100.318480388008552, 6.522147220261393 ], [ 100.317995626537609, 6.521690175841754 ], [ 100.317487453752435, 6.521258963673122 ], [ 100.316957262519352, 6.520854765746256 ], [ 100.316406506055628, 6.52047869000622 ], [ 100.315836693946494, 6.520131767314896 ], [ 100.315249388007302, 6.519814948624737 ], [ 100.314646198002833, 6.519529102371594 ], [ 100.314028777234924, 6.519275012093802 ], [ 100.313398818011024, 6.519053374283907 ], [ 100.312758047005573, 6.518864796479147 ], [ 100.312108220527335, 6.518709795595753 ], [ 100.311451119705524, 6.518588796511656 ], [ 100.310788545607821, 6.518502130901664 ], [ 100.310122314303797, 6.51845003632802 ], [ 100.309454251887104, 6.518432655589146 ], [ 100.30878618947041, 6.51845003632802 ], [ 100.308119958166372, 6.518502130901664 ], [ 100.30745738406867, 6.518588796511656 ], [ 100.306800283246886, 6.518709795595753 ], [ 100.306150456768648, 6.518864796479147 ], [ 100.305509685763184, 6.519053374283907 ], [ 100.304879726539284, 6.519275012093802 ], [ 100.304262305771374, 6.519529102371594 ], [ 100.303659115766891, 6.519814948624737 ], [ 100.303071809827713, 6.520131767314896 ], [ 100.302501997718565, 6.52047869000622 ], [ 100.301951241254855, 6.520854765746256 ], [ 100.301421050021773, 6.521258963673122 ], [ 100.300912877236598, 6.521690175841754 ], [ 100.300428115765655, 6.522147220261393 ], [ 100.299968094306422, 6.522628844136144 ], [ 100.299534073745718, 6.523133727299498 ], [ 100.299127243703794, 6.523660485833616 ], [ 100.298748719273448, 6.524207675863247 ], [ 100.29839953796386, 6.524773797514106 ], [ 100.298080656856769, 6.525357299024531 ], [ 100.297792949983062, 6.525956580999509 ], [ 100.297537205927298, 6.526570000795063 ], [ 100.297314125666176, 6.527195877021303 ], [ 100.2971243206472, 6.527832494151474 ], [ 100.296968311112678, 6.52847810722459 ], [ 100.296846524673953, 6.529130946628651 ], [ 100.296759295139125, 6.529789222951393 ], [ 100.296706861598366, 6.530451131885227 ], [ 100.296689367768323, 6.53111485917287 ], [ 100.296706861598366, 6.531778585580264 ], [ 100.296759295139125, 6.532440491882977 ], [ 100.296846524673953, 6.53309876385257 ], [ 100.296968311112678, 6.533751597229149 ], [ 100.2971243206472, 6.534397202666466 ], [ 100.297314125666176, 6.535033810636194 ], [ 100.297537205927298, 6.535659676277727 ], [ 100.297792949983062, 6.536273084180259 ], [ 100.298080656856769, 6.536872353084187 ], [ 100.29839953796386, 6.537455840488788 ], [ 100.298748719273448, 6.538021947153548 ], [ 100.299127243703794, 6.538569121481048 ], [ 100.299534073745718, 6.539095863768969 ], [ 100.299968094306422, 6.53960073032012 ], [ 100.300428115765655, 6.540082337398641 ], [ 100.300912877236598, 6.540539365022065 ], [ 100.301421050021773, 6.540970560578481 ], [ 100.301951241254855, 6.541374742259176 ], [ 100.302501997718565, 6.541750802297055 ], [ 100.303071809827713, 6.542097710002292 ], [ 100.303659115766891, 6.542414514586614 ], [ 100.304262305771374, 6.542700347768721 ], [ 100.304879726539284, 6.54295442615349 ], [ 100.305509685763184, 6.543176053378678 ], [ 100.306150456768648, 6.543364622022994 ], [ 100.306800283246886, 6.543519615270602 ], [ 100.30745738406867, 6.543640608327205 ], [ 100.308119958166372, 6.543727269584048 ], [ 100.30878618947041, 6.543779361526571 ], [ 100.309454251887104, 6.543796741385195 ], [ 100.310122314303797, 6.543779361526571 ], [ 100.310788545607821, 6.543727269584048 ], [ 100.311451119705524, 6.543640608327205 ], [ 100.312108220527335, 6.543519615270602 ], [ 100.312758047005573, 6.543364622022994 ], [ 100.313398818011024, 6.543176053378678 ], [ 100.314028777234924, 6.54295442615349 ], [ 100.314646198002833, 6.542700347768721 ], [ 100.315249388007302, 6.542414514586614 ], [ 100.315836693946494, 6.542097710002292 ], [ 100.316406506055628, 6.541750802297055 ], [ 100.316957262519352, 6.541374742259176 ], [ 100.317487453752435, 6.540970560578481 ], [ 100.317995626537609, 6.540539365022065 ], [ 100.318480388008552, 6.540082337398641 ], [ 100.318940409467785, 6.53960073032012 ], [ 100.319374430028475, 6.539095863768969 ], [ 100.319781260070414, 6.538569121481048 ], [ 100.32015978450076, 6.538021947153548 ], [ 100.320508965810333, 6.537455840488788 ], [ 100.320827846917439, 6.536872353084187 ], [ 100.321115553791131, 6.536273084180259 ], [ 100.321371297846909, 6.535659676277727 ], [ 100.321594378108031, 6.535033810636194 ], [ 100.321784183127008, 6.534397202666466 ], [ 100.321940192661529, 6.533751597229149 ], [ 100.322061979100255, 6.53309876385257 ], [ 100.322149208635068, 6.532440491882977 ], [ 100.322201642175841, 6.531778585580264 ], [ 100.32221913600587, 6.53111485917287 ] ] ] } },
{ "type": "Feature", "properties": { "state": "Perlis", "parlimen": "P.001 Padang Besar", "code_parlimen": "P.001", "dun": "N.04 Mata Ayer", "code_dun": "N.04", "voters_total": 7617 }, "geometry": { "type": "Polygon", "coordinates": [ [ [ 100.267463708608219, 6.478206232570106 ], [ 100.267448838457341, 6.477641990030493 ], [ 100.267404268762775, 6.477079293412142 ], [ 100.267330121686967, 6.476519685035188 ], [ 100.267226600461854, 6.475964698760166 ], [ 100.267093988831945, 6.475415855783647 ], [ 100.266932650276516, 6.474874660468618 ], [ 100.266743027013305, 6.474342596220837 ], [ 100.266525638786533, 6.473821121422597 ], [ 100.266281081442173, 6.473311665435121 ], [ 100.266010025294918, 6.472815624680344 ], [ 100.265713213290852, 6.472334358813052 ], [ 100.26539145897101, 6.471869186993629 ], [ 100.265045644241681, 6.471421384271945 ], [ 100.264676716956942, 6.470992178091924 ], [ 100.264285688320825, 6.470582744926761 ], [ 100.263873630115697, 6.470194207053724 ], [ 100.263441671764454, 6.469827629477528 ], [ 100.262990997234837, 6.469484017010701 ], [ 100.262522841794478, 6.469164311518901 ], [ 100.262038488624881, 6.468869389338834 ], [ 100.261539265304407, 6.468600058875785 ], [ 100.261026540169482, 6.468357058387296 ], [ 100.260501718564058, 6.46814105395925 ], [ 100.259966238987701, 6.467952637679749 ], [ 100.259421569152664, 6.467792326015826 ], [ 100.258869201961133, 6.467660558397531 ], [ 100.258310651413183, 6.467557696013212 ], [ 100.257747448457039, 6.467484020819216 ], [ 100.257181136792852, 6.467439734766926 ], [ 100.256613268641544, 6.46742495924908 ], [ 100.256045400490237, 6.467439734766926 ], [ 100.25547908882605, 6.467484020819216 ], [ 100.25491588586992, 6.467557696013212 ], [ 100.25435733532197, 6.467660558397531 ], [ 100.253804968130439, 6.467792326015826 ], [ 100.253260298295402, 6.467952637679749 ], [ 100.252724818719031, 6.46814105395925 ], [ 100.252199997113607, 6.468357058387296 ], [ 100.251687271978682, 6.468600058875785 ], [ 100.251188048658207, 6.468869389338834 ], [ 100.25070369548861, 6.469164311518901 ], [ 100.250235540048251, 6.469484017010701 ], [ 100.249784865518649, 6.469827629477528 ], [ 100.249352907167392, 6.470194207053724 ], [ 100.248940848962263, 6.470582744926761 ], [ 100.248549820326161, 6.470992178091924 ], [ 100.248180893041422, 6.471421384271945 ], [ 100.247835078312079, 6.471869186993629 ], [ 100.247513323992237, 6.472334358813052 ], [ 100.247216511988171, 6.472815624680344 ], [ 100.24694545584093, 6.473311665435121 ], [ 100.246700898496556, 6.473821121422597 ], [ 100.246483510269783, 6.474342596220837 ], [ 100.246293887006573, 6.474874660468618 ], [ 100.246132548451143, 6.475415855783647 ], [ 100.245999936821235, 6.475964698760166 ], [ 100.245896415596135, 6.476519685035188 ], [ 100.245822268520314, 6.477079293412142 ], [ 100.245777698825748, 6.477641990030493 ], [ 100.245762828674884, 6.478206232570106 ], [ 100.245777698825748, 6.478770474478774 ], [ 100.245822268520314, 6.479333169211158 ], [ 100.245896415596135, 6.479892774467848 ], [ 100.245999936821235, 6.480447756422455 ], [ 100.246132548451143, 6.480996593925736 ], [ 100.246293887006573, 6.4815377826747 ], [ 100.246483510269783, 6.48206983933551 ], [ 100.246700898496556, 6.482591305608998 ], [ 100.24694545584093, 6.483100752227349 ], [ 100.247216511988171, 6.483596782871257 ], [ 100.247513323992237, 6.484078037996747 ], [ 100.247835078312079, 6.484543198561091 ], [ 100.248180893041422, 6.484990989637747 ], [ 100.248549820326161, 6.485420183910382 ], [ 100.248940848962263, 6.485829605036242 ], [ 100.249352907167392, 6.486218130869976 ], [ 100.249784865518649, 6.486584696538773 ], [ 100.250235540048251, 6.486928297360585 ], [ 100.25070369548861, 6.487247991597317 ], [ 100.251188048658207, 6.487542903035557 ], [ 100.251687271978682, 6.48781222338775 ], [ 100.252199997113607, 6.4880552145071 ], [ 100.252724818719031, 6.488271210410395 ], [ 100.253260298295402, 6.488459619102924 ], [ 100.253804968130439, 6.488619924200784 ], [ 100.25435733532197, 6.488751686345852 ], [ 100.25491588586992, 6.488854544409757 ], [ 100.25547908882605, 6.488928216483476 ], [ 100.256045400490237, 6.488972500649812 ], [ 100.256613268641544, 6.488987275536712 ], [ 100.257181136792852, 6.488972500649812 ], [ 100.257747448457039, 6.488928216483476 ], [ 100.258310651413183, 6.488854544409757 ], [ 100.258869201961133, 6.488751686345852 ], [ 100.259421569152664, 6.488619924200784 ], [ 100.259966238987701, 6.488459619102924 ], [ 100.260501718564058, 6.488271210410395 ], [ 100.261026540169482, 6.4880552145071 ], [ 100.261539265304407, 6.48781222338775 ], [ 100.262038488624881, 6.487542903035557 ], [ 100.262522841794478, 6.487247991597317 ], [ 100.262990997234837, 6.486928297360585 ], [ 100.263441671764454, 6.486584696538773 ], [ 100.263873630115697, 6.486218130869976 ], [ 100.264285688320825, 6.485829605036242 ], [ 100.264676716956942, 6.485420183910382 ], [ 100.265045644241681, 6.484990989637747 ], [ 100.26539145897101, 6.484543198561091 ], [ 100.265713213290852, 6.484078037996747 ], [ 100.266010025294918, 6.483596782871257 ], [ 100.266281081442173, 6.483100752227349 ], [ 100.266525638786533, 6.482591305608998 ], [ 100.266743027013305, 6.48206983933551 ], [ 100.266932650276516, 6.4815377826747 ], [ 100.267093988831945, 6.480996593925736 ], [ 100.267226600461854, 6.480447756422455 ], [ 100.267330121686967, 6.479892774467848 ], [ 100.267404268762775, 6.479333169211158 ], [ 100.267448838457341, 6.478770474478774 ], [ 100.267463708608219, 6.478206232570106 ] ] ] } },
{ "type": "Feature", "properties": { "state": "Perlis", "parlimen": "P.001 Padang Besar", "code_parlimen": "P.001", "dun": "N.05 Santan", "code_dun": "N.05", "voters_total": 8912 }, "geometry": { "type": "Polygon", "coordinates": [ [ [ 100.231113652378127, 6.503003466900536 ], [ 100.231097567751419, 6.502393171533013 ], [ 100.231049357958156, 6.50178454820479 ], [ 100.230969155138055, 6.501179265119266 ], [ 100.230857179121443, 6.500578981330413 ], [ 100.2307137368268, 6.499985342195274 ], [ 100.230539221419477, 6.499399974863907 ], [ 100.2303341112341, 6.498824483819207 ], [ 100.230098968463395, 6.498260446478753 ], [ 100.229834437617399, 6.497709408870853 ], [ 100.229541243756728, 6.497172881396475 ], [ 100.229220190505416, 6.496652334688938 ], [ 100.228872157848059, 6.496149195582401 ], [ 100.228498099718024, 6.495664843200434 ], [ 100.228099041382634, 6.495200605175429 ], [ 100.227676076633031, 6.49475775400893 ], [ 100.227230364786195, 6.494337503583242 ], [ 100.226763127507354, 6.49394100583361 ], [ 100.226275645461371, 6.493569347590181 ], [ 100.225769254802671, 6.493223547598466 ], [ 100.225245343512839, 6.492904553726451 ], [ 100.224705347596313, 6.492613240365921 ], [ 100.22415074714435, 6.492350406035254 ], [ 100.223583062278252, 6.492116771190187 ], [ 100.223003848982785, 6.491912976248684 ], [ 100.222414694841319, 6.491739579835039 ], [ 100.221817214684393, 6.491597057248402 ], [ 100.221213046163612, 6.491485799159626 ], [ 100.220603845262886, 6.491406110540207 ], [ 100.219991281759533, 6.491358209826146 ], [ 100.219377034647536, 6.491342228319049 ], [ 100.218762787535567, 6.491358209826146 ], [ 100.218150224032215, 6.491406110540207 ], [ 100.217541023131488, 6.491485799159626 ], [ 100.216936854610694, 6.491597057248402 ], [ 100.216339374453781, 6.491739579835039 ], [ 100.215750220312316, 6.491912976248684 ], [ 100.215171007016849, 6.492116771190187 ], [ 100.214603322150751, 6.492350406035254 ], [ 100.214048721698788, 6.492613240365921 ], [ 100.213508725782262, 6.492904553726451 ], [ 100.21298481449243, 6.493223547598466 ], [ 100.212478423833716, 6.493569347590181 ], [ 100.211990941787747, 6.49394100583361 ], [ 100.211523704508878, 6.494337503583242 ], [ 100.211077992662069, 6.49475775400893 ], [ 100.210655027912466, 6.495200605175429 ], [ 100.210255969577062, 6.495664843200434 ], [ 100.209881911447027, 6.496149195582401 ], [ 100.209533878789685, 6.496652334688938 ], [ 100.209212825538373, 6.497172881396475 ], [ 100.208919631677702, 6.497709408870853 ], [ 100.208655100831706, 6.498260446478753 ], [ 100.208419958061, 6.498824483819207 ], [ 100.20821484787561, 6.499399974863907 ], [ 100.2080403324683, 6.499985342195274 ], [ 100.207896890173657, 6.500578981330413 ], [ 100.207784914157031, 6.501179265119266 ], [ 100.20770471133693, 6.50178454820479 ], [ 100.207656501543667, 6.502393171533013 ], [ 100.207640416916973, 6.503003466900536 ], [ 100.207656501543667, 6.503613761527041 ], [ 100.20770471133693, 6.504222382640377 ], [ 100.207784914157031, 6.504827662061405 ], [ 100.207896890173657, 6.505427940776293 ], [ 100.2080403324683, 6.506021573483582 ], [ 100.20821484787561, 6.506606933103656 ], [ 100.208419958061, 6.507182415238084 ], [ 100.208655100831706, 6.50774644256694 ], [ 100.208919631677702, 6.508297469171584 ], [ 100.209212825538373, 6.508833984771603 ], [ 100.209533878789685, 6.509354518863775 ], [ 100.209881911447027, 6.509857644752182 ], [ 100.210255969577062, 6.510341983458042 ], [ 100.210655027912466, 6.510806207498823 ], [ 100.211077992662069, 6.511249044526179 ], [ 100.211523704508878, 6.511669280812711 ], [ 100.211990941787747, 6.51206576457812 ], [ 100.212478423833716, 6.512437409145455 ], [ 100.21298481449243, 6.512783195919015 ], [ 100.213508725782262, 6.513102177175677 ], [ 100.214048721698788, 6.513393478661848 ], [ 100.214603322150751, 6.513656301989271 ], [ 100.215171007016849, 6.513889926822716 ], [ 100.215750220312316, 6.514093712853971 ], [ 100.216339374453781, 6.514267101556311 ], [ 100.216936854610694, 6.51440961771511 ], [ 100.217541023131488, 6.514520870729921 ], [ 100.218150224032215, 6.514600555684833 ], [ 100.218762787535567, 6.514648454184007 ], [ 100.219377034647536, 6.514664434950098 ], [ 100.219991281759533, 6.514648454184007 ], [ 100.220603845262886, 6.514600555684833 ], [ 100.221213046163612, 6.514520870729921 ], [ 100.221817214684393, 6.51440961771511 ], [ 100.222414694841319, 6.514267101556311 ], [ 100.223003848982785, 6.514093712853971 ], [ 100.223583062278252, 6.513889926822716 ], [ 100.22415074714435, 6.513656301989271 ], [ 100.224705347596313, 6.513393478661848 ], [ 100.225245343512839, 6.513102177175677 ], [ 100.225769254802671, 6.512783195919015 ], [ 100.226275645461371, 6.512437409145455 ], [ 100.226763127507354, 6.51206576457812 ], [ 100.227230364786195, 6.511669280812711 ], [ 100.227676076633031, 6.511249044526179 ], [ 100.228099041382634, 6.510806207498823 ], [ 100.228498099718024, 6.510341983458042 ], [ 100.228872157848059, 6.509857644752182 ], [ 100.229220190505416, 6.509354518863775 ], [ 100.229541243756728, 6.508833984771603 ], [ 100.229834437617399, 6.508297469171584 ], [ 100.230098968463395, 6.50774644256694 ], [ 100.2303341112341, 6.507182415238084 ], [ 100.230539221419477, 6.506606933103656 ], [ 100.2307137368268, 6.506021573483582 ], [ 100.230857179121443, 6.505427940776293 ], [ 100.230969155138055, 6.504827662061405 ], [ 100.231049357958156, 6.504222382640377 ], [ 100.231097567751419, 6.503613761527041 ], [ 100.231113652378127, 6.503003466900536 ] ] ] } },
{ "type": "Feature", "properties": { "state": "Perlis", "parlimen": "P.002 Kangar", "code_parlimen": "P.002", "dun": "N.06 Bintong", "code_dun": "N.06", "voters_total": 12136 }, "geometry": { "type": "Polygon", "coordinates": [ [ [ 100.189904243994732, 6.491103624089916 ], [ 100.189885474128346, 6.490391426361635 ], [ 100.189829215976104, 6.489681179714814 ], [ 100.18973562373769, 6.488974830898606 ], [ 100.189604953942919, 6.488274315986605 ], [ 100.189437564748587, 6.4875815550699 ], [ 100.189233914956901, 6.486898446993999 ], [ 100.188994562757728, 6.486226864153759 ], [ 100.188720164198855, 6.485568647360886 ], [ 100.188411471387624, 6.484925600797797 ], [ 100.188069330429599, 6.48429948707188 ], [ 100.187694679109327, 6.48369202238366 ], [ 100.187288544320083, 6.483104871822047 ], [ 100.186852039249047, 6.482539644799695 ], [ 100.186386360326324, 6.481997890640906 ], [ 100.185892783945448, 6.481481094334191 ], [ 100.185372662964966, 6.48099067246119 ], [ 100.184827423000328, 6.480527969313021 ], [ 100.184258558516404, 6.480094253204856 ], [ 100.183667628731186, 6.479690712998645 ], [ 100.18305625334213, 6.479318454843764 ], [ 100.182426108086702, 6.478978499144238 ], [ 100.181778920149256, 6.47867177776123 ], [ 100.181116463426875, 6.478399131458059 ], [ 100.180440553667481, 6.478161307595079 ], [ 100.179753043492695, 6.477958958080633 ], [ 100.179055817320105, 6.477792637583661 ], [ 100.178350786198209, 6.477662802012875 ], [ 100.177639882568315, 6.47756980726686 ], [ 100.176925054967825, 6.477513908258143 ], [ 100.176208262689542, 6.477495258214359 ], [ 100.175491470411245, 6.477513908258143 ], [ 100.174776642810755, 6.47756980726686 ], [ 100.174065739180861, 6.477662802012875 ], [ 100.173360708058951, 6.477792637583661 ], [ 100.172663481886374, 6.477958958080633 ], [ 100.171975971711589, 6.478161307595079 ], [ 100.171300061952181, 6.478399131458059 ], [ 100.170637605229828, 6.47867177776123 ], [ 100.169990417292382, 6.478978499144238 ], [ 100.16936027203694, 6.479318454843764 ], [ 100.168748896647898, 6.479690712998645 ], [ 100.168157966862665, 6.480094253204856 ], [ 100.167589102378741, 6.480527969313021 ], [ 100.167043862414104, 6.48099067246119 ], [ 100.166523741433622, 6.481481094334191 ], [ 100.166030165052746, 6.481997890640906 ], [ 100.165564486130023, 6.482539644799695 ], [ 100.165127981059001, 6.483104871822047 ], [ 100.164721846269728, 6.48369202238366 ], [ 100.164347194949485, 6.48429948707188 ], [ 100.164005053991445, 6.484925600797797 ], [ 100.163696361180214, 6.485568647360886 ], [ 100.163421962621342, 6.486226864153759 ], [ 100.163182610422169, 6.486898446993999 ], [ 100.162978960630483, 6.4875815550699 ], [ 100.162811571436166, 6.488274315986605 ], [ 100.162680901641394, 6.488974830898606 ], [ 100.16258730940298, 6.489681179714814 ], [ 100.162531051250738, 6.490391426361635 ], [ 100.162512281384338, 6.491103624089916 ], [ 100.162531051250738, 6.491815820810954 ], [ 100.16258730940298, 6.492526064447063 ], [ 100.162680901641394, 6.493232408282064 ], [ 100.162811571436166, 6.493932916296981 ], [ 100.162978960630483, 6.494625668476232 ], [ 100.163182610422169, 6.495308766070092 ], [ 100.163421962621342, 6.495980336798525 ], [ 100.163696361180214, 6.49663853998253 ], [ 100.164005053991445, 6.497281571588768 ], [ 100.164347194949485, 6.497907669173753 ], [ 100.164721846269728, 6.498515116713783 ], [ 100.165127981059001, 6.499102249307844 ], [ 100.165564486130023, 6.499667457740121 ], [ 100.166030165052746, 6.500209192890008 ], [ 100.166523741433622, 6.500725969977228 ], [ 100.167043862414104, 6.50121637263076 ], [ 100.167589102378741, 6.501679056770014 ], [ 100.168157966862665, 6.502112754288104 ], [ 100.168748896647898, 6.502516276526764 ], [ 100.16936027203694, 6.502888517533456 ], [ 100.169990417292382, 6.503228457092048 ], [ 100.170637605229828, 6.503535163518218 ], [ 100.171300061952181, 6.503807796212508 ], [ 100.171975971711589, 6.504045607963668 ], [ 100.172663481886374, 6.504247946996075 ], [ 100.173360708058951, 6.504414258755618 ], [ 100.174065739180861, 6.504544087429294 ], [ 100.174776642810755, 6.504637077194128 ], [ 100.175491470411245, 6.504692973192133 ], [ 100.176208262689542, 6.504711622228659 ], [ 100.176925054967825, 6.504692973192133 ], [ 100.177639882568315, 6.504637077194128 ], [ 100.178350786198209, 6.504544087429294 ], [ 100.179055817320105, 6.504414258755618 ], [ 100.179753043492695, 6.504247946996075 ], [ 100.180440553667481, 6.504045607963668 ], [ 100.181116463426875, 6.503807796212508 ], [ 100.181778920149256, 6.503535163518218 ], [ 100.182426108086702, 6.503228457092048 ], [ 100.18305625334213, 6.502888517533456 ], [ 100.183667628731186, 6.502516276526764 ], [ 100.184258558516404, 6.502112754288104 ], [ 100.184827423000328, 6.501679056770014 ], [ 100.185372662964966, 6.50121637263076 ], [ 100.185892783945448, 6.500725969977228 ], [ 100.186386360326324, 6.500209192890008 ], [ 100.186852039249047, 6.499667457740121 ], [ 100.187288544320083, 6.499102249307844 ], [ 100.187694679109327, 6.498515116713783 ], [ 100.188069330429599, 6.497907669173753 ], [ 100.188411471387624, 6.497281571588768 ], [ 100.188720164198855, 6.49663853998253 ], [ 100.188994562757728, 6.495980336798525 ], [ 100.189233914956901, 6.495308766070092 ], [ 100.189437564748587, 6.494625668476232 ], [ 100.189604953942919, 6.493932916296981 ], [ 100.18973562373769, 6.493232408282064 ], [ 100.189829215976104, 6.492526064447063 ], [ 100.189885474128346, 6.491815820810954 ], [ 100.189904243994732, 6.491103624089916 ] ] ] } },
{ "type": "Feature", "properties": { "state": "Perlis", "parlimen": "P.002 Kangar", "code_parlimen": "P.002", "dun": "N.07 Sena", "code_dun": "N.07", "voters_total": 12303 }, "geometry": { "type": "Polygon", "coordinates": [ [ [ 100.232449629844879, 6.443811438448852 ], [ 100.232430731276381, 6.443094290190325 ], [ 100.232374087370559, 6.442379106575806 ], [ 100.232279853384398, 6.441667847886409 ], [ 100.232148287606734, 6.440962463653482 ], [ 100.231979750650197, 6.440264887314778 ], [ 100.231774704462865, 6.439577030914751 ], [ 100.231533711062113, 6.438900779863416 ], [ 100.231257430994077, 6.438237987767993 ], [ 100.230946621523245, 6.437590471351887 ], [ 100.230602134556719, 6.436960005474431 ], [ 100.230224914309389, 6.436348318265505 ], [ 100.229815994715707, 6.435757086388137 ], [ 100.229376496595862, 6.43518793044207 ], [ 100.228907624583641, 6.434642410520977 ], [ 100.228410663824647, 6.434122021935594 ], [ 100.22788697645376, 6.43362819111424 ], [ 100.227337997861682, 6.433162271692259 ], [ 100.226765232760584, 6.432725540800901 ], [ 100.22617025105977, 6.432319195565899 ], [ 100.225554683562748, 6.431944349825529 ], [ 100.224920217497214, 6.431602031076646 ], [ 100.224268591890578, 6.431293177657801 ], [ 100.22360159280332, 6.431018636176468 ], [ 100.222921048433591, 6.430779159187928 ], [ 100.222228824106168, 6.430575403131925 ], [ 100.221526817159841, 6.430407926532919 ], [ 100.220816951746869, 6.430277188468649 ], [ 100.220101173558987, 6.43018354731156 ], [ 100.219381444494445, 6.430127259746067 ], [ 100.218659737280618, 6.430108480064923 ], [ 100.217938030066776, 6.430127259746067 ], [ 100.217218301002248, 6.43018354731156 ], [ 100.216502522814366, 6.430277188468649 ], [ 100.21579265740138, 6.430407926532919 ], [ 100.215090650455068, 6.430575403131925 ], [ 100.21439842612763, 6.430779159187928 ], [ 100.213717881757901, 6.431018636176468 ], [ 100.213050882670643, 6.431293177657801 ], [ 100.212399257064007, 6.431602031076646 ], [ 100.211764790998473, 6.431944349825529 ], [ 100.211149223501451, 6.432319195565899 ], [ 100.210554241800637, 6.432725540800901 ], [ 100.209981476699539, 6.433162271692259 ], [ 100.209432498107461, 6.43362819111424 ], [ 100.208908810736574, 6.434122021935594 ], [ 100.20841184997758, 6.434642410520977 ], [ 100.207942977965374, 6.43518793044207 ], [ 100.207503479845514, 6.435757086388137 ], [ 100.207094560251832, 6.436348318265505 ], [ 100.206717340004502, 6.436960005474431 ], [ 100.20637285303799, 6.437590471351887 ], [ 100.206062043567144, 6.438237987767993 ], [ 100.205785763499108, 6.438900779863416 ], [ 100.205544770098356, 6.439577030914751 ], [ 100.205339723911038, 6.440264887314778 ], [ 100.205171186954502, 6.440962463653482 ], [ 100.205039621176823, 6.441667847886409 ], [ 100.204945387190662, 6.442379106575806 ], [ 100.20488874328484, 6.443094290190325 ], [ 100.204869844716342, 6.443811438448852 ], [ 100.20488874328484, 6.444528585693583 ], [ 100.204945387190662, 6.445243766277834 ], [ 100.205039621176823, 6.445955019953646 ], [ 100.205171186954502, 6.446660397244644 ], [ 100.205339723911038, 6.447357964789114 ], [ 100.205544770098356, 6.448045810638949 ], [ 100.205785763499108, 6.448722049499752 ], [ 100.206062043567144, 6.449384827897837 ], [ 100.20637285303799, 6.450032329259881 ], [ 100.206717340004502, 6.450662778891484 ], [ 100.207094560251832, 6.451274448840747 ], [ 100.207503479845514, 6.451865662633774 ], [ 100.207942977965374, 6.452434799868943 ], [ 100.20841184997758, 6.452980300657562 ], [ 100.208908810736574, 6.453500669898531 ], [ 100.209432498107461, 6.45399448137546 ], [ 100.209981476699539, 6.454460381664966 ], [ 100.210554241800637, 6.454897093845426 ], [ 100.211149223501451, 6.455303420996062 ], [ 100.211764790998473, 6.455678249476795 ], [ 100.212399257064007, 6.456020551979813 ], [ 100.213050882670643, 6.456329390344597 ], [ 100.213717881757901, 6.45660391812859 ], [ 100.21439842612763, 6.456843382926599 ], [ 100.215090650455068, 6.457047128432409 ], [ 100.21579265740138, 6.457214596237194 ], [ 100.216502522814366, 6.457345327359523 ], [ 100.217218301002248, 6.457438963503052 ], [ 100.217938030066776, 6.457495248038252 ], [ 100.218659737280618, 6.457514026705601 ], [ 100.219381444494445, 6.457495248038252 ], [ 100.220101173558987, 6.457438963503052 ], [ 100.220816951746869, 6.457345327359523 ], [ 100.221526817159841, 6.457214596237194 ], [ 100.222228824106168, 6.457047128432409 ], [ 100.222921048433591, 6.456843382926599 ], [ 100.22360159280332, 6.45660391812859 ], [ 100.224268591890578, 6.456329390344597 ], [ 100.224920217497214, 6.456020551979813 ], [ 100.225554683562748, 6.455678249476795 ], [ 100.22617025105977, 6.455303420996062 ], [ 100.226765232760584, 6.454897093845426 ], [ 100.227337997861682, 6.454460381664966 ], [ 100.22788697645376, 6.45399448137546 ], [ 100.228410663824647, 6.453500669898531 ], [ 100.228907624583641, 6.452980300657562 ], [ 100.229376496595862, 6.452434799868943 ], [ 100.229815994715707, 6.451865662633774 ], [ 100.230224914309389, 6.451274448840747 ], [ 100.230602134556719, 6.450662778891484 ], [ 100.230946621523245, 6.450032329259881 ], [ 100.231257430994077, 6.449384827897837 ], [ 100.231533711062113, 6.448722049499752 ], [ 100.231774704462865, 6.448045810638962 ], [ 100.231979750650197, 6.447357964789114 ], [ 100.232148287606734, 6.446660397244644 ], [ 100.232279853384398, 6.445955019953646 ], [ 100.232374087370559, 6.445243766277834 ], [ 100.232430731276381, 6.444528585693583 ], [ 100.232449629844879, 6.443811438448852 ] ] ] } },
{ "type": "Feature", "properties": { "state": "Perlis", "parlimen": "P.002 Kangar", "code_parlimen": "P.002", "dun": "N.08 Indera Kayangan", "code_dun": "N.08", "voters_total": 11018 }, "geometry": { "type": "Polygon", "coordinates": [ [ [ 100.207660359303333, 6.425631457291789 ], [ 100.207642474886597, 6.424952769019925 ], [ 100.207588870656338, 6.424275940083853 ], [ 100.207499693538011, 6.423602825635865 ], [ 100.207375187959912, 6.422935270654336 ], [ 100.207215695183137, 6.422275104886623 ], [ 100.207021652366365, 6.42162413783354 ], [ 100.206793591367443, 6.42098415378929 ], [ 100.206532137285691, 6.420356906950425 ], [ 100.206238006748606, 6.419744116607227 ], [ 100.205912005947539, 6.419147462430673 ], [ 100.205555028427995, 6.418568579867974 ], [ 100.205168052640587, 6.418009055659323 ], [ 100.204752139259028, 6.417470423487997 ], [ 100.204308428272995, 6.41695415977594 ], [ 100.203838135863464, 6.416461679636238 ], [ 100.203342551069198, 6.415994332993625 ], [ 100.202823032253704, 6.415553400883658 ], [ 100.20228100338197, 6.415140091940716 ], [ 100.201717950117398, 6.414755539084407 ], [ 100.201135415749903, 6.414400796413655 ], [ 100.200534996965644, 6.414076836316681 ], [ 100.199918339470827, 6.413784546805092 ], [ 100.199287133480738, 6.413524729079248 ], [ 100.198643109087158, 6.413298095331652 ], [ 100.197988031516147, 6.413105266794286 ], [ 100.197323696289814, 6.412946772035404 ], [ 100.196651924304859, 6.412823045510303 ], [ 100.195974556841549, 6.412734426370229 ], [ 100.195293450517056, 6.412681157532427 ], [ 100.194610472196459, 6.412663385014163 ], [ 100.193927493875847, 6.412681157532427 ], [ 100.193246387551369, 6.412734426370229 ], [ 100.192569020088044, 6.412823045510303 ], [ 100.191897248103089, 6.412946772035404 ], [ 100.191232912876742, 6.413105266794286 ], [ 100.190577835305746, 6.413298095331652 ], [ 100.189933810912166, 6.413524729079248 ], [ 100.189302604922091, 6.413784546805092 ], [ 100.18868594742726, 6.414076836316681 ], [ 100.188085528643015, 6.414400796413655 ], [ 100.187502994275505, 6.414755539084407 ], [ 100.186939941010934, 6.415140091940716 ], [ 100.186397912139199, 6.415553400883658 ], [ 100.185878393323719, 6.415994332993625 ], [ 100.185382808529454, 6.416461679636238 ], [ 100.184912516119908, 6.41695415977594 ], [ 100.184468805133861, 6.417470423487997 ], [ 100.184052891752316, 6.418009055659323 ], [ 100.183665915964909, 6.418568579867974 ], [ 100.183308938445379, 6.419147462430673 ], [ 100.182982937644297, 6.419744116607227 ], [ 100.182688807107212, 6.420356906950425 ], [ 100.182427353025474, 6.42098415378929 ], [ 100.182199292026539, 6.42162413783354 ], [ 100.182005249209766, 6.422275104886623 ], [ 100.181845756433006, 6.422935270654336 ], [ 100.181721250854906, 6.423602825635865 ], [ 100.181632073736566, 6.424275940083853 ], [ 100.18157846950632, 6.424952769019925 ], [ 100.181560585089571, 6.425631457291789 ], [ 100.18157846950632, 6.426310144658265 ], [ 100.181632073736566, 6.42698697088808 ], [ 100.181721250854906, 6.427660080858597 ], [ 100.181845756433006, 6.4283276296405 ], [ 100.182005249209766, 6.428987787554342 ], [ 100.182199292026539, 6.429638745185375 ], [ 100.182427353025474, 6.430278718342625 ], [ 100.182688807107212, 6.43090595294881 ], [ 100.182982937644297, 6.431518729847676 ], [ 100.183308938445379, 6.432115369515556 ], [ 100.183665915964909, 6.432694236664169 ], [ 100.184052891752316, 6.433253744722229 ], [ 100.184468805133861, 6.433792360183418 ], [ 100.184912516119908, 6.434308606808836 ], [ 100.185382808529454, 6.434801069672629 ], [ 100.185878393323719, 6.435268399039321 ], [ 100.186397912139199, 6.435709314062649 ], [ 100.186939941010934, 6.436122606295453 ], [ 100.187502994275505, 6.436507143001172 ], [ 100.188085528643015, 6.436861870257837 ], [ 100.18868594742726, 6.437185815846138 ], [ 100.189302604922091, 6.437478091913396 ], [ 100.189933810912166, 6.437737897406559 ], [ 100.190577835305746, 6.437964520267142 ], [ 100.191232912876742, 6.43815733938247 ], [ 100.191897248103089, 6.438315826287494 ], [ 100.192569020088044, 6.438439546612956 ], [ 100.193246387551369, 6.43852816127556 ], [ 100.193927493875847, 6.438581427407117 ], [ 100.194610472196459, 6.438599199019966 ], [ 100.195293450517056, 6.438581427407117 ], [ 100.195974556841549, 6.43852816127556 ], [ 100.196651924304859, 6.438439546612956 ], [ 100.197323696289814, 6.438315826287494 ], [ 100.197988031516147, 6.43815733938247 ], [ 100.198643109087158, 6.437964520267142 ], [ 100.199287133480738, 6.437737897406559 ], [ 100.199918339470827, 6.437478091913396 ], [ 100.200534996965644, 6.437185815846138 ], [ 100.201135415749903, 6.436861870257837 ], [ 100.201717950117398, 6.436507143001172 ], [ 100.20228100338197, 6.436122606295453 ], [ 100.202823032253704, 6.435709314062649 ], [ 100.203342551069198, 6.435268399039321 ], [ 100.203838135863464, 6.434801069672629 ], [ 100.204308428272995, 6.434308606808836 ], [ 100.204752139259028, 6.433792360183418 ], [ 100.205168052640587, 6.433253744722229 ], [ 100.205555028427995, 6.432694236664169 ], [ 100.205912005947539, 6.432115369515556 ], [ 100.206238006748606, 6.431518729847676 ], [ 100.206532137285691, 6.43090595294881 ], [ 100.206793591367443, 6.430278718342625 ], [ 100.207021652366365, 6.429638745185375 ], [ 100.207215695183137, 6.428987787554342 ], [ 100.207375187959912, 6.4283276296405 ], [ 100.207499693538011, 6.427660080858597 ], [ 100.207588870656338, 6.42698697088808 ], [ 100.207642474886597, 6.426310144658265 ], [ 100.207660359303333, 6.425631457291789 ] ] ] } },
{ "type": "Feature", "properties": { "state": "Perlis", "parlimen": "P.002 Kangar", "code_parlimen": "P.002", "dun": "N.09 Kuala Perlis", "code_dun": "N.09", "voters_total": 10654 }, "geometry": { "type": "Polygon", "coordinates": [ [ [ 100.153735100085257, 6.41086848752161 ], [ 100.153717513572005, 6.410201084929667 ], [ 100.153664802235696, 6.409535510771995 ], [ 100.153577110554423, 6.40887358935194 ], [ 100.153454678885012, 6.4082171349679 ], [ 100.153297842804136, 6.407567946940394 ], [ 100.153107032188586, 6.406927804679846 ], [ 100.152882770037024, 6.40629846280909 ], [ 100.15262567103639, 6.405681646353663 ], [ 100.152336439877189, 6.405079046013087 ], [ 100.152015869321929, 6.404492313526317 ], [ 100.151664838032204, 6.40392305714383 ], [ 100.151284308160385, 6.403372837218855 ], [ 100.150875322712409, 6.402843161929969 ], [ 100.150439002688941, 6.402335483146502 ], [ 100.149976544012873, 6.401851192448366 ], [ 100.149489214251247, 6.401391617311123 ], [ 100.148978349141117, 6.400958017466671 ], [ 100.148445348928163, 6.400551581449681 ], [ 100.147891674528992, 6.400173423339175 ], [ 100.147318843526634, 6.39982457970413 ], [ 100.146728426011023, 6.399506006761747 ], [ 100.146122040275529, 6.399218577755692 ], [ 100.145501348381345, 6.398963080562094 ], [ 100.144868051601776, 6.398740215529399 ], [ 100.144223885759288, 6.398550593558245 ], [ 100.143570616467656, 6.398394734426519 ], [ 100.142910034292626, 6.398273065364368 ], [ 100.14224394984403, 6.39818591988273 ], [ 100.141574188812996, 6.398133536859049 ], [ 100.140902586968011, 6.398116059882226 ], [ 100.140230985123026, 6.398133536859049 ], [ 100.139561224091992, 6.39818591988273 ], [ 100.138895139643395, 6.398273065364368 ], [ 100.138234557468365, 6.398394734426519 ], [ 100.137581288176747, 6.398550593558245 ], [ 100.136937122334245, 6.398740215529399 ], [ 100.136303825554677, 6.398963080562094 ], [ 100.135683133660493, 6.399218577755692 ], [ 100.135076747924998, 6.399506006761747 ], [ 100.134486330409388, 6.39982457970413 ], [ 100.133913499407029, 6.400173423339175 ], [ 100.133359825007858, 6.400551581449681 ], [ 100.132826824794918, 6.400958017466671 ], [ 100.132315959684774, 6.401391617311123 ], [ 100.131828629923149, 6.401851192448366 ], [ 100.13136617124708, 6.402335483146502 ], [ 100.130929851223613, 6.402843161929969 ], [ 100.130520865775637, 6.403372837218855 ], [ 100.130140335903818, 6.40392305714383 ], [ 100.129789304614093, 6.404492313526317 ], [ 100.129468734058847, 6.405079046013087 ], [ 100.129179502899632, 6.405681646353663 ], [ 100.128922403898997, 6.40629846280909 ], [ 100.128698141747435, 6.406927804679846 ], [ 100.128507331131885, 6.407567946940394 ], [ 100.128350495051009, 6.4082171349679 ], [ 100.128228063381599, 6.40887358935194 ], [ 100.128140371700326, 6.409535510771995 ], [ 100.128087660364017, 6.410201084929667 ], [ 100.128070073850765, 6.41086848752161 ], [ 100.128087660364017, 6.411535889240046 ], [ 100.128140371700326, 6.412201460786775 ], [ 100.128228063381599, 6.412863377887064 ], [ 100.128350495051009, 6.413519826289829 ], [ 100.128507331131885, 6.414169006740096 ], [ 100.128698141747435, 6.414809139910454 ], [ 100.128922403898997, 6.415438471277656 ], [ 100.129179502899632, 6.416055275931255 ], [ 100.129468734058847, 6.416657863301018 ], [ 100.129789304614093, 6.417244581790129 ], [ 100.130140335903818, 6.41781382330145 ], [ 100.130520865775637, 6.418364027644671 ], [ 100.130929851223613, 6.418893686811962 ], [ 100.13136617124708, 6.419401349110601 ], [ 100.131828629923149, 6.419885623141307 ], [ 100.132315959684774, 6.420345181611108 ], [ 100.132826824794918, 6.420778764970746 ], [ 100.133359825007858, 6.421185184866126 ], [ 100.133913499407029, 6.421563327394905 ], [ 100.134486330409388, 6.421912156158758 ], [ 100.135076747924998, 6.422230715103481 ], [ 100.135683133660493, 6.422518131138737 ], [ 100.136303825554677, 6.422773616530494 ], [ 100.136937122334245, 6.422996471059649 ], [ 100.137581288176747, 6.423186083940611 ], [ 100.138234557468365, 6.423341935495085 ], [ 100.138895139643395, 6.423463598575975 ], [ 100.139561224091992, 6.423550739737834 ], [ 100.140230985123026, 6.423603120150585 ], [ 100.140902586968011, 6.4236205962539 ], [ 100.141574188812996, 6.423603120150585 ], [ 100.14224394984403, 6.423550739737834 ], [ 100.142910034292626, 6.423463598575975 ], [ 100.143570616467656, 6.423341935495085 ], [ 100.144223885759288, 6.423186083940611 ], [ 100.144868051601776, 6.422996471059649 ], [ 100.145501348381345, 6.422773616530494 ], [ 100.146122040275529, 6.422518131138737 ], [ 100.146728426011023, 6.422230715103481 ], [ 100.147318843526634, 6.421912156158758 ], [ 100.147891674528992, 6.421563327394905 ], [ 100.148445348928163, 6.421185184866126 ], [ 100.148978349141117, 6.420778764970746 ], [ 100.149489214251247, 6.420345181611108 ], [ 100.149976544012873, 6.419885623141307 ], [ 100.150439002688941, 6.419401349110601 ], [ 100.150875322712409, 6.418893686811962 ], [ 100.151284308160385, 6.418364027644671 ], [ 100.151664838032204, 6.41781382330145 ], [ 100.152015869321929, 6.417244581790129 ], [ 100.152336439877189, 6.416657863301018 ], [ 100.15262567103639, 6.416055275931255 ], [ 100.152882770037024, 6.415438471277656 ], [ 100.153107032188586, 6.414809139910454 ], [ 100.153297842804136, 6.414169006740096 ], [ 100.153454678885012, 6.413519826289829 ], [ 100.153577110554423, 6.412863377887064 ], [ 100.153664802235696, 6.412201460786775 ], [ 100.153717513572005, 6.411535889240046 ], [ 100.153735100085257, 6.41086848752161 ] ] ] } },
{ "type": "Feature", "properties": { "state": "Perlis", "parlimen": "P.002 Kangar", "code_parlimen": "P.002", "dun": "N.10 Kayang", "code_dun": "N.10", "voters_total": 9827 }, "geometry": { "type": "Polygon", "coordinates": [ [ [ 100.185945567852912, 6.403779647119284 ], [ 100.18592867768858, 6.403138661858442 ], [ 100.185878053490342, 6.402499432692218 ], [ 100.185793834015612, 6.401863711713265 ], [ 100.185676250104123, 6.401233241405028 ], [ 100.185525624045169, 6.400609749865497 ], [ 100.185342368694364, 6.39999494607039 ], [ 100.185126986341828, 6.399390515188628 ], [ 100.184880067335655, 6.398798113963029 ], [ 100.184602288463665, 6.398219366168892 ], [ 100.184294411098463, 6.397655858162772 ], [ 100.183957279110444, 6.397109134533954 ], [ 100.183591816555023, 6.396580693870163 ], [ 100.183199025139629, 6.396071984649484 ], [ 100.182779981478234, 6.395584401269519 ], [ 100.182335834140375, 6.395119280224777 ], [ 100.181867800503056, 6.394677896442713 ], [ 100.181377163413927, 6.394261459788644 ], [ 100.180865267675145, 6.393871111748787 ], [ 100.180333516357379, 6.393507922300958 ], [ 100.17978336695397, 6.393172886981075 ], [ 100.179216327386243, 6.392866924153831 ], [ 100.178633951870225, 6.392590872495024 ], [ 100.178037836656713, 6.392345488692043 ], [ 100.177429615656081, 6.392131445369421 ], [ 100.176810955959809, 6.39194932924473 ], [ 100.176183553271144, 6.391799639519943 ], [ 100.175549127257227, 6.391682786512821 ], [ 100.174909416835646, 6.391599090531928 ], [ 100.174266175408235, 6.391548780998457 ], [ 100.173621166055028, 6.3915319958172 ], [ 100.172976156701822, 6.391548780998457 ], [ 100.17233291527441, 6.391599090531928 ], [ 100.171693204852843, 6.391682786512821 ], [ 100.171058778838912, 6.391799639519943 ], [ 100.170431376150233, 6.39194932924473 ], [ 100.16981271645399, 6.392131445369421 ], [ 100.169204495453343, 6.392345488692043 ], [ 100.168608380239831, 6.392590872495024 ], [ 100.168026004723814, 6.392866924153831 ], [ 100.167458965156072, 6.393172886981075 ], [ 100.166908815752691, 6.393507922300958 ], [ 100.166377064434911, 6.393871111748787 ], [ 100.165865168696129, 6.394261459788644 ], [ 100.165374531606986, 6.394677896442713 ], [ 100.164906497969682, 6.395119280224777 ], [ 100.164462350631823, 6.395584401269519 ], [ 100.164043306970413, 6.396071984649484 ], [ 100.163650515555034, 6.396580693870163 ], [ 100.163285052999612, 6.397109134533954 ], [ 100.162947921011607, 6.397655858162772 ], [ 100.162640043646377, 6.398219366168892 ], [ 100.162362264774416, 6.398798113963029 ], [ 100.162115345768228, 6.399390515188628 ], [ 100.161899963415706, 6.39999494607039 ], [ 100.161716708064887, 6.400609749865497 ], [ 100.161566082005947, 6.401233241405028 ], [ 100.161448498094444, 6.401863711713265 ], [ 100.161364278619715, 6.402499432692218 ], [ 100.161313654421477, 6.403138661858442 ], [ 100.161296764257159, 6.403779647119284 ], [ 100.161313654421477, 6.404420631575293 ], [ 100.161364278619715, 6.405059858335872 ], [ 100.161448498094444, 6.405695575334705 ], [ 100.161566082005947, 6.406326040131956 ], [ 100.161716708064887, 6.406949524690018 ], [ 100.161899963415706, 6.407564320109656 ], [ 100.162115345768228, 6.408168741313714 ], [ 100.162362264774416, 6.408761131665416 ], [ 100.162640043646377, 6.409339867508607 ], [ 100.162947921011607, 6.409903362617628 ], [ 100.163285052999612, 6.41045007254454 ], [ 100.163650515555034, 6.410978498851728 ], [ 100.164043306970413, 6.411487193218389 ], [ 100.164462350631823, 6.411974761409666 ], [ 100.164906497969682, 6.412439867097482 ], [ 100.165374531606986, 6.412881235522606 ], [ 100.165865168696129, 6.413297656988 ], [ 100.166377064434911, 6.413687990173828 ], [ 100.166908815752691, 6.414051165265052 ], [ 100.167458965156072, 6.414386186883042 ], [ 100.168026004723814, 6.414692136813175 ], [ 100.168608380239831, 6.414968176521035 ], [ 100.169204495453343, 6.415213549450132 ], [ 100.16981271645399, 6.415427583095051 ], [ 100.170431376150233, 6.415609690844274 ], [ 100.171058778838912, 6.415759373587591 ], [ 100.171693204852843, 6.415876221083726 ], [ 100.17233291527441, 6.415959913084499 ], [ 100.172976156701822, 6.416010220212313 ], [ 100.173621166055028, 6.416027004588762 ], [ 100.174266175408235, 6.416010220212313 ], [ 100.174909416835646, 6.415959913084499 ], [ 100.175549127257227, 6.415876221083726 ], [ 100.176183553271144, 6.415759373587591 ], [ 100.176810955959809, 6.415609690844274 ], [ 100.177429615656081, 6.415427583095051 ], [ 100.178037836656713, 6.415213549450132 ], [ 100.178633951870225, 6.414968176521035 ], [ 100.179216327386243, 6.414692136813175 ], [ 100.17978336695397, 6.414386186883042 ], [ 100.180333516357379, 6.414051165265052 ], [ 100.180865267675145, 6.413687990173828 ], [ 100.181377163413927, 6.413297656988 ], [ 100.181867800503056, 6.412881235522606 ], [ 100.182335834140375, 6.412439867097482 ], [ 100.182779981478234, 6.411974761409666 ], [ 100.183199025139629, 6.411487193218389 ], [ 100.183591816555023, 6.410978498851728 ], [ 100.183957279110444, 6.41045007254454 ], [ 100.184294411098463, 6.409903362617628 ], [ 100.184602288463665, 6.409339867508607 ], [ 100.184880067335655, 6.408761131665416 ], [ 100.185126986341828, 6.408168741313714 ], [ 100.185342368694364, 6.407564320109656 ], [ 100.185525624045169, 6.406949524690018 ], [ 100.185676250104123, 6.406326040131956 ], [ 100.185793834015612, 6.405695575334705 ], [ 100.185878053490342, 6.405059858335872 ], [ 100.18592867768858, 6.404420631575293 ], [ 100.185945567852912, 6.403779647119284 ] ] ] } },
{ "type": "Feature", "properties": { "state": "Perlis", "parlimen": "P.003 Arau", "code_parlimen": "P.003", "dun": "N.11 Pauh", "code_dun": "N.11", "voters_total": 11200 }, "geometry": { "type": "Polygon", "coordinates": [ [ [ 100.327206204246309, 6.446178284223305 ], [ 100.327188172723368, 6.445494041154368 ], [ 100.32713412757775, 6.44481167262879 ], [ 100.327044216943392, 6.444133048982667 ], [ 100.326918687259123, 6.443460030295087 ], [ 100.3267578825931, 6.442794461289559 ], [ 100.326562243699684, 6.442138166277426 ], [ 100.326332306811523, 6.441492944157227 ], [ 100.326068702169636, 6.440860563483591 ], [ 100.325772152296025, 6.440242757619266 ], [ 100.325443470013255, 6.439641219983509 ], [ 100.32508355621664, 6.439057599409962 ], [ 100.324693397404886, 6.438493495626601 ], [ 100.324274062976158, 6.437950454870315 ], [ 100.323826702297012, 6.437429965648022 ], [ 100.323352541551913, 6.436933454656009 ], [ 100.32285288038257, 6.43646228286871 ], [ 100.322329088325489, 6.436017741807532 ], [ 100.321782601058246, 6.435601050000105 ], [ 100.321214916464541, 6.435213349639607 ], [ 100.320627590528332, 6.434855703453348 ], [ 100.320022233069167, 6.434529091789118 ], [ 100.319400503329817, 6.434234409927475 ], [ 100.318764105428258, 6.433972465627125 ], [ 100.318114783686909, 6.433743976910346 ], [ 100.317454317851514, 6.433549570094345 ], [ 100.316784518213026, 6.433389778074076 ], [ 100.316107220645691, 6.433265038861204 ], [ 100.315424281575076, 6.433175694383168 ], [ 100.314737572889712, 6.433121989545681 ], [ 100.314048976810341, 6.433104071561263 ], [ 100.31336038073097, 6.433121989545681 ], [ 100.312673672045591, 6.433175694383168 ], [ 100.311990732974991, 6.433265038861204 ], [ 100.311313435407655, 6.433389778074076 ], [ 100.310643635769168, 6.433549570094345 ], [ 100.309983169933759, 6.433743976910346 ], [ 100.309333848192409, 6.433972465627125 ], [ 100.30869745029085, 6.434234409927475 ], [ 100.3080757205515, 6.434529091789118 ], [ 100.307470363092349, 6.434855703453348 ], [ 100.30688303715614, 6.435213349639607 ], [ 100.306315352562422, 6.435601050000105 ], [ 100.305768865295192, 6.436017741807532 ], [ 100.305245073238112, 6.43646228286871 ], [ 100.304745412068769, 6.436933454656009 ], [ 100.304271251323669, 6.437429965648022 ], [ 100.303823890644509, 6.437950454870315 ], [ 100.303404556215796, 6.438493495626601 ], [ 100.303014397404027, 6.439057599409962 ], [ 100.302654483607427, 6.439641219983509 ], [ 100.302325801324656, 6.440242757619266 ], [ 100.302029251451032, 6.440860563483591 ], [ 100.301765646809159, 6.441492944157227 ], [ 100.301535709920998, 6.442138166277426 ], [ 100.301340071027582, 6.442794461289559 ], [ 100.301179266361544, 6.443460030295087 ], [ 100.301053736677275, 6.444133048982667 ], [ 100.300963826042917, 6.44481167262879 ], [ 100.3009097808973, 6.445494041154368 ], [ 100.300891749374358, 6.446178284223305 ], [ 100.3009097808973, 6.44686252636899 ], [ 100.300963826042917, 6.447544892134967 ], [ 100.301053736677275, 6.448223511215352 ], [ 100.301179266361544, 6.448896523581071 ], [ 100.301340071027582, 6.4495620845779 ], [ 100.301535709920998, 6.45021836998225 ], [ 100.301765646809159, 6.450863581000825 ], [ 100.302029251451032, 6.451495949200618 ], [ 100.302325801324656, 6.452113741355582 ], [ 100.302654483607427, 6.452715264196633 ], [ 100.303014397404027, 6.453298869052222 ], [ 100.303404556215796, 6.453862956366607 ], [ 100.303823890644509, 6.454405980083326 ], [ 100.304271251323669, 6.454926451882134 ], [ 100.304745412068769, 6.455422945257665 ], [ 100.305245073238112, 6.455894099428469 ], [ 100.305768865295192, 6.456338623066174 ], [ 100.306315352562422, 6.456755297834022 ], [ 100.30688303715614, 6.457142981725531 ], [ 100.307470363092349, 6.457500612193858 ], [ 100.3080757205515, 6.457827209063382 ], [ 100.30869745029085, 6.458121877215651 ], [ 100.309333848192409, 6.458383809042158 ], [ 100.309983169933759, 6.458612286657313 ], [ 100.310643635769168, 6.458806683865519 ], [ 100.311313435407655, 6.458966467877088 ], [ 100.311990732974991, 6.459091200768111 ], [ 100.312673672045591, 6.459180540680411 ], [ 100.31336038073097, 6.459234242758296 ], [ 100.314048976810341, 6.459252159819475 ], [ 100.314737572889712, 6.459234242758296 ], [ 100.315424281575076, 6.459180540680411 ], [ 100.316107220645691, 6.459091200768111 ], [ 100.316784518213026, 6.458966467877088 ], [ 100.317454317851514, 6.458806683865519 ], [ 100.318114783686909, 6.458612286657313 ], [ 100.318764105428258, 6.458383809042158 ], [ 100.319400503329817, 6.458121877215651 ], [ 100.320022233069167, 6.457827209063382 ], [ 100.320627590528332, 6.457500612193858 ], [ 100.321214916464541, 6.457142981725531 ], [ 100.321782601058246, 6.456755297834022 ], [ 100.322329088325489, 6.456338623066174 ], [ 100.32285288038257, 6.455894099428469 ], [ 100.323352541551913, 6.455422945257665 ], [ 100.323826702297012, 6.454926451882134 ], [ 100.324274062976158, 6.454405980083326 ], [ 100.324693397404886, 6.453862956366607 ], [ 100.32508355621664, 6.453298869052222 ], [ 100.325443470013255, 6.452715264196633 ], [ 100.325772152296025, 6.452113741355582 ], [ 100.326068702169636, 6.451495949200618 ], [ 100.326332306811523, 6.450863581000825 ], [ 100.326562243699684, 6.45021836998225 ], [ 100.3267578825931, 6.4495620845779 ], [ 100.326918687259123, 6.448896523581071 ], [ 100.327044216943392, 6.448223511215352 ], [ 100.32713412757775, 6.447544892134967 ], [ 100.327188172723368, 6.44686252636899 ], [ 100.327206204246309, 6.446178284223305 ] ] ] } },
{ "type": "Feature", "properties": { "state": "Perlis", "parlimen": "P.003 Arau", "code_parlimen": "P.003", "dun": "N.12 Tambun Tulang", "code_dun": "N.12", "voters_total": 10535 }, "geometry": { "type": "Polygon", "coordinates": [ [ [ 100.247980180304339, 6.408701050060378 ], [ 100.247962692283295, 6.408037382398338 ], [ 100.247910276153632, 6.407375532943409 ], [ 100.247823075584307, 6.40671731578962 ], [ 100.247701329586022, 6.406064535082072 ], [ 100.24754537185612, 6.405418980071661 ], [ 100.247355629863847, 6.404782420210622 ], [ 100.247132623678866, 6.404156600302271 ], [ 100.246876964545606, 6.40354323571817 ], [ 100.246589353207966, 6.402944007695946 ], [ 100.246270577988668, 6.402360558730664 ], [ 100.245921512628385, 6.401794488072213 ], [ 100.245543113891046, 6.401247347341319 ], [ 100.245136418941257, 6.400720636275898 ], [ 100.244702542501628, 6.400215798619845 ], [ 100.244242673797331, 6.399734218164933 ], [ 100.243758073296476, 6.399277214957356 ], [ 100.24325006925541, 6.398846041678753 ], [ 100.242720054077836, 6.398441880211958 ], [ 100.242169480498575, 6.398065838400846 ], [ 100.2415998576015, 6.397718947013063 ], [ 100.241012746683367, 6.39740215691408 ], [ 100.240409756974444, 6.397116336460313 ], [ 100.239792541227558, 6.396862269118301 ], [ 100.239162791188193, 6.39664065131683 ], [ 100.238522232957436, 6.396452090537466 ], [ 100.237872622260866, 6.396297103649033 ], [ 100.23721573963627, 6.396176115490536 ], [ 100.236553385553222, 6.396089457706337 ], [ 100.235887375478228, 6.396037367836925 ], [ 100.235219534898647, 6.396019988667579 ], [ 100.23455169431908, 6.396037367836925 ], [ 100.233885684244086, 6.396089457706337 ], [ 100.233223330161039, 6.396176115490536 ], [ 100.232566447536428, 6.396297103649033 ], [ 100.231916836839858, 6.396452090537466 ], [ 100.231276278609101, 6.39664065131683 ], [ 100.230646528569736, 6.396862269118301 ], [ 100.23002931282285, 6.397116336460313 ], [ 100.229426323113927, 6.39740215691408 ], [ 100.228839212195808, 6.397718947013063 ], [ 100.228269589298719, 6.398065838400846 ], [ 100.227719015719458, 6.398441880211958 ], [ 100.227189000541898, 6.398846041678753 ], [ 100.226680996500804, 6.399277214957356 ], [ 100.226196395999963, 6.399734218164933 ], [ 100.225736527295652, 6.400215798619845 ], [ 100.225302650856037, 6.400720636275898 ], [ 100.224895955906263, 6.401247347341319 ], [ 100.224517557168923, 6.401794488072213 ], [ 100.224168491808641, 6.402360558730664 ], [ 100.223849716589314, 6.402944007695946 ], [ 100.223562105251688, 6.40354323571817 ], [ 100.223306446118428, 6.404156600302271 ], [ 100.223083439933447, 6.404782420210622 ], [ 100.222893697941174, 6.405418980071661 ], [ 100.222737740211258, 6.406064535082072 ], [ 100.222615994212987, 6.40671731578962 ], [ 100.222528793643662, 6.407375532943409 ], [ 100.222476377513999, 6.408037382398338 ], [ 100.222458889492955, 6.408701050060378 ], [ 100.222476377513999, 6.409364716858947 ], [ 100.222528793643662, 6.410026563732958 ], [ 100.222615994212987, 6.410684776616637 ], [ 100.222737740211258, 6.411337551411699 ], [ 100.222893697941174, 6.411983098931993 ], [ 100.223083439933447, 6.412619649807354 ], [ 100.223306446118428, 6.413245459332924 ], [ 100.223562105251688, 6.413858812250903 ], [ 100.223849716589314, 6.414458027451459 ], [ 100.224168491808641, 6.415041462580017 ], [ 100.224517557168923, 6.415607518538276 ], [ 100.224895955906263, 6.416154643866608 ], [ 100.225302650856037, 6.416681338995783 ], [ 100.225736527295652, 6.41718616035657 ], [ 100.226196395999963, 6.417667724335688 ], [ 100.226680996500804, 6.418124711067483 ], [ 100.227189000541898, 6.418555868050807 ], [ 100.227719015719458, 6.418960013581367 ], [ 100.228269589298719, 6.419336039989906 ], [ 100.228839212195808, 6.419682916677509 ], [ 100.229426323113927, 6.419999692939755 ], [ 100.23002931282285, 6.420285500571881 ], [ 100.230646528569736, 6.420539556247757 ], [ 100.231276278609101, 6.420761163666447 ], [ 100.231916836839858, 6.420949715460134 ], [ 100.232566447536428, 6.421104694858462 ], [ 100.233223330161039, 6.421225677104461 ], [ 100.233885684244086, 6.42131233061855 ], [ 100.23455169431908, 6.421364417907055 ], [ 100.235219534898647, 6.421381796212945 ], [ 100.235887375478228, 6.421364417907055 ], [ 100.236553385553222, 6.42131233061855 ], [ 100.23721573963627, 6.421225677104461 ], [ 100.237872622260866, 6.421104694858462 ], [ 100.238522232957436, 6.420949715460134 ], [ 100.239162791188193, 6.420761163666447 ], [ 100.239792541227558, 6.420539556247757 ], [ 100.240409756974444, 6.420285500571881 ], [ 100.241012746683367, 6.419999692939755 ], [ 100.2415998576015, 6.419682916677509 ], [ 100.242169480498575, 6.419336039989906 ], [ 100.242720054077836, 6.418960013581367 ], [ 100.24325006925541, 6.418555868050807 ], [ 100.243758073296476, 6.418124711067483 ], [ 100.244242673797331, 6.417667724335688 ], [ 100.244702542501628, 6.41718616035657 ], [ 100.245136418941257, 6.416681338995783 ], [ 100.245543113891046, 6.416154643866608 ], [ 100.245921512628385, 6.415607518538276 ], [ 100.246270577988668, 6.415041462580017 ], [ 100.246589353207966, 6.414458027451459 ], [ 100.246876964545606, 6.413858812250903 ], [ 100.247132623678866, 6.413245459332924 ], [ 100.247355629863847, 6.412619649807354 ], [ 100.24754537185612, 6.411983098931993 ], [ 100.247701329586022, 6.411337551411699 ], [ 100.247823075584307, 6.410684776616637 ], [ 100.247910276153632, 6.410026563732958 ], [ 100.247962692283295, 6.409364716858947 ], [ 100.247980180304339, 6.408701050060378 ] ] ] } },
{ "type": "Feature", "properties": { "state": "Perlis", "parlimen": "P.003 Arau", "code_parlimen": "P.003", "dun": "N.13 Guar Sanji", "code_dun": "N.13", "voters_total": 9233 }, "geometry": { "type": "Polygon", "coordinates": [ [ [ 100.267588712617325, 6.371258577408734 ], [ 100.267572340878246, 6.370637227027813 ], [ 100.267523270534781, 6.370017578975848 ], [ 100.267441636085323, 6.369401331674395 ], [ 100.267327661284227, 6.368790174229841 ], [ 100.267181658528528, 6.368185781803467 ], [ 100.267004028001594, 6.36758981101976 ], [ 100.266795256576387, 6.367003895425432 ], [ 100.26655591648084, 6.366429641011611 ], [ 100.266286663729545, 6.365868621811502 ], [ 100.265988236325569, 6.365322375585646 ], [ 100.265661452237666, 6.364792399606509 ], [ 100.26530720715833, 6.364280146554033 ], [ 100.264926472048671, 6.363787020533329 ], [ 100.264520290477208, 6.363314373225559 ], [ 100.264089775759359, 6.362863500182435 ], [ 100.263636107906038, 6.362435637274557 ], [ 100.263160530389328, 6.362031957303324 ], [ 100.262664346734113, 6.36165356678573 ], [ 100.262148916945293, 6.361301502920886 ], [ 100.26161565378014, 6.360976730746398 ], [ 100.26106601887588, 6.3606801404928 ], [ 100.260501518743609, 6.360412545142797 ], [ 100.25992370063895, 6.36017467820246 ], [ 100.259334148321116, 6.359967191690245 ], [ 100.25873447771211, 6.359790654349364 ], [ 100.258126332467327, 6.359645550088478 ], [ 100.257511379470643, 6.359532276655071 ], [ 100.256891304265451, 6.359451144544866 ], [ 100.25626780643482, 6.35940237615059 ], [ 100.255642594942941, 6.359386105152243 ], [ 100.255017383451076, 6.35940237615059 ], [ 100.254393885620431, 6.359451144544866 ], [ 100.25377381041524, 6.359532276655071 ], [ 100.253158857418555, 6.359645550088478 ], [ 100.252550712173786, 6.359790654349364 ], [ 100.251951041564766, 6.359967191690245 ], [ 100.251361489246932, 6.36017467820246 ], [ 100.250783671142287, 6.360412545142797 ], [ 100.250219171010002, 6.3606801404928 ], [ 100.249669536105742, 6.360976730746398 ], [ 100.249136272940603, 6.361301502920886 ], [ 100.248620843151784, 6.36165356678573 ], [ 100.248124659496568, 6.362031957303324 ], [ 100.247649081979844, 6.362435637274557 ], [ 100.247195414126523, 6.362863500182435 ], [ 100.246764899408689, 6.363314373225559 ], [ 100.246358717837211, 6.363787020533329 ], [ 100.245977982727553, 6.364280146554033 ], [ 100.245623737648216, 6.364792399606509 ], [ 100.245296953560313, 6.365322375585646 ], [ 100.244998526156337, 6.365868621811502 ], [ 100.244729273405042, 6.366429641011611 ], [ 100.244489933309495, 6.367003895425432 ], [ 100.244281161884288, 6.36758981101976 ], [ 100.244103531357368, 6.368185781803467 ], [ 100.243957528601669, 6.368790174229841 ], [ 100.243843553800559, 6.369401331674395 ], [ 100.243761919351115, 6.370017578975848 ], [ 100.24371284900765, 6.370637227027813 ], [ 100.243696477268557, 6.371258577408734 ], [ 100.24371284900765, 6.371879927037276 ], [ 100.243761919351115, 6.372499572840283 ], [ 100.243843553800559, 6.373115816420868 ], [ 100.243957528601669, 6.37372696871342 ], [ 100.244103531357368, 6.374331354613081 ], [ 100.244281161884288, 6.374927317566873 ], [ 100.244489933309495, 6.375513224113896 ], [ 100.244729273405042, 6.376087468362117 ], [ 100.244998526156337, 6.37664847638974 ], [ 100.245296953560313, 6.377194710558596 ], [ 100.245623737648216, 6.377724673728341 ], [ 100.245977982727553, 6.378236913359373 ], [ 100.246358717837211, 6.378730025493623 ], [ 100.246764899408689, 6.37920265860206 ], [ 100.247195414126523, 6.379653517288568 ], [ 100.247649081979844, 6.380081365839842 ], [ 100.248124659496568, 6.380485031611756 ], [ 100.248620843151784, 6.380863408242883 ], [ 100.249136272940603, 6.381215458686294 ], [ 100.249669536105742, 6.381540218051379 ], [ 100.250219171010002, 6.38183679624799 ], [ 100.250783671142287, 6.382104380425493 ], [ 100.251361489246932, 6.38234223720023 ], [ 100.251951041564766, 6.382549714665141 ], [ 100.252550712173786, 6.382726244176119 ], [ 100.253158857418555, 6.382871341910291 ], [ 100.25377381041524, 6.382984610191683 ], [ 100.254393885620431, 6.383065738581034 ], [ 100.255017383451076, 6.383114504726352 ], [ 100.255642594942941, 6.383130774972307 ], [ 100.25626780643482, 6.383114504726352 ], [ 100.256891304265451, 6.383065738581034 ], [ 100.257511379470643, 6.382984610191683 ], [ 100.258126332467327, 6.382871341910291 ], [ 100.25873447771211, 6.382726244176119 ], [ 100.259334148321116, 6.382549714665141 ], [ 100.25992370063895, 6.38234223720023 ], [ 100.260501518743609, 6.382104380425493 ], [ 100.26106601887588, 6.38183679624799 ], [ 100.26161565378014, 6.381540218051379 ], [ 100.262148916945293, 6.381215458686294 ], [ 100.262664346734113, 6.380863408242883 ], [ 100.263160530389328, 6.380485031611756 ], [ 100.263636107906038, 6.380081365839842 ], [ 100.264089775759359, 6.379653517288568 ], [ 100.264520290477208, 6.37920265860206 ], [ 100.264926472048671, 6.378730025493623 ], [ 100.26530720715833, 6.378236913359373 ], [ 100.265661452237666, 6.377724673728341 ], [ 100.265988236325569, 6.377194710558596 ], [ 100.266286663729545, 6.37664847638974 ], [ 100.26655591648084, 6.376087468362117 ], [ 100.266795256576387, 6.375513224113896 ], [ 100.267004028001594, 6.374927317566873 ], [ 100.267181658528528, 6.374331354613081 ], [ 100.267327661284227, 6.37372696871342 ], [ 100.267441636085323, 6.373115816420868 ], [ 100.267523270534781, 6.372499572840283 ], [ 100.267572340878246, 6.371879927037276 ], [ 100.267588712617325, 6.371258577408734 ] ] ] } },
{ "type": "Feature", "properties": { "state": "Perlis", "parlimen": "P.003 Arau", "code_parlimen": "P.003", "dun": "N.14 Simpang Empat", "code_dun": "N.14", "voters_total": 8547 }, "geometry": { "type": "Polygon", "coordinates": [ [ [ 100.186619478619932, 6.352070252543335 ], [ 100.186603726817751, 6.351472408084725 ], [ 100.186556514585803, 6.350876201584703 ], [ 100.186477971329552, 6.350283267212443 ], [ 100.186368312330558, 6.349695230173984 ], [ 100.186227838156569, 6.349113702257585 ], [ 100.186056933837492, 6.348540277415628 ], [ 100.185856067810207, 6.347976527395479 ], [ 100.185625790634518, 6.347423997431083 ], [ 100.185366733484173, 6.346884202007238 ], [ 100.185079606416807, 6.346358620708032 ], [ 100.184765196427747, 6.345848694161027 ], [ 100.184424365292926, 6.345355820087963 ], [ 100.184058047206818, 6.344881349473305 ], [ 100.183667246221802, 6.344426582860647 ], [ 100.1832530334962, 6.343992766787457 ], [ 100.182816544358332, 6.343581090367827 ], [ 100.18235897519456, 6.343192682032575 ], [ 100.181881580170199, 6.342828606435762 ], [ 100.181385667791787, 6.342489861535848 ], [ 100.1808725973207, 6.342177375859881 ], [ 100.180343775047433, 6.341892005957879 ], [ 100.179800650437087, 6.341634534054568 ], [ 100.179244712156446, 6.341405665904829 ], [ 100.17867748399371, 6.341206028858812 ], [ 100.178100520681838, 6.341036170142055 ], [ 100.177515403637173, 6.340896555355107 ], [ 100.176923736624857, 6.340787567197115 ], [ 100.17632714136306, 6.34070950441655 ], [ 100.175727253077881, 6.340662580992111 ], [ 100.175125716021469, 6.340646925546193 ], [ 100.174524178965058, 6.340662580992111 ], [ 100.173924290679878, 6.34070950441655 ], [ 100.173327695418081, 6.340787567197115 ], [ 100.172736028405765, 6.340896555355107 ], [ 100.172150911361101, 6.341036170142055 ], [ 100.171573948049229, 6.341206028858812 ], [ 100.171006719886492, 6.341405665904829 ], [ 100.170450781605851, 6.341634534054568 ], [ 100.169907656995505, 6.341892005957879 ], [ 100.169378834722238, 6.342177375859881 ], [ 100.168865764251152, 6.342489861535848 ], [ 100.16836985187274, 6.342828606435762 ], [ 100.167892456848378, 6.343192682032575 ], [ 100.167434887684621, 6.343581090367827 ], [ 100.166998398546738, 6.343992766787457 ], [ 100.166584185821137, 6.344426582860647 ], [ 100.16619338483612, 6.344881349473305 ], [ 100.165827066750012, 6.345355820087963 ], [ 100.165486235615191, 6.345848694161027 ], [ 100.165171825626132, 6.346358620708032 ], [ 100.164884698558765, 6.346884202007238 ], [ 100.164625641408421, 6.347423997431083 ], [ 100.164395364232732, 6.347976527395479 ], [ 100.164194498205447, 6.348540277415628 ], [ 100.16402359388637, 6.349113702257585 ], [ 100.163883119712381, 6.349695230173984 ], [ 100.163773460713401, 6.350283267212443 ], [ 100.163694917457136, 6.350876201584703 ], [ 100.163647705225188, 6.351472408084725 ], [ 100.163631953423007, 6.352070252543335 ], [ 100.163647705225188, 6.352668096307516 ], [ 100.163694917457136, 6.353264300731857 ], [ 100.163773460713401, 6.353857231669919 ], [ 100.163883119712381, 6.354445263953272 ], [ 100.16402359388637, 6.35502678584579 ], [ 100.164194498205447, 6.355600203461055 ], [ 100.164395364232732, 6.356163945130912 ], [ 100.164625641408421, 6.356716465712875 ], [ 100.164884698558765, 6.357256250824968 ], [ 100.165171825626132, 6.357781820996049 ], [ 100.165486235615191, 6.358291735720512 ], [ 100.165827066750012, 6.35878459740613 ], [ 100.16619338483612, 6.359259055204145 ], [ 100.166584185821137, 6.359713808711416 ], [ 100.166998398546738, 6.360147611534035 ], [ 100.167434887684621, 6.360559274703091 ], [ 100.167892456848378, 6.360947669932945 ], [ 100.16836985187274, 6.361311732713126 ], [ 100.168865764251152, 6.361650465225607 ], [ 100.169378834722238, 6.361962939079019 ], [ 100.169907656995505, 6.362248297852897 ], [ 100.170450781605851, 6.362505759444443 ], [ 100.171006719886492, 6.362734618211762 ], [ 100.171573948049229, 6.362934246907475 ], [ 100.172150911361101, 6.363104098397553 ], [ 100.172736028405765, 6.363243707160607 ], [ 100.173327695418081, 6.363352690563504 ], [ 100.173924290679878, 6.363430749909871 ], [ 100.174524178965058, 6.363477671258604 ], [ 100.175125716021469, 6.363493326010105 ], [ 100.175727253077881, 6.363477671258604 ], [ 100.17632714136306, 6.363430749909871 ], [ 100.176923736624857, 6.363352690563504 ], [ 100.177515403637173, 6.363243707160607 ], [ 100.178100520681838, 6.363104098397553 ], [ 100.17867748399371, 6.362934246907475 ], [ 100.179244712156446, 6.362734618211762 ], [ 100.179800650437087, 6.362505759444443 ], [ 100.180343775047433, 6.362248297852897 ], [ 100.1808725973207, 6.361962939079019 ], [ 100.181385667791787, 6.361650465225607 ], [ 100.181881580170199, 6.361311732713126 ], [ 100.18235897519456, 6.360947669932945 ], [ 100.182816544358332, 6.360559274703091 ], [ 100.1832530334962, 6.360147611534035 ], [ 100.183667246221802, 6.359713808711416 ], [ 100.184058047206818, 6.359259055204145 ], [ 100.184424365292926, 6.35878459740613 ], [ 100.184765196427747, 6.358291735720512 ], [ 100.185079606416807, 6.357781820996049 ], [ 100.185366733484173, 6.357256250824968 ], [ 100.185625790634518, 6.356716465712875 ], [ 100.185856067810207, 6.356163945130912 ], [ 100.186056933837492, 6.355600203461055 ], [ 100.186227838156569, 6.35502678584579 ], [ 100.186368312330558, 6.354445263953272 ], [ 100.186477971329552, 6.353857231669919 ], [ 100.186556514585803, 6.353264300731857 ], [ 100.186603726817751, 6.352668096307516 ], [ 100.186619478619932, 6.352070252543335 ] ] ] } },
{ "type": "Feature", "properties": { "state": "Perlis", "parlimen": "P.003 Arau", "code_parlimen": "P.003", "dun": "N.15 Sanglang", "code_dun": "N.15", "voters_total": 8672 }, "geometry": { "type": "Polygon", "coordinates": [ [ [ 100.2069048708873, 6.305495448192812 ], [ 100.206889004318057, 6.30489319356586 ], [ 100.206841448099453, 6.30429258898041 ], [ 100.206762332579785, 6.303695280660549 ], [ 100.206651874609221, 6.3031029058011 ], [ 100.20651037694536, 6.30251708808015 ], [ 100.20633822742343, 6.3019394332083 ], [ 100.206135897893375, 6.301371524527337 ], [ 100.205903942926327, 6.300814918670094 ], [ 100.205642998294735, 6.300271141293361 ], [ 100.205353779229711, 6.299741682895823 ], [ 100.205037078460578, 6.299227994732178 ], [ 100.204693764042148, 6.298731484834924 ], [ 100.204324776975383, 6.298253514154377 ], [ 100.203931128628199, 6.297795392827979 ], [ 100.203513897963319, 6.297358376588629 ], [ 100.203074228581031, 6.296943663322249 ], [ 100.202613325584494, 6.296552389783828 ], [ 100.202132452276842, 6.296185628481148 ], [ 100.20163292669838, 6.295844384734392 ], [ 100.201116118013957, 6.295529593920135 ], [ 100.200583442760291, 6.295242118906976 ], [ 100.200036360963196, 6.294982747689942 ], [ 100.199476372135891, 6.294752191230089 ], [ 100.198905011168804, 6.294551081505425 ], [ 100.19832384412264, 6.294379969778198 ], [ 100.197734463935859, 6.294239325083637 ], [ 100.197138486058577, 6.29412953294394 ], [ 100.196537544024764, 6.294050894311368 ], [ 100.195933284974757, 6.294003624743155 ], [ 100.195327365140599, 6.293987853810444 ], [ 100.194721445306428, 6.294003624743155 ], [ 100.19411718625642, 6.294050894311368 ], [ 100.193516244222621, 6.29412953294394 ], [ 100.19292026634534, 6.294239325083637 ], [ 100.192330886158572, 6.294379969778198 ], [ 100.191749719112394, 6.294551081505425 ], [ 100.191178358145294, 6.294752191230089 ], [ 100.190618369318003, 6.294982747689942 ], [ 100.190071287520908, 6.295242118906976 ], [ 100.189538612267242, 6.295529593920135 ], [ 100.189021803582818, 6.295844384734392 ], [ 100.188522278004356, 6.296185628481148 ], [ 100.188041404696705, 6.296552389783828 ], [ 100.187580501700168, 6.296943663322249 ], [ 100.187140832317866, 6.297358376588629 ], [ 100.186723601653, 6.297795392827979 ], [ 100.186329953305801, 6.298253514154377 ], [ 100.185960966239037, 6.298731484834924 ], [ 100.185617651820621, 6.299227994732178 ], [ 100.185300951051488, 6.299741682895823 ], [ 100.185011731986464, 6.300271141293361 ], [ 100.184750787354872, 6.300814918670094 ], [ 100.184518832387823, 6.301371524527337 ], [ 100.184316502857754, 6.3019394332083 ], [ 100.184144353335839, 6.30251708808015 ], [ 100.184002855671963, 6.3031029058011 ], [ 100.183892397701399, 6.303695280660549 ], [ 100.183813282181745, 6.30429258898041 ], [ 100.183765725963156, 6.30489319356586 ], [ 100.183749859393899, 6.305495448192812 ], [ 100.183765725963156, 6.306097702120246 ], [ 100.183813282181745, 6.306698304614825 ], [ 100.183892397701399, 6.3072956094754 ], [ 100.184002855671963, 6.30788797954501 ], [ 100.184144353335839, 6.308473791198059 ], [ 100.184316502857754, 6.309051438790434 ], [ 100.184518832387823, 6.309619339060077 ], [ 100.184750787354872, 6.31017593546634 ], [ 100.185011731986464, 6.310719702455978 ], [ 100.185300951051488, 6.311249149644084 ], [ 100.185617651820621, 6.311762825898791 ], [ 100.185960966239037, 6.312259323318093 ], [ 100.186329953305801, 6.312737281088362 ], [ 100.186723601653, 6.3131953892136 ], [ 100.187140832317866, 6.313632392105561 ], [ 100.187580501700168, 6.314047092024565 ], [ 100.188041404696705, 6.314438352361828 ], [ 100.188522278004356, 6.314805100754229 ], [ 100.189021803582818, 6.315146332023033 ], [ 100.189538612267242, 6.315461110928363 ], [ 100.190071287520908, 6.315748574732091 ], [ 100.190618369318003, 6.316007935562031 ], [ 100.191178358145294, 6.316238482570904 ], [ 100.191749719112394, 6.316439583884261 ], [ 100.192330886158572, 6.316610688331999 ], [ 100.19292026634534, 6.316751326958659 ], [ 100.193516244222621, 6.316861114308518 ], [ 100.19411718625642, 6.316939749481779 ], [ 100.194721445306428, 6.316987016959146 ], [ 100.195327365140599, 6.317002787192352 ], [ 100.195933284974757, 6.316987016959146 ], [ 100.196537544024764, 6.316939749481779 ], [ 100.197138486058577, 6.316861114308518 ], [ 100.197734463935859, 6.316751326958659 ], [ 100.19832384412264, 6.316610688331999 ], [ 100.198905011168804, 6.316439583884261 ], [ 100.199476372135891, 6.316238482570904 ], [ 100.200036360963196, 6.316007935562031 ], [ 100.200583442760291, 6.315748574732091 ], [ 100.201116118013957, 6.315461110928363 ], [ 100.20163292669838, 6.315146332023033 ], [ 100.202132452276842, 6.314805100754229 ], [ 100.202613325584494, 6.314438352361828 ], [ 100.203074228581031, 6.314047092024565 ], [ 100.203513897963319, 6.313632392105561 ], [ 100.203931128628199, 6.3131953892136 ], [ 100.204324776975383, 6.312737281088362 ], [ 100.204693764042148, 6.312259323318093 ], [ 100.205037078460578, 6.311762825898791 ], [ 100.205353779229711, 6.311249149644084 ], [ 100.205642998294735, 6.310719702455978 ], [ 100.205903942926327, 6.31017593546634 ], [ 100.206135897893375, 6.309619339060077 ], [ 100.20633822742343, 6.309051438790434 ], [ 100.20651037694536, 6.308473791198059 ], [ 100.206651874609221, 6.30788797954501 ], [ 100.206762332579785, 6.3072956094754 ], [ 100.206841448099453, 6.306698304614837 ], [ 100.206889004318057, 6.306097702120246 ], [ 100.2069048708873, 6.305495448192812 ] ] ] } }
]
}
