{
"type": "FeatureCollection",
"name": "PLS_SE-09",
"crs": { "type": "name", "properties": { "name": "urn:ogc:def:crs:OGC:1.3:CRS84" } },
"features": [
{ "type": "Feature", "properties": { "state": "Perlis", "parlimen": "P.001 Padang Besar", "code_parlimen": "P.001", "dun": "N.01 Titi Tinggi", "code_dun": "N.01", "voters_total": 6721 }, "geometry": { "type": "Polygon", "coordinates": [ [ [ 100.280446817052464, 6.64738624934517 ], [ 100.280429189413411, 6.646717602004693 ], [ 100.280376354812404, 6.646050786474507 ], [ 100.280288458065414, 6.64538763046092 ], [ 100.280165740091277, 6.644729951646989 ], [ 100.28000853725149, 6.644079552710307 ], [ 100.279817280428063, 6.643438216381634 ], [ 100.279592493842671, 6.642807700558172 ], [ 100.279334793619711, 6.64218973348494 ], [ 100.279044886097608, 6.641586009017234 ], [ 100.278723565892705, 6.640998181977354 ], [ 100.278371713721342, 6.640427863618229 ], [ 100.277990293985894, 6.639876617206406 ], [ 100.277580352131309, 6.639345953736622 ], [ 100.277143011779742, 6.638837327789442 ], [ 100.276679471650681, 6.63835213354371 ], [ 100.276191002275425, 6.637891700954331 ], [ 100.275678942514531, 6.637457292106228 ], [ 100.275144695888272, 6.637050097754306 ], [ 100.274589726729459, 6.636671234058825 ], [ 100.274015556170013, 6.636321739525388 ], [ 100.273423757971528, 6.636002572157716 ], [ 100.272815954211723, 6.63571460683115 ], [ 100.272193810838459, 6.635458632894033 ], [ 100.271559033103458, 6.63523535200352 ], [ 100.270913360888372, 6.635045376201829 ], [ 100.270258563935911, 6.63488922623825 ], [ 100.269596436998938, 6.634767330141323 ], [ 100.268928794921422, 6.634680022045304 ], [ 100.268257467663844, 6.634627541274068 ], [ 100.267584295287577, 6.634610031684881 ], [ 100.26691112291131, 6.634627541274068 ], [ 100.266239795653746, 6.634680022045304 ], [ 100.265572153576215, 6.634767330141323 ], [ 100.264910026639257, 6.63488922623825 ], [ 100.264255229686782, 6.635045376201829 ], [ 100.263609557471696, 6.63523535200352 ], [ 100.262974779736709, 6.635458632894033 ], [ 100.262352636363431, 6.63571460683115 ], [ 100.261744832603625, 6.636002572157716 ], [ 100.26115303440514, 6.636321739525388 ], [ 100.260578863845694, 6.636671234058825 ], [ 100.260023894686896, 6.637050097754306 ], [ 100.259489648060622, 6.637457292106228 ], [ 100.258977588299743, 6.637891700954331 ], [ 100.258489118924473, 6.63835213354371 ], [ 100.258025578795426, 6.638837327789442 ], [ 100.257588238443859, 6.639345953736622 ], [ 100.25717829658926, 6.639876617206406 ], [ 100.256796876853812, 6.640427863618229 ], [ 100.256445024682449, 6.640998181977354 ], [ 100.256123704477545, 6.641586009017234 ], [ 100.255833796955443, 6.64218973348494 ], [ 100.255576096732483, 6.642807700558172 ], [ 100.255351310147091, 6.643438216381634 ], [ 100.255160053323664, 6.644079552710307 ], [ 100.255002850483862, 6.644729951646989 ], [ 100.254880132509754, 6.64538763046092 ], [ 100.25479223576275, 6.646050786474507 ], [ 100.254739401161757, 6.646717602004693 ], [ 100.254721773522689, 6.64738624934517 ], [ 100.254739401161757, 6.648054895776264 ], [ 100.25479223576275, 6.648721708588208 ], [ 100.254880132509754, 6.649384860104528 ], [ 100.255002850483862, 6.650042532691391 ], [ 100.255160053323664, 6.650692923739457 ], [ 100.255351310147091, 6.651334250604416 ], [ 100.255576096732483, 6.651964755492699 ], [ 100.255833796955443, 6.652582710279117 ], [ 100.256123704477545, 6.653186421243001 ], [ 100.256445024682449, 6.653774233710013 ], [ 100.256796876853812, 6.654344536586871 ], [ 100.25717829658926, 6.654895766776645 ], [ 100.257588238443859, 6.655426413462349 ], [ 100.258025578795426, 6.655935022247293 ], [ 100.258489118924473, 6.656420199140671 ], [ 100.258977588299743, 6.656880614377707 ], [ 100.259489648060622, 6.657315006063574 ], [ 100.260023894686896, 6.657722183631416 ], [ 100.260578863845694, 6.658101031104848 ], [ 100.26115303440514, 6.658450510156018 ], [ 100.261744832603625, 6.658769662950808 ], [ 100.262352636363431, 6.659057614773554 ], [ 100.262974779736709, 6.65931357642387 ], [ 100.263609557471696, 6.659536846379216 ], [ 100.264255229686782, 6.65972681271718 ], [ 100.264910026639257, 6.659882954792131 ], [ 100.265572153576215, 6.660004844662015 ], [ 100.266239795653746, 6.660092148260743 ], [ 100.26691112291131, 6.660144626313749 ], [ 100.267584295287577, 6.660162134993539 ], [ 100.268257467663844, 6.660144626313749 ], [ 100.268928794921422, 6.660092148260743 ], [ 100.269596436998938, 6.660004844662015 ], [ 100.270258563935911, 6.659882954792131 ], [ 100.270913360888372, 6.65972681271718 ], [ 100.271559033103458, 6.659536846379216 ], [ 100.272193810838459, 6.65931357642387 ], [ 100.272815954211723, 6.659057614773554 ], [ 100.273423757971528, 6.658769662950808 ], [ 100.274015556170013, 6.658450510156018 ], [ 100.274589726729459, 6.658101031104848 ], [ 100.275144695888272, 6.657722183631416 ], [ 100.275678942514531, 6.657315006063574 ], [ 100.276191002275425, 6.656880614377707 ], [ 100.276679471650681, 6.656420199140671 ], [ 100.277143011779742, 6.655935022247293 ], [ 100.277580352131309, 6.655426413462349 ], [ 100.277990293985894, 6.654895766776645 ], [ 100.278371713721342, 6.654344536586871 ], [ 100.278723565892705, 6.653774233710013 ], [ 100.279044886097608, 6.653186421243001 ], [ 100.279334793619711, 6.652582710279117 ], [ 100.279592493842671, 6.651964755492699 ], [ 100.279817280428063, 6.651334250604416 ], [ 100.28000853725149, 6.650692923739457 ], [ 100.280165740091277, 6.650042532691391 ], [ 100.280288458065414, 6.649384860104528 ], [ 100.280376354812404, 6.648721708588208 ], [ 100.280429189413411, 6.648054895776264 ], [ 100.280446817052464, 6.64738624934517 ] ] ] } },
{ "type": "Feature", "properties": { "state": "Perlis", "parlimen": "P.001 Padang Besar", "code_parlimen": "P.001", "dun": "N.02 Beseri", "code_dun": "N.02", "voters_total": 6873 }, "geometry": { "type": "Polygon", "coordinates": [ [ [ 100.22266368605969, 6.60495165852524 ], [ 100.222645860204537, 6.604275434320026 ], [ 100.222592431498498, 6.603601062678096 ], [ 100.222503546385937, 6.602930392016702 ], [ 100.222379448494792, 6.602265260616352 ], [ 100.222220477968747, 6.601607491582068 ], [ 100.222027070534949, 6.600958887846032 ], [ 100.22179975630975, 6.600321227225589 ], [ 100.221539158345607, 6.599696257549871 ], [ 100.221245990923478, 6.599085691868622 ], [ 100.220921057594865, 6.598491203756317 ], [ 100.220565248979412, 6.597914422724424 ], [ 100.220179540323841, 6.597356929754235 ], [ 100.219764988828743, 6.596820252962954 ], [ 100.219322730750946, 6.596305863414369 ], [ 100.218853978289118, 6.595815171086083 ], [ 100.218360016261187, 6.595349521004019 ], [ 100.217842198582687, 6.594910189555064 ], [ 100.217301944555956, 6.594498380987713 ], [ 100.216740734979638, 6.594115224110619 ], [ 100.216160108090236, 6.593761769197783 ], [ 100.215561655345681, 6.593438985109057 ], [ 100.214947017063338, 6.593147756633957 ], [ 100.214317877924032, 6.592888882065753 ], [ 100.213675962354401, 6.592663071012848 ], [ 100.213023029800397, 6.592470942453191 ], [ 100.212360869904771, 6.592313023037275 ], [ 100.211691297601789, 6.592189745644101 ], [ 100.211016148142562, 6.592101448194361 ], [ 100.210337272064862, 6.592048372723978 ], [ 100.209656530120782, 6.592030664720454 ], [ 100.208975788176716, 6.592048372723978 ], [ 100.208296912099016, 6.592101448194361 ], [ 100.207621762639803, 6.592189745644101 ], [ 100.206952190336807, 6.592313023037275 ], [ 100.206290030441195, 6.592470942453191 ], [ 100.205637097887177, 6.592663071012848 ], [ 100.20499518231756, 6.592888882065753 ], [ 100.20436604317824, 6.593147756633957 ], [ 100.203751404895911, 6.593438985109057 ], [ 100.203152952151356, 6.593761769197783 ], [ 100.202572325261954, 6.594115224110619 ], [ 100.202011115685636, 6.594498380987713 ], [ 100.20147086165889, 6.594910189555064 ], [ 100.200953043980391, 6.595349521004019 ], [ 100.200459081952459, 6.595815171086083 ], [ 100.199990329490632, 6.596305863414369 ], [ 100.199548071412835, 6.596820252962954 ], [ 100.199133519917737, 6.597356929754235 ], [ 100.198747811262166, 6.597914422724424 ], [ 100.198392002646727, 6.598491203756317 ], [ 100.198067069318114, 6.599085691868622 ], [ 100.197773901895971, 6.599696257549871 ], [ 100.197513303931842, 6.600321227225589 ], [ 100.197285989706643, 6.600958887846032 ], [ 100.197092582272845, 6.601607491582068 ], [ 100.196933611746786, 6.602265260616352 ], [ 100.196809513855641, 6.602930392016702 ], [ 100.196720628743094, 6.603601062678096 ], [ 100.196667200037041, 6.604275434320026 ], [ 100.196649374181902, 6.60495165852524 ], [ 100.196667200037041, 6.605627881806337 ], [ 100.196720628743094, 6.606302250685994 ], [ 100.196809513855641, 6.606972916777236 ], [ 100.196933611746786, 6.607638041849619 ], [ 100.197092582272845, 6.608295802867466 ], [ 100.197285989706643, 6.608944396986397 ], [ 100.197513303931842, 6.609582046494465 ], [ 100.197773901895971, 6.610207003684303 ], [ 100.198067069318114, 6.610817555642924 ], [ 100.198392002646727, 6.611412028946197 ], [ 100.198747811262166, 6.611988794244954 ], [ 100.199133519917737, 6.612546270730226 ], [ 100.199548071412835, 6.613082930465453 ], [ 100.199990329490632, 6.613597302573706 ], [ 100.200459081952459, 6.614087977268464 ], [ 100.200953043980391, 6.614553609716998 ], [ 100.20147086165889, 6.614992923725636 ], [ 100.202011115685636, 6.615404715236918 ], [ 100.202572325261954, 6.615787855629096 ], [ 100.203152952151356, 6.616141294808798 ], [ 100.203751404895911, 6.616464064088491 ], [ 100.20436604317824, 6.616755278840973 ], [ 100.20499518231756, 6.617014140923274 ], [ 100.205637097887177, 6.617239940863818 ], [ 100.206290030441195, 6.617432059806368 ], [ 100.206952190336807, 6.617589971205849 ], [ 100.207621762639803, 6.617713242271066 ], [ 100.208296912099016, 6.617801535150642 ], [ 100.208975788176716, 6.617854607858752 ], [ 100.209656530120782, 6.617872314938146 ], [ 100.210337272064862, 6.617854607858752 ], [ 100.211016148142562, 6.617801535150642 ], [ 100.211691297601789, 6.617713242271066 ], [ 100.212360869904771, 6.617589971205849 ], [ 100.213023029800397, 6.617432059806368 ], [ 100.213675962354401, 6.617239940863818 ], [ 100.214317877924032, 6.617014140923274 ], [ 100.214947017063338, 6.616755278840973 ], [ 100.215561655345681, 6.616464064088491 ], [ 100.216160108090236, 6.616141294808798 ], [ 100.216740734979638, 6.615787855629096 ], [ 100.217301944555956, 6.615404715236918 ], [ 100.217842198582687, 6.614992923725636 ], [ 100.218360016261187, 6.614553609716998 ], [ 100.218853978289118, 6.614087977268464 ], [ 100.219322730750946, 6.613597302573706 ], [ 100.219764988828743, 6.613082930465453 ], [ 100.220179540323841, 6.612546270730226 ], [ 100.220565248979412, 6.611988794244954 ], [ 100.220921057594865, 6.611412028946197 ], [ 100.221245990923478, 6.610817555642924 ], [ 100.221539158345607, 6.610207003684303 ], [ 100.22179975630975, 6.609582046494465 ], [ 100.222027070534949, 6.608944396986397 ], [ 100.222220477968747, 6.608295802867466 ], [ 100.222379448494792, 6.607638041849619 ], [ 100.222503546385937, 6.606972916777236 ], [ 100.222592431498498, 6.606302250685994 ], [ 100.222645860204537, 6.605627881806337 ], [ 100.22266368605969, 6.60495165852524 ] ] ] } },
{ "type": "Feature", "properties": { "state": "Perlis", "parlimen": "P.001 Padang Besar", "code_parlimen": "P.001", "dun": "N.03 Chuping", "code_dun": "N.03", "voters_total": 7209 }, "geometry": { "type": "Polygon", "coordinates": [ [ [ 100.322473654364956, 6.531107245037351 ], [ 100.322455397982964, 6.530414586002617 ], [ 100.322400678876477, 6.529723824543521 ], [ 100.322309647026756, 6.5290368540011 ], [ 100.322182551945772, 6.52835555733339 ], [ 100.322019741992293, 6.52768180195426 ], [ 100.321821663417111, 6.527017434614616 ], [ 100.321588859139823, 6.526364276340204 ], [ 100.321321967260758, 6.525724117439833 ], [ 100.321021719312029, 6.525098712597826 ], [ 100.320688938252374, 6.524489776063857 ], [ 100.320324536211558, 6.523898976953751 ], [ 100.319929511990239, 6.523327934673855 ], [ 100.319504948322361, 6.522778214481564 ], [ 100.319052008907391, 6.522251323194376 ], [ 100.318571935220831, 6.521748705058929 ], [ 100.318066043111244, 6.521271737791668 ], [ 100.317535719193785, 6.520821728801807 ], [ 100.316982417049402, 6.52039991160692 ], [ 100.316407653240844, 6.520007442451202 ], [ 100.315813003155739, 6.51964539713548 ], [ 100.315200096688628, 6.519314768067747 ], [ 100.314570613773583, 6.519016461542278 ], [ 100.31392627977948, 6.518751295254936 ], [ 100.313268860781008, 6.518519996061165 ], [ 100.31260015871797, 6.518323197983243 ], [ 100.311922006456214, 6.518161440471946 ], [ 100.31123626276397, 6.518035166927461 ], [ 100.310544807217042, 6.517944723483688 ], [ 100.309849535046979, 6.51789035805928 ], [ 100.309152351946508, 6.517872219677817 ], [ 100.308455168846038, 6.51789035805928 ], [ 100.307759896675975, 6.517944723483688 ], [ 100.307068441129033, 6.518035166927461 ], [ 100.306382697436788, 6.518161440471946 ], [ 100.305704545175047, 6.518323197983243 ], [ 100.305035843111995, 6.518519996061165 ], [ 100.304378424113537, 6.518751295254936 ], [ 100.303734090119434, 6.519016461542278 ], [ 100.303104607204375, 6.519314768067747 ], [ 100.302491700737278, 6.51964539713548 ], [ 100.301897050652173, 6.520007442451202 ], [ 100.301322286843615, 6.52039991160692 ], [ 100.300768984699218, 6.520821728801807 ], [ 100.300238660781773, 6.521271737791668 ], [ 100.299732768672186, 6.521748705058929 ], [ 100.299252694985611, 6.522251323194376 ], [ 100.298799755570656, 6.522778214481564 ], [ 100.298375191902764, 6.523327934673855 ], [ 100.297980167681445, 6.523898976953751 ], [ 100.297615765640629, 6.524489776063857 ], [ 100.297282984580974, 6.525098712597826 ], [ 100.296982736632245, 6.525724117439833 ], [ 100.29671584475318, 6.526364276340204 ], [ 100.296483040475906, 6.527017434614616 ], [ 100.29628496190071, 6.52768180195426 ], [ 100.296122151947245, 6.52835555733339 ], [ 100.295995056866261, 6.5290368540011 ], [ 100.29590402501654, 6.529723824543521 ], [ 100.295849305910039, 6.530414586002617 ], [ 100.295831049528061, 6.531107245037351 ], [ 100.295849305910039, 6.531799903113403 ], [ 100.29590402501654, 6.532490661707009 ], [ 100.295995056866261, 6.533177627508522 ], [ 100.296122151947245, 6.533858917611821 ], [ 100.29628496190071, 6.534532664674972 ], [ 100.296483040475906, 6.535197022038181 ], [ 100.29671584475318, 6.535850168785017 ], [ 100.296982736632245, 6.536490314732935 ], [ 100.297282984580974, 6.537115705339569 ], [ 100.297615765640629, 6.537724626511178 ], [ 100.297980167681445, 6.538315409300242 ], [ 100.298375191902764, 6.538886434479275 ], [ 100.298799755570656, 6.539436136978205 ], [ 100.299252694985611, 6.539963010173405 ], [ 100.299732768672186, 6.540465610016438 ], [ 100.300238660781773, 6.540942558991286 ], [ 100.300768984699218, 6.54139254988916 ], [ 100.301322286843615, 6.541814349390685 ], [ 100.301897050652173, 6.542206801445528 ], [ 100.302491700737278, 6.542568830440221 ], [ 100.303104607204375, 6.542899444145607 ], [ 100.303734090119434, 6.543197736435689 ], [ 100.304378424113537, 6.543462889770605 ], [ 100.305035843111995, 6.543694177436786 ], [ 100.305704545175047, 6.543890965538274 ], [ 100.306382697436788, 6.544052714733591 ], [ 100.307068441129033, 6.544178981713679 ], [ 100.307759896675975, 6.544269420416517 ], [ 100.308455168846038, 6.544323782975435 ], [ 100.309152351946508, 6.544341920398229 ], [ 100.309849535046979, 6.544323782975435 ], [ 100.310544807217042, 6.544269420416517 ], [ 100.31123626276397, 6.544178981713679 ], [ 100.311922006456214, 6.544052714733591 ], [ 100.31260015871797, 6.543890965538274 ], [ 100.313268860781008, 6.543694177436786 ], [ 100.31392627977948, 6.543462889770605 ], [ 100.314570613773583, 6.543197736435689 ], [ 100.315200096688628, 6.542899444145607 ], [ 100.315813003155739, 6.542568830440221 ], [ 100.316407653240844, 6.542206801445528 ], [ 100.316982417049402, 6.541814349390685 ], [ 100.317535719193785, 6.54139254988916 ], [ 100.318066043111244, 6.540942558991286 ], [ 100.318571935220831, 6.540465610016438 ], [ 100.319052008907391, 6.539963010173405 ], [ 100.319504948322361, 6.539436136978205 ], [ 100.319929511990239, 6.538886434479275 ], [ 100.320324536211558, 6.538315409300242 ], [ 100.320688938252374, 6.537724626511178 ], [ 100.321021719312029, 6.537115705339569 ], [ 100.321321967260758, 6.536490314732935 ], [ 100.321588859139823, 6.535850168785017 ], [ 100.321821663417111, 6.535197022038181 ], [ 100.322019741992293, 6.534532664674972 ], [ 100.322182551945772, 6.533858917611821 ], [ 100.322309647026756, 6.533177627508522 ], [ 100.322400678876477, 6.532490661707009 ], [ 100.322455397982964, 6.531799903113403 ], [ 100.322473654364956, 6.531107245037351 ] ] ] } },
{ "type": "Feature", "properties": { "state": "Perlis", "parlimen": "P.001 Padang Besar", "code_parlimen": "P.001", "dun": "N.04 Mata Ayer", "code_dun": "N.04", "voters_total": 6000 }, "geometry": { "type": "Polygon", "coordinates": [ [ [ 100.271440890386543, 6.479099660140272 ], [ 100.271424235072459, 6.478467681300256 ], [ 100.271374314781312, 6.477837433881983 ], [ 100.271291266341152, 6.477210645359623 ], [ 100.271175317381932, 6.476589033733106 ], [ 100.271026785711726, 6.475974302819009 ], [ 100.270846078445516, 6.475368137580322 ], [ 100.270633690889355, 6.474772199507703 ], [ 100.270390205182792, 6.474188122065134 ], [ 100.270116288703178, 6.473617506212243 ], [ 100.26981269223657, 6.473061916015737 ], [ 100.269480247919788, 6.472522874361837 ], [ 100.269119866959571, 6.472001858781598 ], [ 100.268732537135108, 6.471500297400495 ], [ 100.268319320090512, 6.471019565023416 ], [ 100.267881348424993, 6.47056097936569 ], [ 100.267419822588423, 6.470125797440758 ], [ 100.266936007591056, 6.469715212114013 ], [ 100.266431229536167, 6.469330348832565 ], [ 100.265906871985294, 6.468972262539903 ], [ 100.265364372166061, 6.468641934783595 ], [ 100.264805217032773, 6.468340271024319 ], [ 100.264230939190767, 6.46806809815352 ], [ 100.263643112695675, 6.46782616222635 ], [ 100.263043348739103, 6.467615126416185 ], [ 100.262433291232327, 6.467435569196597 ], [ 100.261814612300611, 6.467287982755204 ], [ 100.261189007699841, 6.467172771644338 ], [ 100.260558192168801, 6.467090251671884 ], [ 100.259923894728999, 6.467040649035406 ], [ 100.259287853945594, 6.467024099701972 ], [ 100.258651813162189, 6.467040649035406 ], [ 100.258017515722401, 6.467090251671884 ], [ 100.257386700191361, 6.467172771644338 ], [ 100.256761095590576, 6.467287982755204 ], [ 100.256142416658875, 6.467435569196597 ], [ 100.255532359152085, 6.467615126416185 ], [ 100.254932595195513, 6.46782616222635 ], [ 100.25434476870042, 6.46806809815352 ], [ 100.253770490858415, 6.468340271024319 ], [ 100.253211335725126, 6.468641934783595 ], [ 100.252668835905908, 6.468972262539903 ], [ 100.252144478355035, 6.469330348832565 ], [ 100.251639700300132, 6.469715212114013 ], [ 100.251155885302779, 6.470125797440758 ], [ 100.250694359466195, 6.47056097936569 ], [ 100.250256387800675, 6.471019565023416 ], [ 100.24984317075608, 6.471500297400495 ], [ 100.249455840931617, 6.472001858781598 ], [ 100.2490954599714, 6.472522874361837 ], [ 100.248763015654617, 6.473061916015737 ], [ 100.248459419188009, 6.473617506212243 ], [ 100.248185502708409, 6.474188122065134 ], [ 100.247942017001833, 6.474772199507703 ], [ 100.247729629445672, 6.475368137580322 ], [ 100.247548922179462, 6.475974302819009 ], [ 100.24740039050927, 6.476589033733106 ], [ 100.247284441550036, 6.477210645359623 ], [ 100.247201393109876, 6.477837433881983 ], [ 100.247151472818729, 6.478467681300256 ], [ 100.247134817504644, 6.479099660140272 ], [ 100.247151472818729, 6.479731638188662 ], [ 100.247201393109876, 6.480361883240665 ], [ 100.247284441550036, 6.480988667848067 ], [ 100.24740039050927, 6.481610274053839 ], [ 100.247548922179462, 6.482224998100774 ], [ 100.247729629445672, 6.482831155101138 ], [ 100.247942017001833, 6.483427083654509 ], [ 100.248185502708409, 6.484011150401229 ], [ 100.248459419188009, 6.484581754498842 ], [ 100.248763015654617, 6.485137332009425 ], [ 100.2490954599714, 6.485676360185762 ], [ 100.249455840931617, 6.486197361644453 ], [ 100.24984317075608, 6.486698908414749 ], [ 100.250256387800675, 6.487179625851835 ], [ 100.250694359466195, 6.487638196404062 ], [ 100.251155885302779, 6.488073363223509 ], [ 100.251639700300132, 6.488483933610273 ], [ 100.252144478355035, 6.488868782280889 ], [ 100.252668835905908, 6.489226854452017 ], [ 100.253211335725126, 6.489557168730761 ], [ 100.253770490858415, 6.489858819804115 ], [ 100.25434476870042, 6.490130980919623 ], [ 100.254932595195513, 6.490372906150968 ], [ 100.255532359152085, 6.490583932441873 ], [ 100.256142416658875, 6.490763481423138 ], [ 100.256761095590576, 6.490911060997369 ], [ 100.257386700191361, 6.491026266687476 ], [ 100.258017515722401, 6.491108782744972 ], [ 100.258651813162189, 6.491158383015195 ], [ 100.259287853945594, 6.491174931556988 ], [ 100.259923894728999, 6.491158383015195 ], [ 100.260558192168801, 6.491108782744972 ], [ 100.261189007699841, 6.491026266687476 ], [ 100.261814612300611, 6.490911060997369 ], [ 100.262433291232327, 6.490763481423138 ], [ 100.263043348739103, 6.490583932441873 ], [ 100.263643112695675, 6.490372906150968 ], [ 100.264230939190767, 6.490130980919623 ], [ 100.264805217032773, 6.489858819804115 ], [ 100.265364372166061, 6.489557168730761 ], [ 100.265906871985294, 6.489226854452017 ], [ 100.266431229536167, 6.488868782280889 ], [ 100.266936007591056, 6.488483933610273 ], [ 100.267419822588423, 6.488073363223509 ], [ 100.267881348424993, 6.487638196404062 ], [ 100.268319320090512, 6.487179625851835 ], [ 100.268732537135108, 6.486698908414749 ], [ 100.269119866959571, 6.486197361644453 ], [ 100.269480247919788, 6.485676360185762 ], [ 100.26981269223657, 6.485137332009425 ], [ 100.270116288703178, 6.484581754498842 ], [ 100.270390205182792, 6.484011150401229 ], [ 100.270633690889355, 6.483427083654509 ], [ 100.270846078445516, 6.482831155101138 ], [ 100.271026785711726, 6.482224998100774 ], [ 100.271175317381932, 6.481610274053839 ], [ 100.271291266341152, 6.480988667848067 ], [ 100.271374314781312, 6.480361883240665 ], [ 100.271424235072459, 6.479731638188662 ], [ 100.271440890386543, 6.479099660140272 ] ] ] } },
{ "type": "Feature", "properties": { "state": "Perlis", "parlimen": "P.001 Padang Besar", "code_parlimen": "P.001", "dun": "N.05 Santan", "code_dun": "N.05", "voters_total": 6492 }, "geometry": { "type": "Polygon", "coordinates": [ [ [ 100.234110856435706, 6.503673237724272 ], [ 100.234093531706435, 6.503015890269 ], [ 100.234041605004464, 6.502360343701269 ], [ 100.2339552186573, 6.501708394839301 ], [ 100.233834609443917, 6.501061830647158 ], [ 100.233680107945744, 6.500422423336591 ], [ 100.23349213764071, 6.499791925509305 ], [ 100.233271213742313, 6.499172065352814 ], [ 100.233017941787637, 6.498564541903236 ], [ 100.232733015977459, 6.497971020387872 ], [ 100.232417217273635, 6.497393127660404 ], [ 100.232071411258488, 6.496832447741206 ], [ 100.231696545762262, 6.496290517475104 ], [ 100.231293648265193, 6.495768822318253 ], [ 100.23086382308135, 6.495268792265962 ], [ 100.230408248331656, 6.494791797932461 ], [ 100.229928172714878, 6.494339146793372 ], [ 100.229424912084866, 6.493912079601346 ], [ 100.228899845844055, 6.493511766984457 ], [ 100.228354413162464, 6.493139306236831 ], [ 100.227790109033251, 6.492795718310412 ], [ 100.22720848017471, 6.492481945015877 ], [ 100.226611120791191, 6.492198846440513 ], [ 100.225999668203201, 6.491947198590188 ], [ 100.225375798359792, 6.491727691261818 ], [ 100.224741221244841, 6.491540926152116 ], [ 100.224097676190127, 6.491387415207958 ], [ 100.223446927107886, 6.491267579222747 ], [ 100.222790757656128, 6.491181746682733 ], [ 100.222130966349724, 6.491130152866357 ], [ 100.221469361630767, 6.491112939199234 ], [ 100.220807756911825, 6.491130152866357 ], [ 100.22014796560542, 6.491181746682733 ], [ 100.219491796153662, 6.491267579222747 ], [ 100.218841047071422, 6.491387415207958 ], [ 100.218197502016693, 6.491540926152116 ], [ 100.217562924901756, 6.491727691261818 ], [ 100.216939055058347, 6.491947198590188 ], [ 100.216327602470358, 6.492198846440513 ], [ 100.21573024308681, 6.492481945015877 ], [ 100.215148614228298, 6.492795718310412 ], [ 100.21458431009907, 6.493139306236831 ], [ 100.214038877417494, 6.493511766984457 ], [ 100.213513811176668, 6.493912079601346 ], [ 100.21301055054667, 6.494339146793372 ], [ 100.212530474929864, 6.494791797932461 ], [ 100.212074900180198, 6.495268792265962 ], [ 100.211645074996341, 6.495768822318253 ], [ 100.211242177499273, 6.496290517475104 ], [ 100.210867312003046, 6.496832447741206 ], [ 100.210521505987899, 6.497393127660404 ], [ 100.210205707284075, 6.497971020387872 ], [ 100.209920781473897, 6.498564541903236 ], [ 100.209667509519235, 6.499172065352814 ], [ 100.209446585620839, 6.499791925509305 ], [ 100.209258615315804, 6.500422423336591 ], [ 100.209104113817631, 6.501061830647158 ], [ 100.208983504604248, 6.501708394839301 ], [ 100.20889711825707, 6.502360343701269 ], [ 100.208845191555113, 6.503015890269 ], [ 100.208827866825828, 6.503673237724272 ], [ 100.208845191555113, 6.504330584319788 ], [ 100.20889711825707, 6.50498612831767 ], [ 100.208983504604248, 6.505638072927873 ], [ 100.209104113817631, 6.506284631232897 ], [ 100.209258615315804, 6.506924031085497 ], [ 100.209446585620839, 6.507554519965692 ], [ 100.209667509519235, 6.508174369783967 ], [ 100.209920781473897, 6.508781881617486 ], [ 100.210205707284075, 6.50937539036623 ], [ 100.210521505987899, 6.509953269316376 ], [ 100.210867312003046, 6.510513934598482 ], [ 100.211242177499273, 6.511055849528129 ], [ 100.211645074996341, 6.511577528817154 ], [ 100.212074900180198, 6.512077542644112 ], [ 100.212530474929864, 6.512554520572554 ], [ 100.21301055054667, 6.513007155306571 ], [ 100.213513811176668, 6.513434206273264 ], [ 100.214038877417494, 6.51383450302234 ], [ 100.21458431009907, 6.51420694843351 ], [ 100.215148614228298, 6.514550521722838 ], [ 100.21573024308681, 6.51486428124005 ], [ 100.216327602470358, 6.515147367048794 ], [ 100.216939055058347, 6.51539900328306 ], [ 100.217562924901756, 6.515618500273215 ], [ 100.218197502016693, 6.515805256435813 ], [ 100.218841047071422, 6.515958759922015 ], [ 100.219491796153662, 6.516078590020109 ], [ 100.22014796560542, 6.516164418308358 ], [ 100.220807756911825, 6.516216009554896 ], [ 100.221469361630767, 6.516233222362251 ], [ 100.222130966349724, 6.516216009554896 ], [ 100.222790757656128, 6.516164418308358 ], [ 100.223446927107886, 6.516078590020109 ], [ 100.224097676190127, 6.515958759922015 ], [ 100.224741221244841, 6.515805256435813 ], [ 100.225375798359792, 6.515618500273215 ], [ 100.225999668203201, 6.51539900328306 ], [ 100.226611120791191, 6.515147367048794 ], [ 100.22720848017471, 6.51486428124005 ], [ 100.227790109033251, 6.514550521722838 ], [ 100.228354413162464, 6.51420694843351 ], [ 100.228899845844055, 6.51383450302234 ], [ 100.229424912084866, 6.513434206273264 ], [ 100.229928172714878, 6.513007155306571 ], [ 100.230408248331656, 6.512554520572554 ], [ 100.23086382308135, 6.512077542644112 ], [ 100.231293648265193, 6.511577528817154 ], [ 100.231696545762262, 6.511055849528129 ], [ 100.232071411258488, 6.510513934598482 ], [ 100.232417217273635, 6.509953269316376 ], [ 100.232733015977459, 6.50937539036623 ], [ 100.233017941787637, 6.508781881617486 ], [ 100.233271213742313, 6.508174369783967 ], [ 100.23349213764071, 6.507554519965692 ], [ 100.233680107945744, 6.506924031085497 ], [ 100.233834609443917, 6.506284631232897 ], [ 100.2339552186573, 6.505638072927873 ], [ 100.234041605004464, 6.50498612831767 ], [ 100.234093531706435, 6.504330584319788 ], [ 100.234110856435706, 6.503673237724272 ] ] ] } },
{ "type": "Feature", "properties": { "state": "Perlis", "parlimen": "P.002 Kangar", "code_parlimen": "P.002", "dun": "N.06 Bintong", "code_dun": "N.06", "voters_total": 7453 }, "geometry": { "type": "Polygon", "coordinates": [ [ [ 100.190160357287994, 6.492087443570497 ], [ 100.190141794518922, 6.49138310525682 ], [ 100.190086157090946, 6.490680696504373 ], [ 100.189993597502408, 6.489982142578893 ], [ 100.189864369452692, 6.48928935818827 ], [ 100.189698827146927, 6.488604242234167 ], [ 100.189497424325026, 6.487928672606952 ], [ 100.189260713018157, 6.487264501038249 ], [ 100.188989342035541, 6.486613548024834 ], [ 100.188684055186201, 6.485977597838418 ], [ 100.188345689240123, 6.485358393634385 ], [ 100.187975171634889, 6.484757632673262 ], [ 100.187573517933501, 6.484176961668 ], [ 100.187141829040826, 6.483617972269618 ], [ 100.18668128818608, 6.483082196703862 ], [ 100.186193157679796, 6.482571103570646 ], [ 100.185678775453709, 6.482086093817872 ], [ 100.185139551393775, 6.48162849690072 ], [ 100.184576963475635, 6.481199567136803 ], [ 100.183992553713708, 6.480800480267408 ], [ 100.183387923934504, 6.480432330233985 ], [ 100.182764731386214, 6.480096126178993 ], [ 100.182124684196324, 6.479792789679117 ], [ 100.181469536689661, 6.479523152218638 ], [ 100.180801084580011, 6.479287952909637 ], [ 100.180121160048159, 6.479087836465698 ], [ 100.17943162671996, 6.478923351434086 ], [ 100.178734374558346, 6.478794948691887 ], [ 100.178031314683068, 6.478702980209764 ], [ 100.177324374132297, 6.478647698086892 ], [ 100.176615490581014, 6.478629253859804 ], [ 100.175906607029717, 6.478647698086892 ], [ 100.17519966647896, 6.478702980209764 ], [ 100.174496606603668, 6.478794948691887 ], [ 100.173799354442068, 6.478923351434086 ], [ 100.173109821113869, 6.479087836465698 ], [ 100.172429896582017, 6.479287952909637 ], [ 100.171761444472367, 6.479523152218638 ], [ 100.171106296965704, 6.479792789679117 ], [ 100.170466249775799, 6.480096126178993 ], [ 100.169843057227524, 6.480432330233985 ], [ 100.16923842744832, 6.480800480267408 ], [ 100.168654017686379, 6.481199567136803 ], [ 100.168091429768253, 6.48162849690072 ], [ 100.167552205708319, 6.482086093817872 ], [ 100.167037823482232, 6.482571103570646 ], [ 100.166549692975948, 6.483082196703862 ], [ 100.166089152121202, 6.483617972269618 ], [ 100.165657463228527, 6.484176961668 ], [ 100.165255809527125, 6.484757632673262 ], [ 100.164885291921891, 6.485358393634385 ], [ 100.164546925975827, 6.485977597838418 ], [ 100.164241639126487, 6.486613548024834 ], [ 100.163970268143871, 6.487264501038249 ], [ 100.163733556837002, 6.487928672606952 ], [ 100.163532154015101, 6.488604242234167 ], [ 100.163366611709321, 6.48928935818827 ], [ 100.16323738365962, 6.489982142578893 ], [ 100.163144824071082, 6.490680696504373 ], [ 100.163089186643106, 6.49138310525682 ], [ 100.163070623874034, 6.492087443570497 ], [ 100.163089186643106, 6.492791780898891 ], [ 100.163144824071082, 6.493494186706259 ], [ 100.16323738365962, 6.494192735759128 ], [ 100.163366611709321, 6.494885513403005 ], [ 100.163532154015101, 6.495570620810145 ], [ 100.163733556837002, 6.49624618018381 ], [ 100.163970268143871, 6.496910339904745 ], [ 100.164241639126487, 6.497561279605936 ], [ 100.164546925975827, 6.498197215161571 ], [ 100.164885291921891, 6.498816403576541 ], [ 100.165255809527125, 6.499417147763291 ], [ 100.165657463228527, 6.499997801192695 ], [ 100.166089152121202, 6.500556772406254 ], [ 100.166549692975948, 6.501092529377495 ], [ 100.167037823482232, 6.501603603710199 ], [ 100.167552205708319, 6.502088594662458 ], [ 100.168091429768253, 6.502546172985096 ], [ 100.168654017686379, 6.502975084564191 ], [ 100.16923842744832, 6.503374153857715 ], [ 100.169843057227524, 6.503742287116778 ], [ 100.170466249775799, 6.504078475382695 ], [ 100.171106296965704, 6.504381797251778 ], [ 100.171761444472367, 6.50465142140007 ], [ 100.172429896582017, 6.504886608861277 ], [ 100.173109821113869, 6.505086715051692 ], [ 100.173799354442068, 6.505251191536326 ], [ 100.174496606603668, 6.50537958753178 ], [ 100.17519966647896, 6.505471551141306 ], [ 100.175906607029717, 6.505526830319099 ], [ 100.176615490581014, 6.505545273560889 ], [ 100.177324374132297, 6.505526830319099 ], [ 100.178031314683068, 6.505471551141306 ], [ 100.178734374558346, 6.50537958753178 ], [ 100.17943162671996, 6.505251191536326 ], [ 100.180121160048159, 6.505086715051692 ], [ 100.180801084580011, 6.504886608861277 ], [ 100.181469536689661, 6.50465142140007 ], [ 100.182124684196324, 6.504381797251778 ], [ 100.182764731386214, 6.504078475382695 ], [ 100.183387923934504, 6.503742287116778 ], [ 100.183992553713708, 6.503374153857715 ], [ 100.184576963475635, 6.502975084564191 ], [ 100.185139551393775, 6.502546172985096 ], [ 100.185678775453709, 6.502088594662458 ], [ 100.186193157679796, 6.501603603710199 ], [ 100.18668128818608, 6.501092529377495 ], [ 100.187141829040826, 6.500556772406254 ], [ 100.187573517933501, 6.499997801192695 ], [ 100.187975171634889, 6.499417147763291 ], [ 100.188345689240123, 6.498816403576541 ], [ 100.188684055186201, 6.498197215161571 ], [ 100.188989342035541, 6.497561279605936 ], [ 100.189260713018157, 6.496910339904745 ], [ 100.189497424325026, 6.49624618018381 ], [ 100.189698827146927, 6.495570620810145 ], [ 100.189864369452692, 6.494885513403005 ], [ 100.189993597502408, 6.494192735759128 ], [ 100.190086157090946, 6.493494186706259 ], [ 100.190141794518922, 6.492791780898891 ], [ 100.190160357287994, 6.492087443570497 ] ] ] } },
{ "type": "Feature", "properties": { "state": "Perlis", "parlimen": "P.002 Kangar", "code_parlimen": "P.002", "dun": "N.07 Sena", "code_dun": "N.07", "voters_total": 7209 }, "geometry": { "type": "Polygon", "coordinates": [ [ [ 100.235307729996833, 6.442115435429244 ], [ 100.235289473614841, 6.441422654068583 ], [ 100.235234754508355, 6.440731770631641 ], [ 100.235143722658634, 6.440044678793588 ], [ 100.23501662757765, 6.439363261844731 ], [ 100.23485381762417, 6.438689387528223 ], [ 100.234655739048989, 6.438024902920511 ], [ 100.2344229347717, 6.437371629368204 ], [ 100.234156042892636, 6.436731357495485 ], [ 100.233855794943906, 6.436105842295584 ], [ 100.233523013884252, 6.43549679831987 ], [ 100.233158611843436, 6.434905894977847 ], [ 100.232763587622117, 6.434334751960625 ], [ 100.232339023954225, 6.433784934800778 ], [ 100.231886084539269, 6.433257950580606 ], [ 100.231406010852695, 6.432755243800506 ], [ 100.230900118743122, 6.432278192418858 ], [ 100.230369794825663, 6.431828104074412 ], [ 100.22981649268128, 6.431406212501274 ], [ 100.229241728872722, 6.431013674146521 ], [ 100.228647078787617, 6.430651564999724 ], [ 100.228034172320505, 6.430320877642908 ], [ 100.227404689405461, 6.430022518529295 ], [ 100.226760355411344, 6.429757305498079 ], [ 100.226102936412886, 6.429525965532129 ], [ 100.225434234349848, 6.429329132764864 ], [ 100.224756082088092, 6.429167346741548 ], [ 100.224070338395848, 6.429041050940076 ], [ 100.22337888284892, 6.42895059155502 ], [ 100.222683610678857, 6.428896216548415 ], [ 100.221986427578386, 6.428878074969997 ], [ 100.221289244477916, 6.428896216548415 ], [ 100.220593972307853, 6.42895059155502 ], [ 100.219902516760911, 6.429041050940076 ], [ 100.219216773068666, 6.429167346741548 ], [ 100.21853862080691, 6.429329132764864 ], [ 100.217869918743872, 6.429525965532129 ], [ 100.217212499745415, 6.429757305498079 ], [ 100.216568165751298, 6.430022518529295 ], [ 100.215938682836253, 6.430320877642908 ], [ 100.215325776369156, 6.430651564999724 ], [ 100.21473112628405, 6.431013674146521 ], [ 100.214156362475492, 6.431406212501274 ], [ 100.213603060331096, 6.431828104074412 ], [ 100.21307273641365, 6.432278192418858 ], [ 100.212566844304064, 6.432755243800506 ], [ 100.212086770617489, 6.433257950580606 ], [ 100.211633831202533, 6.433784934800778 ], [ 100.211209267534642, 6.434334751960625 ], [ 100.210814243313322, 6.434905894977847 ], [ 100.210449841272506, 6.43549679831987 ], [ 100.210117060212852, 6.436105842295584 ], [ 100.209816812264123, 6.436731357495485 ], [ 100.209549920385058, 6.437371629368204 ], [ 100.209317116107769, 6.438024902920511 ], [ 100.209119037532602, 6.438689387528223 ], [ 100.208956227579108, 6.439363261844731 ], [ 100.208829132498124, 6.440044678793588 ], [ 100.208738100648404, 6.440731770631641 ], [ 100.208683381541917, 6.441422654068583 ], [ 100.208665125159925, 6.442115435429244 ], [ 100.208683381541917, 6.442808215844072 ], [ 100.208738100648404, 6.443499096453908 ], [ 100.208829132498124, 6.444186183614535 ], [ 100.208956227579108, 6.444867594086905 ], [ 100.209119037532602, 6.445541460198829 ], [ 100.209317116107769, 6.44620593496373 ], [ 100.209549920385058, 6.446859197142843 ], [ 100.209816812264123, 6.447499456236602 ], [ 100.210117060212852, 6.448124957391784 ], [ 100.210449841272506, 6.448733986210896 ], [ 100.210814243313322, 6.449324873450496 ], [ 100.211209267534642, 6.449895999595893 ], [ 100.211633831202533, 6.450445799299367 ], [ 100.212086770617489, 6.450972765669858 ], [ 100.212566844304064, 6.451475454402564 ], [ 100.21307273641365, 6.45195248773679 ], [ 100.213603060331096, 6.452402558231556 ], [ 100.214156362475492, 6.452824432348321 ], [ 100.21473112628405, 6.453216953831237 ], [ 100.215325776369156, 6.453579046875623 ], [ 100.215938682836253, 6.45390971907585 ], [ 100.216568165751298, 6.454208064144731 ], [ 100.217212499745415, 6.454473264397 ], [ 100.217869918743872, 6.454704592989757 ], [ 100.21853862080691, 6.45490141591421 ], [ 100.219216773068666, 6.455063193732942 ], [ 100.219902516760911, 6.455189483057914 ], [ 100.220593972307853, 6.455279937765559 ], [ 100.221289244477916, 6.455334309945044 ], [ 100.221986427578386, 6.455352450577653 ], [ 100.222683610678857, 6.455334309945044 ], [ 100.22337888284892, 6.455279937765559 ], [ 100.224070338395848, 6.455189483057914 ], [ 100.224756082088092, 6.455063193732942 ], [ 100.225434234349848, 6.45490141591421 ], [ 100.226102936412886, 6.454704592989757 ], [ 100.226760355411344, 6.454473264397 ], [ 100.227404689405461, 6.454208064144731 ], [ 100.228034172320505, 6.45390971907585 ], [ 100.228647078787617, 6.453579046875623 ], [ 100.229241728872722, 6.453216953831237 ], [ 100.22981649268128, 6.452824432348321 ], [ 100.230369794825663, 6.452402558231556 ], [ 100.230900118743122, 6.45195248773679 ], [ 100.231406010852695, 6.451475454402564 ], [ 100.231886084539269, 6.450972765669858 ], [ 100.232339023954225, 6.450445799299367 ], [ 100.232763587622117, 6.449895999595893 ], [ 100.233158611843436, 6.449324873450496 ], [ 100.233523013884252, 6.448733986210896 ], [ 100.233855794943906, 6.448124957391784 ], [ 100.234156042892636, 6.447499456236602 ], [ 100.2344229347717, 6.446859197142843 ], [ 100.234655739048989, 6.44620593496373 ], [ 100.23485381762417, 6.445541460198829 ], [ 100.23501662757765, 6.444867594086905 ], [ 100.235143722658634, 6.444186183614535 ], [ 100.235234754508355, 6.443499096453908 ], [ 100.235289473614841, 6.442808215844072 ], [ 100.235307729996833, 6.442115435429244 ] ] ] } },
{ "type": "Feature", "properties": { "state": "Perlis", "parlimen": "P.002 Kangar", "code_parlimen": "P.002", "dun": "N.08 Indera Kayangan", "code_dun": "N.08", "voters_total": 7824 }, "geometry": { "type": "Polygon", "coordinates": [ [ [ 100.21217378545731, 6.423524891962869 ], [ 100.212154766284598, 6.422803138291278 ], [ 100.212097760896683, 6.422083361877061 ], [ 100.212002925541384, 6.421367535590008 ], [ 100.211870520155813, 6.420657621481094 ], [ 100.21170090765392, 6.419955565404453 ], [ 100.211494552931811, 6.41926329168355 ], [ 100.211252021593396, 6.418582697836354 ], [ 100.210973978400247, 6.417915649373908 ], [ 100.21066118544941, 6.417263974686554 ], [ 100.210314500084621, 6.416629460031752 ], [ 100.209934872546384, 6.416013844637446 ], [ 100.20952334336738, 6.415418815934251 ], [ 100.209081040520502, 6.414846004929411 ], [ 100.208609176327087, 6.414296981735666 ], [ 100.208109044134076, 6.413773251266711 ], [ 100.207582014769102, 6.413276249111498 ], [ 100.207029532782968, 6.412807337598553 ], [ 100.206453112490436, 6.412367802060974 ], [ 100.205854333819431, 6.411958847312619 ], [ 100.205234837980669, 6.411581594344923 ], [ 100.204596322969209, 6.411237077253524 ], [ 100.203940538910288, 6.410926240403071 ], [ 100.203269283262458, 6.410649935838107 ], [ 100.202584395890739, 6.410408920946929 ], [ 100.201887754023886, 6.41020385638507 ], [ 100.201181267108765, 6.410035304263903 ], [ 100.200466871576936, 6.409903726609492 ], [ 100.199746525536881, 6.409809484095744 ], [ 100.199022203407054, 6.409752835055619 ], [ 100.198295890504028, 6.409733934772726 ], [ 100.197569577601016, 6.409752835055619 ], [ 100.196845255471189, 6.409809484095744 ], [ 100.196124909431134, 6.409903726609492 ], [ 100.195410513899319, 6.410035304263903 ], [ 100.194704026984184, 6.41020385638507 ], [ 100.194007385117331, 6.410408920946929 ], [ 100.193322497745626, 6.410649935838107 ], [ 100.192651242097782, 6.410926240403071 ], [ 100.191995458038861, 6.411237077253524 ], [ 100.191356943027401, 6.411581594344923 ], [ 100.190737447188638, 6.411958847312619 ], [ 100.190138668517633, 6.412367802060974 ], [ 100.189562248225101, 6.412807337598553 ], [ 100.189009766238968, 6.413276249111498 ], [ 100.188482736873993, 6.413773251266711 ], [ 100.187982604680982, 6.414296981735666 ], [ 100.187510740487568, 6.414846004929411 ], [ 100.187068437640704, 6.415418815934251 ], [ 100.186656908461686, 6.416013844637446 ], [ 100.186277280923449, 6.416629460031752 ], [ 100.185930595558659, 6.417263974686554 ], [ 100.185617802607823, 6.417915649373908 ], [ 100.185339759414674, 6.418582697836354 ], [ 100.185097228076259, 6.41926329168355 ], [ 100.184890873354149, 6.419955565404453 ], [ 100.184721260852257, 6.420657621481094 ], [ 100.184588855466686, 6.421367535590008 ], [ 100.184494020111387, 6.422083361877061 ], [ 100.184437014723471, 6.422803138291278 ], [ 100.18441799555076, 6.423524891962869 ], [ 100.184437014723471, 6.424246644610845 ], [ 100.184494020111387, 6.424966417965482 ], [ 100.184588855466686, 6.425682239190492 ], [ 100.184721260852257, 6.426392146290341 ], [ 100.184890873354149, 6.427094193487726 ], [ 100.185097228076259, 6.42778645655643 ], [ 100.185339759414674, 6.42846703809521 ], [ 100.185617802607823, 6.429134072727879 ], [ 100.185930595558659, 6.429785732215617 ], [ 100.186277280923449, 6.430420230467472 ], [ 100.186656908461686, 6.431035828435239 ], [ 100.187068437640704, 6.431630838879225 ], [ 100.187510740487568, 6.432203630992231 ], [ 100.187982604680982, 6.432752634868508 ], [ 100.188482736873993, 6.433276345806008 ], [ 100.189009766238968, 6.433773328429753 ], [ 100.189562248225101, 6.434242220625244 ], [ 100.190138668517633, 6.434681737270989 ], [ 100.190737447188638, 6.435090673760123 ], [ 100.191356943027401, 6.43546790930128 ], [ 100.191995458038861, 6.435812409989744 ], [ 100.192651242097782, 6.436123231640568 ], [ 100.193322497745626, 6.436399522375756 ], [ 100.194007385117331, 6.436640524958517 ], [ 100.194704026984184, 6.436845578868191 ], [ 100.195410513899319, 6.437014122110088 ], [ 100.196124909431134, 6.43714569275546 ], [ 100.196845255471189, 6.437239930207139 ], [ 100.197569577601016, 6.437296576187685 ], [ 100.198295890504028, 6.437315475446972 ], [ 100.199022203407054, 6.437296576187685 ], [ 100.199746525536881, 6.437239930207139 ], [ 100.200466871576936, 6.43714569275546 ], [ 100.201181267108765, 6.437014122110088 ], [ 100.201887754023886, 6.436845578868191 ], [ 100.202584395890739, 6.436640524958517 ], [ 100.203269283262458, 6.436399522375756 ], [ 100.203940538910288, 6.436123231640568 ], [ 100.204596322969209, 6.435812409989744 ], [ 100.205234837980669, 6.43546790930128 ], [ 100.205854333819431, 6.435090673760123 ], [ 100.206453112490436, 6.434681737270989 ], [ 100.207029532782968, 6.434242220625244 ], [ 100.207582014769102, 6.433773328429753 ], [ 100.208109044134076, 6.433276345806008 ], [ 100.208609176327087, 6.432752634868508 ], [ 100.209081040520502, 6.432203630992231 ], [ 100.20952334336738, 6.431630838879225 ], [ 100.209934872546384, 6.431035828435239 ], [ 100.210314500084621, 6.430420230467472 ], [ 100.21066118544941, 6.429785732215617 ], [ 100.210973978400247, 6.429134072727879 ], [ 100.211252021593396, 6.42846703809521 ], [ 100.211494552931811, 6.42778645655643 ], [ 100.21170090765392, 6.427094193487726 ], [ 100.211870520155813, 6.426392146290341 ], [ 100.212002925541384, 6.425682239190492 ], [ 100.212097760896683, 6.424966417965482 ], [ 100.212154766284598, 6.424246644610845 ], [ 100.21217378545731, 6.423524891962869 ] ] ] } },
{ "type": "Feature", "properties": { "state": "Perlis", "parlimen": "P.002 Kangar", "code_parlimen": "P.002", "dun": "N.09 Kuala Perlis", "code_dun": "N.09", "voters_total": 7231 }, "geometry": { "type": "Polygon", "coordinates": [ [ [ 100.154262325750949, 6.410460298328506 ], [ 100.154244041533303, 6.409766417502659 ], [ 100.154189238996167, 6.409074437615787 ], [ 100.154098068349441, 6.408386255348327 ], [ 100.153970779485562, 6.407703756979326 ], [ 100.153807721294427, 6.407028813216014 ], [ 100.153609340707249, 6.406363274066035 ], [ 100.153376181471401, 6.405708963766384 ], [ 100.153108882660149, 6.405067675782777 ], [ 100.152808176920928, 6.404441167893453 ], [ 100.152474888467324, 6.403831157370581 ], [ 100.152109930819776, 6.403239316272772 ], [ 100.151714304301819, 6.402667266861344 ], [ 100.151289093298274, 6.402116577153139 ], [ 100.150835463282945, 6.401588756621902 ], [ 100.150354657624149, 6.401085252060141 ], [ 100.149847994176795, 6.400607443612818 ], [ 100.149316861670172, 6.400156640993586 ], [ 100.14876271590154, 6.399734079894198 ], [ 100.148187075745952, 6.39934091859673 ], [ 100.147591518993067, 6.398978234798064 ], [ 100.146977678022537, 6.398647022655183 ], [ 100.146347235329785, 6.398348190059621 ], [ 100.145701918914455, 6.398082556148237 ], [ 100.145043497543938, 6.397850849057412 ], [ 100.14437377590545, 6.397653703926727 ], [ 100.143694589659461, 6.397491661157562 ], [ 100.143007800408284, 6.397365164931464 ], [ 100.142315290593487, 6.397274561992301 ], [ 100.141618958336338, 6.397220100695568 ], [ 100.140920712235172, 6.397201930327458 ], [ 100.140222466133991, 6.397220100695568 ], [ 100.139526133876856, 6.397274561992301 ], [ 100.138833624062045, 6.397365164931464 ], [ 100.138146834810883, 6.397491661157562 ], [ 100.137467648564893, 6.397653703926727 ], [ 100.13679792692642, 6.397850849057412 ], [ 100.136139505555903, 6.398082556148237 ], [ 100.135494189140545, 6.398348190059621 ], [ 100.134863746447792, 6.398647022655183 ], [ 100.134249905477276, 6.398978234798064 ], [ 100.133654348724392, 6.39934091859673 ], [ 100.133078708568789, 6.399734079894198 ], [ 100.132524562800185, 6.400156640993586 ], [ 100.131993430293534, 6.400607443612818 ], [ 100.131486766846194, 6.401085252060141 ], [ 100.131005961187384, 6.401588756621902 ], [ 100.130552331172069, 6.402116577153139 ], [ 100.130127120168524, 6.402667266861344 ], [ 100.129731493650581, 6.403239316272772 ], [ 100.129366536003019, 6.403831157370581 ], [ 100.129033247549415, 6.404441167893453 ], [ 100.128732541810194, 6.405067675782777 ], [ 100.128465242998956, 6.405708963766384 ], [ 100.128232083763081, 6.406363274066035 ], [ 100.128033703175916, 6.407028813216014 ], [ 100.127870644984782, 6.407703756979326 ], [ 100.127743356120902, 6.408386255348327 ], [ 100.127652185474176, 6.409074437615787 ], [ 100.12759738293704, 6.409766417502659 ], [ 100.127579098719394, 6.410460298328506 ], [ 100.12759738293704, 6.411154178210223 ], [ 100.127652185474176, 6.411846155275066 ], [ 100.127743356120902, 6.412534332873484 ], [ 100.127870644984782, 6.413216824777626 ], [ 100.128033703175916, 6.413891760351061 ], [ 100.128232083763081, 6.414557289675887 ], [ 100.128465242998956, 6.415211588622764 ], [ 100.128732541810194, 6.415852863850349 ], [ 100.129033247549415, 6.416479357720156 ], [ 100.129366536003019, 6.417089353113614 ], [ 100.129731493650581, 6.417681178137892 ], [ 100.130127120168524, 6.418253210707761 ], [ 100.130552331172069, 6.418803882990916 ], [ 100.131005961187384, 6.419331685704507 ], [ 100.131486766846194, 6.419835172251238 ], [ 100.131993430293534, 6.420312962683543 ], [ 100.132524562800185, 6.420763747485129 ], [ 100.133078708568789, 6.421186291159467 ], [ 100.133654348724392, 6.421579435615376 ], [ 100.134249905477276, 6.421942103340524 ], [ 100.134863746447792, 6.422273300353977 ], [ 100.135494189140545, 6.422572118930023 ], [ 100.136139505555903, 6.422837740085385 ], [ 100.13679792692642, 6.423069435823424 ], [ 100.137467648564893, 6.423266571128969 ], [ 100.138146834810883, 6.423428605708256 ], [ 100.138833624062045, 6.423555095469482 ], [ 100.139526133876856, 6.423645693739616 ], [ 100.140222466133991, 6.423700152214319 ], [ 100.140920712235172, 6.423718321638301 ], [ 100.141618958336338, 6.423700152214319 ], [ 100.142315290593487, 6.423645693739616 ], [ 100.143007800408284, 6.423555095469482 ], [ 100.143694589659461, 6.423428605708256 ], [ 100.14437377590545, 6.423266571128969 ], [ 100.145043497543938, 6.423069435823424 ], [ 100.145701918914455, 6.422837740085385 ], [ 100.146347235329785, 6.422572118930023 ], [ 100.146977678022537, 6.422273300353977 ], [ 100.147591518993067, 6.421942103340524 ], [ 100.148187075745952, 6.421579435615376 ], [ 100.14876271590154, 6.421186291159467 ], [ 100.149316861670172, 6.420763747485129 ], [ 100.149847994176795, 6.420312962683543 ], [ 100.150354657624149, 6.419835172251238 ], [ 100.150835463282945, 6.419331685704507 ], [ 100.151289093298274, 6.418803882990916 ], [ 100.151714304301819, 6.418253210707761 ], [ 100.152109930819776, 6.417681178137892 ], [ 100.152474888467324, 6.417089353113614 ], [ 100.152808176920928, 6.416479357720156 ], [ 100.153108882660149, 6.415852863850349 ], [ 100.153376181471401, 6.415211588622764 ], [ 100.153609340707249, 6.414557289675887 ], [ 100.153807721294427, 6.413891760351061 ], [ 100.153970779485562, 6.413216824777626 ], [ 100.154098068349441, 6.412534332873484 ], [ 100.154189238996167, 6.411846155275066 ], [ 100.154244041533303, 6.411154178210223 ], [ 100.154262325750949, 6.410460298328506 ] ] ] } },
{ "type": "Feature", "properties": { "state": "Perlis", "parlimen": "P.002 Kangar", "code_parlimen": "P.002", "dun": "N.10 Kayang", "code_dun": "N.10", "voters_total": 6518 }, "geometry": { "type": "Polygon", "coordinates": [ [ [ 100.188331495983832, 6.402591446824422 ], [ 100.188314136597072, 6.401932652929571 ], [ 100.188262106017618, 6.401275663896567 ], [ 100.188175546857707, 6.400622280497202 ], [ 100.188054696369989, 6.399974293627302 ], [ 100.187899885797208, 6.399333479397824 ], [ 100.187711539464388, 6.398701594266363 ], [ 100.187490173615771, 6.398080370222544 ], [ 100.187236394999758, 6.397471510040322 ], [ 100.18695089920584, 6.396876682610338 ], [ 100.186634468758214, 6.396297518365108 ], [ 100.18628797097071, 6.395735604809509 ], [ 100.18591235556967, 6.395192482168991 ], [ 100.185508652090803, 6.394669639167206 ], [ 100.185077967057325, 6.394168508944907 ], [ 100.184621480946902, 6.393690465131042 ], [ 100.184140444956299, 6.393236818077027 ], [ 100.183636177571685, 6.39280881126447 ], [ 100.183110060954931, 6.392407617896127 ], [ 100.182563537155119, 6.392034337679477 ], [ 100.181998104155994, 6.391689993811862 ], [ 100.181415311770081, 6.391375530175236 ], [ 100.180816757390829, 6.391091808748427 ], [ 100.180204081614164, 6.390839607243911 ], [ 100.179578963741818, 6.390619616975589 ], [ 100.178943117178434, 6.390432440963385 ], [ 100.17829828473522, 6.390278592280032 ], [ 100.177646233853096, 6.39015849264428 ], [ 100.176988751758202, 6.390072471264774 ], [ 100.176327640563287, 6.390020763937352 ], [ 100.175664712328143, 6.390003512398627 ], [ 100.175001784092998, 6.390020763937352 ], [ 100.174340672898055, 6.390072471264774 ], [ 100.173683190803175, 6.39015849264428 ], [ 100.173031139921051, 6.390278592280032 ], [ 100.172386307477851, 6.390432440963385 ], [ 100.171750460914467, 6.390619616975589 ], [ 100.171125343042107, 6.390839607243911 ], [ 100.170512667265456, 6.391091808748427 ], [ 100.169914112886204, 6.391375530175236 ], [ 100.169331320500291, 6.391689993811862 ], [ 100.168765887501152, 6.392034337679477 ], [ 100.168219363701354, 6.392407617896127 ], [ 100.1676932470846, 6.39280881126447 ], [ 100.167188979699972, 6.393236818077027 ], [ 100.166707943709369, 6.393690465131042 ], [ 100.16625145759896, 6.394168508944907 ], [ 100.165820772565468, 6.394669639167206 ], [ 100.165417069086601, 6.395192482168991 ], [ 100.165041453685561, 6.395735604809509 ], [ 100.164694955898071, 6.396297518365108 ], [ 100.164378525450431, 6.396876682610338 ], [ 100.164093029656527, 6.397471510040322 ], [ 100.1638392510405, 6.398080370222544 ], [ 100.163617885191897, 6.398701594266363 ], [ 100.163429538859077, 6.399333479397824 ], [ 100.163274728286297, 6.399974293627302 ], [ 100.163153877798564, 6.400622280497202 ], [ 100.163067318638667, 6.401275663896567 ], [ 100.163015288059214, 6.401932652929571 ], [ 100.162997928672453, 6.402591446824422 ], [ 100.163015288059214, 6.403250239869264 ], [ 100.163067318638667, 6.403907226361565 ], [ 100.163153877798564, 6.404560605557357 ], [ 100.163274728286297, 6.40520858660688 ], [ 100.163429538859077, 6.405849393462954 ], [ 100.163617885191897, 6.406481269748745 ], [ 100.1638392510405, 6.407102483571559 ], [ 100.164093029656527, 6.407711332269408 ], [ 100.164378525450431, 6.408306147077502 ], [ 100.164694955898071, 6.408885297701599 ], [ 100.165041453685561, 6.409447196786055 ], [ 100.165417069086601, 6.409990304263979 ], [ 100.165820772565468, 6.410513131577818 ], [ 100.16625145759896, 6.411014245758735 ], [ 100.166707943709369, 6.411492273353515 ], [ 100.167188979699972, 6.411945904188443 ], [ 100.1676932470846, 6.412373894959618 ], [ 100.168219363701354, 6.412775072640028 ], [ 100.168765887501152, 6.413148337694071 ], [ 100.169331320500291, 6.413492667090556 ], [ 100.169914112886204, 6.41380711710605 ], [ 100.170512667265456, 6.414090825910967 ], [ 100.171125343042107, 6.414343015931111 ], [ 100.171750460914467, 6.414562995978428 ], [ 100.172386307477851, 6.414750163144961 ], [ 100.173031139921051, 6.414904004454899 ], [ 100.173683190803175, 6.415024098270274 ], [ 100.174340672898055, 6.415110115446207 ], [ 100.175001784092998, 6.415161820232925 ], [ 100.175664712328143, 6.41517907092164 ], [ 100.176327640563287, 6.415161820232925 ], [ 100.176988751758202, 6.415110115446207 ], [ 100.177646233853096, 6.415024098270274 ], [ 100.17829828473522, 6.414904004454899 ], [ 100.178943117178434, 6.414750163144961 ], [ 100.179578963741818, 6.414562995978428 ], [ 100.180204081614164, 6.414343015931111 ], [ 100.180816757390829, 6.414090825910967 ], [ 100.181415311770081, 6.41380711710605 ], [ 100.181998104155994, 6.413492667090556 ], [ 100.182563537155119, 6.413148337694071 ], [ 100.183110060954931, 6.412775072640028 ], [ 100.183636177571685, 6.412373894959618 ], [ 100.184140444956299, 6.411945904188443 ], [ 100.184621480946902, 6.411492273353515 ], [ 100.185077967057325, 6.411014245758735 ], [ 100.185508652090803, 6.410513131577818 ], [ 100.18591235556967, 6.409990304263979 ], [ 100.18628797097071, 6.409447196786055 ], [ 100.186634468758214, 6.408885297701599 ], [ 100.18695089920584, 6.408306147077502 ], [ 100.187236394999758, 6.407711332269408 ], [ 100.187490173615771, 6.407102483571559 ], [ 100.187711539464388, 6.406481269748745 ], [ 100.187899885797208, 6.405849393462954 ], [ 100.188054696369989, 6.40520858660688 ], [ 100.188175546857707, 6.404560605557357 ], [ 100.188262106017618, 6.403907226361565 ], [ 100.188314136597072, 6.403250239869264 ], [ 100.188331495983832, 6.402591446824422 ] ] ] } },
{ "type": "Feature", "properties": { "state": "Perlis", "parlimen": "P.003 Arau", "code_parlimen": "P.003", "dun": "N.11 Pauh", "code_dun": "N.11", "voters_total": 7120 }, "geometry": { "type": "Polygon", "coordinates": [ [ [ 100.331134149913666, 6.450455794851337 ], [ 100.331116006575385, 6.449767314525626 ], [ 100.33106162629015, 6.44908072034525 ], [ 100.330971158110543, 6.448397894228689 ], [ 100.330844850003558, 6.447720707773971 ], [ 100.330683048170954, 6.447051017128469 ], [ 100.330486196100281, 6.446390657901113 ], [ 100.3302548333494, 6.445741440130701 ], [ 100.329989594067541, 6.445105143324231 ], [ 100.329691205257106, 6.444483511579 ], [ 100.329360484781105, 6.44387824880147 ], [ 100.32899833912137, 6.443291014036416 ], [ 100.328605760893979, 6.442723416918924 ], [ 100.328183826128551, 6.442177013261757 ], [ 100.327733691318997, 6.441653300790199 ], [ 100.327256590253498, 6.441153715036221 ], [ 100.326753830632924, 6.440679625402893 ], [ 100.326226790486444, 6.440232331410154 ], [ 100.325676914394478, 6.439813059132203 ], [ 100.325105709529169, 6.439422957835999 ], [ 100.32451474152333, 6.439063096830553 ], [ 100.323905630179212, 6.438734462535155 ], [ 100.323280045028682, 6.43843795577505 ], [ 100.322639700757108, 6.438174389311597 ], [ 100.321986352503643, 6.437944485613978 ], [ 100.321321791050465, 6.437748874878364 ], [ 100.320647837914308, 6.437588093300095 ], [ 100.319966340353858, 6.437462581603566 ], [ 100.319279166306572, 6.437372683833871 ], [ 100.318588199268746, 6.43731864641349 ], [ 100.317895333133009, 6.437300617466733 ], [ 100.317202466997273, 6.43731864641349 ], [ 100.316511499959446, 6.437372683833871 ], [ 100.31582432591216, 6.437462581603566 ], [ 100.315142828351711, 6.437588093300095 ], [ 100.314468875215553, 6.437748874878364 ], [ 100.313804313762347, 6.437944485613978 ], [ 100.31315096550891, 6.438174389311597 ], [ 100.312510621237337, 6.43843795577505 ], [ 100.311885036086792, 6.438734462535155 ], [ 100.311275924742674, 6.439063096830553 ], [ 100.310684956736836, 6.439422957835999 ], [ 100.310113751871526, 6.439813059132203 ], [ 100.30956387577956, 6.440232331410154 ], [ 100.309036835633066, 6.440679625402893 ], [ 100.308534076012506, 6.441153715036221 ], [ 100.308056974947007, 6.441653300790199 ], [ 100.307606840137439, 6.442177013261757 ], [ 100.307184905372026, 6.442723416918924 ], [ 100.306792327144635, 6.443291014036416 ], [ 100.306430181484899, 6.44387824880147 ], [ 100.306099461008898, 6.444483511579 ], [ 100.305801072198477, 6.445105143324231 ], [ 100.305535832916604, 6.445741440130701 ], [ 100.305304470165709, 6.446390657901113 ], [ 100.30510761809505, 6.447051017128469 ], [ 100.304945816262446, 6.447720707773971 ], [ 100.304819508155461, 6.448397894228689 ], [ 100.304729039975868, 6.44908072034525 ], [ 100.304674659690619, 6.449767314525626 ], [ 100.304656516352352, 6.450455794851337 ], [ 100.304674659690619, 6.451144274241712 ], [ 100.304729039975868, 6.45183086562633 ], [ 100.304819508155461, 6.452513687117333 ], [ 100.304945816262446, 6.453190867167381 ], [ 100.30510761809505, 6.453860549699262 ], [ 100.305304470165709, 6.45452089919295 ], [ 100.305535832916604, 6.455170105716298 ], [ 100.305801072198477, 6.455806389885496 ], [ 100.306099461008898, 6.456428007741753 ], [ 100.306430181484899, 6.457033255530754 ], [ 100.306792327144635, 6.457620474371929 ], [ 100.307184905372026, 6.458188054804675 ], [ 100.307606840137439, 6.458734441199051 ], [ 100.308056974947007, 6.459258136018849 ], [ 100.308534076012506, 6.459757703925539 ], [ 100.309036835633066, 6.46023177571159 ], [ 100.30956387577956, 6.460679052052582 ], [ 100.310113751871526, 6.461098307067729 ], [ 100.310684956736836, 6.461488391679175 ], [ 100.311275924742674, 6.461848236760767 ], [ 100.311885036086792, 6.462176856067624 ], [ 100.312510621237337, 6.462473348938769 ], [ 100.31315096550891, 6.462736902764961 ], [ 100.313804313762347, 6.462966795215503 ], [ 100.314468875215553, 6.463162396217449 ], [ 100.315142828351711, 6.463323169682099 ], [ 100.31582432591216, 6.463448674973956 ], [ 100.316511499959446, 6.463538568118107 ], [ 100.317202466997273, 6.463592602742716 ], [ 100.317895333133009, 6.463610630754136 ], [ 100.318588199268746, 6.463592602742716 ], [ 100.319279166306572, 6.463538568118107 ], [ 100.319966340353858, 6.463448674973956 ], [ 100.320647837914308, 6.463323169682099 ], [ 100.321321791050465, 6.463162396217449 ], [ 100.321986352503643, 6.462966795215503 ], [ 100.322639700757108, 6.462736902764961 ], [ 100.323280045028682, 6.462473348938769 ], [ 100.323905630179212, 6.462176856067624 ], [ 100.32451474152333, 6.461848236760767 ], [ 100.325105709529169, 6.461488391679175 ], [ 100.325676914394478, 6.461098307067729 ], [ 100.326226790486444, 6.460679052052582 ], [ 100.326753830632924, 6.46023177571159 ], [ 100.327256590253498, 6.459757703925539 ], [ 100.327733691318997, 6.459258136018849 ], [ 100.328183826128551, 6.458734441199051 ], [ 100.328605760893979, 6.458188054804675 ], [ 100.32899833912137, 6.457620474371929 ], [ 100.329360484781105, 6.457033255530754 ], [ 100.329691205257106, 6.456428007741753 ], [ 100.329989594067541, 6.455806389885496 ], [ 100.3302548333494, 6.455170105716298 ], [ 100.330486196100281, 6.45452089919295 ], [ 100.330683048170954, 6.453860549699262 ], [ 100.330844850003558, 6.453190867167381 ], [ 100.330971158110543, 6.452513687117333 ], [ 100.33106162629015, 6.45183086562633 ], [ 100.331116006575385, 6.451144274241712 ], [ 100.331134149913666, 6.450455794851337 ] ] ] } },
{ "type": "Feature", "properties": { "state": "Perlis", "parlimen": "P.003 Arau", "code_parlimen": "P.003", "dun": "N.12 Tambun Tulang", "code_dun": "N.12", "voters_total": 7208 }, "geometry": { "type": "Polygon", "coordinates": [ [ [ 100.25279283785963, 6.40759120185819 ], [ 100.252774582743911, 6.40689842154603 ], [ 100.252719867432745, 6.406207539159803 ], [ 100.252628841896993, 6.405520448371754 ], [ 100.252501755631343, 6.404839032469171 ], [ 100.252338956970419, 6.404165159192247 ], [ 100.25214089213398, 6.403500675614348 ], [ 100.251908104004016, 6.402847403079081 ], [ 100.251641230636622, 6.402207132207574 ], [ 100.251341003513147, 6.401581617990007 ], [ 100.251008245535232, 6.400972574974795 ], [ 100.250643868769401, 6.400381672568415 ], [ 100.250248871947022, 6.399810530459089 ], [ 100.249824337726935, 6.399260714176528 ], [ 100.24937142972793, 6.398733730800234 ], [ 100.248891389339349, 6.398231024827879 ], [ 100.248385532318508, 6.397753974215251 ], [ 100.247855245184397, 6.397303886598593 ], [ 100.247301981417124, 6.396881995709593 ], [ 100.246727257474262, 6.396489457993087 ], [ 100.246132648634187, 6.396127349436513 ], [ 100.245519784678379, 6.39579666261992 ], [ 100.244890345424352, 6.395498303994739 ], [ 100.244246056121369, 6.395233091398457 ], [ 100.243588682721565, 6.395001751812532 ], [ 100.242920027039816, 6.394804919369035 ], [ 100.242241921814795, 6.394643133612161 ], [ 100.241556225685841, 6.394516838018874 ], [ 100.240864818098359, 6.394426378783025 ], [ 100.240169594152491, 6.394372003866162 ], [ 100.239472459408745, 6.39435386231768 ], [ 100.238775324665013, 6.394372003866162 ], [ 100.238080100719131, 6.394426378783025 ], [ 100.237388693131649, 6.394516838018874 ], [ 100.236702997002695, 6.394643133612161 ], [ 100.236024891777689, 6.394804919369035 ], [ 100.235356236095924, 6.395001751812532 ], [ 100.234698862696135, 6.395233091398457 ], [ 100.234054573393138, 6.395498303994739 ], [ 100.233425134139125, 6.39579666261992 ], [ 100.232812270183317, 6.396127349436513 ], [ 100.232217661343228, 6.396489457993087 ], [ 100.231642937400352, 6.396881995709593 ], [ 100.231089673633107, 6.397303886598593 ], [ 100.230559386498996, 6.397753974215251 ], [ 100.230053529478155, 6.398231024827879 ], [ 100.229573489089574, 6.398733730800234 ], [ 100.229120581090569, 6.399260714176528 ], [ 100.228696046870482, 6.399810530459089 ], [ 100.228301050048103, 6.400381672568415 ], [ 100.227936673282258, 6.400972574974795 ], [ 100.227603915304357, 6.401581617990007 ], [ 100.227303688180868, 6.402207132207574 ], [ 100.227036814813459, 6.402847403079081 ], [ 100.22680402668351, 6.403500675614348 ], [ 100.226605961847085, 6.404165159192247 ], [ 100.226443163186147, 6.404839032469171 ], [ 100.226316076920511, 6.405520448371754 ], [ 100.226225051384759, 6.406207539159803 ], [ 100.226170336073579, 6.40689842154603 ], [ 100.22615208095786, 6.40759120185819 ], [ 100.226170336073579, 6.408283981229642 ], [ 100.226225051384759, 6.408974860804044 ], [ 100.226316076920511, 6.409661946939959 ], [ 100.226443163186147, 6.410343356401066 ], [ 100.226605961847085, 6.41101722151778 ], [ 100.22680402668351, 6.411681695306073 ], [ 100.227036814813459, 6.412334956529646 ], [ 100.227303688180868, 6.412975214691312 ], [ 100.227603915304357, 6.413600714940087 ], [ 100.227936673282258, 6.414209742880666 ], [ 100.228301050048103, 6.414800629271694 ], [ 100.228696046870482, 6.415371754600426 ], [ 100.229120581090569, 6.415921553520988 ], [ 100.229573489089574, 6.416448519144125 ], [ 100.230053529478155, 6.416951207166663 ], [ 100.230559386498996, 6.417428239829461 ], [ 100.231089673633107, 6.417878309692977 ], [ 100.231642937400352, 6.418300183219977 ], [ 100.232217661343228, 6.41869270415589 ], [ 100.232812270183317, 6.419054796697112 ], [ 100.233425134139125, 6.419385468439058 ], [ 100.234054573393138, 6.419683813095485 ], [ 100.234698862696135, 6.419949012981889 ], [ 100.235356236095924, 6.420180341256133 ], [ 100.236024891777689, 6.420377163910035 ], [ 100.236702997002695, 6.420538941506687 ], [ 100.237388693131649, 6.420665230658498 ], [ 100.238080100719131, 6.420755685242215 ], [ 100.238775324665013, 6.420810057347263 ], [ 100.239472459408745, 6.420828197955026 ], [ 100.240169594152491, 6.420810057347263 ], [ 100.240864818098359, 6.420755685242215 ], [ 100.241556225685841, 6.420665230658498 ], [ 100.242241921814795, 6.420538941506687 ], [ 100.242920027039816, 6.420377163910035 ], [ 100.243588682721565, 6.420180341256133 ], [ 100.244246056121369, 6.419949012981889 ], [ 100.244890345424352, 6.419683813095485 ], [ 100.245519784678379, 6.419385468439058 ], [ 100.246132648634187, 6.419054796697112 ], [ 100.246727257474262, 6.41869270415589 ], [ 100.247301981417124, 6.418300183219977 ], [ 100.247855245184397, 6.417878309692977 ], [ 100.248385532318508, 6.417428239829461 ], [ 100.248891389339349, 6.416951207166663 ], [ 100.24937142972793, 6.416448519144125 ], [ 100.249824337726935, 6.415921553520988 ], [ 100.250248871947022, 6.415371754600426 ], [ 100.250643868769401, 6.414800629271694 ], [ 100.251008245535232, 6.414209742880666 ], [ 100.251341003513147, 6.413600714940087 ], [ 100.251641230636622, 6.412975214691312 ], [ 100.251908104004016, 6.412334956529646 ], [ 100.25214089213398, 6.411681695306073 ], [ 100.252338956970419, 6.41101722151778 ], [ 100.252501755631343, 6.410343356401066 ], [ 100.252628841896993, 6.409661946939959 ], [ 100.252719867432745, 6.408974860804044 ], [ 100.252774582743911, 6.408283981229642 ], [ 100.25279283785963, 6.40759120185819 ] ] ] } },
{ "type": "Feature", "properties": { "state": "Perlis", "parlimen": "P.003 Arau", "code_parlimen": "P.003", "dun": "N.13 Guar Sanji", "code_dun": "N.13", "voters_total": 6929 }, "geometry": { "type": "Polygon", "coordinates": [ [ [ 100.275062497539864, 6.378952996529677 ], [ 100.275044599211057, 6.378273718223852 ], [ 100.274990953282725, 6.37759630087613 ], [ 100.274901706794623, 6.3769226012515 ], [ 100.274777104365171, 6.376254465932185 ], [ 100.274617487520985, 6.375593726256064 ], [ 100.274423293760705, 6.374942193296809 ], [ 100.27419505535596, 6.374301652899502 ], [ 100.273933397892321, 6.3736738607854 ], [ 100.273639038554748, 6.373060537739038 ], [ 100.273312784161689, 6.372463364891188 ], [ 100.272955528953773, 6.371883979110389 ], [ 100.272568252142719, 6.371323968515744 ], [ 100.272152015227292, 6.370784868123336 ], [ 100.271707959083983, 6.370268155638054 ], [ 100.271237300839815, 6.369775247402677 ], [ 100.27074133053631, 6.369307494514887 ], [ 100.270221407593567, 6.368866179123374 ], [ 100.269678957084295, 6.368452510912634 ], [ 100.269115465827582, 6.368067623786657 ], [ 100.26853247831383, 6.367712572760174 ], [ 100.267931592471271, 6.36738833106624 ], [ 100.26731445528624, 6.367095787487973 ], [ 100.266682758288852, 6.366835743921806 ], [ 100.266038232916685, 6.366608913178948 ], [ 100.265382645768966, 6.366415917031109 ], [ 100.264717793764504, 6.366257284505712 ], [ 100.264045499216436, 6.36613345043551 ], [ 100.263367604837413, 6.366044754266359 ], [ 100.262685968688743, 6.365991439126537 ], [ 100.262002459087796, 6.365973651160167 ], [ 100.261318949486849, 6.365991439126537 ], [ 100.260637313338179, 6.366044754266359 ], [ 100.259959418959156, 6.36613345043551 ], [ 100.259287124411088, 6.366257284505712 ], [ 100.258622272406626, 6.366415917031109 ], [ 100.257966685258907, 6.366608913178948 ], [ 100.257322159886741, 6.366835743921806 ], [ 100.256690462889352, 6.367095787487973 ], [ 100.256073325704307, 6.36738833106624 ], [ 100.255472439861762, 6.367712572760174 ], [ 100.254889452347996, 6.368067623786657 ], [ 100.254325961091297, 6.368452510912634 ], [ 100.253783510582025, 6.368866179123374 ], [ 100.253263587639282, 6.369307494514887 ], [ 100.252767617335778, 6.369775247402677 ], [ 100.252296959091609, 6.370268155638054 ], [ 100.251852902948301, 6.370784868123336 ], [ 100.251436666032873, 6.371323968515744 ], [ 100.251049389221819, 6.371883979110389 ], [ 100.250692134013903, 6.372463364891188 ], [ 100.250365879620844, 6.373060537739038 ], [ 100.250071520283257, 6.3736738607854 ], [ 100.249809862819632, 6.374301652899502 ], [ 100.249581624414873, 6.374942193296809 ], [ 100.249387430654608, 6.375593726256064 ], [ 100.249227813810421, 6.376254465932185 ], [ 100.249103211380969, 6.3769226012515 ], [ 100.249013964892868, 6.37759630087613 ], [ 100.248960318964521, 6.378273718223852 ], [ 100.248942420635728, 6.378952996529677 ], [ 100.248960318964521, 6.379632273935163 ], [ 100.249013964892868, 6.380309688591791 ], [ 100.249103211380969, 6.380983383764014 ], [ 100.249227813810421, 6.381651512918409 ], [ 100.249387430654608, 6.38231224478464 ], [ 100.249581624414873, 6.382963768374592 ], [ 100.249809862819632, 6.383604297945838 ], [ 100.250071520283257, 6.384232077895742 ], [ 100.250365879620844, 6.384845387573038 ], [ 100.250692134013903, 6.385442545993433 ], [ 100.251049389221819, 6.386021916446439 ], [ 100.251436666032873, 6.386581910980898 ], [ 100.251852902948301, 6.387120994756728 ], [ 100.252296959091609, 6.387637690251017 ], [ 100.252767617335778, 6.3881305813072 ], [ 100.253263587639282, 6.388598317015783 ], [ 100.253783510582025, 6.389039615416327 ], [ 100.254325961091297, 6.389453267010463 ], [ 100.254889452347996, 6.389838138076268 ], [ 100.255472439861762, 6.39019317377497 ], [ 100.256073325704307, 6.390517401041437 ], [ 100.256690462889352, 6.390809931250637 ], [ 100.257322159886741, 6.391069962652621 ], [ 100.257966685258907, 6.391296782569405 ], [ 100.258622272406626, 6.391489769347953 ], [ 100.259287124411088, 6.391648394063448 ], [ 100.259959418959156, 6.391772221968729 ], [ 100.260637313338179, 6.391860913685472 ], [ 100.261318949486849, 6.391914226134189 ], [ 100.262002459087796, 6.391932013200234 ], [ 100.262685968688743, 6.391914226134189 ], [ 100.263367604837413, 6.391860913685472 ], [ 100.264045499216436, 6.391772221968729 ], [ 100.264717793764504, 6.391648394063448 ], [ 100.265382645768966, 6.391489769347953 ], [ 100.266038232916685, 6.391296782569405 ], [ 100.266682758288852, 6.391069962652621 ], [ 100.26731445528624, 6.390809931250637 ], [ 100.267931592471271, 6.390517401041437 ], [ 100.26853247831383, 6.39019317377497 ], [ 100.269115465827582, 6.389838138076268 ], [ 100.269678957084295, 6.389453267010463 ], [ 100.270221407593567, 6.389039615416327 ], [ 100.27074133053631, 6.388598317015783 ], [ 100.271237300839815, 6.3881305813072 ], [ 100.271707959083983, 6.387637690251017 ], [ 100.272152015227292, 6.387120994756728 ], [ 100.272568252142719, 6.386581910980898 ], [ 100.272955528953773, 6.386021916446439 ], [ 100.273312784161689, 6.385442545993433 ], [ 100.273639038554748, 6.384845387573038 ], [ 100.273933397892321, 6.384232077895742 ], [ 100.27419505535596, 6.383604297945838 ], [ 100.274423293760705, 6.382963768374592 ], [ 100.274617487520985, 6.38231224478464 ], [ 100.274777104365171, 6.381651512918409 ], [ 100.274901706794623, 6.380983383764014 ], [ 100.274990953282725, 6.380309688591791 ], [ 100.275044599211057, 6.379632273935163 ], [ 100.275062497539864, 6.378952996529677 ] ] ] } },
{ "type": "Feature", "properties": { "state": "Perlis", "parlimen": "P.003 Arau", "code_parlimen": "P.003", "dun": "N.14 Simpang Empat", "code_dun": "N.14", "voters_total": 6250 }, "geometry": { "type": "Polygon", "coordinates": [ [ [ 100.188156800117227, 6.349729693378856 ], [ 100.188139801358503, 6.349084518923886 ], [ 100.188088851674692, 6.348441112042207 ], [ 100.188004090715367, 6.347801236277384 ], [ 100.187885750804426, 6.34716664550089 ], [ 100.187734156303335, 6.346539079104737 ], [ 100.187549722722082, 6.345920257233682 ], [ 100.187332955580288, 6.345311876070055 ], [ 100.187084449021626, 6.344715603184313 ], [ 100.186804884185278, 6.344133072963903 ], [ 100.186495027339092, 6.34356588213296 ], [ 100.186155727779095, 6.34301558537539 ], [ 100.185787915501777, 6.342483691072864 ], [ 100.185392598655071, 6.341971657169918 ], [ 100.184970860774968, 6.341480887177129 ], [ 100.184523857815662, 6.341012726323573 ], [ 100.1840528149812, 6.340568457868931 ], [ 100.183559023367252, 6.340149299585444 ], [ 100.183043836422314, 6.339756400419445 ], [ 100.182508666237979, 6.339390837341443 ], [ 100.181954979678537, 6.339053612393587 ], [ 100.181384294360356, 6.338745649942468 ], [ 100.180798174492224, 6.338467794144907 ], [ 100.180198226587976, 6.338220806633548 ], [ 100.179586095063087, 6.338005364428795 ], [ 100.178963457727534, 6.337822058082616 ], [ 100.178332021186961, 6.33767139005945 ], [ 100.177693516165064, 6.337553773358645 ], [ 100.177049692759695, 6.33746953038209 ], [ 100.176402315646058, 6.337418892050331 ], [ 100.175753159239846, 6.33740199716939 ], [ 100.175104002833621, 6.337418892050331 ], [ 100.174456625719998, 6.33746953038209 ], [ 100.173812802314629, 6.337553773358645 ], [ 100.173174297292732, 6.33767139005945 ], [ 100.172542860752159, 6.337822058082616 ], [ 100.171920223416606, 6.338005364428795 ], [ 100.171308091891703, 6.338220806633548 ], [ 100.170708143987454, 6.338467794144907 ], [ 100.170122024119337, 6.338745649942468 ], [ 100.169551338801142, 6.339053612393587 ], [ 100.1689976522417, 6.339390837341443 ], [ 100.168462482057379, 6.339756400419445 ], [ 100.167947295112441, 6.340149299585444 ], [ 100.167453503498479, 6.340568457868931 ], [ 100.16698246066403, 6.341012726323573 ], [ 100.166535457704725, 6.341480887177129 ], [ 100.166113719824608, 6.341971657169918 ], [ 100.165718402977916, 6.342483691072864 ], [ 100.165350590700612, 6.34301558537539 ], [ 100.165011291140587, 6.34356588213296 ], [ 100.1647014342944, 6.344133072963903 ], [ 100.164421869458053, 6.344715603184313 ], [ 100.16417336289939, 6.345311876070055 ], [ 100.163956595757625, 6.345920257233682 ], [ 100.163772162176357, 6.346539079104737 ], [ 100.163620567675252, 6.34716664550089 ], [ 100.163502227764312, 6.347801236277384 ], [ 100.163417466804987, 6.348441112042207 ], [ 100.16336651712119, 6.349084518923886 ], [ 100.163349518362452, 6.349729693378856 ], [ 100.16336651712119, 6.350374867025391 ], [ 100.163417466804987, 6.3510182714906 ], [ 100.163502227764312, 6.351658143257428 ], [ 100.163620567675252, 6.352292728498178 ], [ 100.163772162176357, 6.352920287881501 ], [ 100.163956595757625, 6.353539101339468 ], [ 100.16417336289939, 6.35414747278192 ], [ 100.164421869458053, 6.354743734744912 ], [ 100.1647014342944, 6.355326252960687 ], [ 100.165011291140587, 6.355893430836607 ], [ 100.165350590700612, 6.356443713830721 ], [ 100.165718402977916, 6.356975593712142 ], [ 100.166113719824608, 6.357487612694356 ], [ 100.166535457704725, 6.35797836743024 ], [ 100.16698246066403, 6.358446512857864 ], [ 100.167453503498479, 6.358890765886587 ], [ 100.167947295112441, 6.359309908913156 ], [ 100.168462482057379, 6.359702793158423 ], [ 100.1689976522417, 6.360068341815319 ], [ 100.169551338801142, 6.360405552999719 ], [ 100.170122024119337, 6.360713502495815 ], [ 100.170708143987454, 6.36099134628873 ], [ 100.171308091891703, 6.36123832287735 ], [ 100.171920223416606, 6.361453755360929 ], [ 100.172542860752159, 6.361637053294031 ], [ 100.173174297292732, 6.361787714304355 ], [ 100.173812802314629, 6.361905325469417 ], [ 100.174456625719998, 6.361989564447977 ], [ 100.175104002833621, 6.362040200363277 ], [ 100.175753159239846, 6.362057094435773 ], [ 100.176402315646058, 6.362040200363277 ], [ 100.177049692759695, 6.361989564447977 ], [ 100.177693516165064, 6.361905325469417 ], [ 100.178332021186961, 6.361787714304355 ], [ 100.178963457727534, 6.361637053294031 ], [ 100.179586095063087, 6.361453755360929 ], [ 100.180198226587976, 6.36123832287735 ], [ 100.180798174492224, 6.36099134628873 ], [ 100.181384294360356, 6.360713502495815 ], [ 100.181954979678537, 6.360405552999719 ], [ 100.182508666237979, 6.360068341815319 ], [ 100.183043836422314, 6.359702793158423 ], [ 100.183559023367252, 6.359309908913156 ], [ 100.1840528149812, 6.358890765886587 ], [ 100.184523857815662, 6.358446512857864 ], [ 100.184970860774968, 6.35797836743024 ], [ 100.185392598655071, 6.357487612694356 ], [ 100.185787915501777, 6.356975593712142 ], [ 100.186155727779095, 6.356443713830721 ], [ 100.186495027339092, 6.355893430836607 ], [ 100.186804884185278, 6.355326252960687 ], [ 100.187084449021626, 6.354743734744912 ], [ 100.187332955580288, 6.35414747278192 ], [ 100.187549722722082, 6.353539101339468 ], [ 100.187734156303335, 6.352920287881501 ], [ 100.187885750804426, 6.352292728498178 ], [ 100.188004090715367, 6.351658143257428 ], [ 100.188088851674692, 6.3510182714906 ], [ 100.188139801358503, 6.350374867025391 ], [ 100.188156800117227, 6.349729693378856 ] ] ] } },
{ "type": "Feature", "properties": { "state": "Perlis", "parlimen": "P.003 Arau", "code_parlimen": "P.003", "dun": "N.15 Sanglang", "code_dun": "N.15", "voters_total": 7161 }, "geometry": { "type": "Polygon", "coordinates": [ [ [ 100.21173928795703, 6.30767958157077 ], [ 100.211721092455178, 6.306988929434832 ], [ 100.211666555822262, 6.306300169412019 ], [ 100.211575827539363, 6.305615189357088 ], [ 100.21144915628642, 6.304935866771542 ], [ 100.211286889260535, 6.304264063657319 ], [ 100.211089471224312, 6.303601621412962 ], [ 100.210857443286926, 6.302950355785969 ], [ 100.210591441420775, 6.302312051895695 ], [ 100.210292194718505, 6.301688459339814 ], [ 100.209960523394543, 6.301081287398371 ], [ 100.209597336536888, 6.300492200348013 ], [ 100.20920362961553, 6.299922812899739 ], [ 100.20878048175372, 6.299374685772367 ], [ 100.208329052770367, 6.298849321414012 ], [ 100.207850580000922, 6.298348159883109 ], [ 100.20734637490601, 6.297872574900675 ], [ 100.206817819476711, 6.29742387008412 ], [ 100.20626636244674, 6.297003275373413 ], [ 100.205693515321485, 6.29661194365911 ], [ 100.205100848235105, 6.296250947621544 ], [ 100.204489985646887, 6.295921276790041 ], [ 100.203862601888702, 6.295623834829905 ], [ 100.203220416575846, 6.295359437064888 ], [ 100.202565189893605, 6.295128808241894 ], [ 100.201898717772792, 6.294932580543848 ], [ 100.201222826967154, 6.294771291856502 ], [ 100.2005393700464, 6.294645384293648 ], [ 100.199850220318439, 6.294555202985022 ], [ 100.199157266694797, 6.294500995129949 ], [ 100.198462408513208, 6.294482909319695 ], [ 100.197767550331591, 6.294500995129949 ], [ 100.197074596707964, 6.294555202985022 ], [ 100.196385446980003, 6.294645384293648 ], [ 100.195701990059248, 6.294771291856502 ], [ 100.195026099253596, 6.294932580543848 ], [ 100.194359627132783, 6.295128808241894 ], [ 100.193704400450557, 6.295359437064888 ], [ 100.193062215137687, 6.295623834829905 ], [ 100.192434831379515, 6.295921276790041 ], [ 100.191823968791297, 6.296250947621544 ], [ 100.191231301704903, 6.29661194365911 ], [ 100.190658454579648, 6.297003275373413 ], [ 100.190106997549691, 6.29742387008412 ], [ 100.189578442120393, 6.297872574900675 ], [ 100.18907423702548, 6.298348159883109 ], [ 100.188595764256021, 6.298849321414012 ], [ 100.188144335272682, 6.299374685772367 ], [ 100.187721187410872, 6.299922812899739 ], [ 100.1873274804895, 6.300492200348013 ], [ 100.18696429363186, 6.301081287398371 ], [ 100.186632622307897, 6.301688459339814 ], [ 100.186333375605628, 6.302312051895695 ], [ 100.186067373739476, 6.302950355785969 ], [ 100.18583534580209, 6.303601621412962 ], [ 100.185637927765868, 6.304264063657319 ], [ 100.185475660739982, 6.304935866771542 ], [ 100.185348989487039, 6.305615189357088 ], [ 100.18525826120414, 6.306300169412019 ], [ 100.185203724571224, 6.306988929434832 ], [ 100.185185529069358, 6.30767958157077 ], [ 100.185203724571224, 6.308370232786471 ], [ 100.18525826120414, 6.309058990058638 ], [ 100.185348989487039, 6.309743965562666 ], [ 100.185475660739982, 6.310423281846896 ], [ 100.185637927765868, 6.311095076978437 ], [ 100.18583534580209, 6.31175750964622 ], [ 100.186067373739476, 6.312408764207643 ], [ 100.186333375605628, 6.313047055664607 ], [ 100.186632622307897, 6.313670634555642 ], [ 100.18696429363186, 6.314277791750444 ], [ 100.1873274804895, 6.314866863133923 ], [ 100.187721187410872, 6.315436234166718 ], [ 100.188144335272682, 6.315984344309865 ], [ 100.188595764256021, 6.316509691301348 ], [ 100.18907423702548, 6.317010835272981 ], [ 100.189578442120393, 6.317486402696157 ], [ 100.190106997549691, 6.317935090145842 ], [ 100.190658454579648, 6.318355667872322 ], [ 100.191231301704903, 6.31874698317116 ], [ 100.191823968791297, 6.319107963541835 ], [ 100.192434831379515, 6.319437619626683 ], [ 100.193062215137687, 6.319735047921999 ], [ 100.193704400450557, 6.319999433253693 ], [ 100.194359627132783, 6.320230051011118 ], [ 100.195026099253596, 6.320426269132577 ], [ 100.195701990059248, 6.320587549837265 ], [ 100.196385446980003, 6.320713451098792 ], [ 100.197074596707964, 6.320803627856515 ], [ 100.197767550331591, 6.320857832960942 ], [ 100.198462408513208, 6.320875917850959 ], [ 100.199157266694797, 6.320857832960942 ], [ 100.199850220318439, 6.320803627856515 ], [ 100.2005393700464, 6.320713451098792 ], [ 100.201222826967154, 6.320587549837265 ], [ 100.201898717772792, 6.320426269132577 ], [ 100.202565189893605, 6.320230051011118 ], [ 100.203220416575846, 6.319999433253693 ], [ 100.203862601888702, 6.319735047921999 ], [ 100.204489985646887, 6.319437619626683 ], [ 100.205100848235105, 6.319107963541835 ], [ 100.205693515321485, 6.31874698317116 ], [ 100.20626636244674, 6.318355667872322 ], [ 100.206817819476711, 6.317935090145842 ], [ 100.20734637490601, 6.317486402696157 ], [ 100.207850580000922, 6.317010835272981 ], [ 100.208329052770367, 6.316509691301348 ], [ 100.20878048175372, 6.315984344309865 ], [ 100.20920362961553, 6.315436234166718 ], [ 100.209597336536888, 6.314866863133923 ], [ 100.209960523394543, 6.314277791750444 ], [ 100.210292194718505, 6.313670634555642 ], [ 100.210591441420775, 6.313047055664607 ], [ 100.210857443286926, 6.312408764207643 ], [ 100.211089471224312, 6.31175750964622 ], [ 100.211286889260535, 6.311095076978437 ], [ 100.21144915628642, 6.310423281846896 ], [ 100.211575827539363, 6.309743965562666 ], [ 100.211666555822262, 6.309058990058638 ], [ 100.211721092455178, 6.308370232786471 ], [ 100.21173928795703, 6.30767958157077 ] ] ] } }
]
}
