{
"type": "FeatureCollection",
"name": "PLS_SE-02",
"crs": { "type": "name", "properties": { "name": "urn:ogc:def:crs:OGC:1.3:CRS84" } },
"features": [
{ "type": "Feature", "properties": { "state": "Perlis", "parlimen": "P.001 Perlis Utara", "code_parlimen": "P.001", "dun": "N.01 Kaki Bukit", "code_dun": "N.01", "voters_total": 5316 }, "geometry": { "type": "Polygon", "coordinates": [ [ [ 100.248525992625446, 6.621536577342059 ], [ 100.248507393265655, 6.620831033877779 ], [ 100.248451646165861, 6.620127423254797 ], [ 100.24835890412497, 6.619427674033371 ], [ 100.248229421342458, 6.618733704198099 ], [ 100.248063552721632, 6.618047415900521 ], [ 100.247861752896895, 6.61737069024515 ], [ 100.247624574987498, 6.616705382133157 ], [ 100.247352669081621, 6.616053315177714 ], [ 100.247046780454454, 6.615416276705025 ], [ 100.246707747525434, 6.614796012854813 ], [ 100.2463364995603, 6.614194223793562 ], [ 100.245934054123893, 6.613612559053784 ], [ 100.245501514291178, 6.613052613011983 ], [ 100.245040065623783, 6.612515920517755 ], [ 100.244550972920408, 6.612003952686037 ], [ 100.244035576750179, 6.611518112864062 ], [ 100.243495289778181, 6.611059732783983 ], [ 100.242931592893413, 6.610630068911812 ], [ 100.242346031149879, 6.610230299002752 ], [ 100.241740209531628, 6.609861518872097 ], [ 100.241115788553586, 6.609524739391011 ], [ 100.240474479710244, 6.609220883714908 ], [ 100.239818040784584, 6.608950784752484 ], [ 100.239148271030075, 6.608715182882102 ], [ 100.238467006239034, 6.608514723921838 ], [ 100.237776113710922, 6.608349957358798 ], [ 100.237077487134115, 6.60822133484256 ], [ 100.236373041395524, 6.608129208946797 ], [ 100.235664707331949, 6.608073832202638 ], [ 100.234954426437795, 6.608055356406243 ], [ 100.234244145543656, 6.608073832202638 ], [ 100.233535811480081, 6.608129208946797 ], [ 100.23283136574149, 6.60822133484256 ], [ 100.232132739164683, 6.608349957358798 ], [ 100.231441846636571, 6.608514723921838 ], [ 100.23076058184553, 6.608715182882102 ], [ 100.230090812091007, 6.608950784752484 ], [ 100.229434373165361, 6.609220883714908 ], [ 100.228793064322019, 6.609524739391011 ], [ 100.228168643343977, 6.609861518872097 ], [ 100.227562821725712, 6.610230299002752 ], [ 100.226977259982178, 6.610630068911812 ], [ 100.226413563097424, 6.611059732783983 ], [ 100.225873276125412, 6.611518112864062 ], [ 100.225357879955197, 6.612003952686037 ], [ 100.224868787251836, 6.612515920517755 ], [ 100.224407338584413, 6.613052613011983 ], [ 100.223974798751712, 6.613612559053784 ], [ 100.223572353315305, 6.614194223793562 ], [ 100.223201105350157, 6.614796012854813 ], [ 100.222862072421151, 6.615416276705025 ], [ 100.222556183793984, 6.616053315177714 ], [ 100.222284277888107, 6.616705382133157 ], [ 100.22204709997871, 6.61737069024515 ], [ 100.221845300153959, 6.618047415900521 ], [ 100.221679431533147, 6.618733704198099 ], [ 100.221549948750635, 6.619427674033371 ], [ 100.221457206709744, 6.620127423254797 ], [ 100.221401459609936, 6.620831033877779 ], [ 100.221382860250159, 6.621536577342059 ], [ 100.221401459609936, 6.622242119797786 ], [ 100.221457206709744, 6.622945727406162 ], [ 100.221549948750635, 6.62364547163993 ], [ 100.221679431533147, 6.624339434569163 ], [ 100.221845300153959, 6.625025714117989 ], [ 100.22204709997871, 6.62570242927772 ], [ 100.222284277888107, 6.626367725262208 ], [ 100.222556183793984, 6.627019778591124 ], [ 100.222862072421151, 6.627656802087598 ], [ 100.223201105350157, 6.628277049775962 ], [ 100.223572353315305, 6.628878821666797 ], [ 100.223974798751712, 6.629460468415729 ], [ 100.224407338584413, 6.630020395843373 ], [ 100.224868787251836, 6.630557069304054 ], [ 100.225357879955197, 6.631069017891381 ], [ 100.225873276125412, 6.631554838468964 ], [ 100.226413563097424, 6.632013199515498 ], [ 100.226977259982178, 6.632442844773498 ], [ 100.227562821725712, 6.632842596691725 ], [ 100.228168643343977, 6.633211359651952 ], [ 100.228793064322019, 6.633548122971201 ], [ 100.229434373165361, 6.633851963671078 ], [ 100.230090812091007, 6.634122049006987 ], [ 100.23076058184553, 6.634357638749864 ], [ 100.231441846636571, 6.634558087214488 ], [ 100.232132739164683, 6.634722845028764 ], [ 100.23283136574149, 6.634851460638974 ], [ 100.233535811480081, 6.634943581547081 ], [ 100.234244145543656, 6.634998955276633 ], [ 100.234954426437795, 6.635017430064463 ], [ 100.235664707331949, 6.634998955276633 ], [ 100.236373041395524, 6.634943581547081 ], [ 100.237077487134115, 6.634851460638974 ], [ 100.237776113710922, 6.634722845028764 ], [ 100.238467006239034, 6.634558087214488 ], [ 100.239148271030075, 6.634357638749864 ], [ 100.239818040784584, 6.634122049006987 ], [ 100.240474479710244, 6.633851963671078 ], [ 100.241115788553586, 6.633548122971201 ], [ 100.241740209531628, 6.633211359651952 ], [ 100.242346031149879, 6.632842596691725 ], [ 100.242931592893413, 6.632442844773498 ], [ 100.243495289778181, 6.632013199515498 ], [ 100.244035576750179, 6.631554838468964 ], [ 100.244550972920408, 6.631069017891381 ], [ 100.245040065623783, 6.630557069304054 ], [ 100.245501514291178, 6.630020395843373 ], [ 100.245934054123893, 6.629460468415729 ], [ 100.2463364995603, 6.628878821666797 ], [ 100.246707747525434, 6.628277049775962 ], [ 100.247046780454454, 6.627656802087598 ], [ 100.247352669081621, 6.627019778591124 ], [ 100.247624574987498, 6.626367725262208 ], [ 100.247861752896895, 6.62570242927772 ], [ 100.248063552721632, 6.625025714117989 ], [ 100.248229421342458, 6.624339434569163 ], [ 100.24835890412497, 6.62364547163993 ], [ 100.248451646165861, 6.622945727406162 ], [ 100.248507393265655, 6.622242119797786 ], [ 100.248525992625446, 6.621536577342059 ] ] ] } },
{ "type": "Feature", "properties": { "state": "Perlis", "parlimen": "P.001 Perlis Utara", "code_parlimen": "P.001", "dun": "N.02 Paya", "code_dun": "N.02", "voters_total": 4092 }, "geometry": { "type": "Polygon", "coordinates": [ [ [ 100.238995989523062, 6.487012344953274 ], [ 100.238979671282848, 6.486393165962453 ], [ 100.238930761289367, 6.485775683340572 ], [ 100.238849393601512, 6.48516158957398 ], [ 100.238735791242476, 6.484552567866539 ], [ 100.238590265588414, 6.483950287525857 ], [ 100.23841321551501, 6.48335639938765 ], [ 100.238205126304251, 6.482772531290615 ], [ 100.237966568314164, 6.482200283614222 ], [ 100.237698195415632, 6.481641224891822 ], [ 100.237400743200112, 6.48109688751096 ], [ 100.237075026963439, 6.480568763512619 ], [ 100.236721939471224, 6.48005830050119 ], [ 100.236342448511678, 6.479566897676031 ], [ 100.235937594243183, 6.479095901995792 ], [ 100.235508486343136, 6.478646604485823 ], [ 100.235056300966463, 6.478220236698954 ], [ 100.234582277521852, 6.477817967339242 ], [ 100.234087715274626, 6.47744089905796 ], [ 100.23357396978551, 6.477090065430662 ], [ 100.233042449195182, 6.476766428123616 ], [ 100.232494610364668, 6.476470874257337 ], [ 100.231931954882072, 6.476204213974419 ], [ 100.231356024946976, 6.475967178218513 ], [ 100.230768399143344, 6.475760416730301 ], [ 100.230170688112594, 6.475584496266169 ], [ 100.229564530139157, 6.475439899044348 ], [ 100.228951586659889, 6.475327021422855 ], [ 100.228333537710256, 6.475246172812752 ], [ 100.227712077319495, 6.475197574829886 ], [ 100.227088908867316, 6.475181360687275 ], [ 100.226465740415136, 6.475197574829886 ], [ 100.225844280024376, 6.475246172812752 ], [ 100.225226231074757, 6.475327021422855 ], [ 100.224613287595474, 6.475439899044348 ], [ 100.224007129622038, 6.475584496266169 ], [ 100.223409418591288, 6.475760416730301 ], [ 100.222821792787656, 6.475967178218513 ], [ 100.22224586285256, 6.476204213974419 ], [ 100.221683207369963, 6.476470874257337 ], [ 100.221135368539436, 6.476766428123616 ], [ 100.220603847949121, 6.477090065430662 ], [ 100.220090102460006, 6.47744089905796 ], [ 100.219595540212794, 6.477817967339242 ], [ 100.219121516768169, 6.478220236698954 ], [ 100.218669331391496, 6.478646604485823 ], [ 100.218240223491449, 6.479095901995792 ], [ 100.217835369222954, 6.479566897676031 ], [ 100.217455878263408, 6.48005830050119 ], [ 100.217102790771193, 6.480568763512619 ], [ 100.216777074534534, 6.48109688751096 ], [ 100.216479622319014, 6.481641224891822 ], [ 100.216211249420468, 6.482200283614222 ], [ 100.215972691430395, 6.482772531290615 ], [ 100.215764602219622, 6.48335639938765 ], [ 100.215587552146218, 6.483950287525857 ], [ 100.215442026492155, 6.484552567866539 ], [ 100.215328424133105, 6.48516158957398 ], [ 100.215247056445264, 6.485775683340572 ], [ 100.215198146451783, 6.486393165962453 ], [ 100.21518182821157, 6.487012344953274 ], [ 100.215198146451783, 6.487631523183243 ], [ 100.215247056445264, 6.488249003530938 ], [ 100.215328424133105, 6.488863093534921 ], [ 100.215442026492155, 6.489472110032564 ], [ 100.215587552146218, 6.490074383773313 ], [ 100.215764602219622, 6.490668263993772 ], [ 100.215972691430395, 6.491252122942018 ], [ 100.216211249420468, 6.491824360338782 ], [ 100.216479622319014, 6.492383407763342 ], [ 100.216777074534534, 6.492927732951968 ], [ 100.217102790771193, 6.493455843997207 ], [ 100.217455878263408, 6.493966293436625 ], [ 100.217835369222954, 6.494457682219545 ], [ 100.218240223491449, 6.494928663541196 ], [ 100.218669331391496, 6.495377946533498 ], [ 100.219121516768169, 6.495804299802686 ], [ 100.219595540212794, 6.496206554803797 ], [ 100.220090102460006, 6.496583609042841 ], [ 100.220603847949121, 6.496934429098127 ], [ 100.221135368539436, 6.497258053452072 ], [ 100.221683207369963, 6.497553595126114 ], [ 100.22224586285256, 6.497820244111193 ], [ 100.222821792787656, 6.498057269587483 ], [ 100.223409418591288, 6.498264021926893 ], [ 100.224007129622038, 6.498439934473276 ], [ 100.224613287595474, 6.498584525095166 ], [ 100.225226231074757, 6.498697397506859 ], [ 100.225844280024376, 6.498778242354367 ], [ 100.226465740415136, 6.498826838063047 ], [ 100.227088908867316, 6.498843051444818 ], [ 100.227712077319495, 6.498826838063047 ], [ 100.228333537710256, 6.498778242354367 ], [ 100.228951586659889, 6.498697397506859 ], [ 100.229564530139157, 6.498584525095166 ], [ 100.230170688112594, 6.498439934473276 ], [ 100.230768399143344, 6.498264021926893 ], [ 100.231356024946976, 6.498057269587483 ], [ 100.231931954882072, 6.497820244111193 ], [ 100.232494610364668, 6.497553595126114 ], [ 100.233042449195182, 6.497258053452072 ], [ 100.23357396978551, 6.496934429098127 ], [ 100.234087715274626, 6.496583609042841 ], [ 100.234582277521852, 6.496206554803797 ], [ 100.235056300966463, 6.495804299802686 ], [ 100.235508486343136, 6.495377946533498 ], [ 100.235937594243183, 6.494928663541196 ], [ 100.236342448511678, 6.494457682219545 ], [ 100.236721939471224, 6.493966293436625 ], [ 100.237075026963439, 6.493455843997207 ], [ 100.237400743200112, 6.492927732951968 ], [ 100.237698195415632, 6.492383407763342 ], [ 100.237966568314164, 6.491824360338782 ], [ 100.238205126304251, 6.491252122942018 ], [ 100.23841321551501, 6.490668263993772 ], [ 100.238590265588414, 6.490074383773313 ], [ 100.238735791242476, 6.489472110032564 ], [ 100.238849393601512, 6.488863093534921 ], [ 100.238930761289367, 6.488249003530938 ], [ 100.238979671282848, 6.487631523183243 ], [ 100.238995989523062, 6.487012344953274 ] ] ] } },
{ "type": "Feature", "properties": { "state": "Perlis", "parlimen": "P.001 Perlis Utara", "code_parlimen": "P.001", "dun": "N.03 Mata Ayer", "code_dun": "N.03", "voters_total": 3833 }, "geometry": { "type": "Polygon", "coordinates": [ [ [ 100.300552221135476, 6.537175213681979 ], [ 100.3005364277615, 6.536576010101593 ], [ 100.300489090928139, 6.535978448181502 ], [ 100.300410340382371, 6.535384165806252 ], [ 100.300300391973934, 6.534794791877177 ], [ 100.300159547063814, 6.534211941847503 ], [ 100.299988191698091, 6.533637213294287 ], [ 100.29978679554992, 6.533072181539278 ], [ 100.299555910632137, 6.532518395330742 ], [ 100.29929616978427, 6.531977372598082 ], [ 100.299008284937912, 6.531450596290783 ], [ 100.298693045165422, 6.530939510313394 ], [ 100.298351314517106, 6.530445515567244 ], [ 100.297984029652923, 6.529969966110207 ], [ 100.297592197275122, 6.529514165444694 ], [ 100.297176891369077, 6.529079362944301 ], [ 100.296739250259364, 6.528666750428678 ], [ 100.296280473489858, 6.528277458896302 ], [ 100.295801818535793, 6.527912555423803 ], [ 100.295304597357116, 6.527573040240616 ], [ 100.294790172802536, 6.527259843986827 ], [ 100.294259954873979, 6.526973825161736 ], [ 100.293715396861955, 6.526715767770266 ], [ 100.293157991362094, 6.526486379173541 ], [ 100.29258926618418, 6.526286288149537 ], [ 100.292010780164333, 6.526116043169261 ], [ 100.291424118892536, 6.525976110893022 ], [ 100.290830890366578, 6.525866874891006 ], [ 100.290232720584626, 6.525788634591675 ], [ 100.28963124908843, 6.525741604460784 ], [ 100.289028124469596, 6.525725913413492 ], [ 100.288424999850747, 6.525741604460784 ], [ 100.287823528354565, 6.525788634591675 ], [ 100.287225358572584, 6.525866874891006 ], [ 100.286632130046641, 6.525976110893022 ], [ 100.286045468774844, 6.526116043169261 ], [ 100.285466982755011, 6.526286288149537 ], [ 100.284898257577083, 6.526486379173541 ], [ 100.284340852077221, 6.526715767770266 ], [ 100.283796294065198, 6.526973825161736 ], [ 100.283266076136655, 6.527259843986827 ], [ 100.282751651582061, 6.527573040240616 ], [ 100.282254430403384, 6.527912555423803 ], [ 100.281775775449319, 6.528277458896302 ], [ 100.281316998679799, 6.528666750428678 ], [ 100.280879357570086, 6.529079362944301 ], [ 100.28046405166404, 6.529514165444694 ], [ 100.280072219286254, 6.529969966110207 ], [ 100.279704934422071, 6.530445515567244 ], [ 100.279363203773755, 6.530939510313394 ], [ 100.279047964001265, 6.531450596290783 ], [ 100.278760079154907, 6.531977372598082 ], [ 100.27850033830704, 6.532518395330742 ], [ 100.278269453389257, 6.533072181539278 ], [ 100.278068057241086, 6.533637213294287 ], [ 100.277896701875363, 6.534211941847503 ], [ 100.277755856965243, 6.534794791877177 ], [ 100.277645908556806, 6.535384165806252 ], [ 100.277567158011038, 6.535978448181502 ], [ 100.277519821177677, 6.536576010101593 ], [ 100.277504027803715, 6.537175213681979 ], [ 100.277519821177677, 6.537774416544247 ], [ 100.277567158011038, 6.538371976317921 ], [ 100.277645908556806, 6.538966255141929 ], [ 100.277755856965243, 6.539555624153866 ], [ 100.277896701875363, 6.540138467954386 ], [ 100.278068057241086, 6.540713189034647 ], [ 100.278269453389257, 6.541278212154793 ], [ 100.27850033830704, 6.541831988661175 ], [ 100.278760079154907, 6.542373000730682 ], [ 100.279047964001265, 6.542899765530645 ], [ 100.279363203773755, 6.543410839282605 ], [ 100.279704934422071, 6.543904821219185 ], [ 100.280072219286254, 6.544380357422826 ], [ 100.28046405166404, 6.544836144536339 ], [ 100.280879357570086, 6.545270933334622 ], [ 100.281316998679799, 6.545683532148123 ], [ 100.281775775449319, 6.546072810128512 ], [ 100.282254430403384, 6.546437700347627 ], [ 100.282751651582061, 6.546777202721218 ], [ 100.283266076136655, 6.547090386749579 ], [ 100.283796294065198, 6.547376394067347 ], [ 100.284340852077221, 6.547634440795664 ], [ 100.284898257577083, 6.547863819690234 ], [ 100.285466982755011, 6.548063902079376 ], [ 100.286045468774844, 6.548234139586697 ], [ 100.286632130046641, 6.548374065633782 ], [ 100.287225358572584, 6.548483296718647 ], [ 100.287823528354565, 6.548561533466762 ], [ 100.288424999850747, 6.548608561451211 ], [ 100.289028124469596, 6.548624251780409 ], [ 100.28963124908843, 6.548608561451211 ], [ 100.290232720584626, 6.548561533466762 ], [ 100.290830890366578, 6.548483296718647 ], [ 100.291424118892536, 6.548374065633782 ], [ 100.292010780164333, 6.548234139586697 ], [ 100.29258926618418, 6.548063902079376 ], [ 100.293157991362094, 6.547863819690234 ], [ 100.293715396861955, 6.547634440795664 ], [ 100.294259954873979, 6.547376394067347 ], [ 100.294790172802536, 6.547090386749579 ], [ 100.295304597357116, 6.546777202721218 ], [ 100.295801818535793, 6.546437700347627 ], [ 100.296280473489858, 6.546072810128512 ], [ 100.296739250259364, 6.545683532148123 ], [ 100.297176891369077, 6.545270933334622 ], [ 100.297592197275122, 6.544836144536339 ], [ 100.297984029652923, 6.544380357422826 ], [ 100.298351314517106, 6.543904821219185 ], [ 100.298693045165422, 6.543410839282605 ], [ 100.299008284937912, 6.542899765530645 ], [ 100.29929616978427, 6.542373000730682 ], [ 100.299555910632137, 6.541831988661175 ], [ 100.29978679554992, 6.541278212154793 ], [ 100.299988191698091, 6.540713189034647 ], [ 100.300159547063814, 6.540138467954386 ], [ 100.300300391973934, 6.539555624153866 ], [ 100.300410340382371, 6.538966255141929 ], [ 100.300489090928139, 6.538371976317921 ], [ 100.3005364277615, 6.537774416544247 ], [ 100.300552221135476, 6.537175213681979 ] ] ] } },
{ "type": "Feature", "properties": { "state": "Perlis", "parlimen": "P.001 Perlis Utara", "code_parlimen": "P.001", "dun": "N.04 Bandar Kangar", "code_dun": "N.04", "voters_total": 2732 }, "geometry": { "type": "Polygon", "coordinates": [ [ [ 100.202494203894886, 6.440217745015265 ], [ 100.202480870342939, 6.439711770222647 ], [ 100.202440906233463, 6.439207181769502 ], [ 100.202374421105318, 6.438705362703942 ], [ 100.202281597189597, 6.438207688487436 ], [ 100.202162688910207, 6.43771552322462 ], [ 100.202018022186479, 6.437230215924277 ], [ 100.201847993539829, 6.436753096801586 ], [ 100.201653069006994, 6.436285473631803 ], [ 100.201433782862537, 6.435828628165566 ], [ 100.201190736154544, 6.435383812615291 ], [ 100.200924595057174, 6.434952246222712 ], [ 100.200636089044636, 6.434535111916557 ], [ 100.200326008891878, 6.434133553069912 ], [ 100.199995204507047, 6.43374867036591 ], [ 100.199644582601977, 6.433381518780342 ], [ 100.199275104206919, 6.433033104689703 ], [ 100.198887782036465, 6.432704383112301 ], [ 100.198483677713796, 6.432396255090183 ], [ 100.198063898860738, 6.432109565219057 ], [ 100.197629596061958, 6.431845099332844 ], [ 100.197181959711259, 6.431603582349394 ], [ 100.196722216748725, 6.43138567628311 ], [ 100.196251627297883, 6.431191978430115 ], [ 100.195771481211722, 6.43102301973073 ], [ 100.195283094537288, 6.430879263313857 ], [ 100.194787805908447, 6.430761103227384 ], [ 100.194286972876981, 6.430668863357855 ], [ 100.193781968191388, 6.430602796542487 ], [ 100.193274176034393, 6.430563083876068 ], [ 100.192764988229044, 6.430549834214434 ], [ 100.192255800423681, 6.430563083876068 ], [ 100.191748008266686, 6.430602796542487 ], [ 100.191243003581093, 6.430668863357855 ], [ 100.19074217054964, 6.430761103227384 ], [ 100.190246881920814, 6.430879263313857 ], [ 100.189758495246352, 6.43102301973073 ], [ 100.18927834916019, 6.431191978430115 ], [ 100.188807759709363, 6.43138567628311 ], [ 100.188348016746829, 6.431603582349394 ], [ 100.187900380396144, 6.431845099332844 ], [ 100.18746607759735, 6.432109565219057 ], [ 100.187046298744292, 6.432396255090183 ], [ 100.186642194421609, 6.432704383112301 ], [ 100.186254872251169, 6.433033104689703 ], [ 100.185885393856111, 6.433381518780342 ], [ 100.185534771951026, 6.43374867036591 ], [ 100.185203967566196, 6.434133553069912 ], [ 100.184893887413452, 6.434535111916557 ], [ 100.184605381400914, 6.434952246222712 ], [ 100.18433924030353, 6.435383812615291 ], [ 100.184096193595551, 6.435828628165566 ], [ 100.183876907451108, 6.436285473631803 ], [ 100.183681982918259, 6.436753096801586 ], [ 100.183511954271609, 6.437230215924277 ], [ 100.183367287547895, 6.43771552322462 ], [ 100.183248379268477, 6.438207688487436 ], [ 100.183155555352769, 6.438705362703942 ], [ 100.183089070224611, 6.439207181769502 ], [ 100.183049106115163, 6.439711770222647 ], [ 100.183035772563215, 6.440217745015265 ], [ 100.183049106115163, 6.440723719303538 ], [ 100.183089070224611, 6.441228306249099 ], [ 100.183155555352769, 6.441730122820391 ], [ 100.183248379268477, 6.442227793583273 ], [ 100.183367287547895, 6.442719954470931 ], [ 100.183511954271609, 6.443205256522519 ], [ 100.183681982918259, 6.443682369580388 ], [ 100.183876907451108, 6.444149985935693 ], [ 100.184096193595551, 6.4446068239125 ], [ 100.18433924030353, 6.4450516313804 ], [ 100.184605381400914, 6.445483189186257 ], [ 100.184893887413452, 6.445900314495399 ], [ 100.185203967566196, 6.446301864033299 ], [ 100.185534771951026, 6.446686737218842 ], [ 100.185885393856111, 6.447053879180509 ], [ 100.186254872251169, 6.447402283647236 ], [ 100.186642194421609, 6.447730995706178 ], [ 100.187046298744292, 6.448039114419552 ], [ 100.18746607759735, 6.448325795293677 ], [ 100.187900380396144, 6.448590252593155 ], [ 100.188348016746829, 6.448831761494243 ], [ 100.188807759709363, 6.449049660071084 ], [ 100.18927834916019, 6.449243351109614 ], [ 100.189758495246352, 6.449412303744165 ], [ 100.190246881920814, 6.449556054912295 ], [ 100.19074217054964, 6.449674210623598 ], [ 100.191243003581093, 6.449766447039514 ], [ 100.191748008266686, 6.449832511360603 ], [ 100.192255800423681, 6.449872222519451 ], [ 100.192764988229044, 6.449885471676714 ], [ 100.193274176034393, 6.449872222519451 ], [ 100.193781968191388, 6.449832511360603 ], [ 100.194286972876981, 6.449766447039514 ], [ 100.194787805908447, 6.449674210623598 ], [ 100.195283094537288, 6.449556054912295 ], [ 100.195771481211722, 6.449412303744165 ], [ 100.196251627297883, 6.449243351109614 ], [ 100.196722216748725, 6.449049660071084 ], [ 100.197181959711259, 6.448831761494243 ], [ 100.197629596061958, 6.448590252593155 ], [ 100.198063898860738, 6.448325795293677 ], [ 100.198483677713796, 6.448039114419552 ], [ 100.198887782036465, 6.447730995706178 ], [ 100.199275104206919, 6.447402283647236 ], [ 100.199644582601977, 6.447053879180509 ], [ 100.199995204507047, 6.446686737218842 ], [ 100.200326008891878, 6.446301864033299 ], [ 100.200636089044636, 6.445900314495399 ], [ 100.200924595057174, 6.445483189186257 ], [ 100.201190736154544, 6.4450516313804 ], [ 100.201433782862537, 6.4446068239125 ], [ 100.201653069006994, 6.444149985935693 ], [ 100.201847993539829, 6.443682369580388 ], [ 100.202018022186479, 6.443205256522519 ], [ 100.202162688910207, 6.442719954470931 ], [ 100.202281597189597, 6.442227793583273 ], [ 100.202374421105318, 6.441730122820391 ], [ 100.202440906233463, 6.441228306249099 ], [ 100.202480870342939, 6.440723719303538 ], [ 100.202494203894886, 6.440217745015265 ] ] ] } },
{ "type": "Feature", "properties": { "state": "Perlis", "parlimen": "P.001 Perlis Utara", "code_parlimen": "P.001", "dun": "N.05 Sena", "code_dun": "N.05", "voters_total": 3166 }, "geometry": { "type": "Polygon", "coordinates": [ [ [ 100.243639478269131, 6.437779709868423 ], [ 100.243625124664987, 6.437235024021294 ], [ 100.243582103194797, 6.436691830538385 ], [ 100.243510531777417, 6.436151618282506 ], [ 100.243410606585115, 6.435615867949807 ], [ 100.243282601505911, 6.435086048011176 ], [ 100.243126867392832, 6.434563610687118 ], [ 100.242943831102252, 6.434049987967011 ], [ 100.242733994323928, 6.433546587683908 ], [ 100.24249793220585, 6.433054789655454 ], [ 100.242236291777914, 6.432575941901497 ], [ 100.241949790178353, 6.432111356948927 ], [ 100.241639212688099, 6.431662308233649 ], [ 100.241305410578477, 6.431230026609778 ], [ 100.240949298777892, 6.430815696975479 ], [ 100.240571853364003, 6.430420455024747 ], [ 100.240174108888482, 6.430045384134043 ], [ 100.239757155541255, 6.429691512392391 ], [ 100.2393221361625, 6.429359809782877 ], [ 100.2388702431101, 6.429051185523543 ], [ 100.238402714991437, 6.428766485574788 ], [ 100.237920833268674, 6.428506490320216 ], [ 100.237425918746069, 6.428271912427149 ], [ 100.236919327949934, 6.428063394892868 ], [ 100.23640244941042, 6.427881509281828 ], [ 100.235876699855709, 6.427726754158671 ], [ 100.235343520328726, 6.427599553721356 ], [ 100.234804372237548, 6.42750025663824 ], [ 100.234260733349615, 6.427429135092133 ], [ 100.233714093741298, 6.427386384034092 ], [ 100.233165951713787, 6.42737212064897 ], [ 100.232617809686275, 6.427386384034092 ], [ 100.232071170077958, 6.427429135092133 ], [ 100.231527531190011, 6.42750025663824 ], [ 100.230988383098847, 6.427599553721356 ], [ 100.230455203571864, 6.427726754158671 ], [ 100.229929454017139, 6.427881509281828 ], [ 100.229412575477639, 6.428063394892868 ], [ 100.228905984681489, 6.428271912427149 ], [ 100.228411070158884, 6.428506490320216 ], [ 100.227929188436107, 6.428766485574788 ], [ 100.227461660317474, 6.429051185523543 ], [ 100.227009767265059, 6.429359809782877 ], [ 100.226574747886303, 6.429691512392391 ], [ 100.226157794539077, 6.430045384134043 ], [ 100.225760050063556, 6.430420455024747 ], [ 100.225382604649681, 6.430815696975479 ], [ 100.225026492849082, 6.431230026609778 ], [ 100.22469269073946, 6.431662308233649 ], [ 100.224382113249206, 6.432111356948927 ], [ 100.224095611649645, 6.432575941901497 ], [ 100.223833971221694, 6.433054789655454 ], [ 100.223597909103646, 6.433546587683908 ], [ 100.223388072325321, 6.434049987967011 ], [ 100.223205036034713, 6.434563610687118 ], [ 100.223049301921648, 6.435086048011176 ], [ 100.222921296842458, 6.435615867949807 ], [ 100.222821371650156, 6.436151618282506 ], [ 100.222749800232762, 6.436691830538385 ], [ 100.222706778762586, 6.437235024021294 ], [ 100.222692425158428, 6.437779709868423 ], [ 100.222706778762586, 6.43832439513127 ], [ 100.222749800232762, 6.438867586867762 ], [ 100.222821371650156, 6.439407796234208 ], [ 100.222921296842458, 6.439943542566139 ], [ 100.223049301921648, 6.440473357436467 ], [ 100.223205036034713, 6.440995788680246 ], [ 100.223388072325321, 6.441509404374698 ], [ 100.223597909103646, 6.442012796763728 ], [ 100.223833971221694, 6.442504586116214 ], [ 100.224095611649645, 6.442983424507344 ], [ 100.224382113249206, 6.443447999512817 ], [ 100.22469269073946, 6.44389703780571 ], [ 100.225026492849082, 6.444329308646101 ], [ 100.225382604649681, 6.444743627253952 ], [ 100.225760050063556, 6.445138858056103 ], [ 100.226157794539077, 6.445513917798211 ], [ 100.226574747886303, 6.445867778513427 ], [ 100.227009767265059, 6.446199470339461 ], [ 100.227461660317474, 6.44650808417641 ], [ 100.227929188436107, 6.446792774178057 ], [ 100.228411070158884, 6.447052760069801 ], [ 100.228905984681489, 6.447287329286901 ], [ 100.229412575477639, 6.447495838927134 ], [ 100.229929454017139, 6.447677717512507 ], [ 100.230455203571864, 6.447832466555371 ], [ 100.230988383098847, 6.447959661924384 ], [ 100.231527531190011, 6.448058955006719 ], [ 100.232071170077958, 6.448130073663406 ], [ 100.232617809686275, 6.448172822975029 ], [ 100.233165951713787, 6.448187085775883 ], [ 100.233714093741298, 6.448172822975029 ], [ 100.234260733349615, 6.448130073663406 ], [ 100.234804372237548, 6.448058955006719 ], [ 100.235343520328726, 6.447959661924384 ], [ 100.235876699855709, 6.447832466555371 ], [ 100.23640244941042, 6.447677717512507 ], [ 100.236919327949934, 6.447495838927134 ], [ 100.237425918746069, 6.447287329286901 ], [ 100.237920833268674, 6.447052760069801 ], [ 100.238402714991437, 6.446792774178057 ], [ 100.2388702431101, 6.44650808417641 ], [ 100.2393221361625, 6.446199470339461 ], [ 100.239757155541255, 6.445867778513427 ], [ 100.240174108888482, 6.445513917798211 ], [ 100.240571853364003, 6.445138858056103 ], [ 100.240949298777892, 6.444743627253952 ], [ 100.241305410578477, 6.444329308646101 ], [ 100.241639212688099, 6.44389703780571 ], [ 100.241949790178353, 6.443447999512817 ], [ 100.242236291777914, 6.442983424507344 ], [ 100.24249793220585, 6.442504586116214 ], [ 100.242733994323928, 6.442012796763728 ], [ 100.242943831102252, 6.441509404374698 ], [ 100.243126867392832, 6.440995788680246 ], [ 100.243282601505911, 6.440473357436467 ], [ 100.243410606585115, 6.439943542566139 ], [ 100.243510531777417, 6.439407796234208 ], [ 100.243582103194797, 6.438867586867762 ], [ 100.243625124664987, 6.43832439513127 ], [ 100.243639478269131, 6.437779709868423 ] ] ] } },
{ "type": "Feature", "properties": { "state": "Perlis", "parlimen": "P.001 Perlis Utara", "code_parlimen": "P.001", "dun": "N.06 Bintong", "code_dun": "N.06", "voters_total": 4240 }, "geometry": { "type": "Polygon", "coordinates": [ [ [ 100.184430651379998, 6.49523024883274 ], [ 100.184414040660727, 6.494599982301548 ], [ 100.184364254031848, 6.4939714425011 ], [ 100.184281427955, 6.493346352225035 ], [ 100.184165789450702, 6.492726424818477 ], [ 100.184017655476083, 6.49211335948162 ], [ 100.183837432056038, 6.491508836612123 ], [ 100.183625613170463, 6.490914513198926 ], [ 100.183382779400162, 6.490332018280231 ], [ 100.183109596335655, 6.489762948477961 ], [ 100.18280681275273, 6.489208863621039 ], [ 100.182475258560117, 6.48867128246953 ], [ 100.182115842524851, 6.488151678551172 ], [ 100.181729549781252, 6.487651476122016 ], [ 100.181317439130922, 6.487172046261974 ], [ 100.180880640140487, 6.486714703116114 ], [ 100.180420350045637, 6.486280700292012 ], [ 100.179937830469498, 6.485871227423069 ], [ 100.17943440396472, 6.485487406907071 ], [ 100.178911450388341, 6.485130290829166 ], [ 100.178370403119786, 6.484800858077435 ], [ 100.177812745131959, 6.484500011659288 ], [ 100.177240004926702, 6.48422857622574 ], [ 100.176653752345075, 6.483987295810509 ], [ 100.176055594264639, 6.483776831790173 ], [ 100.175447170195142, 6.483597761070913 ], [ 100.174830147784675, 6.483450574506818 ], [ 100.17420621824877, 6.483335675554099 ], [ 100.173577091734884, 6.483253379164945 ], [ 100.172944492635096, 6.483203910924064 ], [ 100.172310154859574, 6.483187406430142 ], [ 100.171675817084036, 6.483203910924064 ], [ 100.171043217984263, 6.483253379164945 ], [ 100.170414091470377, 6.483335675554099 ], [ 100.169790161934458, 6.483450574506818 ], [ 100.169173139523991, 6.483597761070913 ], [ 100.168564715454508, 6.483776831790173 ], [ 100.167966557374072, 6.483987295810509 ], [ 100.167380304792445, 6.48422857622574 ], [ 100.166807564587174, 6.484500011659288 ], [ 100.166249906599361, 6.484800858077435 ], [ 100.165708859330792, 6.485130290829166 ], [ 100.165185905754413, 6.485487406907071 ], [ 100.164682479249635, 6.485871227423069 ], [ 100.164199959673496, 6.486280700292012 ], [ 100.163739669578646, 6.486714703116114 ], [ 100.163302870588211, 6.487172046261974 ], [ 100.162890759937881, 6.487651476122016 ], [ 100.162504467194296, 6.488151678551172 ], [ 100.162145051159015, 6.48867128246953 ], [ 100.161813496966417, 6.489208863621039 ], [ 100.161510713383493, 6.489762948477961 ], [ 100.161237530318985, 6.490332018280231 ], [ 100.160994696548684, 6.490914513198926 ], [ 100.160782877663095, 6.491508836612123 ], [ 100.160602654243036, 6.49211335948162 ], [ 100.160454520268431, 6.492726424818477 ], [ 100.160338881764133, 6.493346352225035 ], [ 100.160256055687285, 6.4939714425011 ], [ 100.160206269058406, 6.494599982301548 ], [ 100.160189658339149, 6.49523024883274 ], [ 100.160206269058406, 6.495860514574595 ], [ 100.160256055687285, 6.496489052015682 ], [ 100.160338881764133, 6.49711413838819 ], [ 100.160454520268431, 6.497734060389802 ], [ 100.160602654243036, 6.498347118879496 ], [ 100.160782877663095, 6.49895163353469 ], [ 100.160994696548684, 6.499545947456386 ], [ 100.161237530318985, 6.500128431710388 ], [ 100.161510713383493, 6.500697489791641 ], [ 100.161813496966417, 6.501251561999598 ], [ 100.162145051159015, 6.501789129712832 ], [ 100.162504467194296, 6.502308719550798 ], [ 100.162890759937881, 6.502808907411715 ], [ 100.163302870588211, 6.503288322375299 ], [ 100.163739669578646, 6.503745650459693 ], [ 100.164199959673496, 6.504179638222316 ], [ 100.164682479249635, 6.504589096194801 ], [ 100.165185905754413, 6.504972902142561 ], [ 100.165708859330792, 6.505330004140087 ], [ 100.166249906599361, 6.505659423453529 ], [ 100.166807564587174, 6.505960257222711 ], [ 100.167380304792445, 6.506231680935241 ], [ 100.167966557374072, 6.506472950685792 ], [ 100.168564715454508, 6.506683405214616 ], [ 100.169173139523991, 6.506862467719547 ], [ 100.169790161934458, 6.507009647436504 ], [ 100.170414091470377, 6.507124540984265 ], [ 100.171043217984263, 6.507206833469874 ], [ 100.171675817084036, 6.507256299351381 ], [ 100.172310154859574, 6.507272803055965 ], [ 100.172944492635096, 6.507256299351381 ], [ 100.173577091734884, 6.507206833469874 ], [ 100.17420621824877, 6.507124540984265 ], [ 100.174830147784675, 6.507009647436504 ], [ 100.175447170195142, 6.506862467719547 ], [ 100.176055594264639, 6.506683405214616 ], [ 100.176653752345075, 6.506472950685792 ], [ 100.177240004926702, 6.506231680935241 ], [ 100.177812745131959, 6.505960257222711 ], [ 100.178370403119786, 6.505659423453529 ], [ 100.178911450388341, 6.505330004140087 ], [ 100.17943440396472, 6.504972902142561 ], [ 100.179937830469498, 6.504589096194801 ], [ 100.180420350045637, 6.504179638222316 ], [ 100.180880640140487, 6.503745650459693 ], [ 100.181317439130922, 6.503288322375299 ], [ 100.181729549781252, 6.502808907411715 ], [ 100.182115842524851, 6.502308719550798 ], [ 100.182475258560117, 6.501789129712832 ], [ 100.18280681275273, 6.501251561999598 ], [ 100.183109596335655, 6.500697489791641 ], [ 100.183382779400162, 6.500128431710388 ], [ 100.183625613170463, 6.499545947456386 ], [ 100.183837432056038, 6.49895163353469 ], [ 100.184017655476083, 6.498347118879496 ], [ 100.184165789450702, 6.497734060389802 ], [ 100.184281427955, 6.49711413838819 ], [ 100.184364254031848, 6.496489052015682 ], [ 100.184414040660727, 6.495860514574595 ], [ 100.184430651379998, 6.49523024883274 ] ] ] } },
{ "type": "Feature", "properties": { "state": "Perlis", "parlimen": "P.002 Perlis Selatan", "code_parlimen": "P.002", "dun": "N.07 Kurong Anai", "code_dun": "N.07", "voters_total": 3919 }, "geometry": { "type": "Polygon", "coordinates": [ [ [ 100.336248882400781, 6.474109858770392 ], [ 100.336232912833765, 6.473503894337208 ], [ 100.336185047904195, 6.472899590086203 ], [ 100.33610541880654, 6.472298602382357 ], [ 100.335994243798595, 6.471702578505994 ], [ 100.335851827603335, 6.471113152137651 ], [ 100.335678560573641, 6.470531938880015 ], [ 100.335474917622435, 6.469960531829326 ], [ 100.335241456920855, 6.46940049720858 ], [ 100.334978818368469, 6.4688533700741 ], [ 100.334687721839288, 6.468320650107733 ], [ 100.334368965208682, 6.467803797505735 ], [ 100.334023422166396, 6.467304228976013 ], [ 100.333652039821899, 6.466823313854476 ], [ 100.333255836108393, 6.466362370351124 ], [ 100.332835896992691, 6.465922661936416 ], [ 100.332393373498746, 6.465505393877517 ], [ 100.331929478552709, 6.465111709934115 ], [ 100.331445483658314, 6.464742689222843 ], [ 100.330942715412021, 6.464399343258917 ], [ 100.330422551866548, 6.464082613182955 ], [ 100.3298864187541, 6.463793367180881 ], [ 100.329335785578209, 6.463532398103696 ], [ 100.328772161586187, 6.46330042129378 ], [ 100.328197091632191, 6.463098072623746 ], [ 100.327612151942972, 6.462925906753093 ], [ 100.327018945797604, 6.462784395607552 ], [ 100.326419099132877, 6.462673927085217 ], [ 100.325814256086801, 6.462594803993024 ], [ 100.325206074492129, 6.462547243216623 ], [ 100.324596221332342, 6.462531375125713 ], [ 100.323986368172541, 6.462547243216623 ], [ 100.323378186577884, 6.462594803993024 ], [ 100.322773343531807, 6.462673927085217 ], [ 100.32217349686708, 6.462784395607552 ], [ 100.321580290721698, 6.462925906753093 ], [ 100.320995351032494, 6.463098072623746 ], [ 100.320420281078512, 6.46330042129378 ], [ 100.319856657086461, 6.463532398103696 ], [ 100.319306023910585, 6.463793367180881 ], [ 100.318769890798123, 6.464082613182955 ], [ 100.318249727252663, 6.464399343258917 ], [ 100.317746959006357, 6.464742689222843 ], [ 100.317262964111976, 6.465111709934115 ], [ 100.316799069165924, 6.465505393877517 ], [ 100.316356545671994, 6.465922661936416 ], [ 100.315936606556292, 6.466362370351124 ], [ 100.315540402842771, 6.466823313854476 ], [ 100.315169020498274, 6.467304228976013 ], [ 100.314823477456002, 6.467803797505735 ], [ 100.314504720825383, 6.468320650107733 ], [ 100.314213624296201, 6.4688533700741 ], [ 100.313950985743816, 6.46940049720858 ], [ 100.313717525042236, 6.469960531829326 ], [ 100.31351388209103, 6.470531938880015 ], [ 100.31334061506135, 6.471113152137651 ], [ 100.31319819886609, 6.471702578505994 ], [ 100.313087023858131, 6.472298602382357 ], [ 100.313007394760476, 6.472899590086203 ], [ 100.31295952983092, 6.473503894337208 ], [ 100.312943560263889, 6.474109858770392 ], [ 100.31295952983092, 6.474715822476349 ], [ 100.313007394760476, 6.475320124553559 ], [ 100.313087023858131, 6.475921108660936 ], [ 100.31319819886609, 6.476517127557492 ], [ 100.31334061506135, 6.477106547617293 ], [ 100.31351388209103, 6.477687753306774 ], [ 100.313717525042236, 6.478259151612566 ], [ 100.313950985743816, 6.478819176407535 ], [ 100.314213624296201, 6.479366292742976 ], [ 100.314504720825383, 6.479899001055384 ], [ 100.314823477456002, 6.480415841276169 ], [ 100.315169020498274, 6.480915396833084 ], [ 100.315540402842771, 6.481396298532361 ], [ 100.315936606556292, 6.481857228311022 ], [ 100.316356545671994, 6.482296922849021 ], [ 100.316799069165924, 6.482714177031198 ], [ 100.317262964111976, 6.483107847249934 ], [ 100.317746959006357, 6.483476854538921 ], [ 100.318249727252663, 6.483820187530053 ], [ 100.318769890798123, 6.484136905224802 ], [ 100.319306023910585, 6.484426139572903 ], [ 100.319856657086461, 6.484687097851062 ], [ 100.320420281078512, 6.484919064835202 ], [ 100.320995351032494, 6.485121404760352 ], [ 100.321580290721698, 6.485293563062823 ], [ 100.32217349686708, 6.485435067899823 ], [ 100.322773343531807, 6.485545531442376 ], [ 100.323378186577884, 6.485624650938087 ], [ 100.323986368172541, 6.485672209540695 ], [ 100.324596221332342, 6.485688076904363 ], [ 100.325206074492129, 6.485672209540695 ], [ 100.325814256086801, 6.485624650938087 ], [ 100.326419099132877, 6.485545531442376 ], [ 100.327018945797604, 6.485435067899823 ], [ 100.327612151942972, 6.485293563062823 ], [ 100.328197091632191, 6.485121404760352 ], [ 100.328772161586187, 6.484919064835202 ], [ 100.329335785578209, 6.484687097851062 ], [ 100.3298864187541, 6.484426139572903 ], [ 100.330422551866548, 6.484136905224802 ], [ 100.330942715412021, 6.483820187530053 ], [ 100.331445483658314, 6.483476854538921 ], [ 100.331929478552709, 6.483107847249934 ], [ 100.332393373498746, 6.482714177031198 ], [ 100.332835896992691, 6.482296922849021 ], [ 100.333255836108393, 6.481857228311022 ], [ 100.333652039821899, 6.481396298532361 ], [ 100.334023422166396, 6.480915396833084 ], [ 100.334368965208682, 6.480415841276169 ], [ 100.334687721839288, 6.479899001055384 ], [ 100.334978818368469, 6.479366292742976 ], [ 100.335241456920855, 6.478819176407535 ], [ 100.335474917622435, 6.478259151612566 ], [ 100.335678560573641, 6.477687753306774 ], [ 100.335851827603335, 6.477106547617293 ], [ 100.335994243798595, 6.476517127557492 ], [ 100.33610541880654, 6.475921108660936 ], [ 100.336185047904195, 6.475320124553559 ], [ 100.336232912833765, 6.474715822476349 ], [ 100.336248882400781, 6.474109858770392 ] ] ] } },
{ "type": "Feature", "properties": { "state": "Perlis", "parlimen": "P.002 Perlis Selatan", "code_parlimen": "P.002", "dun": "N.08 Arau", "code_dun": "N.08", "voters_total": 4015 }, "geometry": { "type": "Polygon", "coordinates": [ [ [ 100.276988418440368, 6.414428114750938 ], [ 100.276972254461143, 6.413814701187668 ], [ 100.276923806827725, 6.413202968213131 ], [ 100.276843208331783, 6.412594592554014 ], [ 100.276730679888146, 6.411991241740787 ], [ 100.276586529929489, 6.411394569536887 ], [ 100.276411153560801, 6.410806211405747 ], [ 100.276205031476522, 6.410227780027692 ], [ 100.275968728642979, 6.409660860879438 ], [ 100.275702892749777, 6.409107007887955 ], [ 100.275408252434659, 6.408567739170848 ], [ 100.275085615286244, 6.408044532874797 ], [ 100.274735865630504, 6.407538823123499 ], [ 100.274359962106942, 6.407051996086333 ], [ 100.273958935041009, 6.40658538617831 ], [ 100.27353388361999, 6.406140272401951 ], [ 100.273085972880324, 6.405717874840998 ], [ 100.272616430514148, 6.405319351315607 ], [ 100.272126543504541, 6.404945794208264 ], [ 100.271617654597648, 6.404598227468917 ], [ 100.271091158622667, 6.404277603807874 ], [ 100.270548498668433, 6.403984802083881 ], [ 100.269991162128164, 6.403720624894619 ], [ 100.269420676622573, 6.4034857963764 ], [ 100.268838605812789, 6.403280960218747 ], [ 100.268246545114451, 6.403106677899749 ], [ 100.267646117324745, 6.402963427146631 ], [ 100.267038968174518, 6.402851600626032 ], [ 100.266426761817442, 6.402771504867382 ], [ 100.2658111762685, 6.402723359422564 ], [ 100.265193898804966, 6.402707296263962 ], [ 100.264576621341419, 6.402723359422564 ], [ 100.263961035792491, 6.402771504867382 ], [ 100.263348829435401, 6.402851600626032 ], [ 100.262741680285174, 6.402963427146631 ], [ 100.262141252495468, 6.403106677899749 ], [ 100.26154919179713, 6.403280960218747 ], [ 100.260967120987345, 6.4034857963764 ], [ 100.260396635481754, 6.403720624894619 ], [ 100.259839298941486, 6.403984802083881 ], [ 100.259296638987252, 6.404277603807874 ], [ 100.258770143012271, 6.404598227468917 ], [ 100.258261254105378, 6.404945794208264 ], [ 100.257771367095771, 6.405319351315607 ], [ 100.257301824729595, 6.405717874840998 ], [ 100.256853913989929, 6.406140272401951 ], [ 100.256428862568924, 6.40658538617831 ], [ 100.256027835502977, 6.407051996086333 ], [ 100.255651931979415, 6.407538823123499 ], [ 100.255302182323689, 6.408044532874797 ], [ 100.254979545175274, 6.408567739170848 ], [ 100.254684904860142, 6.409107007887955 ], [ 100.254419068966953, 6.409660860879438 ], [ 100.254182766133411, 6.410227780027692 ], [ 100.253976644049132, 6.410806211405747 ], [ 100.25380126768043, 6.411394569536887 ], [ 100.253657117721772, 6.411991241740787 ], [ 100.253544589278135, 6.412594592554014 ], [ 100.253463990782194, 6.413202968213131 ], [ 100.25341554314879, 6.413814701187668 ], [ 100.253399379169551, 6.414428114750938 ], [ 100.25341554314879, 6.415041527575899 ], [ 100.253463990782194, 6.415653258343602 ], [ 100.253544589278135, 6.416261630351531 ], [ 100.253657117721772, 6.416864976109228 ], [ 100.25380126768043, 6.41746164190861 ], [ 100.253976644049132, 6.41804999235646 ], [ 100.254182766133411, 6.418628414856619 ], [ 100.254419068966953, 6.419195324029636 ], [ 100.254684904860142, 6.419749166057824 ], [ 100.254979545175274, 6.4202884229437 ], [ 100.255302182323689, 6.420811616670211 ], [ 100.255651931979415, 6.421317313251366 ], [ 100.256027835502977, 6.421804126662095 ], [ 100.256428862568924, 6.422270722636681 ], [ 100.256853913989929, 6.422715822325256 ], [ 100.257301824729595, 6.423138205798425 ], [ 100.257771367095771, 6.423536715390366 ], [ 100.258261254105378, 6.423910258871285 ], [ 100.258770143012271, 6.424257812440502 ], [ 100.259296638987252, 6.424578423531992 ], [ 100.259839298941486, 6.424871213424755 ], [ 100.260396635481754, 6.425135379650721 ], [ 100.260967120987345, 6.425370198193702 ], [ 100.26154919179713, 6.425575025473461 ], [ 100.262141252495468, 6.425749300109167 ], [ 100.262741680285174, 6.42589254445778 ], [ 100.263348829435401, 6.426004365922849 ], [ 100.263961035792491, 6.426084458030299 ], [ 100.264576621341419, 6.426132601268271 ], [ 100.265193898804966, 6.426148663688577 ], [ 100.2658111762685, 6.426132601268271 ], [ 100.266426761817442, 6.426084458030299 ], [ 100.267038968174518, 6.426004365922849 ], [ 100.267646117324745, 6.42589254445778 ], [ 100.268246545114451, 6.425749300109167 ], [ 100.268838605812789, 6.425575025473461 ], [ 100.269420676622573, 6.425370198193702 ], [ 100.269991162128164, 6.425135379650721 ], [ 100.270548498668433, 6.424871213424755 ], [ 100.271091158622667, 6.424578423531992 ], [ 100.271617654597648, 6.424257812440502 ], [ 100.272126543504541, 6.423910258871285 ], [ 100.272616430514148, 6.423536715390366 ], [ 100.273085972880324, 6.423138205798425 ], [ 100.27353388361999, 6.422715822325256 ], [ 100.273958935041009, 6.422270722636681 ], [ 100.274359962106942, 6.421804126662095 ], [ 100.274735865630504, 6.421317313251366 ], [ 100.275085615286244, 6.420811616670211 ], [ 100.275408252434659, 6.4202884229437 ], [ 100.275702892749777, 6.419749166057824 ], [ 100.275968728642979, 6.419195324029636 ], [ 100.276205031476522, 6.418628414856619 ], [ 100.276411153560801, 6.41804999235646 ], [ 100.276586529929489, 6.41746164190861 ], [ 100.276730679888146, 6.416864976109228 ], [ 100.276843208331783, 6.416261630351531 ], [ 100.276923806827725, 6.415653258343602 ], [ 100.276972254461143, 6.415041527575899 ], [ 100.276988418440368, 6.414428114750938 ] ] ] } },
{ "type": "Feature", "properties": { "state": "Perlis", "parlimen": "P.002 Perlis Selatan", "code_parlimen": "P.002", "dun": "N.09 Hutan Aji", "code_dun": "N.09", "voters_total": 4007 }, "geometry": { "type": "Polygon", "coordinates": [ [ [ 100.232206235655894, 6.376144654865781 ], [ 100.232190087788268, 6.375531806836023 ], [ 100.232141688445566, 6.374920637850674 ], [ 100.232061170287025, 6.374312823090505 ], [ 100.231948754007348, 6.373710028548479 ], [ 100.231804747731701, 6.373113906463177 ], [ 100.231629546171291, 6.372526090789975 ], [ 100.231423629541425, 6.371948192722127 ], [ 100.231187562245282, 6.371381796274269 ], [ 100.230921991326895, 6.370828453940407 ], [ 100.230627644697663, 6.370289682438077 ], [ 100.230305329141316, 6.36976695855075 ], [ 100.229955928102299, 6.369261715079493 ], [ 100.229580399264634, 6.368775336915204 ], [ 100.229179771926752, 6.368309157242111 ], [ 100.228755144180326, 6.367864453883066 ], [ 100.228307679900496, 6.367442445796427 ], [ 100.22783860555576, 6.367044289734373 ], [ 100.227349206846284, 6.366671077071725 ], [ 100.226840825179906, 6.366323830813935 ], [ 100.226314853995447, 6.366003502792448 ], [ 100.225772734943391, 6.365710971055258 ], [ 100.22521595393431, 6.36544703745968 ], [ 100.224646037066293, 6.365212425473979 ], [ 100.22406454644188, 6.365007778193871 ], [ 100.223473075886389, 6.364833656579459 ], [ 100.222873246579567, 6.364690537917233 ], [ 100.222266702611805, 6.364578814511552 ], [ 100.221655106478011, 6.364498792609097 ], [ 100.221040134520592, 6.364450691559174 ], [ 100.220423472335028, 6.364434643212389 ], [ 100.21980681014945, 6.364450691559174 ], [ 100.219191838192046, 6.364498792609097 ], [ 100.218580242058238, 6.364578814511552 ], [ 100.217973698090475, 6.364690537917233 ], [ 100.217373868783653, 6.364833656579459 ], [ 100.216782398228162, 6.365007778193871 ], [ 100.216200907603749, 6.365212425473979 ], [ 100.215630990735733, 6.36544703745968 ], [ 100.215074209726652, 6.365710971055258 ], [ 100.214532090674595, 6.366003502792448 ], [ 100.214006119490136, 6.366323830813935 ], [ 100.213497737823758, 6.366671077071725 ], [ 100.213008339114282, 6.367044289734373 ], [ 100.212539264769546, 6.367442445796427 ], [ 100.212091800489716, 6.367864453883066 ], [ 100.21166717274329, 6.368309157242111 ], [ 100.211266545405408, 6.368775336915204 ], [ 100.210891016567743, 6.369261715079493 ], [ 100.210541615528726, 6.36976695855075 ], [ 100.21021929997238, 6.370289682438077 ], [ 100.209924953343162, 6.370828453940407 ], [ 100.209659382424761, 6.371381796274269 ], [ 100.209423315128618, 6.371948192722127 ], [ 100.209217398498751, 6.372526090789975 ], [ 100.209042196938341, 6.373113906463177 ], [ 100.208898190662694, 6.373710028548479 ], [ 100.208785774383017, 6.374312823090505 ], [ 100.208705256224476, 6.374920637850674 ], [ 100.208656856881774, 6.375531806836023 ], [ 100.208640709014148, 6.376144654865781 ], [ 100.208656856881774, 6.376757502163032 ], [ 100.208705256224476, 6.377368668958863 ], [ 100.208785774383017, 6.377976480096494 ], [ 100.208898190662694, 6.37857926962267 ], [ 100.209042196938341, 6.379175385353733 ], [ 100.209217398498751, 6.37976319340396 ], [ 100.209423315128618, 6.380341082663606 ], [ 100.209659382424761, 6.380907469214518 ], [ 100.209924953343162, 6.381460800671164 ], [ 100.21021929997238, 6.381999560435135 ], [ 100.210541615528726, 6.382522271851584 ], [ 100.210891016567743, 6.383027502256091 ], [ 100.211266545405408, 6.383513866900923 ], [ 100.21166717274329, 6.38398003274994 ], [ 100.212091800489716, 6.384424722131795 ], [ 100.212539264769546, 6.384846716241232 ], [ 100.213008339114282, 6.385244858479221 ], [ 100.213497737823758, 6.3856180576224 ], [ 100.214006119490136, 6.385965290813454 ], [ 100.214532090674595, 6.386285606364063 ], [ 100.215074209726652, 6.386578126362894 ], [ 100.215630990735733, 6.386842049081242 ], [ 100.216200907603749, 6.38707665117001 ], [ 100.216782398228162, 6.387281289641903 ], [ 100.217373868783653, 6.387455403633353 ], [ 100.217973698090475, 6.387598515941352 ], [ 100.218580242058238, 6.387710234331171 ], [ 100.219191838192046, 6.387790252611102 ], [ 100.21980681014945, 6.387838351471506 ], [ 100.220423472335028, 6.38785439908577 ], [ 100.221040134520592, 6.387838351471506 ], [ 100.221655106478011, 6.387790252611102 ], [ 100.222266702611805, 6.387710234331171 ], [ 100.222873246579567, 6.387598515941352 ], [ 100.223473075886389, 6.387455403633353 ], [ 100.22406454644188, 6.387281289641903 ], [ 100.224646037066293, 6.38707665117001 ], [ 100.22521595393431, 6.386842049081242 ], [ 100.225772734943391, 6.386578126362894 ], [ 100.226314853995447, 6.386285606364063 ], [ 100.226840825179906, 6.385965290813454 ], [ 100.227349206846284, 6.3856180576224 ], [ 100.22783860555576, 6.385244858479221 ], [ 100.228307679900496, 6.384846716241232 ], [ 100.228755144180326, 6.384424722131795 ], [ 100.229179771926752, 6.38398003274994 ], [ 100.229580399264634, 6.383513866900923 ], [ 100.229955928102299, 6.383027502256091 ], [ 100.230305329141316, 6.382522271851584 ], [ 100.230627644697663, 6.381999560435135 ], [ 100.230921991326895, 6.381460800671164 ], [ 100.231187562245282, 6.380907469214518 ], [ 100.231423629541425, 6.380341082663606 ], [ 100.231629546171291, 6.37976319340396 ], [ 100.231804747731701, 6.379175385353733 ], [ 100.231948754007348, 6.37857926962267 ], [ 100.232061170287025, 6.377976480096494 ], [ 100.232141688445566, 6.377368668958863 ], [ 100.232190087788268, 6.376757502163032 ], [ 100.232206235655894, 6.376144654865781 ] ] ] } },
{ "type": "Feature", "properties": { "state": "Perlis", "parlimen": "P.002 Perlis Selatan", "code_parlimen": "P.002", "dun": "N.10 Kayang", "code_dun": "N.10", "voters_total": 3717 }, "geometry": { "type": "Polygon", "coordinates": [ [ [ 100.188102656097954, 6.368664987512632 ], [ 100.188087103541378, 6.368074724288918 ], [ 100.188040488500121, 6.367486078259781 ], [ 100.187962938742771, 6.366900662871505 ], [ 100.187854666827832, 6.366320082720796 ], [ 100.187715969521079, 6.36574592915664 ], [ 100.187547226982204, 6.365179775918293 ], [ 100.187348901722785, 6.364623174821461 ], [ 100.187121537338541, 6.364077651504631 ], [ 100.186865757019461, 6.363544701246983 ], [ 100.18658226184165, 6.363025784869538 ], [ 100.186271828845634, 6.362522324730699 ], [ 100.185935308906707, 6.362035700827163 ], [ 100.185573624402622, 6.361567247010959 ], [ 100.185187766685473, 6.361118247332863 ], [ 100.184778793364444, 6.360689932522349 ], [ 100.184347825406959, 6.3602834766137 ], [ 100.183896044066273, 6.359899993727473 ], [ 100.18342468764358, 6.359540535016166 ], [ 100.182935048094109, 6.359206085782513 ], [ 100.182428467485835, 6.358897562778275 ], [ 100.181906334320971, 6.35861581169097 ], [ 100.181370079730257, 6.358361604825366 ], [ 100.180821173550243, 6.358135638986148 ], [ 100.180261120294574, 6.357938533567577 ], [ 100.179691455030351, 6.357770828855385 ], [ 100.179113739170432, 6.357632984545497 ], [ 100.178529556193851, 6.357525378483726 ], [ 100.17794050730555, 6.357448305629852 ], [ 100.177348207047544, 6.357401977249002 ], [ 100.176754278873716, 6.35738652033234 ], [ 100.176160350699874, 6.357401977249002 ], [ 100.175568050441882, 6.357448305629852 ], [ 100.174979001553567, 6.357525378483726 ], [ 100.174394818576971, 6.357632984545497 ], [ 100.173817102717067, 6.357770828855385 ], [ 100.173247437452829, 6.357938533567577 ], [ 100.172687384197175, 6.358135638986148 ], [ 100.17213847801716, 6.358361604825366 ], [ 100.171602223426447, 6.35861581169097 ], [ 100.171080090261583, 6.358897562778275 ], [ 100.170573509653309, 6.359206085782513 ], [ 100.170083870103838, 6.359540535016166 ], [ 100.169612513681159, 6.359899993727473 ], [ 100.169160732340458, 6.3602834766137 ], [ 100.168729764382974, 6.360689932522349 ], [ 100.168320791061944, 6.361118247332863 ], [ 100.16793493334481, 6.361567247010959 ], [ 100.167573248840711, 6.362035700827163 ], [ 100.167236728901784, 6.362522324730699 ], [ 100.166926295905782, 6.363025784869538 ], [ 100.166642800727956, 6.363544701246983 ], [ 100.166387020408877, 6.364077651504631 ], [ 100.166159656024632, 6.364623174821461 ], [ 100.165961330765214, 6.365179775918293 ], [ 100.165792588226338, 6.36574592915664 ], [ 100.165653890919586, 6.366320082720796 ], [ 100.165545619004646, 6.366900662871505 ], [ 100.165468069247297, 6.367486078259781 ], [ 100.16542145420604, 6.368074724288918 ], [ 100.165405901649464, 6.368664987512632 ], [ 100.16542145420604, 6.369255250057643 ], [ 100.165468069247297, 6.369843894058069 ], [ 100.165545619004646, 6.370429306089868 ], [ 100.165653890919586, 6.371009881593111 ], [ 100.165792588226338, 6.371584029269705 ], [ 100.165961330765214, 6.372150175444944 ], [ 100.166159656024632, 6.372706768380471 ], [ 100.166387020408877, 6.373252282527229 ], [ 100.166642800727956, 6.373785222706513 ], [ 100.166926295905782, 6.374304128207708 ], [ 100.167236728901784, 6.374807576791579 ], [ 100.167573248840711, 6.375294188588028 ], [ 100.16793493334481, 6.375762629877681 ], [ 100.168320791061944, 6.37621161674701 ], [ 100.168729764382974, 6.376639918606852 ], [ 100.169160732340458, 6.37704636156483 ], [ 100.169612513681159, 6.377429831642275 ], [ 100.170083870103838, 6.377789277827045 ], [ 100.170573509653309, 6.378123714953623 ], [ 100.171080090261583, 6.378432226402893 ], [ 100.171602223426447, 6.378713966613948 ], [ 100.17213847801716, 6.378968163401176 ], [ 100.172687384197175, 6.379194120070332 ], [ 100.173247437452829, 6.379391217327588 ], [ 100.173817102717067, 6.379558914976671 ], [ 100.174394818576971, 6.379696753399009 ], [ 100.174979001553567, 6.379804354813316 ], [ 100.175568050441882, 6.379881424310699 ], [ 100.176160350699874, 6.379927750662851 ], [ 100.176754278873716, 6.379943206900783 ], [ 100.177348207047544, 6.379927750662851 ], [ 100.17794050730555, 6.379881424310699 ], [ 100.178529556193851, 6.379804354813316 ], [ 100.179113739170432, 6.379696753399009 ], [ 100.179691455030351, 6.379558914976671 ], [ 100.180261120294574, 6.379391217327588 ], [ 100.180821173550243, 6.379194120070332 ], [ 100.181370079730257, 6.378968163401176 ], [ 100.181906334320971, 6.378713966613948 ], [ 100.182428467485835, 6.378432226402893 ], [ 100.182935048094109, 6.378123714953623 ], [ 100.18342468764358, 6.377789277827045 ], [ 100.183896044066273, 6.377429831642275 ], [ 100.184347825406959, 6.37704636156483 ], [ 100.184778793364444, 6.376639918606852 ], [ 100.185187766685473, 6.37621161674701 ], [ 100.185573624402622, 6.375762629877681 ], [ 100.185935308906707, 6.375294188588028 ], [ 100.186271828845634, 6.374807576791579 ], [ 100.18658226184165, 6.374304128207708 ], [ 100.186865757019461, 6.373785222706513 ], [ 100.187121537338541, 6.373252282527229 ], [ 100.187348901722785, 6.372706768380471 ], [ 100.187547226982204, 6.372150175444944 ], [ 100.187715969521079, 6.371584029269705 ], [ 100.187854666827832, 6.371009881593111 ], [ 100.187962938742771, 6.370429306089868 ], [ 100.188040488500121, 6.369843894058069 ], [ 100.188087103541378, 6.369255250057643 ], [ 100.188102656097954, 6.368664987512632 ] ] ] } },
{ "type": "Feature", "properties": { "state": "Perlis", "parlimen": "P.002 Perlis Selatan", "code_parlimen": "P.002", "dun": "N.11 Kuala Perlis", "code_dun": "N.11", "voters_total": 3329 }, "geometry": { "type": "Polygon", "coordinates": [ [ [ 100.15344146063309, 6.401551025339679 ], [ 100.153426742171916, 6.400992454273587 ], [ 100.153382627130625, 6.400435413603591 ], [ 100.153309236425514, 6.399881430146952 ], [ 100.15320677121538, 6.399332022346324 ], [ 100.15307551235027, 6.398788696107495 ], [ 100.152915819601589, 6.398252940671749 ], [ 100.152728130676053, 6.397726224533623 ], [ 100.152512960015983, 6.397209991415678 ], [ 100.152270897389187, 6.396705656310901 ], [ 100.152002606272504, 6.396214601604056 ], [ 100.151708822033243, 6.395738173282167 ], [ 100.151390349913555, 6.395277677244882 ], [ 100.151048062823435, 6.394834375724575 ], [ 100.150682898947949, 6.394409483826208 ], [ 100.150295859175941, 6.394004166196274 ], [ 100.149888004356484, 6.393619533830055 ], [ 100.149460452391338, 6.393256641025997 ], [ 100.149014375170665, 6.392916482495361 ], [ 100.148550995361177, 6.392599990635312 ], [ 100.148071583054673, 6.392308032972748 ], [ 100.147577452286981, 6.392041409785987 ], [ 100.147069957436202, 6.391800851910836 ], [ 100.146550489510417, 6.391587018736915 ], [ 100.146020472335152, 6.391400496399956 ], [ 100.145481358650571, 6.39124179617485 ], [ 100.144934626129867, 6.391111353073948 ], [ 100.144381773328874, 6.39100952465447 ], [ 100.143824315578669, 6.39093659003818 ], [ 100.143263780832186, 6.390892749146208 ], [ 100.142701705476256, 6.39087812215084 ], [ 100.142139630120298, 6.390892749146208 ], [ 100.141579095373828, 6.39093659003818 ], [ 100.141021637623624, 6.39100952465447 ], [ 100.140468784822616, 6.391111353073948 ], [ 100.139922052301927, 6.39124179617485 ], [ 100.139382938617345, 6.391400496399956 ], [ 100.138852921442066, 6.391587018736915 ], [ 100.138333453516296, 6.391800851910836 ], [ 100.137825958665516, 6.392041409785987 ], [ 100.137331827897825, 6.392308032972748 ], [ 100.136852415591306, 6.392599990635312 ], [ 100.136389035781818, 6.392916482495361 ], [ 100.135942958561159, 6.393256641025997 ], [ 100.135515406596014, 6.393619533830055 ], [ 100.135107551776557, 6.394004166196274 ], [ 100.134720512004534, 6.394409483826208 ], [ 100.134355348129063, 6.394834375724575 ], [ 100.134013061038942, 6.395277677244882 ], [ 100.133694588919255, 6.395738173282167 ], [ 100.133400804679994, 6.396214601604056 ], [ 100.133132513563311, 6.396705656310901 ], [ 100.132890450936515, 6.397209991415678 ], [ 100.13267528027643, 6.397726224533623 ], [ 100.132487591350909, 6.398252940671749 ], [ 100.132327898602227, 6.398788696107495 ], [ 100.132196639737117, 6.399332022346324 ], [ 100.132094174526983, 6.399881430146952 ], [ 100.132020783821872, 6.400435413603591 ], [ 100.131976668780581, 6.400992454273587 ], [ 100.131961950319393, 6.401551025339679 ], [ 100.131976668780581, 6.402109595794813 ], [ 100.132020783821872, 6.402666634638648 ], [ 100.132094174526983, 6.403220615073901 ], [ 100.132196639737117, 6.403770018691056 ], [ 100.132327898602227, 6.404313339630127 ], [ 100.132487591350909, 6.404849088707931 ], [ 100.13267528027643, 6.405375797499548 ], [ 100.132890450936515, 6.405892022362949 ], [ 100.133132513563311, 6.40639634839555 ], [ 100.133400804679994, 6.406887393311999 ], [ 100.133694588919255, 6.407363811232545 ], [ 100.134013061038942, 6.407824296371494 ], [ 100.134355348129063, 6.408267586615858 ], [ 100.134720512004534, 6.408692466984256 ], [ 100.135107551776557, 6.40909777295649 ], [ 100.135515406596014, 6.40948239366501 ], [ 100.135942958561159, 6.409845274939086 ], [ 100.136389035781818, 6.41018542219379 ], [ 100.136852415591306, 6.410501903155502 ], [ 100.137331827897825, 6.410793850416725 ], [ 100.137825958665516, 6.41106046381309 ], [ 100.138333453516296, 6.411301012616077 ], [ 100.138852921442066, 6.411514837535441 ], [ 100.139382938617345, 6.411701352525904 ], [ 100.139922052301927, 6.411860046393056 ], [ 100.140468784822616, 6.411990484194212 ], [ 100.141021637623624, 6.412092308430204 ], [ 100.141579095373828, 6.412165240025121 ], [ 100.142139630120298, 6.412209079090932 ], [ 100.142701705476256, 6.41222370547533 ], [ 100.143263780832186, 6.412209079090932 ], [ 100.143824315578669, 6.412165240025121 ], [ 100.144381773328874, 6.412092308430204 ], [ 100.144934626129867, 6.411990484194212 ], [ 100.145481358650571, 6.411860046393056 ], [ 100.146020472335152, 6.411701352525904 ], [ 100.146550489510417, 6.411514837535441 ], [ 100.147069957436202, 6.411301012616077 ], [ 100.147577452286981, 6.41106046381309 ], [ 100.148071583054673, 6.410793850416725 ], [ 100.148550995361177, 6.410501903155502 ], [ 100.149014375170665, 6.41018542219379 ], [ 100.149460452391338, 6.409845274939086 ], [ 100.149888004356484, 6.40948239366501 ], [ 100.150295859175941, 6.40909777295649 ], [ 100.150682898947949, 6.408692466984256 ], [ 100.151048062823435, 6.408267586615858 ], [ 100.151390349913555, 6.407824296371494 ], [ 100.151708822033243, 6.407363811232545 ], [ 100.152002606272504, 6.406887393311999 ], [ 100.152270897389187, 6.40639634839555 ], [ 100.152512960015983, 6.405892022362949 ], [ 100.152728130676053, 6.405375797499548 ], [ 100.152915819601589, 6.404849088707931 ], [ 100.15307551235027, 6.404313339630127 ], [ 100.15320677121538, 6.403770018691056 ], [ 100.153309236425514, 6.403220615073901 ], [ 100.153382627130625, 6.402666634638648 ], [ 100.153426742171916, 6.402109595794813 ], [ 100.15344146063309, 6.401551025339679 ] ] ] } },
{ "type": "Feature", "properties": { "state": "Perlis", "parlimen": "P.002 Perlis Selatan", "code_parlimen": "P.002", "dun": "N.12 Sanglang", "code_dun": "N.12", "voters_total": 4125 }, "geometry": { "type": "Polygon", "coordinates": [ [ [ 100.204231477665274, 6.305439584182524 ], [ 100.20421509375781, 6.304817692634613 ], [ 100.204165986942641, 6.304197504905481 ], [ 100.204084291818106, 6.303580720895821 ], [ 100.203970232304883, 6.302969031182946 ], [ 100.203824121032113, 6.30236411238687 ], [ 100.203646358480697, 6.301767622574615 ], [ 100.203437431885419, 6.301181196715211 ], [ 100.203197913899544, 6.300606442198059 ], [ 100.202928461025223, 6.300044934426761 ], [ 100.202629811814049, 6.299498212500608 ], [ 100.202302784842772, 6.298967774995481 ], [ 100.201948276469579, 6.298455075855873 ], [ 100.201567258377267, 6.297961520409118 ], [ 100.20116077490998, 6.297488461512917 ], [ 100.200729940210579, 6.297037195846602 ], [ 100.200275935167113, 6.2966089603564 ], [ 100.199800004175771, 6.296204928864436 ], [ 100.199303451730387, 6.295826208850703 ], [ 100.198787638846639, 6.295473838416901 ], [ 100.198253979331824, 6.295148783440491 ], [ 100.197703935909558, 6.294851934926656 ], [ 100.197139016210656, 6.294584106565552 ], [ 100.196560768640722, 6.294346032501528 ], [ 100.195970778136143, 6.294138365320372 ], [ 100.195370661819908, 6.293961674260167 ], [ 100.194762064569119, 6.293816443650665 ], [ 100.194146654506525, 6.293703071585408 ], [ 100.193526118428352, 6.29362186883026 ], [ 100.192902157180825, 6.293573057971471 ], [ 100.192276480998387, 6.293556772805355 ], [ 100.19165080481595, 6.293573057971471 ], [ 100.191026843568423, 6.29362186883026 ], [ 100.190406307490235, 6.293703071585408 ], [ 100.189790897427642, 6.293816443650665 ], [ 100.189182300176853, 6.293961674260167 ], [ 100.188582183860618, 6.294138365320372 ], [ 100.187992193356052, 6.294346032501528 ], [ 100.187413945786119, 6.294584106565552 ], [ 100.186849026087202, 6.294851934926656 ], [ 100.186298982664951, 6.295148783440491 ], [ 100.185765323150136, 6.295473838416901 ], [ 100.185249510266388, 6.295826208850703 ], [ 100.18475295782099, 6.296204928864436 ], [ 100.184277026829648, 6.2966089603564 ], [ 100.183823021786182, 6.297037195846602 ], [ 100.183392187086795, 6.297488461512917 ], [ 100.182985703619494, 6.297961520409118 ], [ 100.182604685527181, 6.298455075855873 ], [ 100.182250177153989, 6.298967774995481 ], [ 100.181923150182712, 6.299498212500608 ], [ 100.181624500971552, 6.300044934426761 ], [ 100.181355048097231, 6.300606442198059 ], [ 100.181115530111356, 6.301181196715211 ], [ 100.180906603516078, 6.301767622574615 ], [ 100.180728840964662, 6.30236411238687 ], [ 100.180582729691892, 6.302969031182946 ], [ 100.180468670178655, 6.303580720895821 ], [ 100.180386975054134, 6.304197504905481 ], [ 100.180337868238951, 6.304817692634613 ], [ 100.180321484331515, 6.305439584182524 ], [ 100.180337868238951, 6.30606147498457 ], [ 100.180386975054134, 6.306681660484285 ], [ 100.180468670178655, 6.307298440805419 ], [ 100.180582729691892, 6.30791012541106 ], [ 100.180728840964662, 6.308515037737137 ], [ 100.180906603516078, 6.309111519787542 ], [ 100.181115530111356, 6.309697936678251 ], [ 100.181355048097231, 6.31027268111816 ], [ 100.181624500971552, 6.310834177814054 ], [ 100.181923150182712, 6.311380887788 ], [ 100.182250177153989, 6.311911312595055 ], [ 100.182604685527181, 6.312423998429843 ], [ 100.182985703619494, 6.312917540110826 ], [ 100.183392187086795, 6.313390584931101 ], [ 100.183823021786182, 6.313841836365566 ], [ 100.184277026829648, 6.314270057623919 ], [ 100.18475295782099, 6.314674075039957 ], [ 100.185249510266388, 6.315052781287905 ], [ 100.185765323150136, 6.3154051384169 ], [ 100.186298982664951, 6.315730180695238 ], [ 100.186849026087202, 6.316027017256867 ], [ 100.187413945786119, 6.316294834542566 ], [ 100.187992193356052, 6.316532898529347 ], [ 100.188582183860618, 6.316740556741808 ], [ 100.189182300176853, 6.316917240040151 ], [ 100.189790897427642, 6.317062464179654 ], [ 100.190406307490235, 6.317175831137678 ], [ 100.191026843568423, 6.317257030204297 ], [ 100.19165080481595, 6.317305838833684 ], [ 100.192276480998387, 6.317322123253934 ], [ 100.192902157180825, 6.317305838833684 ], [ 100.193526118428352, 6.317257030204297 ], [ 100.194146654506525, 6.317175831137678 ], [ 100.194762064569119, 6.317062464179654 ], [ 100.195370661819908, 6.316917240040151 ], [ 100.195970778136143, 6.316740556741808 ], [ 100.196560768640722, 6.316532898529347 ], [ 100.197139016210656, 6.316294834542566 ], [ 100.197703935909558, 6.316027017256867 ], [ 100.198253979331824, 6.315730180695238 ], [ 100.198787638846639, 6.3154051384169 ], [ 100.199303451730387, 6.315052781287905 ], [ 100.199800004175771, 6.314674075039957 ], [ 100.200275935167113, 6.314270057623919 ], [ 100.200729940210579, 6.313841836365566 ], [ 100.20116077490998, 6.313390584931101 ], [ 100.201567258377267, 6.312917540110826 ], [ 100.201948276469579, 6.312423998429843 ], [ 100.202302784842772, 6.311911312595055 ], [ 100.202629811814049, 6.311380887788 ], [ 100.202928461025223, 6.310834177814054 ], [ 100.203197913899544, 6.31027268111816 ], [ 100.203437431885419, 6.309697936678251 ], [ 100.203646358480697, 6.309111519787542 ], [ 100.203824121032113, 6.308515037737137 ], [ 100.203970232304883, 6.30791012541106 ], [ 100.204084291818106, 6.307298440805419 ], [ 100.204165986942641, 6.306681660484285 ], [ 100.20421509375781, 6.30606147498457 ], [ 100.204231477665274, 6.305439584182524 ] ] ] } }
]
}
