{
"type": "FeatureCollection",
"name": "PLS_SE-11",
"crs": { "type": "name", "properties": { "name": "urn:ogc:def:crs:OGC:1.3:CRS84" } },
"features": [
{ "type": "Feature", "properties": { "state": "Perlis", "parlimen": "P.001 Padang Besar", "code_parlimen": "P.001", "dun": "N.01 Titi Tinggi", "code_dun": "N.01", "voters_total": 6887 }, "geometry": { "type": "Polygon", "coordinates": [ [ [ 100.279037322256158, 6.647868637029593 ], [ 100.27902108280999, 6.647252646922729 ], [ 100.278972408982639, 6.646638344433291 ], [ 100.278891434185724, 6.646027413331282 ], [ 100.278778380365523, 6.645421528152101 ], [ 100.278633557394699, 6.644822349606713 ], [ 100.278457362222923, 6.644231520029399 ], [ 100.278250277788956, 6.643650658875985 ], [ 100.278012871696788, 6.643081358284715 ], [ 100.277745794660078, 6.642525178711771 ], [ 100.277449778718349, 6.641983644653828 ], [ 100.277125635230789, 6.641458240468886 ], [ 100.276774252652118, 6.640950406307271 ], [ 100.276396594097577, 6.640461534163673 ], [ 100.275993694703018, 6.639992964061124 ], [ 100.275566658787668, 6.639545980377522 ], [ 100.275116656827279, 6.639121808324529 ], [ 100.274644922245969, 6.63872161058869 ], [ 100.274152748035434, 6.638346484143951 ], [ 100.273641483210938, 6.637997457244301 ], [ 100.273112529113874, 6.637675486604675 ], [ 100.272567335570628, 6.637381454778132 ], [ 100.272007396918823, 6.637116167736197 ], [ 100.271434247911344, 6.636880352659239 ], [ 100.270849459509833, 6.636674655942762 ], [ 100.27025463457862, 6.636499641425229 ], [ 100.269651403491494, 6.636355788842199 ], [ 100.269041419662969, 6.636243492511079 ], [ 100.268426355016288, 6.636163060249973 ], [ 100.267807895400864, 6.636114712533759 ], [ 100.267187735971575, 6.636098581889652 ], [ 100.266567576542315, 6.636114712533759 ], [ 100.26594911692689, 6.636163060249973 ], [ 100.26533405228021, 6.636243492511079 ], [ 100.26472406845167, 6.636355788842199 ], [ 100.264120837364558, 6.636499641425229 ], [ 100.263526012433346, 6.636674655942762 ], [ 100.26294122403182, 6.636880352659239 ], [ 100.262368075024355, 6.637116167736197 ], [ 100.261808136372551, 6.637381454778132 ], [ 100.261262942829305, 6.637675486604675 ], [ 100.260733988732241, 6.637997457244301 ], [ 100.260222723907745, 6.638346484143951 ], [ 100.259730549697196, 6.63872161058869 ], [ 100.259258815115885, 6.639121808324529 ], [ 100.258808813155511, 6.639545980377522 ], [ 100.25838177724016, 6.639992964061124 ], [ 100.257978877845588, 6.640461534163673 ], [ 100.257601219291047, 6.640950406307271 ], [ 100.25724983671239, 6.641458240468886 ], [ 100.256925693224815, 6.641983644653828 ], [ 100.256629677283101, 6.642525178711771 ], [ 100.256362600246362, 6.643081358284715 ], [ 100.256125194154208, 6.643650658875985 ], [ 100.255918109720241, 6.644231520029399 ], [ 100.25574191454848, 6.644822349606713 ], [ 100.255597091577656, 6.645421528152101 ], [ 100.255484037757441, 6.646027413331282 ], [ 100.255403062960525, 6.646638344433291 ], [ 100.255354389133174, 6.647252646922729 ], [ 100.255338149687006, 6.647868637029593 ], [ 100.255354389133174, 6.648484626364614 ], [ 100.255403062960525, 6.649098926546928 ], [ 100.255484037757441, 6.649709853831825 ], [ 100.255597091577656, 6.650315733725714 ], [ 100.25574191454848, 6.650914905575577 ], [ 100.255918109720241, 6.651505727120438 ], [ 100.256125194154208, 6.65208657899251 ], [ 100.256362600246362, 6.652655869155224 ], [ 100.256629677283101, 6.653212037266671 ], [ 100.256925693224815, 6.653753558955742 ], [ 100.25724983671239, 6.654278949999942 ], [ 100.257601219291047, 6.654786770392924 ], [ 100.257978877845588, 6.655275628290868 ], [ 100.25838177724016, 6.655744183826783 ], [ 100.258808813155511, 6.656191152782392 ], [ 100.259258815115885, 6.656615310107407 ], [ 100.259730549697196, 6.657015493276623 ], [ 100.260222723907745, 6.657390605475684 ], [ 100.260733988732241, 6.657739618606724 ], [ 100.261262942829305, 6.658061576105609 ], [ 100.261808136372551, 6.658355595563281 ], [ 100.262368075024355, 6.658620871143706 ], [ 100.26294122403182, 6.658856675792108 ], [ 100.263526012433346, 6.659062363227257 ], [ 100.264120837364558, 6.659237369712336 ], [ 100.26472406845167, 6.659381215599828 ], [ 100.26533405228021, 6.659493506645667 ], [ 100.26594911692689, 6.659573935089663 ], [ 100.266567576542315, 6.65962228049874 ], [ 100.267187735971575, 6.659638410370991 ], [ 100.267807895400864, 6.65962228049874 ], [ 100.268426355016288, 6.659573935089663 ], [ 100.269041419662969, 6.659493506645667 ], [ 100.269651403491494, 6.659381215599828 ], [ 100.27025463457862, 6.659237369712336 ], [ 100.270849459509833, 6.659062363227257 ], [ 100.271434247911344, 6.658856675792108 ], [ 100.272007396918823, 6.658620871143706 ], [ 100.272567335570628, 6.658355595563281 ], [ 100.273112529113874, 6.658061576105609 ], [ 100.273641483210938, 6.657739618606724 ], [ 100.274152748035434, 6.657390605475684 ], [ 100.274644922245969, 6.657015493276623 ], [ 100.275116656827279, 6.656615310107407 ], [ 100.275566658787668, 6.656191152782392 ], [ 100.275993694703018, 6.655744183826783 ], [ 100.276396594097577, 6.655275628290868 ], [ 100.276774252652118, 6.654786770392924 ], [ 100.277125635230789, 6.654278949999942 ], [ 100.277449778718349, 6.653753558955742 ], [ 100.277745794660078, 6.653212037266671 ], [ 100.278012871696788, 6.652655869155224 ], [ 100.278250277788956, 6.65208657899251 ], [ 100.278457362222923, 6.651505727120438 ], [ 100.278633557394699, 6.650914905575577 ], [ 100.278778380365523, 6.650315733725714 ], [ 100.278891434185724, 6.649709853831825 ], [ 100.278972408982639, 6.649098926546928 ], [ 100.27902108280999, 6.648484626364614 ], [ 100.279037322256158, 6.647868637029593 ] ] ] } },
{ "type": "Feature", "properties": { "state": "Perlis", "parlimen": "P.001 Padang Besar", "code_parlimen": "P.001", "dun": "N.02 Beseri", "code_dun": "N.02", "voters_total": 6645 }, "geometry": { "type": "Polygon", "coordinates": [ [ [ 100.221359721926987, 6.605646649213683 ], [ 100.221343770348483, 6.605041526628018 ], [ 100.22129595933518, 6.604438061904332 ], [ 100.221216419933711, 6.603837909106599 ], [ 100.221105370156053, 6.603242713227038 ], [ 100.220963114381931, 6.602654105677066 ], [ 100.220790042524541, 6.602073699815462 ], [ 100.220586628961811, 6.601503086526047 ], [ 100.220353431236148, 6.60094382985675 ], [ 100.220091088526374, 6.600397462732363 ], [ 100.219800319895555, 6.599865482752334 ], [ 100.219481922320327, 6.599349348085533 ], [ 100.219136768506317, 6.598850473472958 ], [ 100.218765804496101, 6.598370226349442 ], [ 100.218370047076306, 6.597909923095081 ], [ 100.21795058099049, 6.597470825426424 ], [ 100.217508555965992, 6.597054136937626 ], [ 100.217045183562732, 6.596660999800821 ], [ 100.216561733852231, 6.59629249163488 ], [ 100.216059531936551, 6.595949622551147 ], [ 100.215539954316242, 6.595633332384089 ], [ 100.215004425117442, 6.595344488114761 ], [ 100.214454412188459, 6.595083881493879 ], [ 100.213891423076504, 6.594852226871176 ], [ 100.213317000895586, 6.594650159236849 ], [ 100.212732720096966, 6.594478232480743 ], [ 100.212140182153746, 6.594336917873749 ], [ 100.211541011171207, 6.594226602775711 ], [ 100.210936849435356, 6.594147589573399 ], [ 100.210329352911572, 6.594100094851545 ], [ 100.209720186705525, 6.594084248798942 ], [ 100.209111020499478, 6.594100094851545 ], [ 100.208503523975665, 6.594147589573399 ], [ 100.207899362239843, 6.594226602775711 ], [ 100.207300191257303, 6.594336917873749 ], [ 100.206707653314069, 6.594478232480743 ], [ 100.206123372515449, 6.594650159236849 ], [ 100.205548950334546, 6.594852226871176 ], [ 100.204985961222576, 6.595083881493879 ], [ 100.204435948293593, 6.595344488114761 ], [ 100.203900419094779, 6.595633332384089 ], [ 100.20338084147447, 6.595949622551147 ], [ 100.202878639558804, 6.59629249163488 ], [ 100.202395189848303, 6.596660999800821 ], [ 100.201931817445043, 6.597054136937626 ], [ 100.20148979242056, 6.597470825426424 ], [ 100.201070326334715, 6.597909923095081 ], [ 100.20067456891492, 6.598370226349442 ], [ 100.200303604904718, 6.598850473472958 ], [ 100.199958451090723, 6.599349348085533 ], [ 100.199640053515481, 6.599865482752334 ], [ 100.199349284884676, 6.600397462732363 ], [ 100.199086942174873, 6.60094382985675 ], [ 100.198853744449224, 6.601503086526047 ], [ 100.198650330886494, 6.602073699815462 ], [ 100.198477259029104, 6.602654105677066 ], [ 100.198335003254982, 6.603242713227038 ], [ 100.198223953477324, 6.603837909106599 ], [ 100.198144414075855, 6.604438061904332 ], [ 100.198096603062552, 6.605041526628018 ], [ 100.198080651484048, 6.605646649213683 ], [ 100.198096603062552, 6.606251771059244 ], [ 100.198144414075855, 6.606855233570766 ], [ 100.198223953477324, 6.607455382708483 ], [ 100.198335003254982, 6.608050573520287 ], [ 100.198477259029104, 6.608639174650297 ], [ 100.198650330886494, 6.609219572810048 ], [ 100.198853744449224, 6.609790177200131 ], [ 100.199086942174873, 6.610349423870069 ], [ 100.199349284884676, 6.610895780004686 ], [ 100.199640053515481, 6.61142774812491 ], [ 100.199958451090723, 6.611943870191804 ], [ 100.200303604904718, 6.612442731602442 ], [ 100.20067456891492, 6.612922965066596 ], [ 100.201070326334715, 6.613383254353857 ], [ 100.20148979242056, 6.613822337900698 ], [ 100.201931817445043, 6.614239012267682 ], [ 100.202395189848303, 6.614632135437385 ], [ 100.202878639558804, 6.615000629943964 ], [ 100.20338084147447, 6.615343485825761 ], [ 100.203900419094779, 6.615659763392924 ], [ 100.204435948293593, 6.615948595802434 ], [ 100.204985961222576, 6.616209191433533 ], [ 100.205548950334546, 6.616440836056904 ], [ 100.206123372515449, 6.616642894791886 ], [ 100.206707653314069, 6.616814813846139 ], [ 100.207300191257303, 6.616956122033158 ], [ 100.207899362239843, 6.617066432063453 ], [ 100.208503523975665, 6.617145441605747 ], [ 100.209111020499478, 6.617192934115423 ], [ 100.209720186705525, 6.617208779427937 ], [ 100.210329352911572, 6.617192934115423 ], [ 100.210936849435356, 6.617145441605747 ], [ 100.211541011171207, 6.617066432063453 ], [ 100.212140182153746, 6.616956122033158 ], [ 100.212732720096966, 6.616814813846139 ], [ 100.213317000895586, 6.616642894791886 ], [ 100.213891423076504, 6.616440836056904 ], [ 100.214454412188459, 6.616209191433533 ], [ 100.215004425117442, 6.615948595802434 ], [ 100.215539954316242, 6.615659763392924 ], [ 100.216059531936551, 6.615343485825761 ], [ 100.216561733852231, 6.615000629943964 ], [ 100.217045183562732, 6.614632135437385 ], [ 100.217508555965992, 6.614239012267682 ], [ 100.21795058099049, 6.613822337900698 ], [ 100.218370047076306, 6.613383254353857 ], [ 100.218765804496101, 6.612922965066596 ], [ 100.219136768506317, 6.612442731602442 ], [ 100.219481922320327, 6.611943870191804 ], [ 100.219800319895555, 6.61142774812491 ], [ 100.220091088526374, 6.610895780004686 ], [ 100.220353431236148, 6.610349423870069 ], [ 100.220586628961811, 6.609790177200131 ], [ 100.220790042524541, 6.609219572810048 ], [ 100.220963114381931, 6.608639174650297 ], [ 100.221105370156053, 6.608050573520287 ], [ 100.221216419933711, 6.607455382708483 ], [ 100.22129595933518, 6.606855233570766 ], [ 100.221343770348483, 6.606251771059244 ], [ 100.221359721926987, 6.605646649213683 ] ] ] } },
{ "type": "Feature", "properties": { "state": "Perlis", "parlimen": "P.001 Padang Besar", "code_parlimen": "P.001", "dun": "N.03 Chuping", "code_dun": "N.03", "voters_total": 7802 }, "geometry": { "type": "Polygon", "coordinates": [ [ [ 100.322553298239882, 6.530273568202772 ], [ 100.322536013647365, 6.529617778425874 ], [ 100.322484207245665, 6.528963785267549 ], [ 100.322398021032541, 6.528313381288251 ], [ 100.322277691238412, 6.527668349217593 ], [ 100.322123547678871, 6.527030457067883 ], [ 100.321936012850713, 6.526401453287851 ], [ 100.321715600773842, 6.525783061969933 ], [ 100.321462915582487, 6.52517697812421 ], [ 100.321178649869125, 6.524584863032098 ], [ 100.320863582786359, 6.524008339692347 ], [ 100.320518577911187, 6.523448988371893 ], [ 100.320144580877951, 6.522908342273928 ], [ 100.319742616786542, 6.522387883334752 ], [ 100.319313787392574, 6.521889038161265 ], [ 100.318859268087621, 6.521413174119953 ], [ 100.318380304677504, 6.520961595588377 ], [ 100.31787820996766, 6.520535540379171 ], [ 100.317354360164757, 6.52013617634661 ], [ 100.316810191104679, 6.519764598184778 ], [ 100.316247194317043, 6.519421824426467 ], [ 100.315666912936891, 6.519108794650746 ], [ 100.315070937475141, 6.518826366906921 ], [ 100.314460901459128, 6.518575315362152 ], [ 100.313838476955127, 6.518356328178858 ], [ 100.313205369985468, 6.518170005628073 ], [ 100.312563315852373, 6.51801685844361 ], [ 100.311914074381534, 6.517897306421808 ], [ 100.311259425098754, 6.517811677270606 ], [ 100.310601162352171, 6.517760205710935 ], [ 100.309941090394233, 6.517743032833319 ], [ 100.309281018436309, 6.517760205710935 ], [ 100.308622755689711, 6.517811677270606 ], [ 100.307968106406918, 6.517897306421808 ], [ 100.307318864936093, 6.51801685844361 ], [ 100.306676810802983, 6.518170005628073 ], [ 100.306043703833339, 6.518356328178858 ], [ 100.305421279329352, 6.518575315362152 ], [ 100.304811243313324, 6.518826366906921 ], [ 100.304215267851561, 6.519108794650746 ], [ 100.303634986471408, 6.519421824426467 ], [ 100.303071989683772, 6.519764598184778 ], [ 100.302527820623709, 6.52013617634661 ], [ 100.302003970820806, 6.520535540379171 ], [ 100.301501876110947, 6.520961595588377 ], [ 100.301022912700844, 6.521413174119953 ], [ 100.300568393395892, 6.521889038161265 ], [ 100.300139564001938, 6.522387883334752 ], [ 100.299737599910515, 6.522908342273928 ], [ 100.299363602877264, 6.523448988371893 ], [ 100.299018598002093, 6.524008339692347 ], [ 100.29870353091934, 6.524584863032098 ], [ 100.298419265205993, 6.52517697812421 ], [ 100.298166580014623, 6.525783061969933 ], [ 100.297946167937738, 6.526401453287851 ], [ 100.297758633109595, 6.527030457067883 ], [ 100.297604489550054, 6.527668349217593 ], [ 100.297484159755911, 6.528313381288251 ], [ 100.2973979735428, 6.528963785267549 ], [ 100.297346167141114, 6.529617778425874 ], [ 100.297328882548584, 6.530273568202772 ], [ 100.297346167141114, 6.530929357120476 ], [ 100.2973979735428, 6.531583347710579 ], [ 100.297484159755911, 6.53223374744077 ], [ 100.297604489550054, 6.532878773628013 ], [ 100.297758633109595, 6.533516658324424 ], [ 100.297946167937738, 6.534145653162962 ], [ 100.298166580014623, 6.534764034149166 ], [ 100.298419265205993, 6.53537010638612 ], [ 100.29870353091934, 6.535962208719627 ], [ 100.299018598002093, 6.536538718290707 ], [ 100.299363602877264, 6.537098054983255 ], [ 100.299737599910515, 6.537638685754382 ], [ 100.300139564001938, 6.538159128835694 ], [ 100.300568393395892, 6.538657957794038 ], [ 100.301022912700844, 6.539133805440583 ], [ 100.301501876110947, 6.539585367577392 ], [ 100.302003970820806, 6.540011406571443 ], [ 100.302527820623709, 6.540410754746141 ], [ 100.303071989683772, 6.540782317581134 ], [ 100.303634986471408, 6.541125076711553 ], [ 100.304215267851561, 6.541438092718588 ], [ 100.304811243313324, 6.541720507703796 ], [ 100.305421279329352, 6.541971547639821 ], [ 100.306043703833339, 6.542190524491389 ], [ 100.306676810802983, 6.54237683810068 ], [ 100.307318864936093, 6.542529977831869 ], [ 100.307968106406918, 6.542649523970244 ], [ 100.308622755689711, 6.54273514887235 ], [ 100.309281018436309, 6.542786617863787 ], [ 100.309941090394233, 6.542803789882183 ], [ 100.310601162352171, 6.542786617863787 ], [ 100.311259425098754, 6.54273514887235 ], [ 100.311914074381534, 6.542649523970244 ], [ 100.312563315852373, 6.542529977831869 ], [ 100.313205369985468, 6.54237683810068 ], [ 100.313838476955127, 6.542190524491389 ], [ 100.314460901459128, 6.541971547639821 ], [ 100.315070937475141, 6.541720507703796 ], [ 100.315666912936891, 6.541438092718588 ], [ 100.316247194317043, 6.541125076711553 ], [ 100.316810191104679, 6.540782317581134 ], [ 100.317354360164757, 6.540410754746141 ], [ 100.31787820996766, 6.540011406571443 ], [ 100.318380304677504, 6.539585367577392 ], [ 100.318859268087621, 6.539133805440583 ], [ 100.319313787392574, 6.538657957794038 ], [ 100.319742616786542, 6.538159128835694 ], [ 100.320144580877951, 6.537638685754382 ], [ 100.320518577911187, 6.537098054983255 ], [ 100.320863582786359, 6.536538718290707 ], [ 100.321178649869125, 6.535962208719627 ], [ 100.321462915582487, 6.53537010638612 ], [ 100.321715600773842, 6.534764034149166 ], [ 100.321936012850713, 6.534145653162962 ], [ 100.322123547678871, 6.533516658324424 ], [ 100.322277691238412, 6.532878773628013 ], [ 100.322398021032541, 6.53223374744077 ], [ 100.322484207245665, 6.531583347710579 ], [ 100.322536013647365, 6.530929357120476 ], [ 100.322553298239882, 6.530273568202772 ] ] ] } },
{ "type": "Feature", "properties": { "state": "Perlis", "parlimen": "P.001 Padang Besar", "code_parlimen": "P.001", "dun": "N.04 Mata Ayer", "code_dun": "N.04", "voters_total": 5557 }, "geometry": { "type": "Polygon", "coordinates": [ [ [ 100.269769709529683, 6.47938176260573 ], [ 100.269755122180783, 6.478828252180291 ], [ 100.269711400116947, 6.478276258283717 ], [ 100.269638663177318, 6.477727293900388 ], [ 100.269537110728791, 6.47718286371594 ], [ 100.269407021119591, 6.476644459992762 ], [ 100.269248750916262, 6.476113558479732 ], [ 100.269062733926475, 6.475591614366973 ], [ 100.268849480009806, 6.475080058297063 ], [ 100.268609573680465, 6.474580292443324 ], [ 100.268343672505026, 6.474093686666304 ], [ 100.268052505300105, 6.473621574758567 ], [ 100.267736870134783, 6.473165250788531 ], [ 100.267397632143101, 6.472725965552934 ], [ 100.267035721152851, 6.472304923148114 ], [ 100.26665212913683, 6.471903277669075 ], [ 100.266247907494161, 6.471522130045724 ], [ 100.265824164168222, 6.471162525024778 ], [ 100.265382060610037, 6.470825448305617 ], [ 100.264922808594733, 6.470511823838089 ], [ 100.264447666900139, 6.470222511289538 ], [ 100.263957937856645, 6.469958303687927 ], [ 100.263454963777491, 6.469719925247886 ], [ 100.262940123279691, 6.469508029385138 ], [ 100.262414827505225, 6.469323196925137 ], [ 100.261880516253356, 6.469165934510803 ], [ 100.261338654034034, 6.469036673213363 ], [ 100.260790726053941, 6.468935767350691 ], [ 100.260238234145618, 6.46886349351578 ], [ 100.259682692650969, 6.468820049818512 ], [ 100.259125624270595, 6.468805555342467 ], [ 100.258568555890221, 6.468820049818512 ], [ 100.258013014395587, 6.46886349351578 ], [ 100.25746052248725, 6.468935767350691 ], [ 100.25691259450717, 6.469036673213363 ], [ 100.256370732287849, 6.469165934510803 ], [ 100.255836421035966, 6.469323196925137 ], [ 100.255311125261514, 6.469508029385138 ], [ 100.254796284763685, 6.469719925247886 ], [ 100.25429331068456, 6.469958303687927 ], [ 100.253803581641066, 6.470222511289538 ], [ 100.253328439946472, 6.470511823838089 ], [ 100.252869187931154, 6.470825448305617 ], [ 100.252427084372968, 6.471162525024778 ], [ 100.252003341047043, 6.471522130045724 ], [ 100.251599119404361, 6.471903277669075 ], [ 100.251215527388354, 6.472304923148114 ], [ 100.250853616398089, 6.472725965552934 ], [ 100.250514378406422, 6.473165250788531 ], [ 100.2501987432411, 6.473621574758567 ], [ 100.249907576036179, 6.474093686666304 ], [ 100.249641674860726, 6.474580292443324 ], [ 100.249401768531399, 6.475080058297063 ], [ 100.24918851461473, 6.475591614366973 ], [ 100.249002497624943, 6.476113558479732 ], [ 100.248844227421614, 6.476644459992762 ], [ 100.248714137812399, 6.47718286371594 ], [ 100.248612585363887, 6.477727293900388 ], [ 100.248539848424258, 6.478276258283717 ], [ 100.248496126360422, 6.478828252180291 ], [ 100.248481539011507, 6.47938176260573 ], [ 100.248496126360422, 6.479935272423886 ], [ 100.248539848424258, 6.480487264505241 ], [ 100.248612585363887, 6.481036225885313 ], [ 100.248714137812399, 6.481580651911377 ], [ 100.248844227421614, 6.482119050366576 ], [ 100.249002497624943, 6.482649945559793 ], [ 100.24918851461473, 6.4831718823701 ], [ 100.249401768531399, 6.483683430234967 ], [ 100.249641674860726, 6.484183187070944 ], [ 100.249907576036179, 6.484669783116294 ], [ 100.2501987432411, 6.485141884685064 ], [ 100.250514378406422, 6.485598197822132 ], [ 100.250853616398089, 6.486037471849416 ], [ 100.251215527388354, 6.486458502793412 ], [ 100.251599119404361, 6.48686013668466 ], [ 100.252003341047043, 6.487241272720221 ], [ 100.252427084372968, 6.487600866280342 ], [ 100.252869187931154, 6.48793793179119 ], [ 100.253328439946472, 6.488251545425736 ], [ 100.253803581641066, 6.488540847635335 ], [ 100.25429331068456, 6.488805045505263 ], [ 100.254796284763685, 6.489043414927541 ], [ 100.255311125261514, 6.489255302585247 ], [ 100.255836421035966, 6.489440127742796 ], [ 100.256370732287849, 6.489597383837329 ], [ 100.25691259450717, 6.489726639866778 ], [ 100.25746052248725, 6.489827541571066 ], [ 100.258013014395587, 6.489899812402732 ], [ 100.258568555890221, 6.489943254284781 ], [ 100.259125624270595, 6.489957748153531 ], [ 100.259682692650969, 6.489943254284781 ], [ 100.260238234145618, 6.489899812402732 ], [ 100.260790726053941, 6.489827541571066 ], [ 100.261338654034034, 6.489726639866778 ], [ 100.261880516253356, 6.489597383837329 ], [ 100.262414827505225, 6.489440127742796 ], [ 100.262940123279691, 6.489255302585247 ], [ 100.263454963777491, 6.489043414927541 ], [ 100.263957937856645, 6.488805045505263 ], [ 100.264447666900139, 6.488540847635335 ], [ 100.264922808594733, 6.488251545425736 ], [ 100.265382060610037, 6.48793793179119 ], [ 100.265824164168222, 6.487600866280342 ], [ 100.266247907494161, 6.487241272720221 ], [ 100.26665212913683, 6.48686013668466 ], [ 100.267035721152851, 6.486458502793412 ], [ 100.267397632143101, 6.486037471849416 ], [ 100.267736870134783, 6.485598197822132 ], [ 100.268052505300105, 6.485141884685064 ], [ 100.268343672505026, 6.484669783116294 ], [ 100.268609573680465, 6.484183187070944 ], [ 100.268849480009806, 6.483683430234967 ], [ 100.269062733926475, 6.4831718823701 ], [ 100.269248750916262, 6.482649945559793 ], [ 100.269407021119591, 6.482119050366576 ], [ 100.269537110728791, 6.481580651911377 ], [ 100.269638663177318, 6.481036225885313 ], [ 100.269711400116947, 6.480487264505241 ], [ 100.269755122180783, 6.479935272423886 ], [ 100.269769709529683, 6.47938176260573 ] ] ] } },
{ "type": "Feature", "properties": { "state": "Perlis", "parlimen": "P.001 Padang Besar", "code_parlimen": "P.001", "dun": "N.05 Santan", "code_dun": "N.05", "voters_total": 7008 }, "geometry": { "type": "Polygon", "coordinates": [ [ [ 100.231779087814033, 6.506183620581736 ], [ 100.231762706330883, 6.505562065583392 ], [ 100.231713606781966, 6.504942213458363 ], [ 100.231631923745738, 6.504325763187727 ], [ 100.231517881109696, 6.503714404434531 ], [ 100.231371791456766, 6.503109812912291 ], [ 100.23119405520859, 6.502513645791836 ], [ 100.230985159527819, 6.501927537158691 ], [ 100.230745676983034, 6.501353093533901 ], [ 100.230476263979199, 6.500791889470234 ], [ 100.230177658958681, 6.500245463235924 ], [ 100.229850680377027, 6.499715312597937 ], [ 100.229496224459837, 6.499202890716071 ], [ 100.229115262746149, 6.498709602159431 ], [ 100.228708839425551, 6.49823679905593 ], [ 100.228278068476058, 6.497785777385575 ], [ 100.227824130610955, 6.497357773427629 ], [ 100.227348270042327, 6.496953960371441 ], [ 100.22685179107097, 6.49657544510005 ], [ 100.226336054511222, 6.496223265155736 ], [ 100.225802473961124, 6.495898385895546 ], [ 100.225252511927863, 6.495601697844625 ], [ 100.224687675819197, 6.495334014254865 ], [ 100.22410951381157, 6.495096068875193 ], [ 100.223519610606942, 6.494888513939972 ], [ 100.222919583088924, 6.494711918380781 ], [ 100.222311075891241, 6.494566766266592 ], [ 100.221695756889858, 6.494453455476603 ], [ 100.22107531263137, 6.494372296609396 ], [ 100.220451443710374, 6.494323512131399 ], [ 100.219825860108202, 6.494307235766883 ], [ 100.219200276506015, 6.494323512131399 ], [ 100.218576407585005, 6.494372296609396 ], [ 100.217955963326531, 6.494453455476603 ], [ 100.217340644325148, 6.494566766266592 ], [ 100.21673213712748, 6.494711918380781 ], [ 100.216132109609461, 6.494888513939972 ], [ 100.215542206404805, 6.495096068875193 ], [ 100.214964044397206, 6.495334014254865 ], [ 100.214399208288526, 6.495601697844625 ], [ 100.213849246255279, 6.495898385895546 ], [ 100.213315665705181, 6.496223265155736 ], [ 100.212799929145419, 6.49657544510005 ], [ 100.212303450174062, 6.496953960371441 ], [ 100.211827589605448, 6.497357773427629 ], [ 100.211373651740331, 6.497785777385575 ], [ 100.210942880790853, 6.49823679905593 ], [ 100.210536457470226, 6.498709602159431 ], [ 100.210155495756553, 6.499202890716071 ], [ 100.209801039839377, 6.499715312597937 ], [ 100.209474061257723, 6.500245463235924 ], [ 100.20917545623719, 6.500791889470234 ], [ 100.20890604323337, 6.501353093533901 ], [ 100.208666560688584, 6.501927537158691 ], [ 100.208457665007813, 6.502513645791836 ], [ 100.208279928759609, 6.503109812912291 ], [ 100.208133839106708, 6.503714404434531 ], [ 100.208019796470666, 6.504325763187727 ], [ 100.207938113434423, 6.504942213458363 ], [ 100.207889013885506, 6.505562065583392 ], [ 100.207872632402371, 6.506183620581736 ], [ 100.207889013885506, 6.506805174811099 ], [ 100.207938113434423, 6.507425024637643 ], [ 100.208019796470666, 6.508041471105443 ], [ 100.208133839106708, 6.508652824593116 ], [ 100.208279928759609, 6.509257409444842 ], [ 100.208457665007813, 6.509853568562908 ], [ 100.208666560688584, 6.510439667949416 ], [ 100.20890604323337, 6.511014101184657 ], [ 100.20917545623719, 6.511575293829688 ], [ 100.209474061257723, 6.512121707741371 ], [ 100.209801039839377, 6.512651845287762 ], [ 100.210155495756553, 6.513164253452481 ], [ 100.210536457470226, 6.513657527816735 ], [ 100.210942880790853, 6.514130316408091 ], [ 100.211373651740331, 6.514581323405542 ], [ 100.211827589605448, 6.515009312690559 ], [ 100.212303450174062, 6.515413111234614 ], [ 100.212799929145419, 6.515791612313619 ], [ 100.213315665705181, 6.516143778540785 ], [ 100.213849246255279, 6.51646864470938 ], [ 100.214399208288526, 6.516765320437674 ], [ 100.214964044397206, 6.517032992608798 ], [ 100.215542206404805, 6.517270927598921 ], [ 100.216132109609461, 6.517478473287494 ], [ 100.21673213712748, 6.517655060844282 ], [ 100.217340644325148, 6.517800206287983 ], [ 100.217955963326531, 6.517913511812461 ], [ 100.218576407585005, 6.517994666876819 ], [ 100.219200276506015, 6.518043449056319 ], [ 100.219825860108202, 6.518059724651852 ], [ 100.220451443710374, 6.518043449056319 ], [ 100.22107531263137, 6.517994666876819 ], [ 100.221695756889858, 6.517913511812461 ], [ 100.222311075891241, 6.517800206287983 ], [ 100.222919583088924, 6.517655060844282 ], [ 100.223519610606942, 6.517478473287494 ], [ 100.22410951381157, 6.517270927598921 ], [ 100.224687675819197, 6.517032992608798 ], [ 100.225252511927863, 6.516765320437674 ], [ 100.225802473961124, 6.51646864470938 ], [ 100.226336054511222, 6.516143778540785 ], [ 100.22685179107097, 6.515791612313619 ], [ 100.227348270042327, 6.515413111234614 ], [ 100.227824130610955, 6.515009312690559 ], [ 100.228278068476058, 6.514581323405542 ], [ 100.228708839425551, 6.514130316408091 ], [ 100.229115262746149, 6.513657527816735 ], [ 100.229496224459837, 6.513164253452481 ], [ 100.229850680377027, 6.512651845287762 ], [ 100.230177658958681, 6.512121707741371 ], [ 100.230476263979199, 6.511575293829688 ], [ 100.230745676983034, 6.511014101184657 ], [ 100.230985159527819, 6.510439667949416 ], [ 100.23119405520859, 6.509853568562908 ], [ 100.231371791456766, 6.509257409444842 ], [ 100.231517881109696, 6.508652824593116 ], [ 100.231631923745738, 6.508041471105443 ], [ 100.231713606781966, 6.507425024637643 ], [ 100.231762706330883, 6.506805174811099 ], [ 100.231779087814033, 6.506183620581736 ] ] ] } },
{ "type": "Feature", "properties": { "state": "Perlis", "parlimen": "P.002 Kangar", "code_parlimen": "P.002", "dun": "N.06 Bintong", "code_dun": "N.06", "voters_total": 7850 }, "geometry": { "type": "Polygon", "coordinates": [ [ [ 100.189276479458741, 6.492175491440064 ], [ 100.189259141778038, 6.491517637536203 ], [ 100.189207176257241, 6.490861585908233 ], [ 100.189120725330284, 6.490209134758718 ], [ 100.189000025953106, 6.489562072428432 ], [ 100.18884540895435, 6.488922172494498 ], [ 100.188657298128419, 6.488291188908856 ], [ 100.188436209074041, 6.48767085119044 ], [ 100.188182747780957, 6.487062859684315 ], [ 100.18789760896891, 6.486468880900693 ], [ 100.187581574183596, 6.48589054294656 ], [ 100.1872355096544, 6.485329431062643 ], [ 100.186860363920104, 6.484787083277724 ], [ 100.186457165229143, 6.484264986192333 ], [ 100.186027018721063, 6.48376457090341 ], [ 100.185571103397564, 6.483287209081102 ], [ 100.185090668890837, 6.482834209208263 ], [ 100.184587032038493, 6.482406812993377 ], [ 100.184061573274136, 6.482006191966306 ], [ 100.183515732843674, 6.481633444266556 ], [ 100.182951006857834, 6.481289591632519 ], [ 100.182368943191292, 6.480975576600409 ], [ 100.181771137240062, 6.480692259920099 ], [ 100.181159227548733, 6.480440418195246 ], [ 100.180534891319212, 6.480220741754151 ], [ 100.179899839813714, 6.480033832757044 ], [ 100.179255813664284, 6.479880203545182 ], [ 100.17860457810184, 6.479760275236115 ], [ 100.177947918117752, 6.47967437656915 ], [ 100.177287633571439, 6.479622743003957 ], [ 100.176625534256928, 6.479605516075118 ], [ 100.175963434942418, 6.479622743003957 ], [ 100.175303150396104, 6.47967437656915 ], [ 100.17464649041203, 6.479760275236115 ], [ 100.173995254849572, 6.479880203545182 ], [ 100.173351228700142, 6.480033832757044 ], [ 100.172716177194673, 6.480220741754151 ], [ 100.172091840965152, 6.480440418195246 ], [ 100.171479931273808, 6.480692259920099 ], [ 100.170882125322592, 6.480975576600409 ], [ 100.170300061656036, 6.481289591632519 ], [ 100.169735335670197, 6.481633444266556 ], [ 100.169189495239749, 6.482006191966306 ], [ 100.168664036475377, 6.482406812993377 ], [ 100.168160399623034, 6.482834209208263 ], [ 100.167679965116321, 6.483287209081102 ], [ 100.167224049792807, 6.48376457090341 ], [ 100.166793903284741, 6.484264986192333 ], [ 100.166390704593766, 6.484787083277724 ], [ 100.166015558859485, 6.485329431062643 ], [ 100.165669494330274, 6.48589054294656 ], [ 100.165353459544974, 6.486468880900693 ], [ 100.165068320732928, 6.487062859684315 ], [ 100.164814859439829, 6.48767085119044 ], [ 100.164593770385451, 6.488291188908856 ], [ 100.164405659559534, 6.488922172494498 ], [ 100.164251042560778, 6.489562072428432 ], [ 100.164130343183587, 6.490209134758718 ], [ 100.164043892256643, 6.490861585908233 ], [ 100.163991926735847, 6.491517637536203 ], [ 100.16397458905513, 6.492175491440064 ], [ 100.163991926735847, 6.492833344484374 ], [ 100.164043892256643, 6.49348939354313 ], [ 100.164130343183587, 6.49414184044191 ], [ 100.164251042560778, 6.494788896886515 ], [ 100.164405659559534, 6.495428789364301 ], [ 100.164593770385451, 6.496059764005039 ], [ 100.164814859439829, 6.496680091387786 ], [ 100.165068320732928, 6.497288071280687 ], [ 100.165353459544974, 6.497882037300807 ], [ 100.165669494330274, 6.498460361480976 ], [ 100.166015558859485, 6.499021458731389 ], [ 100.166390704593766, 6.499563791183592 ], [ 100.166793903284741, 6.500085872405038 ], [ 100.167224049792807, 6.500586271472598 ], [ 100.167679965116321, 6.501063616893854 ], [ 100.168160399623034, 6.501516600365629 ], [ 100.168664036475377, 6.501943980359164 ], [ 100.169189495239749, 6.502344585522277 ], [ 100.169735335670197, 6.502717317889324 ], [ 100.170300061656036, 6.503061155889857 ], [ 100.170882125322592, 6.503375157148003 ], [ 100.171479931273808, 6.503658461064811 ], [ 100.172091840965152, 6.503910291176441 ], [ 100.172716177194673, 6.504129957281853 ], [ 100.173351228700142, 6.504316857334043 ], [ 100.173995254849572, 6.504470479089769 ], [ 100.17464649041203, 6.504590401513156 ], [ 100.175303150396104, 6.504676295929399 ], [ 100.175963434942418, 6.504727926925365 ], [ 100.176625534256928, 6.504745152994666 ], [ 100.177287633571439, 6.504727926925365 ], [ 100.177947918117752, 6.504676295929399 ], [ 100.17860457810184, 6.504590401513156 ], [ 100.179255813664284, 6.504470479089769 ], [ 100.179899839813714, 6.504316857334043 ], [ 100.180534891319212, 6.504129957281853 ], [ 100.181159227548733, 6.503910291176441 ], [ 100.181771137240062, 6.503658461064811 ], [ 100.182368943191292, 6.503375157148003 ], [ 100.182951006857834, 6.503061155889857 ], [ 100.183515732843674, 6.502717317889324 ], [ 100.184061573274136, 6.502344585522277 ], [ 100.184587032038493, 6.501943980359164 ], [ 100.185090668890837, 6.501516600365629 ], [ 100.185571103397564, 6.501063616893854 ], [ 100.186027018721063, 6.500586271472598 ], [ 100.186457165229143, 6.500085872405038 ], [ 100.186860363920104, 6.499563791183592 ], [ 100.1872355096544, 6.499021458731389 ], [ 100.187581574183596, 6.498460361480976 ], [ 100.18789760896891, 6.497882037300807 ], [ 100.188182747780957, 6.497288071280687 ], [ 100.188436209074041, 6.496680091387786 ], [ 100.188657298128419, 6.496059764005039 ], [ 100.18884540895435, 6.495428789364301 ], [ 100.189000025953106, 6.494788896886515 ], [ 100.189120725330284, 6.49414184044191 ], [ 100.189207176257241, 6.49348939354313 ], [ 100.189259141778038, 6.492833344484374 ], [ 100.189276479458741, 6.492175491440064 ] ] ] } },
{ "type": "Feature", "properties": { "state": "Perlis", "parlimen": "P.002 Kangar", "code_parlimen": "P.002", "dun": "N.07 Sena", "code_dun": "N.07", "voters_total": 7979 }, "geometry": { "type": "Polygon", "coordinates": [ [ [ 100.234710259830493, 6.442105190850669 ], [ 100.234692780274159, 6.441441887972744 ], [ 100.234640389515391, 6.440780402298488 ], [ 100.234553231153654, 6.440122546924919 ], [ 100.234431544083932, 6.439470125005554 ], [ 100.23427566184202, 6.438824924808014 ], [ 100.234086011690337, 6.438188714812125 ], [ 100.233863113446731, 6.437563238862419 ], [ 100.233607578059832, 6.436950211387827 ], [ 100.233320105934325, 6.436351312702231 ], [ 100.233001485011386, 6.435768184398207 ], [ 100.232652588608744, 6.43520242484696 ], [ 100.232274373027238, 6.434655584816722 ], [ 100.231867874929492, 6.434129163221535 ], [ 100.231434208498499, 6.433624603012086 ], [ 100.230974562383835, 6.43314328722002 ], [ 100.230490196443526, 6.432686535166344 ], [ 100.229982438290975, 6.432255598844598 ], [ 100.229452679655964, 6.431851659488405 ], [ 100.22890237257009, 6.431475824333147 ], [ 100.228333025386831, 6.43112912358028 ], [ 100.227746198647253, 6.430812507573016 ], [ 100.227143500802626, 6.430526844190814 ], [ 100.226526583805864, 6.43027291646995 ], [ 100.225897138583591, 6.430051420456701 ], [ 100.225256890401397, 6.429862963298981 ], [ 100.224607594135023, 6.429708061581757 ], [ 100.223951029460437, 6.42958713991072 ], [ 100.223288995975764, 6.429500529748101 ], [ 100.222623308268766, 6.429448468503898 ], [ 100.22195579094317, 6.429431098885006 ], [ 100.221288273617589, 6.429448468503898 ], [ 100.22062258591059, 6.429500529748101 ], [ 100.219960552425903, 6.42958713991072 ], [ 100.219303987751317, 6.429708061581757 ], [ 100.218654691484957, 6.429862963298981 ], [ 100.218014443302764, 6.430051420456701 ], [ 100.217384998080476, 6.43027291646995 ], [ 100.216768081083728, 6.430526844190814 ], [ 100.216165383239101, 6.430812507573016 ], [ 100.215578556499509, 6.43112912358028 ], [ 100.215009209316264, 6.431475824333147 ], [ 100.21445890223039, 6.431851659488405 ], [ 100.213929143595365, 6.432255598844598 ], [ 100.213421385442814, 6.432686535166344 ], [ 100.212937019502505, 6.43314328722002 ], [ 100.212477373387856, 6.433624603012086 ], [ 100.212043706956862, 6.434129163221535 ], [ 100.211637208859102, 6.434655584816722 ], [ 100.21125899327761, 6.43520242484696 ], [ 100.210910096874969, 6.435768184398207 ], [ 100.210591475952015, 6.436351312702231 ], [ 100.210304003826522, 6.436950211387827 ], [ 100.210048468439609, 6.437563238862419 ], [ 100.209825570196003, 6.438188714812125 ], [ 100.20963592004432, 6.438824924808014 ], [ 100.209480037802422, 6.439470125005554 ], [ 100.2093583507327, 6.440122546924919 ], [ 100.209271192370949, 6.440780402298488 ], [ 100.209218801612181, 6.441441887972744 ], [ 100.209201322055847, 6.442105190850669 ], [ 100.209218801612181, 6.442768492861562 ], [ 100.209271192370949, 6.443429975944174 ], [ 100.2093583507327, 6.444087827029923 ], [ 100.209480037802422, 6.444740243012236 ], [ 100.20963592004432, 6.445385435688578 ], [ 100.209825570196003, 6.446021636661476 ], [ 100.210048468439609, 6.44664710218531 ], [ 100.210304003826522, 6.447260117945322 ], [ 100.210591475952015, 6.447859003756032 ], [ 100.210910096874969, 6.448442118165891 ], [ 100.21125899327761, 6.449007862955931 ], [ 100.211637208859102, 6.449554687519639 ], [ 100.212043706956862, 6.450081093112439 ], [ 100.212477373387856, 6.450585636958952 ], [ 100.212937019502505, 6.45106693620684 ], [ 100.213421385442814, 6.451523671716314 ], [ 100.213929143595365, 6.45195459167515 ], [ 100.21445890223039, 6.452358515028942 ], [ 100.215009209316264, 6.452734334717671 ], [ 100.215578556499509, 6.453081020709329 ], [ 100.216165383239101, 6.453397622822429 ], [ 100.216768081083728, 6.453683273329734 ], [ 100.217384998080476, 6.453937189336029 ], [ 100.218014443302764, 6.454158674923394 ], [ 100.218654691484957, 6.454347123058148 ], [ 100.219303987751317, 6.454502017254149 ], [ 100.219960552425903, 6.454622932988146 ], [ 100.22062258591059, 6.454709538862945 ], [ 100.221288273617589, 6.454761597515505 ], [ 100.22195579094317, 6.454778966267365 ], [ 100.222623308268766, 6.454761597515505 ], [ 100.223288995975764, 6.454709538862945 ], [ 100.223951029460437, 6.454622932988146 ], [ 100.224607594135023, 6.454502017254149 ], [ 100.225256890401397, 6.454347123058148 ], [ 100.225897138583591, 6.454158674923394 ], [ 100.226526583805864, 6.453937189336029 ], [ 100.227143500802626, 6.453683273329734 ], [ 100.227746198647253, 6.453397622822429 ], [ 100.228333025386831, 6.453081020709329 ], [ 100.22890237257009, 6.452734334717671 ], [ 100.229452679655964, 6.452358515028942 ], [ 100.229982438290975, 6.45195459167515 ], [ 100.230490196443526, 6.451523671716314 ], [ 100.230974562383835, 6.45106693620684 ], [ 100.231434208498499, 6.450585636958952 ], [ 100.231867874929492, 6.450081093112439 ], [ 100.232274373027238, 6.449554687519639 ], [ 100.232652588608744, 6.449007862955931 ], [ 100.233001485011386, 6.448442118165891 ], [ 100.233320105934325, 6.447859003756032 ], [ 100.233607578059832, 6.447260117945322 ], [ 100.233863113446731, 6.44664710218531 ], [ 100.234086011690337, 6.446021636661476 ], [ 100.23427566184202, 6.445385435688578 ], [ 100.234431544083932, 6.444740243012236 ], [ 100.234553231153654, 6.444087827029923 ], [ 100.234640389515391, 6.443429975944174 ], [ 100.234692780274159, 6.442768492861562 ], [ 100.234710259830493, 6.442105190850669 ] ] ] } },
{ "type": "Feature", "properties": { "state": "Perlis", "parlimen": "P.002 Kangar", "code_parlimen": "P.002", "dun": "N.08 Indera Kayangan", "code_dun": "N.08", "voters_total": 9314 }, "geometry": { "type": "Polygon", "coordinates": [ [ [ 100.212636820804192, 6.423547556520774 ], [ 100.212617935486733, 6.422830882523471 ], [ 100.212561331297721, 6.422116171874799 ], [ 100.212467163385313, 6.42140538355944 ], [ 100.212335689857198, 6.420700465819397 ], [ 100.212167271073142, 6.420003350813649 ], [ 100.211962368657396, 6.419315949322034 ], [ 100.2117215442332, 6.418640145507462 ], [ 100.211445457883542, 6.417977791751136 ], [ 100.211134866341965, 6.417330703574697 ], [ 100.210790620918246, 6.416700654663442 ], [ 100.210413665165206, 6.416089372004114 ], [ 100.210005032292315, 6.415498531150538 ], [ 100.209565842333944, 6.414929751630344 ], [ 100.209097299079161, 6.414384592505153 ], [ 100.208600686772513, 6.413864548096395 ], [ 100.208077366593784, 6.413371043888682 ], [ 100.207528772927247, 6.412905432621777 ], [ 100.206956409429964, 6.41246899058192 ], [ 100.206361844910518, 6.412062914102822 ], [ 100.205746709028944, 6.411688316285735 ], [ 100.205112687829896, 6.411346223947702 ], [ 100.204461519121452, 6.411037574806367 ], [ 100.203794987711774, 6.410763214909021 ], [ 100.203114920517095, 6.410523896312982 ], [ 100.202423181554337, 6.410320275023659 ], [ 100.201721666831929, 6.410152909195879 ], [ 100.20101229915295, 6.410022257603651 ], [ 100.200297022844907, 6.409928678382229 ], [ 100.199577798430468, 6.409872428046236 ], [ 100.198856597253695, 6.409853660786277 ], [ 100.198135396076935, 6.409872428046236 ], [ 100.197416171662468, 6.409928678382229 ], [ 100.196700895354425, 6.410022257603651 ], [ 100.19599152767546, 6.410152909195879 ], [ 100.195290012953052, 6.410320275023659 ], [ 100.194598273990295, 6.410523896312982 ], [ 100.193918206795615, 6.410763214909021 ], [ 100.193251675385937, 6.411037574806367 ], [ 100.192600506677493, 6.411346223947702 ], [ 100.191966485478446, 6.411688316285735 ], [ 100.191351349596857, 6.412062914102822 ], [ 100.190756785077426, 6.41246899058192 ], [ 100.190184421580142, 6.412905432621777 ], [ 100.189635827913591, 6.413371043888682 ], [ 100.18911250773489, 6.413864548096395 ], [ 100.188615895428228, 6.414384592505153 ], [ 100.188147352173459, 6.414929751630344 ], [ 100.187708162215074, 6.415498531150538 ], [ 100.187299529342184, 6.416089372004114 ], [ 100.186922573589143, 6.416700654663442 ], [ 100.186578328165439, 6.417330703574697 ], [ 100.186267736623847, 6.417977791751136 ], [ 100.18599165027419, 6.418640145507462 ], [ 100.185750825849993, 6.419315949322034 ], [ 100.185545923434233, 6.420003350813649 ], [ 100.185377504650205, 6.420700465819397 ], [ 100.185246031122077, 6.42140538355944 ], [ 100.185151863209668, 6.422116171874799 ], [ 100.185095259020656, 6.422830882523471 ], [ 100.185076373703211, 6.423547556520774 ], [ 100.185095259020656, 6.424264229508823 ], [ 100.185151863209668, 6.424978937140816 ], [ 100.185246031122077, 6.425689720465095 ], [ 100.185377504650205, 6.426394631294391 ], [ 100.185545923434233, 6.42709173754537 ], [ 100.185750825849993, 6.427779128534183 ], [ 100.18599165027419, 6.428454920212928 ], [ 100.186267736623847, 6.429117260333415 ], [ 100.186578328165439, 6.429764333523374 ], [ 100.186922573589143, 6.430394366261698 ], [ 100.187299529342184, 6.431005631738856 ], [ 100.187708162215074, 6.431596454589271 ], [ 100.188147352173459, 6.432165215482547 ], [ 100.188615895428228, 6.432710355561165 ], [ 100.18911250773489, 6.433230380712337 ], [ 100.189635827913591, 6.433723865662479 ], [ 100.190184421580142, 6.434189457882811 ], [ 100.190756785077426, 6.434625881295762 ], [ 100.191351349596857, 6.435031939771687 ], [ 100.191966485478446, 6.435406520406603 ], [ 100.192600506677493, 6.435748596571718 ], [ 100.193251675385937, 6.436057230726572 ], [ 100.193918206795615, 6.436331576988066 ], [ 100.194598273990295, 6.436570883448291 ], [ 100.195290012953052, 6.4367744942348 ], [ 100.19599152767546, 6.436941851307823 ], [ 100.196700895354425, 6.437072495989291 ], [ 100.197416171662468, 6.437166070219634 ], [ 100.198135396076935, 6.437222317538961 ], [ 100.198856597253695, 6.437241083789678 ], [ 100.199577798430468, 6.437222317538961 ], [ 100.200297022844907, 6.437166070219634 ], [ 100.20101229915295, 6.437072495989291 ], [ 100.201721666831929, 6.436941851307823 ], [ 100.202423181554337, 6.4367744942348 ], [ 100.203114920517095, 6.436570883448291 ], [ 100.203794987711774, 6.436331576988066 ], [ 100.204461519121452, 6.436057230726572 ], [ 100.205112687829896, 6.435748596571718 ], [ 100.205746709028944, 6.435406520406603 ], [ 100.206361844910518, 6.435031939771687 ], [ 100.206956409429964, 6.434625881295762 ], [ 100.207528772927247, 6.434189457882811 ], [ 100.208077366593784, 6.433723865662479 ], [ 100.208600686772513, 6.433230380712337 ], [ 100.209097299079161, 6.432710355561165 ], [ 100.209565842333944, 6.432165215482547 ], [ 100.210005032292315, 6.431596454589271 ], [ 100.210413665165206, 6.431005631738856 ], [ 100.210790620918246, 6.430394366261698 ], [ 100.211134866341965, 6.429764333523374 ], [ 100.211445457883542, 6.429117260333415 ], [ 100.2117215442332, 6.428454920212928 ], [ 100.211962368657396, 6.427779128534183 ], [ 100.212167271073142, 6.42709173754537 ], [ 100.212335689857198, 6.426394631294391 ], [ 100.212467163385313, 6.425689720465095 ], [ 100.212561331297721, 6.424978937140816 ], [ 100.212617935486733, 6.424264229508823 ], [ 100.212636820804192, 6.423547556520774 ] ] ] } },
{ "type": "Feature", "properties": { "state": "Perlis", "parlimen": "P.002 Kangar", "code_parlimen": "P.002", "dun": "N.09 Kuala Perlis", "code_dun": "N.09", "voters_total": 8024 }, "geometry": { "type": "Polygon", "coordinates": [ [ [ 100.154052690331511, 6.410734149408551 ], [ 100.15403516155385, 6.410068937689208 ], [ 100.153982623266003, 6.409405548404847 ], [ 100.153895219471764, 6.408745799870122 ], [ 100.153773189738857, 6.408091500427613 ], [ 100.153616868542301, 6.407444443491116 ], [ 100.153426684347622, 6.406806402629661 ], [ 100.153203158436511, 6.406179126706086 ], [ 100.152946903477911, 6.405564335083 ], [ 100.152658621848886, 6.404963712909681 ], [ 100.152339103709323, 6.404378906502719 ], [ 100.151989224836242, 6.403811518832971 ], [ 100.15160994422331, 6.403263105131249 ], [ 100.151202301452315, 6.402735168624965 ], [ 100.150767413843752, 6.402229156417141 ], [ 100.15030647339438, 6.401746455519275 ], [ 100.149820743509864, 6.401288389048948 ], [ 100.149311555542084, 6.400856212602457 ], [ 100.148780305139866, 6.400451110812584 ], [ 100.148228448423637, 6.400074194100903 ], [ 100.147657497994302, 6.399726495633413 ], [ 100.147069018787306, 6.399408968488019 ], [ 100.146464623783231, 6.399122483041613 ], [ 100.145845969586759, 6.398867824583719 ], [ 100.145214751886073, 6.398645691163546 ], [ 100.144572700805014, 6.398456691676153 ], [ 100.143921576160949, 6.398301344193021 ], [ 100.14326316264129, 6.398180074541669 ], [ 100.142599264911709, 6.398093215138126 ], [ 100.141931702669737, 6.398041004075586 ], [ 100.141262305657094, 6.398023584471581 ], [ 100.140592908644436, 6.398041004075586 ], [ 100.13992534640245, 6.398093215138126 ], [ 100.139261448672869, 6.398180074541669 ], [ 100.138603035153224, 6.398301344193021 ], [ 100.137951910509159, 6.398456691676153 ], [ 100.1373098594281, 6.398645691163546 ], [ 100.136678641727414, 6.398867824583719 ], [ 100.136059987530956, 6.399122483041613 ], [ 100.135455592526867, 6.399408968488019 ], [ 100.134867113319871, 6.399726495633413 ], [ 100.134296162890521, 6.400074194100903 ], [ 100.133744306174322, 6.400451110812584 ], [ 100.133213055772089, 6.400856212602457 ], [ 100.13270386780431, 6.401288389048948 ], [ 100.132218137919807, 6.401746455519275 ], [ 100.131757197470421, 6.402229156417141 ], [ 100.131322309861858, 6.402735168624965 ], [ 100.130914667090863, 6.403263105131249 ], [ 100.130535386477931, 6.403811518832971 ], [ 100.130185507604864, 6.404378906502719 ], [ 100.129865989465287, 6.404963712909681 ], [ 100.129577707836262, 6.405564335083 ], [ 100.129321452877662, 6.406179126706086 ], [ 100.129097926966551, 6.406806402629661 ], [ 100.128907742771872, 6.407444443491116 ], [ 100.12875142157533, 6.408091500427613 ], [ 100.128629391842424, 6.408745799870122 ], [ 100.128541988048184, 6.409405548404847 ], [ 100.128489449760323, 6.410068937689208 ], [ 100.128471920982648, 6.410734149408551 ], [ 100.128489449760323, 6.411399360260124 ], [ 100.128541988048184, 6.412062746950716 ], [ 100.128629391842424, 6.412722491194072 ], [ 100.12875142157533, 6.413376784694631 ], [ 100.128907742771872, 6.414023834103735 ], [ 100.129097926966551, 6.414661865934768 ], [ 100.129321452877662, 6.415289131423858 ], [ 100.129577707836262, 6.415903911322721 ], [ 100.129865989465287, 6.416504520610519 ], [ 100.130185507604864, 6.417089313111841 ], [ 100.130535386477931, 6.417656686008217 ], [ 100.130914667090863, 6.418205084230651 ], [ 100.131322309861858, 6.418733004721354 ], [ 100.131757197470421, 6.419239000552744 ], [ 100.132218137919807, 6.419721684892782 ], [ 100.13270386780431, 6.420179734805268 ], [ 100.133213055772089, 6.420611894875337 ], [ 100.133744306174322, 6.421016980649603 ], [ 100.134296162890521, 6.421393881882008 ], [ 100.134867113319871, 6.421741565576115 ], [ 100.135455592526867, 6.422059078815869 ], [ 100.136059987530956, 6.422345551376766 ], [ 100.136678641727414, 6.422600198110437 ], [ 100.1373098594281, 6.422822321096125 ], [ 100.137951910509159, 6.423011311553097 ], [ 100.138603035153224, 6.423166651508823 ], [ 100.139261448672869, 6.423287915218237 ], [ 100.13992534640245, 6.42337477033041 ], [ 100.140592908644436, 6.42342697879917 ], [ 100.141262305657094, 6.423444397535418 ], [ 100.141931702669737, 6.42342697879917 ], [ 100.142599264911709, 6.42337477033041 ], [ 100.14326316264129, 6.423287915218237 ], [ 100.143921576160949, 6.423166651508823 ], [ 100.144572700805014, 6.423011311553097 ], [ 100.145214751886073, 6.422822321096125 ], [ 100.145845969586759, 6.422600198110437 ], [ 100.146464623783231, 6.422345551376766 ], [ 100.147069018787306, 6.422059078815869 ], [ 100.147657497994302, 6.421741565576115 ], [ 100.148228448423637, 6.421393881882008 ], [ 100.148780305139866, 6.421016980649603 ], [ 100.149311555542084, 6.420611894875337 ], [ 100.149820743509864, 6.420179734805268 ], [ 100.15030647339438, 6.419721684892782 ], [ 100.150767413843752, 6.419239000552744 ], [ 100.151202301452315, 6.418733004721354 ], [ 100.15160994422331, 6.418205084230651 ], [ 100.151989224836242, 6.417656686008217 ], [ 100.152339103709323, 6.417089313111841 ], [ 100.152658621848886, 6.416504520610519 ], [ 100.152946903477911, 6.415903911322721 ], [ 100.153203158436511, 6.415289131423858 ], [ 100.153426684347622, 6.414661865934768 ], [ 100.153616868542301, 6.414023834103735 ], [ 100.153773189738857, 6.413376784694631 ], [ 100.153895219471764, 6.412722491194072 ], [ 100.153982623266003, 6.412062746950716 ], [ 100.15403516155385, 6.411399360260124 ], [ 100.154052690331511, 6.410734149408551 ] ] ] } },
{ "type": "Feature", "properties": { "state": "Perlis", "parlimen": "P.002 Kangar", "code_parlimen": "P.002", "dun": "N.10 Kayang", "code_dun": "N.10", "voters_total": 7349 }, "geometry": { "type": "Polygon", "coordinates": [ [ [ 100.188359310793402, 6.404745831320946 ], [ 100.188342535493376, 6.404109206392132 ], [ 100.188292255573202, 6.403474325617306 ], [ 100.188208608846693, 6.402842929170362 ], [ 100.18809182458368, 6.402216747681276 ], [ 100.18794222288173, 6.401597497492389 ], [ 100.187760213788678, 6.400986875953768 ], [ 100.187546296178823, 6.400386556770609 ], [ 100.187301056385465, 6.399798185415319 ], [ 100.187025166593827, 6.399223374616979 ], [ 100.186719382998632, 6.398663699940485 ], [ 100.186384543731492, 6.398120695467509 ], [ 100.186021566563525, 6.397595849591068 ], [ 100.185631446389934, 6.397090600935405 ], [ 100.185215252503042, 6.396606334412118 ], [ 100.184774125661292, 6.396144377423616 ], [ 100.184309274962743, 6.395705996224073 ], [ 100.183821974530844, 6.395292392448063 ], [ 100.183313560022185, 6.394904699816275 ], [ 100.182785424965601, 6.394543981027381 ], [ 100.182239016942589, 6.394211224844613 ], [ 100.181675833619551, 6.393907343384999 ], [ 100.181097418642807, 6.393633169618674 ], [ 100.18050535740764, 6.393389455085252 ], [ 100.179901272712712, 6.393176867833299 ], [ 100.1792868203122, 6.392995990588878 ], [ 100.178663684377426, 6.392847319157792 ], [ 100.178033572880651, 6.392731261066372 ], [ 100.177398212913729, 6.392648134444054 ], [ 100.17675934595411, 6.392598167151243 ], [ 100.176118723091776, 6.392581496154545 ], [ 100.175478100229441, 6.392598167151243 ], [ 100.174839233269836, 6.392648134444054 ], [ 100.174203873302901, 6.392731261066372 ], [ 100.173573761806139, 6.392847319157792 ], [ 100.172950625871351, 6.392995990588878 ], [ 100.172336173470839, 6.393176867833299 ], [ 100.171732088775926, 6.393389455085252 ], [ 100.171140027540744, 6.393633169618674 ], [ 100.170561612564015, 6.393907343384999 ], [ 100.169998429240977, 6.394211224844613 ], [ 100.16945202121795, 6.394543981027381 ], [ 100.168923886161366, 6.394904699816275 ], [ 100.168415471652722, 6.395292392448063 ], [ 100.167928171220808, 6.395705996224073 ], [ 100.167463320522259, 6.396144377423616 ], [ 100.167022193680523, 6.396606334412118 ], [ 100.166605999793617, 6.397090600935405 ], [ 100.16621587962004, 6.397595849591068 ], [ 100.165852902452073, 6.398120695467509 ], [ 100.165518063184933, 6.398663699940485 ], [ 100.165212279589738, 6.399223374616979 ], [ 100.164936389798086, 6.399798185415319 ], [ 100.164691150004728, 6.400386556770609 ], [ 100.164477232394873, 6.400986875953768 ], [ 100.164295223301821, 6.401597497492389 ], [ 100.164145621599886, 6.402216747681276 ], [ 100.164028837336858, 6.402842929170362 ], [ 100.163945190610335, 6.403474325617306 ], [ 100.163894910690189, 6.404109206392132 ], [ 100.163878135390149, 6.404745831320946 ], [ 100.163894910690189, 6.405382455455729 ], [ 100.163945190610335, 6.406017333857161 ], [ 100.164028837336858, 6.406648726377341 ], [ 100.164145621599886, 6.407274902429345 ], [ 100.164295223301821, 6.407894145730371 ], [ 100.164477232394873, 6.408504759005822 ], [ 100.164691150004728, 6.409105068641058 ], [ 100.164936389798086, 6.40969342926826 ], [ 100.165212279589738, 6.410268228275877 ], [ 100.165518063184933, 6.410827890228231 ], [ 100.165852902452073, 6.411370881183023 ], [ 100.16621587962004, 6.411895712895361 ], [ 100.166605999793617, 6.412400946896173 ], [ 100.167022193680523, 6.412885198434441 ], [ 100.167463320522259, 6.413347140271926 ], [ 100.167928171220808, 6.413785506320451 ], [ 100.168415471652722, 6.414199095111431 ], [ 100.168923886161366, 6.414586773088381 ], [ 100.16945202121795, 6.414947477713183 ], [ 100.169998429240977, 6.415280220377754 ], [ 100.170561612564015, 6.415584089113215 ], [ 100.171140027540744, 6.41585825108883 ], [ 100.171732088775926, 6.416101954894164 ], [ 100.172336173470839, 6.416314532598181 ], [ 100.172950625871351, 6.416495401579446 ], [ 100.173573761806139, 6.416644066122671 ], [ 100.174203873302901, 6.416760118777009 ], [ 100.174839233269836, 6.416843241472564 ], [ 100.175478100229441, 6.416893206391994 ], [ 100.176118723091776, 6.41690987659466 ], [ 100.17675934595411, 6.416893206391994 ], [ 100.177398212913729, 6.416843241472564 ], [ 100.178033572880651, 6.416760118777009 ], [ 100.178663684377426, 6.416644066122671 ], [ 100.1792868203122, 6.416495401579446 ], [ 100.179901272712712, 6.416314532598181 ], [ 100.18050535740764, 6.416101954894164 ], [ 100.181097418642807, 6.41585825108883 ], [ 100.181675833619551, 6.415584089113215 ], [ 100.182239016942589, 6.415280220377754 ], [ 100.182785424965601, 6.414947477713183 ], [ 100.183313560022185, 6.414586773088381 ], [ 100.183821974530844, 6.414199095111431 ], [ 100.184309274962743, 6.413785506320451 ], [ 100.184774125661292, 6.413347140271926 ], [ 100.185215252503042, 6.412885198434441 ], [ 100.185631446389934, 6.412400946896173 ], [ 100.186021566563525, 6.411895712895361 ], [ 100.186384543731492, 6.411370881183023 ], [ 100.186719382998632, 6.410827890228231 ], [ 100.187025166593827, 6.410268228275877 ], [ 100.187301056385465, 6.40969342926826 ], [ 100.187546296178823, 6.409105068641058 ], [ 100.187760213788678, 6.408504759005822 ], [ 100.18794222288173, 6.407894145730371 ], [ 100.18809182458368, 6.407274902429345 ], [ 100.188208608846693, 6.406648726377341 ], [ 100.188292255573202, 6.406017333857161 ], [ 100.188342535493376, 6.405382455455729 ], [ 100.188359310793402, 6.404745831320946 ] ] ] } },
{ "type": "Feature", "properties": { "state": "Perlis", "parlimen": "P.003 Arau", "code_parlimen": "P.003", "dun": "N.11 Pauh", "code_dun": "N.11", "voters_total": 7601 }, "geometry": { "type": "Polygon", "coordinates": [ [ [ 100.327994400602904, 6.448010467704192 ], [ 100.327977340111403, 6.44736307477405 ], [ 100.327926205398498, 6.446717455479706 ], [ 100.327841136620904, 6.446075379428973 ], [ 100.32772236694619, 6.445438606524572 ], [ 100.327570221913831, 6.444808882140082 ], [ 100.32738511854275, 6.444187932335774 ], [ 100.327167564188443, 6.44357745912732 ], [ 100.326918155152242, 6.442979135820198 ], [ 100.326637575047002, 6.442394602422941 ], [ 100.32632659292328, 6.441825461151393 ], [ 100.325986061161473, 6.441273272036648 ], [ 100.325616913135448, 6.440739548648484 ], [ 100.325220160654325, 6.44022575394618 ], [ 100.324796891189024, 6.439733296267924 ], [ 100.324348264891768, 6.439263525470055 ], [ 100.323875511416048, 6.438817729226392 ], [ 100.323379926546252, 6.438397129498209 ], [ 100.322862868646098, 6.438002879184122 ], [ 100.322325754935335, 6.437636058959454 ], [ 100.321770057605292, 6.437297674313436 ], [ 100.321197299783762, 6.436988652792582 ], [ 100.320609051360094, 6.436709841457746 ], [ 100.320006924682332, 6.436462004561779 ], [ 100.31939257013785, 6.436245821454166 ], [ 100.318767671629743, 6.436061884718551 ], [ 100.31813394196142, 6.435910698548028 ], [ 100.317493118141797, 6.435792677362764 ], [ 100.316846956624474, 6.43570814467386 ], [ 100.316197228493223, 6.435657332196287 ], [ 100.31554571460768, 6.435640379213647 ], [ 100.314894200722151, 6.435657332196287 ], [ 100.3142444725909, 6.43570814467386 ], [ 100.313598311073576, 6.435792677362764 ], [ 100.312957487253968, 6.435910698548028 ], [ 100.312323757585631, 6.436061884718551 ], [ 100.311698859077524, 6.436245821454166 ], [ 100.311084504533042, 6.436462004561779 ], [ 100.31048237785528, 6.436709841457746 ], [ 100.309894129431612, 6.436988652792582 ], [ 100.309321371610068, 6.437297674313436 ], [ 100.308765674280039, 6.437636058959454 ], [ 100.308228560569276, 6.438002879184122 ], [ 100.307711502669122, 6.438397129498209 ], [ 100.307215917799326, 6.438817729226392 ], [ 100.306743164323606, 6.439263525470055 ], [ 100.306294538026336, 6.439733296267924 ], [ 100.305871268561063, 6.44022575394618 ], [ 100.305474516079911, 6.440739548648484 ], [ 100.305105368053901, 6.441273272036648 ], [ 100.30476483629208, 6.441825461151393 ], [ 100.304453854168372, 6.442394602422941 ], [ 100.304173274063132, 6.442979135820198 ], [ 100.303923865026931, 6.44357745912732 ], [ 100.303706310672624, 6.444187932335774 ], [ 100.303521207301543, 6.444808882140082 ], [ 100.303369062269169, 6.445438606524572 ], [ 100.30325029259447, 6.446075379428973 ], [ 100.303165223816876, 6.446717455479706 ], [ 100.303114089103971, 6.44736307477405 ], [ 100.30309702861247, 6.448010467704192 ], [ 100.303114089103971, 6.448657859807605 ], [ 100.303165223816876, 6.449303476630875 ], [ 100.30325029259447, 6.449945548593234 ], [ 100.303369062269169, 6.450582315836756 ], [ 100.303521207301543, 6.451212033049896 ], [ 100.303706310672624, 6.451832974250931 ], [ 100.303923865026931, 6.452443437518485 ], [ 100.304173274063132, 6.453041749655944 ], [ 100.304453854168372, 6.45362627077719 ], [ 100.30476483629208, 6.454195398800874 ], [ 100.305105368053901, 6.454747573841042 ], [ 100.305474516079911, 6.455281282482119 ], [ 100.305871268561063, 6.455795061926412 ], [ 100.306294538026336, 6.456287504002863 ], [ 100.306743164323606, 6.456757259026123 ], [ 100.307215917799326, 6.45720303949515 ], [ 100.307711502669122, 6.457623623621555 ], [ 100.308228560569276, 6.458017858677605 ], [ 100.308765674280039, 6.458384664155187 ], [ 100.309321371610068, 6.458723034726638 ], [ 100.309894129431612, 6.459032042999618 ], [ 100.31048237785528, 6.459310842058442 ], [ 100.311084504533042, 6.459558667784771 ], [ 100.311698859077524, 6.459774840951458 ], [ 100.312323757585631, 6.459958769083813 ], [ 100.312957487253968, 6.460109948082986 ], [ 100.313598311073576, 6.460227963607371 ], [ 100.3142444725909, 6.46031249220789 ], [ 100.314894200722151, 6.460363302214388 ], [ 100.31554571460768, 6.460380254370312 ], [ 100.316197228493223, 6.460363302214388 ], [ 100.316846956624474, 6.46031249220789 ], [ 100.317493118141797, 6.460227963607371 ], [ 100.31813394196142, 6.460109948082986 ], [ 100.318767671629743, 6.459958769083813 ], [ 100.31939257013785, 6.459774840951458 ], [ 100.320006924682332, 6.459558667784771 ], [ 100.320609051360094, 6.459310842058442 ], [ 100.321197299783762, 6.459032042999618 ], [ 100.321770057605292, 6.458723034726638 ], [ 100.322325754935335, 6.458384664155187 ], [ 100.322862868646098, 6.458017858677605 ], [ 100.323379926546252, 6.457623623621555 ], [ 100.323875511416048, 6.45720303949515 ], [ 100.324348264891768, 6.456757259026123 ], [ 100.324796891189024, 6.456287504002863 ], [ 100.325220160654325, 6.455795061926412 ], [ 100.325616913135448, 6.455281282482119 ], [ 100.325986061161473, 6.454747573841042 ], [ 100.32632659292328, 6.454195398800874 ], [ 100.326637575047002, 6.45362627077719 ], [ 100.326918155152242, 6.453041749655944 ], [ 100.327167564188443, 6.452443437518485 ], [ 100.32738511854275, 6.451832974250931 ], [ 100.327570221913831, 6.451212033049896 ], [ 100.32772236694619, 6.450582315836756 ], [ 100.327841136620904, 6.449945548593234 ], [ 100.327926205398498, 6.449303476630875 ], [ 100.327977340111403, 6.448657859807605 ], [ 100.327994400602904, 6.448010467704192 ] ] ] } },
{ "type": "Feature", "properties": { "state": "Perlis", "parlimen": "P.003 Arau", "code_parlimen": "P.003", "dun": "N.12 Tambun Tulang", "code_dun": "N.12", "voters_total": 8447 }, "geometry": { "type": "Polygon", "coordinates": [ [ [ 100.252673536906997, 6.407634806357649 ], [ 100.252655552032166, 6.406952281732661 ], [ 100.252601646702956, 6.406271626950999 ], [ 100.252511968670134, 6.405594707651411 ], [ 100.252386763734918, 6.404923379241296 ], [ 100.252226375075381, 6.404259481810911 ], [ 100.252031242305677, 6.403604835089564 ], [ 100.251801900271133, 6.402961233457535 ], [ 100.251538977582371, 6.402330441027288 ], [ 100.251243194892197, 6.40171418680776 ], [ 100.250915362920367, 6.401114159964623 ], [ 100.250556380231544, 6.400532005189865 ], [ 100.250167230772348, 6.399969318193098 ], [ 100.249748981174392, 6.399427641327168 ], [ 100.249302777830735, 6.398908459359871 ], [ 100.248829843753754, 6.398413195403655 ], [ 100.248331475222841, 6.397943207014065 ], [ 100.247809038231523, 6.397499782468122 ], [ 100.247263964743283, 6.39708413723239 ], [ 100.24669774876665, 6.396697410630692 ], [ 100.246111942260271, 6.396340662720579 ], [ 100.245508150879061, 6.39601487138701 ], [ 100.244888029573204, 6.395720929661433 ], [ 100.244253278052142, 6.395459643273245 ], [ 100.243605636125608, 6.395231728440881 ], [ 100.242946878935172, 6.395037809908075 ], [ 100.242278812088458, 6.394878419230984 ], [ 100.241603266710271, 6.394753993320877 ], [ 100.240922094423553, 6.394664873246138 ], [ 100.240237162274155, 6.394611303297197 ], [ 100.239550347613516, 6.394593430316775 ], [ 100.238863532952891, 6.394611303297197 ], [ 100.238178600803508, 6.394664873246138 ], [ 100.237497428516775, 6.394753993320877 ], [ 100.236821883138603, 6.394878419230984 ], [ 100.236153816291875, 6.395037809908075 ], [ 100.235495059101453, 6.395231728440881 ], [ 100.234847417174919, 6.395459643273245 ], [ 100.234212665653843, 6.395720929661433 ], [ 100.233592544347999, 6.39601487138701 ], [ 100.23298875296679, 6.396340662720579 ], [ 100.232402946460411, 6.396697410630692 ], [ 100.231836730483764, 6.39708413723239 ], [ 100.231291656995523, 6.397499782468122 ], [ 100.230769220004206, 6.397943207014065 ], [ 100.230270851473307, 6.398413195403655 ], [ 100.229797917396311, 6.398908459359871 ], [ 100.229351714052655, 6.399427641327168 ], [ 100.228933464454713, 6.399969318193098 ], [ 100.228544314995517, 6.400532005189865 ], [ 100.228185332306694, 6.401114159964623 ], [ 100.227857500334864, 6.40171418680776 ], [ 100.22756171764469, 6.402330441027288 ], [ 100.227298794955914, 6.402961233457535 ], [ 100.227069452921384, 6.403604835089564 ], [ 100.22687432015168, 6.404259481810911 ], [ 100.226713931492114, 6.404923379241296 ], [ 100.226588726556926, 6.405594707651411 ], [ 100.22649904852409, 6.406271626950999 ], [ 100.226445143194866, 6.406952281732661 ], [ 100.22642715832005, 6.407634806357649 ], [ 100.226445143194866, 6.408317330069575 ], [ 100.22649904852409, 6.408997982122029 ], [ 100.226588726556926, 6.409674896906171 ], [ 100.226713931492114, 6.410346219064078 ], [ 100.22687432015168, 6.411010108574004 ], [ 100.227069452921384, 6.41166474579338 ], [ 100.227298794955914, 6.412308336446071 ], [ 100.22756171764469, 6.412939116539889 ], [ 100.227857500334864, 6.413555357201081 ], [ 100.228185332306694, 6.414155369412483 ], [ 100.228544314995517, 6.414737508642445 ], [ 100.228933464454713, 6.415300179351642 ], [ 100.229351714052655, 6.415841839365721 ], [ 100.229797917396311, 6.416361004101461 ], [ 100.230270851473307, 6.416856250635272 ], [ 100.230769220004206, 6.417326221602419 ], [ 100.231291656995523, 6.417769628916817 ], [ 100.231836730483764, 6.418185257300685 ], [ 100.232402946460411, 6.418571967614827 ], [ 100.23298875296679, 6.418928699980144 ], [ 100.233592544347999, 6.419254476681979 ], [ 100.234212665653843, 6.419548404849206 ], [ 100.234847417174919, 6.419809678900977 ], [ 100.235495059101453, 6.420037582753991 ], [ 100.236153816291875, 6.42023149178485 ], [ 100.236821883138603, 6.42039087454147 ], [ 100.237497428516775, 6.42051529419937 ], [ 100.238178600803508, 6.420604409758663 ], [ 100.238863532952891, 6.420657976978396 ], [ 100.239550347613516, 6.420675849045744 ], [ 100.240237162274155, 6.420657976978396 ], [ 100.240922094423553, 6.420604409758663 ], [ 100.241603266710271, 6.42051529419937 ], [ 100.242278812088458, 6.42039087454147 ], [ 100.242946878935172, 6.42023149178485 ], [ 100.243605636125608, 6.420037582753991 ], [ 100.244253278052142, 6.419809678900977 ], [ 100.244888029573204, 6.419548404849206 ], [ 100.245508150879061, 6.419254476681979 ], [ 100.246111942260271, 6.418928699980144 ], [ 100.24669774876665, 6.418571967614827 ], [ 100.247263964743283, 6.418185257300685 ], [ 100.247809038231523, 6.417769628916817 ], [ 100.248331475222841, 6.417326221602419 ], [ 100.248829843753754, 6.416856250635272 ], [ 100.249302777830735, 6.416361004101461 ], [ 100.249748981174392, 6.415841839365721 ], [ 100.250167230772348, 6.415300179351642 ], [ 100.250556380231544, 6.414737508642445 ], [ 100.250915362920367, 6.414155369412483 ], [ 100.251243194892197, 6.413555357201081 ], [ 100.251538977582371, 6.412939116539889 ], [ 100.251801900271133, 6.412308336446071 ], [ 100.252031242305677, 6.41166474579338 ], [ 100.252226375075381, 6.411010108574004 ], [ 100.252386763734918, 6.410346219064078 ], [ 100.252511968670134, 6.409674896906171 ], [ 100.252601646702956, 6.408997982122029 ], [ 100.252655552032166, 6.408317330069575 ], [ 100.252673536906997, 6.407634806357649 ] ] ] } },
{ "type": "Feature", "properties": { "state": "Perlis", "parlimen": "P.003 Arau", "code_parlimen": "P.003", "dun": "N.13 Guar Sanji", "code_dun": "N.13", "voters_total": 7765 }, "geometry": { "type": "Polygon", "coordinates": [ [ [ 100.273354988167966, 6.377106570840819 ], [ 100.273337744609151, 6.376452140058221 ], [ 100.273286061196089, 6.375799502192996 ], [ 100.273200079589458, 6.375150446090547 ], [ 100.273080035458833, 6.374506750785534 ], [ 100.272926257836858, 6.373870180625629 ], [ 100.272739168217285, 6.373242480435246 ], [ 100.272519279399759, 6.372625370732727 ], [ 100.272267194084236, 6.372020543014175 ], [ 100.27198360321907, 6.371429655116723 ], [ 100.271669284107105, 6.370854326674012 ], [ 100.271325098275142, 6.370296134676286 ], [ 100.27095198911266, 6.369756609147453 ], [ 100.270550979285957, 6.369237228950673 ], [ 100.270123167935012, 6.368739417734255 ], [ 100.269669727661096, 6.368264540028877 ], [ 100.269191901312453, 6.367813897506733 ], [ 100.268690998577853, 6.367388725413051 ], [ 100.268168392396888, 6.366990189179715 ], [ 100.267625515196812, 6.366619381230064 ], [ 100.267063854966267, 6.366277317984043 ], [ 100.266484951176906, 6.365964937071603 ], [ 100.265890390563769, 6.365683094761982 ], [ 100.265281802776201, 6.365432563616262 ], [ 100.264660855910975, 6.365214030369162 ], [ 100.264029251940329, 6.365028094046338 ], [ 100.263388722046827, 6.364875264321957 ], [ 100.262741021878384, 6.364755960121392 ], [ 100.262087926736157, 6.364670508472609 ], [ 100.26143122670851, 6.364619143609581 ], [ 100.260772721764582, 6.364602006330069 ], [ 100.260114216820654, 6.364619143609581 ], [ 100.259457516793006, 6.364670508472609 ], [ 100.25880442165078, 6.364755960121392 ], [ 100.258156721482337, 6.364875264321957 ], [ 100.257516191588834, 6.365028094046338 ], [ 100.256884587618188, 6.365214030369162 ], [ 100.256263640752962, 6.365432563616262 ], [ 100.255655052965395, 6.365683094761982 ], [ 100.255060492352243, 6.365964937071603 ], [ 100.254481588562896, 6.366277317984043 ], [ 100.253919928332351, 6.366619381230064 ], [ 100.253377051132276, 6.366990189179715 ], [ 100.252854444951311, 6.367388725413051 ], [ 100.25235354221671, 6.367813897506733 ], [ 100.251875715868053, 6.368264540028877 ], [ 100.251422275594152, 6.368739417734255 ], [ 100.250994464243206, 6.369237228950673 ], [ 100.250593454416503, 6.369756609147453 ], [ 100.250220345254021, 6.370296134676286 ], [ 100.249876159422058, 6.370854326674012 ], [ 100.249561840310093, 6.371429655116723 ], [ 100.249278249444927, 6.372020543014175 ], [ 100.249026164129404, 6.372625370732727 ], [ 100.248806275311878, 6.373242480435246 ], [ 100.248619185692306, 6.373870180625629 ], [ 100.248465408070331, 6.374506750785534 ], [ 100.248345363939706, 6.375150446090547 ], [ 100.248259382333075, 6.375799502192996 ], [ 100.248207698920012, 6.376452140058221 ], [ 100.248190455361197, 6.377106570840819 ], [ 100.248207698920012, 6.377761000787988 ], [ 100.248259382333075, 6.378413636156095 ], [ 100.248345363939706, 6.379062688127143 ], [ 100.248465408070331, 6.379706377711662 ], [ 100.248619185692306, 6.380342940624698 ], [ 100.248806275311878, 6.380970632121227 ], [ 100.249026164129404, 6.381587731778154 ], [ 100.249278249444927, 6.382192548209451 ], [ 100.249561840310093, 6.382783423701621 ], [ 100.249876159422058, 6.383358738756971 ], [ 100.250220345254021, 6.383916916531905 ], [ 100.250593454416503, 6.384456427158375 ], [ 100.250994464243206, 6.384975791936463 ], [ 100.251422275594152, 6.385473587386808 ], [ 100.251875715868053, 6.385948449151462 ], [ 100.25235354221671, 6.386399075732882 ], [ 100.252854444951311, 6.386824232060479 ], [ 100.253377051132276, 6.387222752875133 ], [ 100.253919928332351, 6.387593545922411 ], [ 100.254481588562896, 6.38793559494564 ], [ 100.255060492352243, 6.38824796247073 ], [ 100.255655052965395, 6.388529792375068 ], [ 100.256263640752962, 6.388780312233534 ], [ 100.256884587618188, 6.38899883543503 ], [ 100.257516191588834, 6.389184763064 ], [ 100.258156721482337, 6.389337585541525 ], [ 100.25880442165078, 6.389456884021596 ], [ 100.259457516793006, 6.389542331538964 ], [ 100.260114216820654, 6.389593693904888 ], [ 100.260772721764582, 6.389610830348983 ], [ 100.26143122670851, 6.389593693904888 ], [ 100.262087926736157, 6.389542331538964 ], [ 100.262741021878384, 6.389456884021596 ], [ 100.263388722046827, 6.389337585541525 ], [ 100.264029251940329, 6.389184763064 ], [ 100.264660855910975, 6.38899883543503 ], [ 100.265281802776201, 6.388780312233534 ], [ 100.265890390563769, 6.388529792375068 ], [ 100.266484951176906, 6.38824796247073 ], [ 100.267063854966267, 6.38793559494564 ], [ 100.267625515196812, 6.387593545922411 ], [ 100.268168392396888, 6.387222752875133 ], [ 100.268690998577853, 6.386824232060479 ], [ 100.269191901312453, 6.386399075732882 ], [ 100.269669727661096, 6.385948449151462 ], [ 100.270123167935012, 6.385473587386808 ], [ 100.270550979285957, 6.384975791936463 ], [ 100.27095198911266, 6.384456427158375 ], [ 100.271325098275142, 6.383916916531905 ], [ 100.271669284107105, 6.383358738756971 ], [ 100.27198360321907, 6.382783423701621 ], [ 100.272267194084236, 6.382192548209451 ], [ 100.272519279399759, 6.381587731778154 ], [ 100.272739168217285, 6.380970632121227 ], [ 100.272926257836858, 6.380342940624698 ], [ 100.273080035458833, 6.379706377711662 ], [ 100.273200079589458, 6.379062688127143 ], [ 100.273286061196089, 6.378413636156095 ], [ 100.273337744609151, 6.377761000787988 ], [ 100.273354988167966, 6.377106570840819 ] ] ] } },
{ "type": "Feature", "properties": { "state": "Perlis", "parlimen": "P.003 Arau", "code_parlimen": "P.003", "dun": "N.14 Simpang Empat", "code_dun": "N.14", "voters_total": 6554 }, "geometry": { "type": "Polygon", "coordinates": [ [ [ 100.1871249467643, 6.351955454086157 ], [ 100.187109104786828, 6.351354186975519 ], [ 100.18706162227619, 6.35075456719678 ], [ 100.186982629378647, 6.350158238274791 ], [ 100.18687234260824, 6.349566834719974 ], [ 100.186731064253337, 6.348981977548204 ], [ 100.186559181548077, 6.348405269837397 ], [ 100.186357165611042, 6.347838292333368 ], [ 100.186125570153834, 6.347282599116788 ], [ 100.185865029963523, 6.346739713343143 ], [ 100.185576259162673, 6.346211123067446 ], [ 100.185260049251923, 6.345698277165137 ], [ 100.184917266940744, 6.345202581360318 ], [ 100.184548851771552, 6.344725394372172 ], [ 100.184155813544734, 6.344268024190312 ], [ 100.183739229550781, 6.343831724489005 ], [ 100.183300241617431, 6.343417691190421 ], [ 100.182840052980126, 6.343027059186074 ], [ 100.182359924983885, 6.342660899225499 ], [ 100.181861173626231, 6.342320214980905 ], [ 100.181345165949935, 6.342005940295537 ], [ 100.180813316296167, 6.341718936623495 ], [ 100.180267082427861, 6.341459990668072 ], [ 100.179707961534092, 6.341229812224928 ], [ 100.179137486126365, 6.341029032236077 ], [ 100.178557219838112, 6.340858201060147 ], [ 100.177968753138913, 6.340717786963511 ], [ 100.17737369897506, 6.340608174836426 ], [ 100.176773688348661, 6.340529665137828 ], [ 100.17617036584717, 6.340482473071591 ], [ 100.17556538513557, 6.34046672799651 ], [ 100.17496040442397, 6.340482473071591 ], [ 100.17435708192248, 6.340529665137828 ], [ 100.173757071296095, 6.340608174836426 ], [ 100.173162017132228, 6.340717786963511 ], [ 100.172573550433015, 6.340858201060147 ], [ 100.171993284144762, 6.341029032236077 ], [ 100.171422808737034, 6.341229812224928 ], [ 100.170863687843294, 6.341459990668072 ], [ 100.170317453974988, 6.341718936623495 ], [ 100.169785604321206, 6.342005940295537 ], [ 100.169269596644909, 6.342320214980905 ], [ 100.168770845287241, 6.342660899225499 ], [ 100.168290717291001, 6.343027059186074 ], [ 100.16783052865371, 6.343417691190421 ], [ 100.167391540720359, 6.343831724489005 ], [ 100.166974956726406, 6.344268024190312 ], [ 100.166581918499602, 6.344725394372172 ], [ 100.166213503330397, 6.345202581360318 ], [ 100.165870721019218, 6.345698277165137 ], [ 100.165554511108482, 6.346211123067446 ], [ 100.165265740307618, 6.346739713343143 ], [ 100.165005200117307, 6.347282599116788 ], [ 100.164773604660112, 6.347838292333368 ], [ 100.164571588723064, 6.348405269837397 ], [ 100.164399706017804, 6.348981977548204 ], [ 100.164258427662901, 6.349566834719974 ], [ 100.164148140892479, 6.350158238274791 ], [ 100.164069147994937, 6.35075456719678 ], [ 100.164021665484299, 6.351354186975519 ], [ 100.164005823506841, 6.351955454086157 ], [ 100.164021665484299, 6.352556720494415 ], [ 100.164069147994937, 6.353156338173657 ], [ 100.164148140892479, 6.353752663622074 ], [ 100.164258427662901, 6.354344062367268 ], [ 100.164399706017804, 6.3549289134461 ], [ 100.164571588723064, 6.35550561384737 ], [ 100.164773604660112, 6.35607258290536 ], [ 100.165005200117307, 6.356628266631954 ], [ 100.165265740307618, 6.357171141975644 ], [ 100.165554511108482, 6.35769972099565 ], [ 100.165870721019218, 6.358212554939863 ], [ 100.166213503330397, 6.358708238215217 ], [ 100.166581918499602, 6.359185412239792 ], [ 100.166974956726406, 6.359642769166014 ], [ 100.167391540720359, 6.360079055464847 ], [ 100.16783052865371, 6.360493075360942 ], [ 100.168290717291001, 6.360883694109665 ], [ 100.168770845287241, 6.361249841106669 ], [ 100.169269596644909, 6.361590512821786 ], [ 100.169785604321206, 6.361904775549083 ], [ 100.170317453974988, 6.362191767965421 ], [ 100.170863687843294, 6.362450703490877 ], [ 100.171422808737034, 6.362680872444034 ], [ 100.171993284144762, 6.362881643986858 ], [ 100.172573550433015, 6.363052467853251 ], [ 100.173162017132228, 6.363192875856937 ], [ 100.173757071296095, 6.363302483174412 ], [ 100.17435708192248, 6.363380989399436 ], [ 100.17496040442397, 6.363428179366177 ], [ 100.17556538513557, 6.363443923738877 ], [ 100.17617036584717, 6.363428179366177 ], [ 100.176773688348661, 6.363380989399436 ], [ 100.17737369897506, 6.363302483174412 ], [ 100.177968753138913, 6.363192875856937 ], [ 100.178557219838112, 6.363052467853251 ], [ 100.179137486126365, 6.362881643986858 ], [ 100.179707961534092, 6.362680872444034 ], [ 100.180267082427861, 6.362450703490877 ], [ 100.180813316296167, 6.362191767965421 ], [ 100.181345165949935, 6.361904775549083 ], [ 100.181861173626231, 6.361590512821786 ], [ 100.182359924983885, 6.361249841106669 ], [ 100.182840052980126, 6.360883694109665 ], [ 100.183300241617431, 6.360493075360942 ], [ 100.183739229550781, 6.360079055464847 ], [ 100.184155813544734, 6.359642769166014 ], [ 100.184548851771552, 6.359185412239792 ], [ 100.184917266940744, 6.358708238215217 ], [ 100.185260049251923, 6.358212554939863 ], [ 100.185576259162673, 6.35769972099565 ], [ 100.185865029963523, 6.357171141975644 ], [ 100.186125570153834, 6.356628266631954 ], [ 100.186357165611042, 6.35607258290536 ], [ 100.186559181548077, 6.35550561384737 ], [ 100.186731064253337, 6.3549289134461 ], [ 100.18687234260824, 6.354344062367268 ], [ 100.186982629378647, 6.353752663622074 ], [ 100.18706162227619, 6.353156338173657 ], [ 100.187109104786828, 6.352556720494415 ], [ 100.1871249467643, 6.351955454086157 ] ] ] } },
{ "type": "Feature", "properties": { "state": "Perlis", "parlimen": "P.003 Arau", "code_parlimen": "P.003", "dun": "N.15 Sanglang", "code_dun": "N.15", "voters_total": 7700 }, "geometry": { "type": "Polygon", "coordinates": [ [ [ 100.211077138482722, 6.307754950562952 ], [ 100.211059967247579, 6.307103176945895 ], [ 100.211008500607349, 6.306453188978913 ], [ 100.210922879628498, 6.305806768243972 ], [ 100.210803338992179, 6.305165686552109 ], [ 100.210650206350948, 6.304531701086798 ], [ 100.210463901430771, 6.303906549587396 ], [ 100.210244934880464, 6.303291945585802 ], [ 100.209993906872114, 6.302689573709394 ], [ 100.209711505456042, 6.30210108506311 ], [ 100.209398504674922, 6.30152809270345 ], [ 100.209055762442119, 6.300972167216598 ], [ 100.208684218190257, 6.300434832412965 ], [ 100.208284890296341, 6.299917561149949 ], [ 100.207858873290348, 6.299421771294208 ], [ 100.207407334855276, 6.298948821834774 ], [ 100.206931512626596, 6.298500009157415 ], [ 100.206432710799973, 6.29807656349067 ], [ 100.205912296556534, 6.297679645533124 ], [ 100.205371696315552, 6.297310343271379 ], [ 100.204812391824689, 6.296969668997225 ], [ 100.204235916098696, 6.296658556532408 ], [ 100.203643849217471, 6.29637785866842 ], [ 100.203037813995181, 6.29612834482851 ], [ 100.202419471532224, 6.295910698958176 ], [ 100.201790516662342, 6.295725517650039 ], [ 100.201152673307092, 6.295573308508146 ], [ 100.200507689750779, 6.295454488756338 ], [ 100.199857333848513, 6.295369384094291 ], [ 100.199203388180578, 6.295318227804596 ], [ 100.198547645166656, 6.295301160113127 ], [ 100.197891902152733, 6.295318227804596 ], [ 100.197237956484798, 6.295369384094291 ], [ 100.196587600582532, 6.295454488756338 ], [ 100.195942617026219, 6.295573308508146 ], [ 100.195304773670983, 6.295725517650039 ], [ 100.194675818801088, 6.295910698958176 ], [ 100.194057476338145, 6.29612834482851 ], [ 100.19345144111584, 6.29637785866842 ], [ 100.192859374234601, 6.296658556532408 ], [ 100.192282898508623, 6.296969668997225 ], [ 100.191723594017773, 6.297310343271379 ], [ 100.191182993776778, 6.297679645533124 ], [ 100.190662579533324, 6.29807656349067 ], [ 100.190163777706715, 6.298500009157415 ], [ 100.189687955478036, 6.298948821834774 ], [ 100.189236417042963, 6.299421771294208 ], [ 100.188810400036971, 6.299917561149949 ], [ 100.188411072143055, 6.300434832412965 ], [ 100.188039527891192, 6.300972167216598 ], [ 100.187696785658389, 6.30152809270345 ], [ 100.187383784877269, 6.30210108506311 ], [ 100.187101383461197, 6.302689573709394 ], [ 100.186850355452847, 6.303291945585802 ], [ 100.186631388902541, 6.303906549587396 ], [ 100.186445083982363, 6.304531701086798 ], [ 100.186291951341119, 6.305165686552109 ], [ 100.186172410704813, 6.305806768243972 ], [ 100.186086789725948, 6.306453188978913 ], [ 100.186035323085733, 6.307103176945895 ], [ 100.186018151850575, 6.307754950562952 ], [ 100.186035323085733, 6.308406723360443 ], [ 100.186086789725948, 6.309056708877725 ], [ 100.186172410704813, 6.309703125559646 ], [ 100.186291951341119, 6.310344201639598 ], [ 100.186445083982363, 6.310978179995581 ], [ 100.186631388902541, 6.311603322966122 ], [ 100.186850355452847, 6.312217917112792 ], [ 100.187101383461197, 6.312820277916163 ], [ 100.187383784877269, 6.313408754392602 ], [ 100.187696785658389, 6.313981733618975 ], [ 100.188039527891192, 6.314537645152989 ], [ 100.188411072143055, 6.315074965337087 ], [ 100.188810400036971, 6.315592221474047 ], [ 100.189236417042963, 6.316087995862929 ], [ 100.189687955478036, 6.316560929684186 ], [ 100.190163777706715, 6.317009726723356 ], [ 100.190662579533324, 6.317433156923253 ], [ 100.191182993776778, 6.317830059754743 ], [ 100.191723594017773, 6.318199347396955 ], [ 100.192282898508623, 6.318540007718257 ], [ 100.192859374234601, 6.318851107049786 ], [ 100.19345144111584, 6.319131792743942 ], [ 100.194057476338145, 6.319381295510815 ], [ 100.194675818801088, 6.319598931526214 ], [ 100.195304773670983, 6.319784104305501 ], [ 100.195942617026219, 6.319936306338065 ], [ 100.196587600582532, 6.320055120477964 ], [ 100.197237956484798, 6.320140221086992 ], [ 100.197891902152733, 6.320191374926972 ], [ 100.198547645166656, 6.320208441798889 ], [ 100.199203388180578, 6.320191374926972 ], [ 100.199857333848513, 6.320140221086992 ], [ 100.200507689750779, 6.320055120477964 ], [ 100.201152673307092, 6.319936306338065 ], [ 100.201790516662342, 6.319784104305501 ], [ 100.202419471532224, 6.319598931526214 ], [ 100.203037813995181, 6.319381295510815 ], [ 100.203643849217471, 6.319131792743942 ], [ 100.204235916098696, 6.318851107049786 ], [ 100.204812391824689, 6.318540007718257 ], [ 100.205371696315552, 6.318199347396955 ], [ 100.205912296556534, 6.317830059754743 ], [ 100.206432710799973, 6.317433156923253 ], [ 100.206931512626596, 6.317009726723356 ], [ 100.207407334855276, 6.316560929684186 ], [ 100.207858873290348, 6.316087995862929 ], [ 100.208284890296341, 6.315592221474047 ], [ 100.208684218190257, 6.315074965337087 ], [ 100.209055762442119, 6.314537645152989 ], [ 100.209398504674922, 6.313981733618975 ], [ 100.209711505456042, 6.313408754392602 ], [ 100.209993906872114, 6.312820277916163 ], [ 100.210244934880464, 6.312217917112792 ], [ 100.210463901430771, 6.311603322966122 ], [ 100.210650206350948, 6.310978179995581 ], [ 100.210803338992179, 6.310344201639598 ], [ 100.210922879628498, 6.309703125559646 ], [ 100.211008500607349, 6.309056708877725 ], [ 100.211059967247579, 6.308406723360443 ], [ 100.211077138482722, 6.307754950562952 ] ] ] } }
]
}
