{
"type": "FeatureCollection",
"name": "PLS_SE-05",
"crs": { "type": "name", "properties": { "name": "urn:ogc:def:crs:OGC:1.3:CRS84" } },
"features": [
{ "type": "Feature", "properties": { "state": "Perlis", "parlimen": "P.001 Kangar", "code_parlimen": "P.001", "dun": "N.01 Titi Tinggi", "code_dun": "N.01", "voters_total": 5365 }, "geometry": { "type": "Polygon", "coordinates": [ [ [ 100.251516588586611, 6.645646978201428 ], [ 100.251500749051445, 6.645046154701554 ], [ 100.251453273861046, 6.644446977286128 ], [ 100.251374293141609, 6.643851088267878 ], [ 100.251264023373793, 6.643260120952179 ], [ 100.251122766799327, 6.642675695160032 ], [ 100.250950910592735, 6.642099412788148 ], [ 100.250748925799869, 6.641532853417853 ], [ 100.250517366047035, 6.640977569985286 ], [ 100.250256866023435, 6.640435084524535 ], [ 100.249968139741483, 6.639906883995294 ], [ 100.249651978579905, 6.639394416206841 ], [ 100.249309249114418, 6.638899085849104 ], [ 100.248940890742688, 6.638422250641921 ], [ 100.248547913109419, 6.637965217613068 ], [ 100.248131393338952, 6.637529239515201 ], [ 100.247692473083063, 6.63711551139145 ], [ 100.247232355391645, 6.63672516729936 ], [ 100.246752301415313, 6.636359277201777 ], [ 100.246253626948658, 6.636018844033642 ], [ 100.245737698823703, 6.635704800952309 ], [ 100.245205931163596, 6.635418008779316 ], [ 100.244659781506527, 6.635159253640342 ], [ 100.244100746810759, 6.634929244809908 ], [ 100.243530359351524, 6.634728612766962 ], [ 100.242950182521184, 6.63455790746614 ], [ 100.24236180654411, 6.634417596830175 ], [ 100.241766844117961, 6.634308065466851 ], [ 100.241166925993411, 6.634229613614669 ], [ 100.240563696504324, 6.634182456319553 ], [ 100.239958809060795, 6.634166722845405 ], [ 100.239353921617266, 6.634182456319553 ], [ 100.238750692128178, 6.634229613614669 ], [ 100.238150774003628, 6.634308065466851 ], [ 100.237555811577494, 6.634417596830175 ], [ 100.23696743560042, 6.63455790746614 ], [ 100.23638725877008, 6.634728612766962 ], [ 100.235816871310831, 6.634929244809908 ], [ 100.235257836615062, 6.635159253640342 ], [ 100.234711686958008, 6.635418008779316 ], [ 100.234179919297901, 6.635704800952309 ], [ 100.233663991172946, 6.636018844033642 ], [ 100.233165316706291, 6.636359277201777 ], [ 100.232685262729959, 6.63672516729936 ], [ 100.232225145038527, 6.63711551139145 ], [ 100.231786224782638, 6.637529239515201 ], [ 100.23136970501217, 6.637965217613068 ], [ 100.230976727378902, 6.638422250641921 ], [ 100.230608369007172, 6.638899085849104 ], [ 100.230265639541699, 6.639394416206841 ], [ 100.229949478380107, 6.639906883995294 ], [ 100.229660752098169, 6.640435084524535 ], [ 100.229400252074555, 6.640977569985286 ], [ 100.229168692321736, 6.641532853417853 ], [ 100.228966707528869, 6.642099412788148 ], [ 100.228794851322263, 6.642675695160032 ], [ 100.228653594747811, 6.643260120952179 ], [ 100.228543324979995, 6.643851088267878 ], [ 100.228464344260544, 6.644446977286128 ], [ 100.228416869070145, 6.645046154701554 ], [ 100.228401029534993, 6.645646978201428 ], [ 100.228416869070145, 6.646247800967242 ], [ 100.228464344260544, 6.646846976188492 ], [ 100.228543324979995, 6.647442861576494 ], [ 100.228653594747811, 6.648033823865672 ], [ 100.228794851322263, 6.648618243290067 ], [ 100.228966707528869, 6.649194518022767 ], [ 100.229168692321736, 6.649761068566108 ], [ 100.229400252074555, 6.650316342080675 ], [ 100.229660752098169, 6.650858816641054 ], [ 100.229949478380107, 6.651387005406963 ], [ 100.230265639541699, 6.651899460698011 ], [ 100.230608369007172, 6.652394777961201 ], [ 100.230976727378902, 6.652871599620163 ], [ 100.23136970501217, 6.653328618795536 ], [ 100.231786224782638, 6.65376458288647 ], [ 100.232225145038527, 6.654178297003274 ], [ 100.232685262729959, 6.654568627241899 ], [ 100.233165316706291, 6.654934503791235 ], [ 100.233663991172946, 6.655274923864822 ], [ 100.234179919297901, 6.655588954448751 ], [ 100.234711686958008, 6.655875734858411 ], [ 100.235257836615062, 6.656134479097039 ], [ 100.235816871310831, 6.656364478009461 ], [ 100.23638725877008, 6.656565101225464 ], [ 100.23696743560042, 6.65673579888709 ], [ 100.237555811577494, 6.656876103155305 ], [ 100.238150774003628, 6.656985629492105 ], [ 100.238750692128178, 6.657064077714054 ], [ 100.239353921617266, 6.657111232814994 ], [ 100.239958809060795, 6.65712696555507 ], [ 100.240563696504324, 6.657111232814994 ], [ 100.241166925993411, 6.657064077714054 ], [ 100.241766844117961, 6.656985629492105 ], [ 100.24236180654411, 6.656876103155305 ], [ 100.242950182521184, 6.65673579888709 ], [ 100.243530359351524, 6.656565101225464 ], [ 100.244100746810759, 6.656364478009461 ], [ 100.244659781506527, 6.656134479097039 ], [ 100.245205931163596, 6.655875734858411 ], [ 100.245737698823703, 6.655588954448751 ], [ 100.246253626948658, 6.655274923864822 ], [ 100.246752301415313, 6.654934503791235 ], [ 100.247232355391645, 6.654568627241899 ], [ 100.247692473083063, 6.654178297003274 ], [ 100.248131393338952, 6.65376458288647 ], [ 100.248547913109419, 6.653328618795536 ], [ 100.248940890742688, 6.652871599620163 ], [ 100.249309249114418, 6.652394777961201 ], [ 100.249651978579905, 6.651899460698011 ], [ 100.249968139741483, 6.651387005406963 ], [ 100.250256866023435, 6.650858816641054 ], [ 100.250517366047035, 6.650316342080675 ], [ 100.250748925799869, 6.649761068566108 ], [ 100.250950910592735, 6.649194518022767 ], [ 100.251122766799327, 6.648618243290067 ], [ 100.251264023373793, 6.648033823865672 ], [ 100.251374293141609, 6.647442861576494 ], [ 100.251453273861046, 6.646846976188492 ], [ 100.251500749051445, 6.646247800967242 ], [ 100.251516588586611, 6.645646978201428 ] ] ] } },
{ "type": "Feature", "properties": { "state": "Perlis", "parlimen": "P.001 Kangar", "code_parlimen": "P.001", "dun": "N.02 Chuping", "code_dun": "N.02", "voters_total": 6715 }, "geometry": { "type": "Polygon", "coordinates": [ [ [ 100.277264629022469, 6.547663390266854 ], [ 100.277246908334533, 6.546991078096521 ], [ 100.277193794841921, 6.546320607785441 ], [ 100.277105434125019, 6.545653817057335 ], [ 100.276982068374423, 6.544992533557735 ], [ 100.276824035727032, 6.544338569844286 ], [ 100.276631769339375, 6.543693718418409 ], [ 100.276405796200308, 6.54305974681178 ], [ 100.276146735686424, 6.542438392741314 ], [ 100.275855297864609, 6.541831359345595 ], [ 100.275532281545694, 6.541240310516223 ], [ 100.27517857209493, 6.540666866336558 ], [ 100.274795139005334, 6.540112598640552 ], [ 100.274383033240397, 6.539579026703787 ], [ 100.273943384353331, 6.539067613078416 ], [ 100.27347739739119, 6.538579759583814 ], [ 100.272986349591832, 6.538116803463409 ], [ 100.272471586883157, 6.537680013718648 ], [ 100.271934520193994, 6.537270587629965 ], [ 100.271376621586754, 6.536889647474373 ], [ 100.270799420222787, 6.536538237448624 ], [ 100.27020449817087, 6.53621732080641 ], [ 100.269593486071017, 6.535927777217442 ], [ 100.268968058664939, 6.535670400355708 ], [ 100.268329930205653, 6.535445895723475 ], [ 100.267680849758932, 6.535254878716981 ], [ 100.267022596409149, 6.535097872939188 ], [ 100.266356974382987, 6.534975308764232 ], [ 100.265685808104166, 6.534887522157424 ], [ 100.26501093719277, 6.5348347537541 ], [ 100.264334211423076, 6.534817148199881 ], [ 100.263657485653397, 6.5348347537541 ], [ 100.262982614742015, 6.534887522157424 ], [ 100.26231144846318, 6.534975308764232 ], [ 100.261645826437032, 6.535097872939188 ], [ 100.260987573087249, 6.535254878716981 ], [ 100.260338492640528, 6.535445895723475 ], [ 100.259700364181242, 6.535670400355708 ], [ 100.25907493677515, 6.535927777217442 ], [ 100.258463924675311, 6.53621732080641 ], [ 100.257869002623394, 6.536538237448624 ], [ 100.257291801259413, 6.536889647474373 ], [ 100.256733902652186, 6.537270587629965 ], [ 100.256196835963024, 6.537680013718648 ], [ 100.255682073254349, 6.538116803463409 ], [ 100.255191025454991, 6.538579759583814 ], [ 100.25472503849285, 6.539067613078416 ], [ 100.254285389605784, 6.539579026703787 ], [ 100.253873283840818, 6.540112598640552 ], [ 100.253489850751251, 6.540666866336558 ], [ 100.253136141300487, 6.541240310516223 ], [ 100.252813124981557, 6.541831359345595 ], [ 100.252521687159756, 6.542438392741314 ], [ 100.252262626645873, 6.54305974681178 ], [ 100.252036653506778, 6.543693718418409 ], [ 100.251844387119149, 6.544338569844286 ], [ 100.251686354471758, 6.544992533557735 ], [ 100.251562988721162, 6.545653817057335 ], [ 100.25147462800426, 6.546320607785441 ], [ 100.251421514511648, 6.546991078096521 ], [ 100.251403793823712, 6.547663390266854 ], [ 100.251421514511648, 6.548335701531721 ], [ 100.25147462800426, 6.549006169136275 ], [ 100.251562988721162, 6.549672955386466 ], [ 100.251686354471758, 6.550334232685841 ], [ 100.251844387119149, 6.550988188544669 ], [ 100.252036653506778, 6.551633030547593 ], [ 100.252262626645873, 6.552266991266141 ], [ 100.252521687159756, 6.552888333102755 ], [ 100.252813124981557, 6.553495353052831 ], [ 100.253136141300487, 6.554086387372132 ], [ 100.253489850751251, 6.554659816136221 ], [ 100.253873283840818, 6.555214067680073 ], [ 100.254285389605784, 6.555747622905084 ], [ 100.25472503849285, 6.556259019442161 ], [ 100.255191025454991, 6.556746855659176 ], [ 100.255682073254349, 6.557209794501993 ], [ 100.256196835963024, 6.557646567158474 ], [ 100.256733902652186, 6.558055976535391 ], [ 100.257291801259413, 6.558436900538841 ], [ 100.257869002623394, 6.558788295149014 ], [ 100.258463924675311, 6.559109197281143 ], [ 100.25907493677515, 6.55939872742448 ], [ 100.259700364181242, 6.559656092052352 ], [ 100.260338492640528, 6.559880585796528 ], [ 100.260987573087249, 6.560071593380069 ], [ 100.261645826437032, 6.560228591303228 ], [ 100.26231144846318, 6.560351149277947 ], [ 100.262982614742015, 6.560438931406852 ], [ 100.263657485653397, 6.560491697103664 ], [ 100.264334211423076, 6.560509301752392 ], [ 100.26501093719277, 6.560491697103664 ], [ 100.265685808104166, 6.560438931406852 ], [ 100.266356974382987, 6.560351149277947 ], [ 100.267022596409149, 6.560228591303228 ], [ 100.267680849758932, 6.560071593380069 ], [ 100.268329930205653, 6.559880585796528 ], [ 100.268968058664939, 6.559656092052352 ], [ 100.269593486071017, 6.55939872742448 ], [ 100.27020449817087, 6.559109197281143 ], [ 100.270799420222787, 6.558788295149014 ], [ 100.271376621586754, 6.558436900538841 ], [ 100.271934520193994, 6.558055976535391 ], [ 100.272471586883157, 6.557646567158474 ], [ 100.272986349591832, 6.557209794501993 ], [ 100.27347739739119, 6.556746855659176 ], [ 100.273943384353331, 6.556259019442161 ], [ 100.274383033240397, 6.555747622905084 ], [ 100.274795139005334, 6.555214067680073 ], [ 100.27517857209493, 6.554659816136221 ], [ 100.275532281545694, 6.554086387372132 ], [ 100.275855297864609, 6.553495353052831 ], [ 100.276146735686424, 6.552888333102755 ], [ 100.276405796200308, 6.552266991266141 ], [ 100.276631769339375, 6.551633030547593 ], [ 100.276824035727032, 6.550988188544669 ], [ 100.276982068374423, 6.550334232685841 ], [ 100.277105434125019, 6.549672955386466 ], [ 100.277193794841921, 6.549006169136275 ], [ 100.277246908334533, 6.548335701531721 ], [ 100.277264629022469, 6.547663390266854 ] ] ] } },
{ "type": "Feature", "properties": { "state": "Perlis", "parlimen": "P.001 Kangar", "code_parlimen": "P.001", "dun": "N.03 Bintong", "code_dun": "N.03", "voters_total": 5726 }, "geometry": { "type": "Polygon", "coordinates": [ [ [ 100.184785618140182, 6.495350997218088 ], [ 100.184769254374928, 6.494730101105894 ], [ 100.184720207931107, 6.494110906063958 ], [ 100.184638613241589, 6.493495109272301 ], [ 100.184524693951772, 6.492884398602781 ], [ 100.184378762306494, 6.492280447992487 ], [ 100.184201218294263, 6.491684912855397 ], [ 100.18399254855089, 6.491099425544754 ], [ 100.183753325025592, 6.490525590878429 ], [ 100.183484203413471, 6.489964981739906 ], [ 100.183185921358131, 6.489419134766612 ], [ 100.182859296429982, 6.488889546137573 ], [ 100.182505223885201, 6.488377667471992 ], [ 100.182124674212062, 6.487884901849824 ], [ 100.181718690470746, 6.487412599965445 ], [ 100.181288385434499, 6.486962056424809 ], [ 100.180834938539448, 6.486534506196474 ], [ 100.180359592652096, 6.48613112122586 ], [ 100.179863650662426, 6.485753007222471 ], [ 100.179348471912974, 6.485401200628497 ], [ 100.178815468472891, 6.485076665777444 ], [ 100.178266101267539, 6.484780292250266 ], [ 100.177701876074266, 6.484512892436554 ], [ 100.177124339395093, 6.484275199307283 ], [ 100.176535074217909, 6.484067864405227 ], [ 100.175935695677623, 6.483891456058713 ], [ 100.175327846629131, 6.483746457823462 ], [ 100.174713193144427, 6.483633267156815 ], [ 100.174093419946004, 6.483552194328014 ], [ 100.173470225789117, 6.483503461567592 ], [ 100.172845318805599, 6.483487202458043 ], [ 100.17222041182211, 6.483503461567592 ], [ 100.171597217665195, 6.483552194328014 ], [ 100.170977444466772, 6.483633267156815 ], [ 100.170362790982082, 6.483746457823462 ], [ 100.16975494193359, 6.483891456058713 ], [ 100.169155563393304, 6.484067864405227 ], [ 100.168566298216106, 6.484275199307283 ], [ 100.167988761536947, 6.484512892436554 ], [ 100.16742453634366, 6.484780292250266 ], [ 100.166875169138322, 6.485076665777444 ], [ 100.166342165698225, 6.485401200628497 ], [ 100.165826986948787, 6.485753007222471 ], [ 100.165331044959117, 6.48613112122586 ], [ 100.164855699071751, 6.486534506196474 ], [ 100.164402252176714, 6.486962056424809 ], [ 100.163971947140467, 6.487412599965445 ], [ 100.163565963399137, 6.487884901849824 ], [ 100.163185413725998, 6.488377667471992 ], [ 100.162831341181231, 6.488889546137573 ], [ 100.162504716253068, 6.489419134766612 ], [ 100.162206434197728, 6.489964981739906 ], [ 100.161937312585607, 6.490525590878429 ], [ 100.161698089060309, 6.491099425544754 ], [ 100.161489419316936, 6.491684912855397 ], [ 100.161311875304719, 6.492280447992487 ], [ 100.161165943659441, 6.492884398602781 ], [ 100.16105202436961, 6.493495109272301 ], [ 100.160970429680106, 6.494110906063958 ], [ 100.160921383236271, 6.494730101105894 ], [ 100.160905019471016, 6.495350997218088 ], [ 100.160921383236271, 6.495971892564213 ], [ 100.160970429680106, 6.496591085316378 ], [ 100.16105202436961, 6.497206878319614 ], [ 100.161165943659441, 6.497817583743596 ], [ 100.161311875304719, 6.498421527708721 ], [ 100.161489419316936, 6.49901705487375 ], [ 100.161698089060309, 6.499602532972857 ], [ 100.161937312585607, 6.500176357289059 ], [ 100.162206434197728, 6.500736955052277 ], [ 100.162504716253068, 6.501282789749713 ], [ 100.162831341181231, 6.501812365336823 ], [ 100.163185413725998, 6.502324230337316 ], [ 100.163565963399137, 6.502816981820951 ], [ 100.163971947140467, 6.503289269248259 ], [ 100.164402252176714, 6.503739798171651 ], [ 100.164855699071751, 6.504167333782767 ], [ 100.165331044959117, 6.504570704296298 ], [ 100.165826986948787, 6.504948804161167 ], [ 100.166342165698225, 6.505300597090052 ], [ 100.166875169138322, 6.505625118899178 ], [ 100.16742453634366, 6.505921480150497 ], [ 100.167988761536947, 6.506188868588905 ], [ 100.168566298216106, 6.506426551368051 ], [ 100.169155563393304, 6.50663387705856 ], [ 100.16975494193359, 6.506810277433039 ], [ 100.170362790982082, 6.506955269023093 ], [ 100.170977444466772, 6.507068454444203 ], [ 100.171597217665195, 6.507149523484595 ], [ 100.17222041182211, 6.507198253955248 ], [ 100.172845318805599, 6.50721451229874 ], [ 100.173470225789117, 6.507198253955248 ], [ 100.174093419946004, 6.507149523484595 ], [ 100.174713193144427, 6.507068454444203 ], [ 100.175327846629131, 6.506955269023093 ], [ 100.175935695677623, 6.506810277433039 ], [ 100.176535074217909, 6.50663387705856 ], [ 100.177124339395093, 6.506426551368051 ], [ 100.177701876074266, 6.506188868588905 ], [ 100.178266101267539, 6.505921480150497 ], [ 100.178815468472891, 6.505625118899178 ], [ 100.179348471912974, 6.505300597090052 ], [ 100.179863650662426, 6.504948804161167 ], [ 100.180359592652096, 6.504570704296298 ], [ 100.180834938539448, 6.504167333782767 ], [ 100.181288385434499, 6.503739798171651 ], [ 100.181718690470746, 6.503289269248259 ], [ 100.182124674212062, 6.502816981820951 ], [ 100.182505223885201, 6.502324230337316 ], [ 100.182859296429982, 6.501812365336823 ], [ 100.183185921358131, 6.501282789749713 ], [ 100.183484203413471, 6.500736955052277 ], [ 100.183753325025592, 6.500176357289059 ], [ 100.18399254855089, 6.499602532972857 ], [ 100.184201218294263, 6.49901705487375 ], [ 100.184378762306494, 6.498421527708721 ], [ 100.184524693951772, 6.497817583743596 ], [ 100.184638613241589, 6.497206878319614 ], [ 100.184720207931107, 6.496591085316378 ], [ 100.184769254374928, 6.495971892564213 ], [ 100.184785618140182, 6.495350997218088 ] ] ] } },
{ "type": "Feature", "properties": { "state": "Perlis", "parlimen": "P.001 Kangar", "code_parlimen": "P.001", "dun": "N.04 Bandar Kangar", "code_dun": "N.04", "voters_total": 7406 }, "geometry": { "type": "Polygon", "coordinates": [ [ [ 100.205679022122624, 6.435247647607437 ], [ 100.205660411991943, 6.434541432858643 ], [ 100.205604632608967, 6.433837152817728 ], [ 100.20551183686112, 6.433136737879478 ], [ 100.205382279095076, 6.432442107852603 ], [ 100.205216314419673, 6.431755166697426 ], [ 100.205014397732555, 6.43107779730696 ], [ 100.204777082473342, 6.430411856345676 ], [ 100.20450501910662, 6.429759169159998 ], [ 100.20419895333923, 6.429121524774644 ], [ 100.203859724076096, 6.428500670988496 ], [ 100.203488261121109, 6.427898309583237 ], [ 100.203085582628376, 6.427316091658286 ], [ 100.202652792311639, 6.426755613104381 ], [ 100.202191076419112, 6.426218410228721 ], [ 100.201701700481948, 6.42570595554306 ], [ 100.201186005845571, 6.425219653726968 ], [ 100.200645405993143, 6.424760837776792 ], [ 100.200081382671286, 6.42433076535119 ], [ 100.199495481828691, 6.423930615323111 ], [ 100.19888930937887, 6.423561484547803 ], [ 100.198264526798368, 6.423224384855622 ], [ 100.197622846572813, 6.422920240277906 ], [ 100.196966027503066, 6.422649884513592 ], [ 100.196295869884608, 6.422414058643422 ], [ 100.195614210572842, 6.422213409098113 ], [ 100.19492291794856, 6.422048485886025 ], [ 100.194223886796806, 6.421919741085131 ], [ 100.19351903311339, 6.421827527603545 ], [ 100.192810288853238, 6.421772098211894 ], [ 100.192099596635117, 6.421753604850326 ], [ 100.191388904416996, 6.421772098211894 ], [ 100.190680160156845, 6.421827527603545 ], [ 100.189975306473428, 6.421919741085131 ], [ 100.189276275321674, 6.422048485886025 ], [ 100.188584982697392, 6.422213409098113 ], [ 100.18790332338564, 6.422414058643422 ], [ 100.187233165767168, 6.422649884513592 ], [ 100.186576346697436, 6.422920240277906 ], [ 100.185934666471866, 6.423224384855622 ], [ 100.185309883891364, 6.423561484547803 ], [ 100.184703711441543, 6.423930615323111 ], [ 100.184117810598948, 6.42433076535119 ], [ 100.183553787277091, 6.424760837776792 ], [ 100.183013187424663, 6.425219653726968 ], [ 100.182497492788286, 6.42570595554306 ], [ 100.182008116851122, 6.426218410228721 ], [ 100.181546400958595, 6.426755613104381 ], [ 100.181113610641873, 6.427316091658286 ], [ 100.180710932149125, 6.427898309583237 ], [ 100.180339469194138, 6.428500670988496 ], [ 100.180000239931005, 6.429121524774644 ], [ 100.179694174163615, 6.429759169159998 ], [ 100.179422110796892, 6.430411856345676 ], [ 100.17918479553768, 6.43107779730696 ], [ 100.178982878850562, 6.431755166697426 ], [ 100.178816914175172, 6.432442107852603 ], [ 100.178687356409114, 6.433136737879478 ], [ 100.178594560661267, 6.433837152817728 ], [ 100.178538781278291, 6.434541432858643 ], [ 100.178520171147611, 6.435247647607437 ], [ 100.178538781278291, 6.435953861374418 ], [ 100.178594560661267, 6.436658138480674 ], [ 100.178687356409114, 6.437358548563578 ], [ 100.178816914175172, 6.4380531718676 ], [ 100.178982878850562, 6.438740104506079 ], [ 100.17918479553768, 6.439417463679319 ], [ 100.179422110796892, 6.440083392834791 ], [ 100.179694174163615, 6.440736066755406 ], [ 100.180000239931005, 6.441373696561783 ], [ 100.180339469194138, 6.44199453461477 ], [ 100.180710932149125, 6.44259687930507 ], [ 100.181113610641873, 6.443179079716399 ], [ 100.181546400958595, 6.443739540149881 ], [ 100.182008116851122, 6.444276724496878 ], [ 100.182497492788286, 6.444789160448614 ], [ 100.183013187424663, 6.445275443530767 ], [ 100.183553787277091, 6.445734240952278 ], [ 100.184117810598948, 6.446164295257459 ], [ 100.184703711441543, 6.446564427771915 ], [ 100.185309883891364, 6.446933541832263 ], [ 100.185934666471866, 6.447270625791296 ], [ 100.186576346697436, 6.447574755790037 ], [ 100.187233165767168, 6.447845098289288 ], [ 100.18790332338564, 6.448080912353634 ], [ 100.188584982697392, 6.448281551681703 ], [ 100.189276275321674, 6.448446466377092 ], [ 100.189975306473428, 6.448575204455146 ], [ 100.190680160156845, 6.448667413081386 ], [ 100.191388904416996, 6.44872283953839 ], [ 100.192099596635117, 6.448741331918147 ], [ 100.192810288853238, 6.44872283953839 ], [ 100.19351903311339, 6.448667413081386 ], [ 100.194223886796806, 6.448575204455146 ], [ 100.19492291794856, 6.448446466377092 ], [ 100.195614210572842, 6.448281551681703 ], [ 100.196295869884608, 6.448080912353634 ], [ 100.196966027503066, 6.447845098289288 ], [ 100.197622846572813, 6.447574755790037 ], [ 100.198264526798368, 6.447270625791296 ], [ 100.19888930937887, 6.446933541832263 ], [ 100.199495481828691, 6.446564427771915 ], [ 100.200081382671286, 6.446164295257459 ], [ 100.200645405993143, 6.445734240952278 ], [ 100.201186005845571, 6.445275443530767 ], [ 100.201701700481948, 6.444789160448614 ], [ 100.202191076419112, 6.444276724496878 ], [ 100.202652792311639, 6.443739540149881 ], [ 100.203085582628376, 6.443179079716399 ], [ 100.203488261121109, 6.44259687930507 ], [ 100.203859724076096, 6.44199453461477 ], [ 100.20419895333923, 6.441373696561783 ], [ 100.20450501910662, 6.440736066755406 ], [ 100.204777082473342, 6.440083392834791 ], [ 100.205014397732555, 6.439417463679319 ], [ 100.205216314419673, 6.438740104506079 ], [ 100.205382279095076, 6.4380531718676 ], [ 100.20551183686112, 6.437358548563578 ], [ 100.205604632608967, 6.436658138480674 ], [ 100.205660411991943, 6.435953861374418 ], [ 100.205679022122624, 6.435247647607437 ] ] ] } },
{ "type": "Feature", "properties": { "state": "Perlis", "parlimen": "P.001 Kangar", "code_parlimen": "P.001", "dun": "N.05 Paya", "code_dun": "N.05", "voters_total": 6683 }, "geometry": { "type": "Polygon", "coordinates": [ [ [ 100.23488289848892, 6.475687892798618 ], [ 100.234865220074937, 6.475017088305221 ], [ 100.234812233288324, 6.474348121552641 ], [ 100.234724083362153, 6.473682826143261 ], [ 100.234601011909248, 6.473023025623768 ], [ 100.234443356259931, 6.472370528486677 ], [ 100.234251548537372, 6.4717271232131 ], [ 100.234026114473167, 6.47109457337034 ], [ 100.233767671966476, 6.470474612777645 ], [ 100.233476929390193, 6.469868940753374 ], [ 100.233154683649545, 6.469279217456868 ], [ 100.232801817997697, 6.468707059337376 ], [ 100.232419299614861, 6.46815403470285 ], [ 100.232008176957351, 6.467621659420687 ], [ 100.231569576883786, 6.467111392762073 ], [ 100.231104701566494, 6.466624633401487 ], [ 100.230614825196412, 6.466162715582331 ], [ 100.23010129049058, 6.465726905459046 ], [ 100.229565505011962, 6.465318397625901 ], [ 100.22900893731132, 6.464938311841964 ], [ 100.228433112901996, 6.464587689961188 ], [ 100.227839610078732, 6.464267493076018 ], [ 100.227230055591448, 6.463978598882451 ], [ 100.226606120186673, 6.463721799273682 ], [ 100.225969514027952, 6.463497798168979 ], [ 100.225321982008538, 6.463307209583735 ], [ 100.224665298968674, 6.463150555946066 ], [ 100.224001264830918, 6.463028266664403 ], [ 100.223331699666701, 6.462940676950201 ], [ 100.222658438707612, 6.462888026898842 ], [ 100.221983327315101, 6.462870460831375 ], [ 100.221308215922591, 6.462888026898842 ], [ 100.220634954963487, 6.462940676950201 ], [ 100.219965389799285, 6.463028266664403 ], [ 100.219301355661528, 6.463150555946066 ], [ 100.218644672621664, 6.463307209583735 ], [ 100.21799714060225, 6.463497798168979 ], [ 100.217360534443529, 6.463721799273682 ], [ 100.216736599038754, 6.463978598882451 ], [ 100.21612704455147, 6.464267493076018 ], [ 100.215533541728206, 6.464587689961188 ], [ 100.214957717318896, 6.464938311841964 ], [ 100.214401149618226, 6.465318397625901 ], [ 100.213865364139622, 6.465726905459046 ], [ 100.21335182943379, 6.466162715582331 ], [ 100.212861953063708, 6.466624633401487 ], [ 100.212397077746402, 6.467111392762073 ], [ 100.211958477672866, 6.467621659420687 ], [ 100.211547355015341, 6.46815403470285 ], [ 100.211164836632506, 6.468707059337376 ], [ 100.210811970980657, 6.469279217456868 ], [ 100.210489725240009, 6.469868940753374 ], [ 100.210198982663741, 6.470474612777645 ], [ 100.209940540157035, 6.47109457337034 ], [ 100.20971510609283, 6.4717271232131 ], [ 100.209523298370272, 6.472370528486677 ], [ 100.20936564272094, 6.473023025623768 ], [ 100.209242571268049, 6.473682826143261 ], [ 100.209154421341879, 6.474348121552641 ], [ 100.209101434555279, 6.475017088305221 ], [ 100.209083756141297, 6.475687892798618 ], [ 100.209101434555279, 6.476358696400582 ], [ 100.209154421341879, 6.477027660488646 ], [ 100.209242571268049, 6.477692951489598 ], [ 100.20936564272094, 6.47835274590506 ], [ 100.209523298370272, 6.479005235309421 ], [ 100.20971510609283, 6.479648631306262 ], [ 100.209940540157035, 6.480281170429916 ], [ 100.210198982663741, 6.480901118978601 ], [ 100.210489725240009, 6.481506777765874 ], [ 100.210811970980657, 6.482096486777453 ], [ 100.211164836632506, 6.482668629720598 ], [ 100.211547355015341, 6.48322163845361 ], [ 100.211958477672866, 6.483753997283336 ], [ 100.212397077746402, 6.484264247118839 ], [ 100.212861953063708, 6.484750989469933 ], [ 100.21335182943379, 6.48521289027961 ], [ 100.213865364139622, 6.485648683579782 ], [ 100.214401149618226, 6.486057174960491 ], [ 100.214957717318896, 6.486437244842928 ], [ 100.215533541728206, 6.486787851547343 ], [ 100.21612704455147, 6.487108034147573 ], [ 100.216736599038754, 6.487396915104155 ], [ 100.217360534443529, 6.487653702668901 ], [ 100.21799714060225, 6.487877693054512 ], [ 100.218644672621664, 6.488068272363007 ], [ 100.219301355661528, 6.488224918267946 ], [ 100.219965389799285, 6.488347201445578 ], [ 100.220634954963487, 6.488434786751377 ], [ 100.221308215922591, 6.488487434138221 ], [ 100.221983327315101, 6.488504999314255 ], [ 100.222658438707612, 6.488487434138221 ], [ 100.223331699666701, 6.488434786751377 ], [ 100.224001264830918, 6.488347201445578 ], [ 100.224665298968674, 6.488224918267946 ], [ 100.225321982008538, 6.488068272363007 ], [ 100.225969514027952, 6.487877693054512 ], [ 100.226606120186673, 6.487653702668901 ], [ 100.227230055591448, 6.487396915104155 ], [ 100.227839610078732, 6.487108034147573 ], [ 100.228433112901996, 6.486787851547343 ], [ 100.22900893731132, 6.486437244842928 ], [ 100.229565505011962, 6.486057174960491 ], [ 100.23010129049058, 6.485648683579782 ], [ 100.230614825196412, 6.48521289027961 ], [ 100.231104701566494, 6.484750989469933 ], [ 100.231569576883786, 6.484264247118839 ], [ 100.232008176957351, 6.483753997283336 ], [ 100.232419299614861, 6.48322163845361 ], [ 100.232801817997697, 6.482668629720598 ], [ 100.233154683649545, 6.482096486777453 ], [ 100.233476929390193, 6.481506777765874 ], [ 100.233767671966476, 6.480901118978601 ], [ 100.234026114473167, 6.480281170429916 ], [ 100.234251548537372, 6.479648631306262 ], [ 100.234443356259931, 6.479005235309421 ], [ 100.234601011909248, 6.47835274590506 ], [ 100.234724083362153, 6.477692951489598 ], [ 100.234812233288324, 6.477027660488646 ], [ 100.234865220074937, 6.476358696400582 ], [ 100.23488289848892, 6.475687892798618 ] ] ] } },
{ "type": "Feature", "properties": { "state": "Perlis", "parlimen": "P.001 Kangar", "code_parlimen": "P.001", "dun": "N.06 Oran", "code_dun": "N.06", "voters_total": 3730 }, "geometry": { "type": "Polygon", "coordinates": [ [ [ 100.327813633798883, 6.490044870565588 ], [ 100.327800426561481, 6.489543738479903 ], [ 100.32776084104934, 6.489043979465896 ], [ 100.327694985763642, 6.488546963334447 ], [ 100.327603041209116, 6.488054052382393 ], [ 100.327485259399424, 6.487566597658435 ], [ 100.32734196316629, 6.487085935259906 ], [ 100.327173545274746, 6.486613382670352 ], [ 100.32698046734653, 6.486150235148226 ], [ 100.326763258594809, 6.48569776217638 ], [ 100.326522514373693, 6.485257203982192 ], [ 100.326258894546328, 6.4848297681379 ], [ 100.325973121676356, 6.484416626250286 ], [ 100.325665979047358, 6.484018910749073 ], [ 100.325338308515896, 6.4836377117826 ], [ 100.324991008204179, 6.483274074229374 ], [ 100.324625030038163, 6.482928994833693 ], [ 100.324241377138591, 6.48260341947326 ], [ 100.323841101071395, 6.482298240566132 ], [ 100.323425298965418, 6.482014294624236 ], [ 100.322995110505389, 6.481752359960164 ], [ 100.322551714807943, 6.481513154553464 ], [ 100.32209632718984, 6.481297334082289 ], [ 100.321630195836946, 6.481105490125941 ], [ 100.321154598382861, 6.480938148543008 ], [ 100.320670838407153, 6.480795768029739 ], [ 100.320180241862275, 6.480678738862496 ], [ 100.319684153439297, 6.480587381827851 ], [ 100.319183932882083, 6.480521947343075 ], [ 100.318680951260376, 6.480482614769645 ], [ 100.318176587211894, 6.48046949192156 ], [ 100.317672223163413, 6.480482614769645 ], [ 100.317169241541706, 6.480521947343075 ], [ 100.316669020984492, 6.480587381827851 ], [ 100.3161729325615, 6.480678738862496 ], [ 100.315682336016636, 6.480795768029739 ], [ 100.315198576040927, 6.480938148543008 ], [ 100.314722978586843, 6.481105490125941 ], [ 100.314256847233935, 6.481297334082289 ], [ 100.313801459615846, 6.481513154553464 ], [ 100.313358063918386, 6.481752359960164 ], [ 100.312927875458371, 6.482014294624236 ], [ 100.312512073352394, 6.482298240566132 ], [ 100.312111797285183, 6.48260341947326 ], [ 100.311728144385626, 6.482928994833693 ], [ 100.31136216621961, 6.483274074229374 ], [ 100.311014865907893, 6.4836377117826 ], [ 100.310687195376431, 6.484018910749073 ], [ 100.310380052747433, 6.484416626250286 ], [ 100.310094279877447, 6.4848297681379 ], [ 100.309830660050096, 6.485257203982192 ], [ 100.30958991582898, 6.48569776217638 ], [ 100.309372707077259, 6.486150235148226 ], [ 100.309179629149028, 6.486613382670352 ], [ 100.309011211257484, 6.487085935259906 ], [ 100.308867915024351, 6.487566597658435 ], [ 100.308750133214659, 6.488054052382393 ], [ 100.308658188660146, 6.488546963334447 ], [ 100.308592333374449, 6.489043979465896 ], [ 100.308552747862308, 6.489543738479903 ], [ 100.308539540624892, 6.490044870565588 ], [ 100.308552747862308, 6.49054600215265 ], [ 100.308592333374449, 6.491045759676262 ], [ 100.308658188660146, 6.491542773341865 ], [ 100.308750133214659, 6.492035680879645 ], [ 100.308867915024351, 6.492523131278316 ], [ 100.309011211257484, 6.493003788487909 ], [ 100.309179629149028, 6.493476335081748 ], [ 100.309372707077259, 6.493939475867066 ], [ 100.30958991582898, 6.494391941434822 ], [ 100.309830660050096, 6.494832491638744 ], [ 100.310094279877447, 6.495259918994174 ], [ 100.310380052747433, 6.495673051987291 ], [ 100.310687195376431, 6.496070758285848 ], [ 100.311014865907893, 6.496451947842332 ], [ 100.31136216621961, 6.496815575881336 ], [ 100.311728144385626, 6.497160645762782 ], [ 100.312111797285183, 6.497486211713213 ], [ 100.312512073352394, 6.497791381417699 ], [ 100.312927875458371, 6.498075318465097 ], [ 100.313358063918386, 6.498337244640294 ], [ 100.313801459615846, 6.498576442056754 ], [ 100.314256847233935, 6.498792255123827 ], [ 100.314722978586843, 6.498984092343365 ], [ 100.315198576040927, 6.499151427930571 ], [ 100.315682336016636, 6.499293803254905 ], [ 100.3161729325615, 6.499410828096861 ], [ 100.316669020984492, 6.499502181717232 ], [ 100.317169241541706, 6.499567613736175 ], [ 100.317672223163413, 6.499606944819196 ], [ 100.318176587211894, 6.499620067168673 ], [ 100.318680951260376, 6.499606944819196 ], [ 100.319183932882083, 6.499567613736175 ], [ 100.319684153439297, 6.499502181717232 ], [ 100.320180241862275, 6.499410828096861 ], [ 100.320670838407153, 6.499293803254905 ], [ 100.321154598382861, 6.499151427930571 ], [ 100.321630195836946, 6.498984092343365 ], [ 100.32209632718984, 6.498792255123827 ], [ 100.322551714807943, 6.498576442056754 ], [ 100.322995110505389, 6.498337244640294 ], [ 100.323425298965418, 6.498075318465097 ], [ 100.323841101071395, 6.497791381417699 ], [ 100.324241377138591, 6.497486211713213 ], [ 100.324625030038163, 6.497160645762782 ], [ 100.324991008204179, 6.496815575881336 ], [ 100.325338308515896, 6.496451947842332 ], [ 100.325665979047358, 6.496070758285848 ], [ 100.325973121676356, 6.495673051987291 ], [ 100.326258894546328, 6.495259918994174 ], [ 100.326522514373693, 6.494832491638744 ], [ 100.326763258594809, 6.494391941434822 ], [ 100.32698046734653, 6.493939475867066 ], [ 100.327173545274746, 6.493476335081748 ], [ 100.32734196316629, 6.493003788487909 ], [ 100.327485259399424, 6.492523131278316 ], [ 100.327603041209116, 6.492035680879645 ], [ 100.327694985763642, 6.491542773341865 ], [ 100.32776084104934, 6.491045759676262 ], [ 100.327800426561481, 6.49054600215265 ], [ 100.327813633798883, 6.490044870565588 ] ] ] } },
{ "type": "Feature", "properties": { "state": "Perlis", "parlimen": "P.002 Arau", "code_parlimen": "P.002", "dun": "N.07 Kuala Perlis", "code_dun": "N.07", "voters_total": 5307 }, "geometry": { "type": "Polygon", "coordinates": [ [ [ 100.153816870071552, 6.40200555654081 ], [ 100.153801116388166, 6.401407698917184 ], [ 100.153753898517778, 6.400811479282731 ], [ 100.153675345881254, 6.400218531842652 ], [ 100.153565673785963, 6.39963048183898 ], [ 100.153425182835434, 6.399048941095607 ], [ 100.153254258105633, 6.39847550360031 ], [ 100.153053368089346, 6.397911741135351 ], [ 100.152823063412171, 6.397359198969062 ], [ 100.152563975323218, 6.396819391619994 ], [ 100.152276813964903, 6.396293798705289 ], [ 100.151962366426574, 6.395783860884642 ], [ 100.151621494587062, 6.395290975911142 ], [ 100.151255132752368, 6.394816494799522 ], [ 100.150864285094826, 6.394361718122545 ], [ 100.150450022900742, 6.393927892445708 ], [ 100.150013481633948, 6.393516206909871 ], [ 100.149555857823728, 6.39312778997127 ], [ 100.149078405785119, 6.39276370630796 ], [ 100.148582434180994, 6.392424953900944 ], [ 100.148069302435047, 6.392112461298251 ], [ 100.147540417005715, 6.39182708506926 ], [ 100.146997227531187, 6.391569607456421 ], [ 100.146441222856083, 6.39134073423058 ], [ 100.145873926950543, 6.391141092756136 ], [ 100.145296894733235, 6.390971230271008 ], [ 100.144711707809321, 6.390831612386353 ], [ 100.144119970135549, 6.390722621809956 ], [ 100.143523303623695, 6.390644557297083 ], [ 100.142923343695188, 6.39059763283133 ], [ 100.142321734798543, 6.390581977037968 ], [ 100.141720125901884, 6.39059763283133 ], [ 100.14112016597339, 6.390644557297083 ], [ 100.140523499461537, 6.390722621809956 ], [ 100.13993176178775, 6.390831612386353 ], [ 100.139346574863865, 6.390971230271008 ], [ 100.138769542646529, 6.391141092756136 ], [ 100.138202246741002, 6.39134073423058 ], [ 100.137646242065898, 6.391569607456421 ], [ 100.137103052591371, 6.39182708506926 ], [ 100.136574167162038, 6.392112461298251 ], [ 100.136061035416077, 6.392424953900944 ], [ 100.135565063811953, 6.39276370630796 ], [ 100.135087611773343, 6.39312778997127 ], [ 100.134629987963137, 6.393516206909871 ], [ 100.134193446696344, 6.393927892445708 ], [ 100.133779184502245, 6.394361718122545 ], [ 100.133388336844718, 6.394816494799522 ], [ 100.133021975010038, 6.395290975911142 ], [ 100.132681103170512, 6.395783860884642 ], [ 100.132366655632183, 6.396293798705289 ], [ 100.132079494273853, 6.396819391619994 ], [ 100.1318204061849, 6.397359198969062 ], [ 100.131590101507726, 6.397911741135351 ], [ 100.131389211491438, 6.39847550360031 ], [ 100.131218286761651, 6.399048941095607 ], [ 100.131077795811137, 6.39963048183898 ], [ 100.130968123715832, 6.400218531842652 ], [ 100.130889571079308, 6.400811479282731 ], [ 100.130842353208919, 6.401407698917184 ], [ 100.13082659952552, 6.40200555654081 ], [ 100.130842353208919, 6.402603413464459 ], [ 100.130889571079308, 6.40319963100668 ], [ 100.130968123715832, 6.403792574985169 ], [ 100.131077795811137, 6.404380620195847 ], [ 100.131218286761651, 6.4049621548673 ], [ 100.131389211491438, 6.405535585078312 ], [ 100.131590101507726, 6.406099339126429 ], [ 100.1318204061849, 6.406651871835492 ], [ 100.132079494273853, 6.407191668790596 ], [ 100.132366655632183, 6.407717250488491 ], [ 100.132681103170512, 6.408227176392349 ], [ 100.133021975010038, 6.408720048879653 ], [ 100.133388336844718, 6.409194517072484 ], [ 100.133779184502245, 6.409649280539599 ], [ 100.134193446696344, 6.410083092860231 ], [ 100.134629987963137, 6.410494765039875 ], [ 100.135087611773343, 6.410883168768616 ], [ 100.135565063811953, 6.411247239513136 ], [ 100.136061035416077, 6.411585979433956 ], [ 100.136574167162038, 6.411898460119861 ], [ 100.137103052591371, 6.412183825132027 ], [ 100.137646242065898, 6.412441292350916 ], [ 100.138202246741002, 6.412670156119542 ], [ 100.138769542646529, 6.412869789177119 ], [ 100.139346574863865, 6.413039644377963 ], [ 100.13993176178775, 6.413179256190724 ], [ 100.140523499461537, 6.413288241974113 ], [ 100.14112016597339, 6.413366303025398 ], [ 100.141720125901884, 6.413413225398918 ], [ 100.142321734798543, 6.413428880492317 ], [ 100.142923343695188, 6.413413225398918 ], [ 100.143523303623695, 6.413366303025398 ], [ 100.144119970135549, 6.413288241974113 ], [ 100.144711707809321, 6.413179256190724 ], [ 100.145296894733235, 6.413039644377963 ], [ 100.145873926950543, 6.412869789177119 ], [ 100.146441222856083, 6.412670156119542 ], [ 100.146997227531187, 6.412441292350916 ], [ 100.147540417005715, 6.412183825132027 ], [ 100.148069302435047, 6.411898460119861 ], [ 100.148582434180994, 6.411585979433956 ], [ 100.149078405785119, 6.411247239513136 ], [ 100.149555857823728, 6.410883168768616 ], [ 100.150013481633948, 6.410494765039875 ], [ 100.150450022900742, 6.410083092860231 ], [ 100.150864285094826, 6.409649280539599 ], [ 100.151255132752368, 6.409194517072484 ], [ 100.151621494587062, 6.408720048879653 ], [ 100.151962366426574, 6.408227176392349 ], [ 100.152276813964903, 6.407717250488491 ], [ 100.152563975323218, 6.407191668790596 ], [ 100.152823063412171, 6.406651871835492 ], [ 100.153053368089346, 6.406099339126429 ], [ 100.153254258105633, 6.405535585078312 ], [ 100.153425182835434, 6.4049621548673 ], [ 100.153565673785963, 6.404380620195847 ], [ 100.153675345881254, 6.403792574985169 ], [ 100.153753898517778, 6.40319963100668 ], [ 100.153801116388166, 6.402603413464459 ], [ 100.153816870071552, 6.40200555654081 ] ] ] } },
{ "type": "Feature", "properties": { "state": "Perlis", "parlimen": "P.002 Arau", "code_parlimen": "P.002", "dun": "N.08 Kayang", "code_dun": "N.08", "voters_total": 5416 }, "geometry": { "type": "Polygon", "coordinates": [ [ [ 100.185789909789534, 6.373360791830539 ], [ 100.185773995146661, 6.372756791934228 ], [ 100.185726294839057, 6.372154446851424 ], [ 100.185646939609882, 6.371555407576927 ], [ 100.185536146966356, 6.370961316050275 ], [ 100.185394220583376, 6.370373800655098 ], [ 100.185221549471294, 6.369794471755669 ], [ 100.185018606909651, 6.36922491728264 ], [ 100.18478594914987, 6.368666698380424 ], [ 100.184524213890739, 6.368121345127712 ], [ 100.184234118530384, 6.367590352343271 ], [ 100.183916458200031, 6.367075175488221 ], [ 100.183572103584552, 6.366577226676236 ], [ 100.183201998536035, 6.366097870802524 ], [ 100.182807157486664, 6.365638421802085 ], [ 100.18238866266833, 6.365200139047795 ], [ 100.181947661146239, 6.364784223897904 ], [ 100.18148536167493, 6.364391816402645 ], [ 100.18100303138506, 6.364023992178756 ], [ 100.180501992310496, 6.363681759460722 ], [ 100.179983617764464, 6.36336605633667 ], [ 100.179449328575586, 6.3630777481766 ], [ 100.178900589193375, 6.362817625259894 ], [ 100.178338903674359, 6.362586400608681 ], [ 100.177765811559482, 6.362384708033084 ], [ 100.177182883654424, 6.362213100393505 ], [ 100.176591717724023, 6.362072048084896 ], [ 100.175993934113009, 6.361961937747139 ], [ 100.175391171304724, 6.361883071204975 ], [ 100.174785081430116, 6.36183566464054 ], [ 100.174177325739393, 6.36181984800065 ], [ 100.17356957004867, 6.36183566464054 ], [ 100.172963480174062, 6.361883071204975 ], [ 100.172360717365777, 6.361961937747139 ], [ 100.171762933754778, 6.362072048084896 ], [ 100.171171767824362, 6.362213100393505 ], [ 100.170588839919304, 6.362384708033084 ], [ 100.170015747804413, 6.362586400608681 ], [ 100.169454062285425, 6.362817625259894 ], [ 100.1689053229032, 6.3630777481766 ], [ 100.168371033714322, 6.36336605633667 ], [ 100.167852659168304, 6.363681759460722 ], [ 100.167351620093726, 6.364023992178756 ], [ 100.166869289803856, 6.364391816402645 ], [ 100.166406990332547, 6.364784223897904 ], [ 100.165965988810441, 6.365200139047795 ], [ 100.165547493992122, 6.365638421802085 ], [ 100.165152652942737, 6.366097870802524 ], [ 100.164782547894234, 6.366577226676236 ], [ 100.164438193278755, 6.367075175488221 ], [ 100.164120532948402, 6.367590352343271 ], [ 100.163830437588047, 6.368121345127712 ], [ 100.163568702328902, 6.368666698380424 ], [ 100.163336044569135, 6.36922491728264 ], [ 100.163133102007507, 6.369794471755669 ], [ 100.162960430895424, 6.370373800655098 ], [ 100.16281850451243, 6.370961316050275 ], [ 100.16270771186889, 6.371555407576927 ], [ 100.162628356639729, 6.372154446851424 ], [ 100.162580656332111, 6.372756791934228 ], [ 100.162564741689266, 6.373360791830539 ], [ 100.162580656332111, 6.373964791015677 ], [ 100.162628356639729, 6.374567133972663 ], [ 100.16270771186889, 6.375166169730026 ], [ 100.16281850451243, 6.375760256386752 ], [ 100.162960430895424, 6.37634776561257 ], [ 100.163133102007507, 6.376927087110822 ], [ 100.163336044569135, 6.377496633031912 ], [ 100.163568702328902, 6.378054842325138 ], [ 100.163830437588047, 6.378600185017086 ], [ 100.164120532948402, 6.379131166404696 ], [ 100.164438193278755, 6.379646331151718 ], [ 100.164782547894234, 6.380144267277106 ], [ 100.165152652942737, 6.380623610024706 ], [ 100.165547493992122, 6.381083045603281 ], [ 100.165965988810441, 6.381521314787035 ], [ 100.166406990332547, 6.381937216366389 ], [ 100.166869289803856, 6.382329610439784 ], [ 100.167351620093726, 6.38269742153755 ], [ 100.167852659168304, 6.383039641569014 ], [ 100.168371033714322, 6.383355332585024 ], [ 100.1689053229032, 6.383643629348263 ], [ 100.169454062285425, 6.383903741704217 ], [ 100.170015747804413, 6.384134956746441 ], [ 100.170588839919304, 6.384336640770098 ], [ 100.171171767824362, 6.384508241008488 ], [ 100.171762933754778, 6.38464928714775 ], [ 100.172360717365777, 6.384759392615582 ], [ 100.172963480174062, 6.384838255640612 ], [ 100.17356957004867, 6.384885660079228 ], [ 100.174177325739393, 6.38490147600792 ], [ 100.174785081430116, 6.384885660079228 ], [ 100.175391171304724, 6.384838255640612 ], [ 100.175993934113009, 6.384759392615582 ], [ 100.176591717724023, 6.38464928714775 ], [ 100.177182883654424, 6.384508241008488 ], [ 100.177765811559482, 6.384336640770098 ], [ 100.178338903674359, 6.384134956746441 ], [ 100.178900589193375, 6.383903741704217 ], [ 100.179449328575586, 6.383643629348263 ], [ 100.179983617764464, 6.383355332585024 ], [ 100.180501992310496, 6.383039641569014 ], [ 100.18100303138506, 6.38269742153755 ], [ 100.18148536167493, 6.382329610439784 ], [ 100.181947661146239, 6.381937216366389 ], [ 100.18238866266833, 6.381521314787035 ], [ 100.182807157486664, 6.381083045603281 ], [ 100.183201998536035, 6.380623610024706 ], [ 100.183572103584552, 6.380144267277106 ], [ 100.183916458200031, 6.379646331151718 ], [ 100.184234118530384, 6.379131166404696 ], [ 100.184524213890739, 6.378600185017086 ], [ 100.18478594914987, 6.378054842325138 ], [ 100.185018606909651, 6.377496633031912 ], [ 100.185221549471294, 6.376927087110822 ], [ 100.185394220583376, 6.37634776561257 ], [ 100.185536146966356, 6.375760256386752 ], [ 100.185646939609882, 6.375166169730026 ], [ 100.185726294839057, 6.374567133972663 ], [ 100.185773995146661, 6.373964791015677 ], [ 100.185789909789534, 6.373360791830539 ] ] ] } },
{ "type": "Feature", "properties": { "state": "Perlis", "parlimen": "P.002 Arau", "code_parlimen": "P.002", "dun": "N.09 Utan Aji", "code_dun": "N.09", "voters_total": 5228 }, "geometry": { "type": "Polygon", "coordinates": [ [ [ 100.233014997195141, 6.410926472948385 ], [ 100.232999361206069, 6.410333092239345 ], [ 100.232952496096004, 6.409741337257993 ], [ 100.232874530318924, 6.409152829972119 ], [ 100.232765677573624, 6.408569183453401 ], [ 100.232626236217968, 6.407991997455831 ], [ 100.232456588450916, 6.407422854030781 ], [ 100.232257199265291, 6.406863313190348 ], [ 100.232028615172936, 6.406314908631231 ], [ 100.231771462707016, 6.405779143530568 ], [ 100.231486446704494, 6.405257486425376 ], [ 100.231174348374495, 6.404751367186976 ], [ 100.230836023156783, 6.404262173101311 ], [ 100.230472398377316, 6.403791245065936 ], [ 100.230084470706331, 6.403339873914197 ], [ 100.229673303426566, 6.402909296876534 ], [ 100.229240023518983, 6.402500694188752 ], [ 100.228785818573712, 6.402115185856502 ], [ 100.228311933534911, 6.401753828584792 ], [ 100.227819667288529, 6.40141761288107 ], [ 100.227310369102142, 6.401107460339741 ], [ 100.226785434926683, 6.400824221115619 ], [ 100.226246303570235, 6.400568671593081 ], [ 100.225694452754354, 6.400341512257665 ], [ 100.225131395063798, 6.400143365775609 ], [ 100.224558673800544, 6.399974775286661 ], [ 100.223977858753756, 6.399836202915136 ], [ 100.223390541897118, 6.399728028502823 ], [ 100.22279833302531, 6.399650548567656 ], [ 100.222202855341664, 6.399603975490742 ], [ 100.221605741009157, 6.39958843693414 ], [ 100.221008626676621, 6.399603975490742 ], [ 100.220413148993003, 6.399650548567656 ], [ 100.219820940121181, 6.399728028502823 ], [ 100.219233623264529, 6.399836202915136 ], [ 100.218652808217755, 6.399974775286661 ], [ 100.218080086954487, 6.400143365775609 ], [ 100.217517029263931, 6.400341512257665 ], [ 100.216965178448064, 6.400568671593081 ], [ 100.216426047091602, 6.400824221115619 ], [ 100.215901112916157, 6.401107460339741 ], [ 100.215391814729756, 6.40141761288107 ], [ 100.214899548483388, 6.401753828584792 ], [ 100.214425663444572, 6.402115185856502 ], [ 100.213971458499302, 6.402500694188752 ], [ 100.213538178591733, 6.402909296876534 ], [ 100.213127011311954, 6.403339873914197 ], [ 100.212739083640969, 6.403791245065936 ], [ 100.212375458861501, 6.404262173101311 ], [ 100.21203713364379, 6.404751367186976 ], [ 100.21172503531379, 6.405257486425376 ], [ 100.211440019311283, 6.405779143530568 ], [ 100.211182866845348, 6.406314908631231 ], [ 100.210954282752994, 6.406863313190348 ], [ 100.210754893567383, 6.407422854030781 ], [ 100.210585245800331, 6.407991997455831 ], [ 100.21044580444466, 6.408569183453401 ], [ 100.210336951699375, 6.409152829972119 ], [ 100.210258985922295, 6.409741337257993 ], [ 100.21021212081223, 6.410333092239345 ], [ 100.210196484823143, 6.410926472948385 ], [ 100.21021212081223, 6.41151985296694 ], [ 100.210258985922295, 6.412111605884379 ], [ 100.210336951699375, 6.41270010975552 ], [ 100.21044580444466, 6.413283751546115 ], [ 100.210585245800331, 6.413860931553975 ], [ 100.210754893567383, 6.414430067793338 ], [ 100.210954282752994, 6.414989600330844 ], [ 100.211182866845348, 6.415537995560745 ], [ 100.211440019311283, 6.416073750408152 ], [ 100.21172503531379, 6.41659539644836 ], [ 100.21203713364379, 6.41710150393129 ], [ 100.212375458861501, 6.417590685699773 ], [ 100.212739083640969, 6.418061600991213 ], [ 100.213127011311954, 6.418512959111914 ], [ 100.213538178591733, 6.41894352297418 ], [ 100.213971458499302, 6.419352112486553 ], [ 100.214425663444572, 6.419737607787752 ], [ 100.214899548483388, 6.420098952315551 ], [ 100.215391814729756, 6.420435155702092 ], [ 100.215901112916157, 6.420745296487925 ], [ 100.216426047091602, 6.421028524647088 ], [ 100.216965178448064, 6.421284063916359 ], [ 100.217517029263931, 6.421511213922571 ], [ 100.218080086954487, 6.4217093521017 ], [ 100.218652808217755, 6.421877935404948 ], [ 100.219233623264529, 6.422016501786763 ], [ 100.219820940121181, 6.422124671470953 ], [ 100.220413148993003, 6.4222021479914 ], [ 100.221008626676621, 6.422248719004388 ], [ 100.221605741009157, 6.422264256870518 ], [ 100.222202855341664, 6.422248719004388 ], [ 100.22279833302531, 6.4222021479914 ], [ 100.223390541897118, 6.422124671470953 ], [ 100.223977858753756, 6.422016501786763 ], [ 100.224558673800544, 6.421877935404948 ], [ 100.225131395063798, 6.4217093521017 ], [ 100.225694452754354, 6.421511213922571 ], [ 100.226246303570235, 6.421284063916359 ], [ 100.226785434926683, 6.421028524647088 ], [ 100.227310369102142, 6.420745296487925 ], [ 100.227819667288529, 6.420435155702092 ], [ 100.228311933534911, 6.420098952315551 ], [ 100.228785818573712, 6.419737607787752 ], [ 100.229240023518983, 6.419352112486553 ], [ 100.229673303426566, 6.41894352297418 ], [ 100.230084470706331, 6.418512959111914 ], [ 100.230472398377316, 6.418061600991213 ], [ 100.230836023156783, 6.417590685699773 ], [ 100.231174348374495, 6.41710150393129 ], [ 100.231486446704494, 6.41659539644836 ], [ 100.231771462707016, 6.416073750408152 ], [ 100.232028615172936, 6.415537995560745 ], [ 100.232257199265291, 6.414989600330844 ], [ 100.232456588450916, 6.414430067793338 ], [ 100.232626236217968, 6.413860931553975 ], [ 100.232765677573624, 6.413283751546115 ], [ 100.232874530318924, 6.41270010975552 ], [ 100.232952496096004, 6.412111605884379 ], [ 100.232999361206069, 6.41151985296694 ], [ 100.233014997195141, 6.410926472948385 ] ] ] } },
{ "type": "Feature", "properties": { "state": "Perlis", "parlimen": "P.002 Arau", "code_parlimen": "P.002", "dun": "N.10 Bandar Arau", "code_dun": "N.10", "voters_total": 5681 }, "geometry": { "type": "Polygon", "coordinates": [ [ [ 100.271407521829943, 6.419317246677859 ], [ 100.271391222492028, 6.418698702264921 ], [ 100.271342369153615, 6.418081852491084 ], [ 100.271261095718359, 6.417468388108021 ], [ 100.271147624951041, 6.416859990594257 ], [ 100.271002267867175, 6.416258327546315 ], [ 100.270825422880407, 6.415665048107573 ], [ 100.270617574710585, 6.415081778447931 ], [ 100.270379293055058, 6.414510117306112 ], [ 100.2701112310273, 6.413951631607278 ], [ 100.2698141233667, 6.413407852167778 ], [ 100.269488784424695, 6.412880269498713 ], [ 100.269136105932731, 6.412370329720028 ], [ 100.268757054557994, 6.411879430596248 ], [ 100.268352669254, 6.411408917704668 ], [ 100.267924058412731, 6.41096008074665 ], [ 100.267472396826747, 6.4105341500119 ], [ 100.266998922469014, 6.410132293005822 ], [ 100.266504933099881, 6.409755611248699 ], [ 100.265991782709804, 6.409405137255931 ], [ 100.265460877808422, 6.409081831707352 ], [ 100.264913673569097, 6.408786580813474 ], [ 100.26435166984065, 6.408520193885859 ], [ 100.263776407036232, 6.4082834011183 ], [ 100.263189461911196, 6.40807685158495 ], [ 100.262592443241317, 6.407901111460775 ], [ 100.261986987413309, 6.407756662469303 ], [ 100.261374753939464, 6.407643900561897 ], [ 100.260757420909229, 6.407563134832202 ], [ 100.260136680389493, 6.407514586668706 ], [ 100.259514233786888, 6.407498389147749 ], [ 100.258891787184282, 6.407514586668706 ], [ 100.258271046664561, 6.407563134832202 ], [ 100.257653713634298, 6.407643900561897 ], [ 100.257041480160467, 6.407756662469303 ], [ 100.256436024332459, 6.407901111460775 ], [ 100.25583900566258, 6.40807685158495 ], [ 100.255252060537543, 6.4082834011183 ], [ 100.254676797733126, 6.408520193885859 ], [ 100.254114794004678, 6.408786580813474 ], [ 100.253567589765368, 6.409081831707352 ], [ 100.253036684863972, 6.409405137255931 ], [ 100.252523534473909, 6.409755611248699 ], [ 100.252029545104762, 6.410132293005822 ], [ 100.251556070747043, 6.4105341500119 ], [ 100.251104409161044, 6.41096008074665 ], [ 100.250675798319762, 6.411408917704668 ], [ 100.250271413015781, 6.411879430596248 ], [ 100.249892361641059, 6.412370329720028 ], [ 100.249539683149067, 6.412880269498713 ], [ 100.249214344207061, 6.413407852167778 ], [ 100.248917236546461, 6.413951631607278 ], [ 100.248649174518718, 6.414510117306112 ], [ 100.248410892863191, 6.415081778447931 ], [ 100.248203044693369, 6.415665048107573 ], [ 100.248026199706615, 6.416258327546315 ], [ 100.247880842622735, 6.416859990594257 ], [ 100.247767371855417, 6.417468388108021 ], [ 100.247686098420147, 6.418081852491084 ], [ 100.247637245081762, 6.418698702264921 ], [ 100.247620945743833, 6.419317246677859 ], [ 100.247637245081762, 6.419935790339498 ], [ 100.247686098420147, 6.420552637867686 ], [ 100.247767371855417, 6.421166098535378 ], [ 100.247880842622735, 6.421774490904709 ], [ 100.248026199706615, 6.42237614743558 ], [ 100.248203044693369, 6.422969419055946 ], [ 100.248410892863191, 6.423552679681617 ], [ 100.248649174518718, 6.424124330672822 ], [ 100.248917236546461, 6.424682805215618 ], [ 100.249214344207061, 6.425226572615893 ], [ 100.249539683149067, 6.425754142494447 ], [ 100.249892361641059, 6.426264068871469 ], [ 100.250271413015781, 6.426754954129252 ], [ 100.250675798319762, 6.427225452842428 ], [ 100.251104409161044, 6.427674275465 ], [ 100.251556070747043, 6.428100191864277 ], [ 100.252029545104762, 6.428502034691976 ], [ 100.252523534473909, 6.428878702583102 ], [ 100.253036684863972, 6.42922916317421 ], [ 100.253567589765368, 6.429552455932264 ], [ 100.254114794004678, 6.429847694786916 ], [ 100.254676797733126, 6.430114070558506 ], [ 100.255252060537543, 6.430350853175452 ], [ 100.25583900566258, 6.430557393674818 ], [ 100.256436024332459, 6.43073312598063 ], [ 100.257041480160467, 6.430877568455005 ], [ 100.257653713634298, 6.430990325218004 ], [ 100.258271046664561, 6.431071087232315 ], [ 100.258891787184282, 6.431119633150175 ], [ 100.259514233786888, 6.431135829919846 ], [ 100.260136680389493, 6.431119633150175 ], [ 100.260757420909229, 6.431071087232315 ], [ 100.261374753939464, 6.430990325218004 ], [ 100.261986987413309, 6.430877568455005 ], [ 100.262592443241317, 6.43073312598063 ], [ 100.263189461911196, 6.430557393674818 ], [ 100.263776407036232, 6.430350853175452 ], [ 100.26435166984065, 6.430114070558506 ], [ 100.264913673569097, 6.429847694786916 ], [ 100.265460877808422, 6.429552455932264 ], [ 100.265991782709804, 6.42922916317421 ], [ 100.266504933099881, 6.428878702583102 ], [ 100.266998922469014, 6.428502034691976 ], [ 100.267472396826747, 6.428100191864277 ], [ 100.267924058412731, 6.427674275465 ], [ 100.268352669254, 6.427225452842428 ], [ 100.268757054557994, 6.426754954129252 ], [ 100.269136105932731, 6.426264068871469 ], [ 100.269488784424695, 6.425754142494447 ], [ 100.2698141233667, 6.425226572615893 ], [ 100.2701112310273, 6.424682805215618 ], [ 100.270379293055058, 6.424124330672822 ], [ 100.270617574710585, 6.423552679681617 ], [ 100.270825422880407, 6.422969419055946 ], [ 100.271002267867175, 6.42237614743558 ], [ 100.271147624951041, 6.421774490904709 ], [ 100.271261095718359, 6.421166098535378 ], [ 100.271342369153615, 6.420552637867686 ], [ 100.271391222492028, 6.419935790339498 ], [ 100.271407521829943, 6.419317246677859 ] ] ] } },
{ "type": "Feature", "properties": { "state": "Perlis", "parlimen": "P.002 Arau", "code_parlimen": "P.002", "dun": "N.11 Kurong Anai", "code_dun": "N.11", "voters_total": 5929 }, "geometry": { "type": "Polygon", "coordinates": [ [ [ 100.306715733136002, 6.410728639816587 ], [ 100.306699081830303, 6.410096727902285 ], [ 100.306649173553268, 6.409466547234849 ], [ 100.306566145100007, 6.408839825105396 ], [ 100.306450224045761, 6.408218279331653 ], [ 100.306301728122065, 6.407603613549515 ], [ 100.30612106434593, 6.406997512543096 ], [ 100.305908727904196, 6.406401637626662 ], [ 100.305665300796321, 6.405817622090652 ], [ 100.305391450239043, 6.405247066724557 ], [ 100.305087926837757, 6.40469153542873 ], [ 100.304755562528982, 6.404152550927401 ], [ 100.304395268300169, 6.40363159059439 ], [ 100.304008031692746, 6.403130082403102 ], [ 100.303594914095399, 6.402649401011968 ], [ 100.303157047834702, 6.402190863995941 ], [ 100.302695633071636, 6.40175572823442 ], [ 100.302211934512016, 6.401345186465613 ], [ 100.301707277939954, 6.400960364016596 ], [ 100.301183046584072, 6.400602315718254 ], [ 100.30064067732603, 6.400272023013403 ], [ 100.300081656762273, 6.399970391266053 ], [ 100.299507517129342, 6.399698247279334 ], [ 100.298919832104048, 6.399456337028681 ], [ 100.298320212490182, 6.399245323616656 ], [ 100.297710301803406, 6.399065785454989 ], [ 100.297091771766574, 6.398918214678719 ], [ 100.296466317727493, 6.398803015796908 ], [ 100.295835654012208, 6.398720504583689 ], [ 100.295201509226146, 6.398670907212427 ], [ 100.294565621516057, 6.398654359635692 ], [ 100.293929733805953, 6.398670907212427 ], [ 100.293295589019877, 6.398720504583689 ], [ 100.292664925304607, 6.398803015796908 ], [ 100.292039471265525, 6.398918214678719 ], [ 100.291420941228679, 6.399065785454989 ], [ 100.290811030541917, 6.399245323616656 ], [ 100.290211410928052, 6.399456337028681 ], [ 100.289623725902743, 6.399698247279334 ], [ 100.289049586269812, 6.399970391266053 ], [ 100.28849056570607, 6.400272023013403 ], [ 100.287948196448014, 6.400602315718254 ], [ 100.287423965092131, 6.400960364016596 ], [ 100.286919308520083, 6.401345186465613 ], [ 100.286435609960449, 6.40175572823442 ], [ 100.285974195197383, 6.402190863995941 ], [ 100.285536328936701, 6.402649401011968 ], [ 100.285123211339339, 6.403130082403102 ], [ 100.284735974731944, 6.40363159059439 ], [ 100.284375680503132, 6.404152550927401 ], [ 100.284043316194342, 6.40469153542873 ], [ 100.283739792793043, 6.405247066724557 ], [ 100.283465942235765, 6.405817622090652 ], [ 100.283222515127889, 6.406401637626662 ], [ 100.283010178686155, 6.406997512543096 ], [ 100.28282951491002, 6.407603613549515 ], [ 100.282681018986338, 6.408218279331653 ], [ 100.282565097932078, 6.408839825105396 ], [ 100.282482069478817, 6.409466547234849 ], [ 100.282432161201797, 6.410096727902285 ], [ 100.282415509896083, 6.410728639816587 ], [ 100.282432161201797, 6.411360550947836 ], [ 100.282482069478817, 6.411990729274677 ], [ 100.282565097932078, 6.412617447531677 ], [ 100.282681018986338, 6.413238987943489 ], [ 100.28282951491002, 6.413853646932979 ], [ 100.283010178686155, 6.414459739790461 ], [ 100.283222515127889, 6.415055605290951 ], [ 100.283465942235765, 6.415639610247164 ], [ 100.283739792793043, 6.416210153985546 ], [ 100.284043316194342, 6.416765672733105 ], [ 100.284375680503132, 6.417304643903114 ], [ 100.284735974731944, 6.417825590267816 ], [ 100.285123211339339, 6.418327084006841 ], [ 100.285536328936701, 6.4188077506201 ], [ 100.285974195197383, 6.419266272694544 ], [ 100.286435609960449, 6.41970139351448 ], [ 100.286919308520083, 6.420111920505413 ], [ 100.287423965092131, 6.420496728502166 ], [ 100.287948196448014, 6.420854762832186 ], [ 100.28849056570607, 6.421185042205731 ], [ 100.289049586269812, 6.421486661404825 ], [ 100.289623725902743, 6.421758793763818 ], [ 100.290211410928052, 6.422000693434686 ], [ 100.290811030541917, 6.422211697430756 ], [ 100.291420941228679, 6.422391227443485 ], [ 100.292039471265525, 6.422538791427134 ], [ 100.292664925304607, 6.422653984947 ], [ 100.293295589019877, 6.422736492287742 ], [ 100.293929733805953, 6.422786087318407 ], [ 100.294565621516057, 6.422802634112091 ], [ 100.295201509226146, 6.422786087318407 ], [ 100.295835654012208, 6.422736492287742 ], [ 100.296466317727493, 6.422653984947 ], [ 100.297091771766574, 6.422538791427134 ], [ 100.297710301803406, 6.422391227443485 ], [ 100.298320212490182, 6.422211697430756 ], [ 100.298919832104048, 6.422000693434686 ], [ 100.299507517129342, 6.421758793763818 ], [ 100.300081656762273, 6.421486661404825 ], [ 100.30064067732603, 6.421185042205731 ], [ 100.301183046584072, 6.420854762832186 ], [ 100.301707277939954, 6.420496728502166 ], [ 100.302211934512016, 6.420111920505413 ], [ 100.302695633071636, 6.41970139351448 ], [ 100.303157047834702, 6.419266272694544 ], [ 100.303594914095399, 6.4188077506201 ], [ 100.304008031692746, 6.418327084006841 ], [ 100.304395268300169, 6.417825590267816 ], [ 100.304755562528982, 6.417304643903114 ], [ 100.305087926837757, 6.416765672733105 ], [ 100.305391450239043, 6.416210153985546 ], [ 100.305665300796321, 6.415639610247164 ], [ 100.305908727904196, 6.415055605290951 ], [ 100.30612106434593, 6.414459739790461 ], [ 100.306301728122065, 6.413853646932979 ], [ 100.306450224045761, 6.413238987943489 ], [ 100.306566145100007, 6.412617447531677 ], [ 100.306649173553268, 6.411990729274677 ], [ 100.306699081830303, 6.411360550947836 ], [ 100.306715733136002, 6.410728639816587 ] ] ] } },
{ "type": "Feature", "properties": { "state": "Perlis", "parlimen": "P.002 Arau", "code_parlimen": "P.002", "dun": "N.12 Sanglang", "code_dun": "N.12", "voters_total": 5386 }, "geometry": { "type": "Polygon", "coordinates": [ [ [ 100.214090024314871, 6.318326996045974 ], [ 100.214074153809975, 6.317724606953528 ], [ 100.214026585795224, 6.317123868269418 ], [ 100.213947450651247, 6.316526426585273 ], [ 100.21383696528197, 6.315933919461528 ], [ 100.213695432520126, 6.31534797093883 ], [ 100.213523240297135, 6.314770187086354 ], [ 100.213320860579969, 6.314202151599511 ], [ 100.213088848077319, 6.313645421458761 ], [ 100.212827838719335, 6.313101522661669 ], [ 100.212538547914548, 6.31257194603981 ], [ 100.212221768588932, 6.312058143172068 ], [ 100.211878369012595, 6.311561522405411 ], [ 100.211509290419926, 6.311083444994226 ], [ 100.211115544429646, 6.310625221368595 ], [ 100.210698210272199, 6.31018810754194 ], [ 100.210258431831477, 6.309773301667808 ], [ 100.209797414509623, 6.309381940755198 ], [ 100.209316421923063, 6.309015097551442 ], [ 100.20881677243905, 6.308673777601394 ], [ 100.208299835562102, 6.308358916490607 ], [ 100.207767028180228, 6.308071377280496 ], [ 100.207219810681465, 6.307811948142127 ], [ 100.206659682950942, 6.307581340195441 ], [ 100.206088180259812, 6.307380185559665 ], [ 100.205506869057231, 6.307209035620249 ], [ 100.204917342676794, 6.307068359517203 ], [ 100.204321216969348, 6.306958542858888 ], [ 100.203720125874014, 6.306879886664833 ], [ 100.203115716939706, 6.306832606540411 ], [ 100.202509646809304, 6.306816832085756 ], [ 100.201903576678902, 6.306832606540411 ], [ 100.201299167744594, 6.306879886664833 ], [ 100.20069807664926, 6.306958542858888 ], [ 100.200101950941814, 6.307068359517203 ], [ 100.199512424561377, 6.307209035620249 ], [ 100.198931113358796, 6.307380185559665 ], [ 100.198359610667666, 6.307581340195441 ], [ 100.197799482937143, 6.307811948142127 ], [ 100.197252265438379, 6.308071377280496 ], [ 100.196719458056506, 6.308358916490607 ], [ 100.196202521179558, 6.308673777601394 ], [ 100.195702871695545, 6.309015097551442 ], [ 100.195221879108985, 6.309381940755198 ], [ 100.194760861787131, 6.309773301667808 ], [ 100.194321083346409, 6.31018810754194 ], [ 100.193903749188962, 6.310625221368595 ], [ 100.193510003198682, 6.311083444994226 ], [ 100.193140924606013, 6.311561522405411 ], [ 100.192797525029675, 6.312058143172068 ], [ 100.19248074570406, 6.31257194603981 ], [ 100.192191454899273, 6.313101522661669 ], [ 100.191930445541288, 6.313645421458761 ], [ 100.191698433038638, 6.314202151599511 ], [ 100.191496053321472, 6.314770187086354 ], [ 100.191323861098482, 6.31534797093883 ], [ 100.191182328336637, 6.315933919461528 ], [ 100.191071842967361, 6.316526426585273 ], [ 100.190992707823384, 6.317123868269418 ], [ 100.190945139808619, 6.317724606953528 ], [ 100.190929269303723, 6.318326996045974 ], [ 100.190945139808619, 6.318929384437146 ], [ 100.190992707823384, 6.319530121025182 ], [ 100.191071842967361, 6.320127559241389 ], [ 100.191182328336637, 6.320720061563311 ], [ 100.191323861098482, 6.321306004002957 ], [ 100.191496053321472, 6.321883780557752 ], [ 100.191698433038638, 6.322451807612257 ], [ 100.191930445541288, 6.323008528278402 ], [ 100.192191454899273, 6.323552416662447 ], [ 100.19248074570406, 6.324081982046873 ], [ 100.192797525029675, 6.324595772975919 ], [ 100.193140924606013, 6.325092381233429 ], [ 100.193510003198682, 6.325570445702084 ], [ 100.193903749188962, 6.326028656093567 ], [ 100.194321083346409, 6.326465756539476 ], [ 100.194760861787131, 6.326880549032863 ], [ 100.195221879108985, 6.327271896711349 ], [ 100.195702871695545, 6.327638726972551 ], [ 100.196202521179558, 6.327980034413465 ], [ 100.196719458056506, 6.328294883585555 ], [ 100.197252265438379, 6.328582411558234 ], [ 100.197799482937143, 6.328841830283543 ], [ 100.198359610667666, 6.329072428755623 ], [ 100.198931113358796, 6.329273574959061 ], [ 100.199512424561377, 6.329444717600809 ], [ 100.200101950941814, 6.32958538762079 ], [ 100.20069807664926, 6.329695199477294 ], [ 100.201299167744594, 6.329773852203413 ], [ 100.201903576678902, 6.329821130231748 ], [ 100.202509646809304, 6.329836903985153 ], [ 100.203115716939706, 6.329821130231748 ], [ 100.203720125874014, 6.329773852203413 ], [ 100.204321216969348, 6.329695199477294 ], [ 100.204917342676794, 6.32958538762079 ], [ 100.205506869057231, 6.329444717600809 ], [ 100.206088180259812, 6.329273574959061 ], [ 100.206659682950942, 6.329072428755623 ], [ 100.207219810681465, 6.328841830283543 ], [ 100.207767028180228, 6.328582411558234 ], [ 100.208299835562102, 6.328294883585555 ], [ 100.20881677243905, 6.327980034413465 ], [ 100.209316421923063, 6.327638726972551 ], [ 100.209797414509623, 6.327271896711349 ], [ 100.210258431831477, 6.326880549032863 ], [ 100.210698210272199, 6.326465756539476 ], [ 100.211115544429646, 6.326028656093567 ], [ 100.211509290419926, 6.325570445702084 ], [ 100.211878369012595, 6.325092381233429 ], [ 100.212221768588932, 6.324595772975919 ], [ 100.212538547914548, 6.324081982046873 ], [ 100.212827838719335, 6.323552416662447 ], [ 100.213088848077319, 6.323008528278402 ], [ 100.213320860579969, 6.322451807612257 ], [ 100.213523240297135, 6.321883780557752 ], [ 100.213695432520126, 6.321306004002957 ], [ 100.21383696528197, 6.320720061563311 ], [ 100.213947450651247, 6.320127559241389 ], [ 100.214026585795224, 6.319530121025182 ], [ 100.214074153809975, 6.318929384437146 ], [ 100.214090024314871, 6.318326996045974 ] ] ] } }
]
}
