{
"type": "FeatureCollection",
"name": "PLS_SE-03",
"crs": { "type": "name", "properties": { "name": "urn:ogc:def:crs:OGC:1.3:CRS84" } },
"features": [
{ "type": "Feature", "properties": { "state": "Perlis", "parlimen": "P.001 Perlis Utara", "code_parlimen": "P.001", "dun": "N.01 Kaki Bukit", "code_dun": "N.01", "voters_total": 6376 }, "geometry": { "type": "Polygon", "coordinates": [ [ [ 100.248525992625446, 6.621536577342059 ], [ 100.248507393265655, 6.620831033877779 ], [ 100.248451646165861, 6.620127423254797 ], [ 100.24835890412497, 6.619427674033371 ], [ 100.248229421342458, 6.618733704198099 ], [ 100.248063552721632, 6.618047415900521 ], [ 100.247861752896895, 6.61737069024515 ], [ 100.247624574987498, 6.616705382133157 ], [ 100.247352669081621, 6.616053315177714 ], [ 100.247046780454454, 6.615416276705025 ], [ 100.246707747525434, 6.614796012854813 ], [ 100.2463364995603, 6.614194223793562 ], [ 100.245934054123893, 6.613612559053784 ], [ 100.245501514291178, 6.613052613011983 ], [ 100.245040065623783, 6.612515920517755 ], [ 100.244550972920408, 6.612003952686037 ], [ 100.244035576750179, 6.611518112864062 ], [ 100.243495289778181, 6.611059732783983 ], [ 100.242931592893413, 6.610630068911812 ], [ 100.242346031149879, 6.610230299002752 ], [ 100.241740209531628, 6.609861518872097 ], [ 100.241115788553586, 6.609524739391011 ], [ 100.240474479710244, 6.609220883714908 ], [ 100.239818040784584, 6.608950784752484 ], [ 100.239148271030075, 6.608715182882102 ], [ 100.238467006239034, 6.608514723921838 ], [ 100.237776113710922, 6.608349957358798 ], [ 100.237077487134115, 6.60822133484256 ], [ 100.236373041395524, 6.608129208946797 ], [ 100.235664707331949, 6.608073832202638 ], [ 100.234954426437795, 6.608055356406243 ], [ 100.234244145543656, 6.608073832202638 ], [ 100.233535811480081, 6.608129208946797 ], [ 100.23283136574149, 6.60822133484256 ], [ 100.232132739164683, 6.608349957358798 ], [ 100.231441846636571, 6.608514723921838 ], [ 100.23076058184553, 6.608715182882102 ], [ 100.230090812091007, 6.608950784752484 ], [ 100.229434373165361, 6.609220883714908 ], [ 100.228793064322019, 6.609524739391011 ], [ 100.228168643343977, 6.609861518872097 ], [ 100.227562821725712, 6.610230299002752 ], [ 100.226977259982178, 6.610630068911812 ], [ 100.226413563097424, 6.611059732783983 ], [ 100.225873276125412, 6.611518112864062 ], [ 100.225357879955197, 6.612003952686037 ], [ 100.224868787251836, 6.612515920517755 ], [ 100.224407338584413, 6.613052613011983 ], [ 100.223974798751712, 6.613612559053784 ], [ 100.223572353315305, 6.614194223793562 ], [ 100.223201105350157, 6.614796012854813 ], [ 100.222862072421151, 6.615416276705025 ], [ 100.222556183793984, 6.616053315177714 ], [ 100.222284277888107, 6.616705382133157 ], [ 100.22204709997871, 6.61737069024515 ], [ 100.221845300153959, 6.618047415900521 ], [ 100.221679431533147, 6.618733704198099 ], [ 100.221549948750635, 6.619427674033371 ], [ 100.221457206709744, 6.620127423254797 ], [ 100.221401459609936, 6.620831033877779 ], [ 100.221382860250159, 6.621536577342059 ], [ 100.221401459609936, 6.622242119797786 ], [ 100.221457206709744, 6.622945727406162 ], [ 100.221549948750635, 6.62364547163993 ], [ 100.221679431533147, 6.624339434569163 ], [ 100.221845300153959, 6.625025714117989 ], [ 100.22204709997871, 6.62570242927772 ], [ 100.222284277888107, 6.626367725262208 ], [ 100.222556183793984, 6.627019778591124 ], [ 100.222862072421151, 6.627656802087598 ], [ 100.223201105350157, 6.628277049775962 ], [ 100.223572353315305, 6.628878821666797 ], [ 100.223974798751712, 6.629460468415729 ], [ 100.224407338584413, 6.630020395843373 ], [ 100.224868787251836, 6.630557069304054 ], [ 100.225357879955197, 6.631069017891381 ], [ 100.225873276125412, 6.631554838468964 ], [ 100.226413563097424, 6.632013199515498 ], [ 100.226977259982178, 6.632442844773498 ], [ 100.227562821725712, 6.632842596691725 ], [ 100.228168643343977, 6.633211359651952 ], [ 100.228793064322019, 6.633548122971201 ], [ 100.229434373165361, 6.633851963671078 ], [ 100.230090812091007, 6.634122049006987 ], [ 100.23076058184553, 6.634357638749864 ], [ 100.231441846636571, 6.634558087214488 ], [ 100.232132739164683, 6.634722845028764 ], [ 100.23283136574149, 6.634851460638974 ], [ 100.233535811480081, 6.634943581547081 ], [ 100.234244145543656, 6.634998955276633 ], [ 100.234954426437795, 6.635017430064463 ], [ 100.235664707331949, 6.634998955276633 ], [ 100.236373041395524, 6.634943581547081 ], [ 100.237077487134115, 6.634851460638974 ], [ 100.237776113710922, 6.634722845028764 ], [ 100.238467006239034, 6.634558087214488 ], [ 100.239148271030075, 6.634357638749864 ], [ 100.239818040784584, 6.634122049006987 ], [ 100.240474479710244, 6.633851963671078 ], [ 100.241115788553586, 6.633548122971201 ], [ 100.241740209531628, 6.633211359651952 ], [ 100.242346031149879, 6.632842596691725 ], [ 100.242931592893413, 6.632442844773498 ], [ 100.243495289778181, 6.632013199515498 ], [ 100.244035576750179, 6.631554838468964 ], [ 100.244550972920408, 6.631069017891381 ], [ 100.245040065623783, 6.630557069304054 ], [ 100.245501514291178, 6.630020395843373 ], [ 100.245934054123893, 6.629460468415729 ], [ 100.2463364995603, 6.628878821666797 ], [ 100.246707747525434, 6.628277049775962 ], [ 100.247046780454454, 6.627656802087598 ], [ 100.247352669081621, 6.627019778591124 ], [ 100.247624574987498, 6.626367725262208 ], [ 100.247861752896895, 6.62570242927772 ], [ 100.248063552721632, 6.625025714117989 ], [ 100.248229421342458, 6.624339434569163 ], [ 100.24835890412497, 6.62364547163993 ], [ 100.248451646165861, 6.622945727406162 ], [ 100.248507393265655, 6.622242119797786 ], [ 100.248525992625446, 6.621536577342059 ] ] ] } },
{ "type": "Feature", "properties": { "state": "Perlis", "parlimen": "P.001 Perlis Utara", "code_parlimen": "P.001", "dun": "N.02 Paya", "code_dun": "N.02", "voters_total": 4887 }, "geometry": { "type": "Polygon", "coordinates": [ [ [ 100.238970565139127, 6.487012344953274 ], [ 100.238954281742153, 6.486394488054291 ], [ 100.238905476182865, 6.485778323903708 ], [ 100.238824282233949, 6.485165541374 ], [ 100.238710922442337, 6.484557820074965 ], [ 100.238565707519356, 6.483956825749777 ], [ 100.238389035489007, 6.483364205709178 ], [ 100.238181390597063, 6.482781584315942 ], [ 100.237943341983694, 6.482210558532248 ], [ 100.237675542123668, 6.481652693542145 ], [ 100.237378725037743, 6.481109518461048 ], [ 100.237053704280939, 6.480582522143955 ], [ 100.236701370712538, 6.480073149104111 ], [ 100.236322690054379, 6.479582795553115 ], [ 100.235918700243829, 6.479112805573362 ], [ 100.235490508588853, 6.478664467433413 ], [ 100.23503928873302, 6.47823901005629 ], [ 100.234566277438617, 6.477837599650419 ], [ 100.234072771196693, 6.477461336512471 ], [ 100.23356012267358, 6.477111252010925 ], [ 100.233029737003221, 6.476788305758515 ], [ 100.232483067935874, 6.47649338298137 ], [ 100.231921613853501, 6.476227292092139 ], [ 100.231346913662648, 6.475990762473585 ], [ 100.230760542576633, 6.47578444247892 ], [ 100.230164107797833, 6.475608897654275 ], [ 100.229559244112508, 6.475464609188146 ], [ 100.22894760941, 6.475351972592139 ], [ 100.228330880138486, 6.475271296616603 ], [ 100.227710746710059, 6.475222802404143 ], [ 100.227088908867316, 6.475206622883307 ], [ 100.226467071024572, 6.475222802404143 ], [ 100.225846937596145, 6.475271296616603 ], [ 100.225230208324632, 6.475351972592139 ], [ 100.224618573622124, 6.475464609188146 ], [ 100.224013709936798, 6.475608897654275 ], [ 100.223417275157999, 6.47578444247892 ], [ 100.222830904071984, 6.475990762473585 ], [ 100.22225620388113, 6.476227292092139 ], [ 100.221694749798743, 6.47649338298137 ], [ 100.22114808073141, 6.476788305758515 ], [ 100.220617695061051, 6.477111252010925 ], [ 100.220105046537938, 6.477461336512471 ], [ 100.219611540296015, 6.477837599650419 ], [ 100.219138529001611, 6.47823901005629 ], [ 100.218687309145778, 6.478664467433413 ], [ 100.218259117490803, 6.479112805573362 ], [ 100.217855127680252, 6.479582795553115 ], [ 100.217476447022108, 6.480073149104111 ], [ 100.217124113453693, 6.480582522143955 ], [ 100.216799092696888, 6.481109518461048 ], [ 100.216502275610978, 6.481652693542145 ], [ 100.216234475750937, 6.482210558532248 ], [ 100.215996427137583, 6.482781584315942 ], [ 100.215788782245625, 6.483364205709178 ], [ 100.215612110215275, 6.483956825749777 ], [ 100.21546689529228, 6.484557820074965 ], [ 100.215353535500682, 6.485165541374 ], [ 100.215272341551753, 6.485778323903708 ], [ 100.215223535992493, 6.486394488054291 ], [ 100.215207252595491, 6.487012344953274 ], [ 100.215223535992493, 6.48763020109465 ], [ 100.215272341551753, 6.488246362980754 ], [ 100.215353535500682, 6.488859141763895 ], [ 100.21546689529228, 6.489466857875357 ], [ 100.215612110215275, 6.490067845628769 ], [ 100.215788782245625, 6.490660457785395 ], [ 100.215996427137583, 6.491243070068874 ], [ 100.216234475750937, 6.491814085616793 ], [ 100.216502275610978, 6.492371939357247 ], [ 100.216799092696888, 6.492915102298117 ], [ 100.217124113453693, 6.493442085717374 ], [ 100.217476447022108, 6.493951445243105 ], [ 100.217855127680252, 6.494441784811772 ], [ 100.218259117490803, 6.494911760494168 ], [ 100.218687309145778, 6.495360084178368 ], [ 100.219138529001611, 6.495785527099756 ], [ 100.219611540296015, 6.496186923208283 ], [ 100.220105046537938, 6.496563172363902 ], [ 100.220617695061051, 6.496913243351335 ], [ 100.22114808073141, 6.497236176705909 ], [ 100.221694749798743, 6.497531087342801 ], [ 100.22225620388113, 6.49779716698241 ], [ 100.222830904071984, 6.498033686365187 ], [ 100.223417275157999, 6.498239997250082 ], [ 100.224013709936798, 6.498415534190756 ], [ 100.224618573622124, 6.498559816085108 ], [ 100.225230208324632, 6.498672447493528 ], [ 100.225846937596145, 6.498753119722512 ], [ 100.226467071024572, 6.498801611670506 ], [ 100.227088908867316, 6.498817790433747 ], [ 100.227710746710059, 6.498801611670506 ], [ 100.228330880138486, 6.498753119722512 ], [ 100.22894760941, 6.498672447493528 ], [ 100.229559244112508, 6.498559816085108 ], [ 100.230164107797833, 6.498415534190756 ], [ 100.230760542576633, 6.498239997250082 ], [ 100.231346913662648, 6.498033686365187 ], [ 100.231921613853501, 6.49779716698241 ], [ 100.232483067935874, 6.497531087342801 ], [ 100.233029737003221, 6.497236176705909 ], [ 100.23356012267358, 6.496913243351335 ], [ 100.234072771196693, 6.496563172363902 ], [ 100.234566277438617, 6.496186923208283 ], [ 100.23503928873302, 6.495785527099756 ], [ 100.235490508588853, 6.495360084178368 ], [ 100.235918700243829, 6.494911760494168 ], [ 100.236322690054379, 6.494441784811772 ], [ 100.236701370712538, 6.493951445243105 ], [ 100.237053704280939, 6.493442085717374 ], [ 100.237378725037743, 6.492915102298117 ], [ 100.237675542123668, 6.492371939357247 ], [ 100.237943341983694, 6.491814085616793 ], [ 100.238181390597063, 6.491243070068874 ], [ 100.238389035489007, 6.490660457785395 ], [ 100.238565707519356, 6.490067845628769 ], [ 100.238710922442337, 6.489466857875357 ], [ 100.238824282233949, 6.488859141763895 ], [ 100.238905476182865, 6.488246362980754 ], [ 100.238954281742153, 6.48763020109465 ], [ 100.238970565139127, 6.487012344953274 ] ] ] } },
{ "type": "Feature", "properties": { "state": "Perlis", "parlimen": "P.001 Perlis Utara", "code_parlimen": "P.001", "dun": "N.03 Mata Ayer", "code_dun": "N.03", "voters_total": 4425 }, "geometry": { "type": "Polygon", "coordinates": [ [ [ 100.300334214837335, 6.537175213681979 ], [ 100.30031872023342, 6.536587345500363 ], [ 100.300272278891313, 6.536001087936296 ], [ 100.300195018103523, 6.535418047889547 ], [ 100.300087149636468, 6.534839823446447 ], [ 100.299948969150137, 6.534267999499503 ], [ 100.299780855387652, 6.533704143403084 ], [ 100.299583269137116, 6.533149800677132 ], [ 100.299356751968745, 6.532606490770706 ], [ 100.299101924750303, 6.532075702896885 ], [ 100.298819485945529, 6.531558891950497 ], [ 100.298510209699543, 6.531057474519912 ], [ 100.298174943717044, 6.530572825003823 ], [ 100.297814606938758, 6.530106271843459 ], [ 100.297430187022755, 6.529659093881007 ], [ 100.29702273763732, 6.529232516853702 ], [ 100.296593375572911, 6.528827710033688 ], [ 100.296143277681054, 6.528445783022421 ], [ 100.295673677648821, 6.528087782708828 ], [ 100.295185862617274, 6.527754690399239 ], [ 100.294681169653458, 6.527447419127117 ], [ 100.294160982085742, 6.527166811149904 ], [ 100.293626725712073, 6.526913635640006 ], [ 100.293079864892064, 6.52668858657602 ], [ 100.292521898533167, 6.526492280840062 ], [ 100.291954355982412, 6.526325256526606 ], [ 100.291378792834479, 6.526187971467198 ], [ 100.290796786667954, 6.526080801975219 ], [ 100.290209932721297, 6.526004041814207 ], [ 100.289619839520356, 6.525957901392447 ], [ 100.289028124469596, 6.525942507186095 ], [ 100.288436409418821, 6.525957901392447 ], [ 100.28784631621788, 6.526004041814207 ], [ 100.287259462271223, 6.526080801975219 ], [ 100.286677456104698, 6.526187971467198 ], [ 100.286101892956765, 6.526325256526606 ], [ 100.285534350406024, 6.526492280840062 ], [ 100.284976384047127, 6.52668858657602 ], [ 100.284429523227104, 6.526913635640006 ], [ 100.283895266853435, 6.527166811149904 ], [ 100.283375079285719, 6.527447419127117 ], [ 100.282870386321903, 6.527754690399239 ], [ 100.282382571290356, 6.528087782708828 ], [ 100.281912971258123, 6.528445783022421 ], [ 100.281462873366266, 6.528827710033688 ], [ 100.281033511301857, 6.529232516853702 ], [ 100.280626061916408, 6.529659093881007 ], [ 100.280241642000433, 6.530106271843459 ], [ 100.279881305222148, 6.530572825003823 ], [ 100.279546039239634, 6.531057474519912 ], [ 100.279236762993648, 6.531558891950497 ], [ 100.278954324188859, 6.532075702896885 ], [ 100.278699496970432, 6.532606490770706 ], [ 100.278472979802061, 6.533149800677132 ], [ 100.27827539355151, 6.533704143403084 ], [ 100.27810727978904, 6.534267999499503 ], [ 100.277969099302695, 6.534839823446447 ], [ 100.277861230835654, 6.535418047889547 ], [ 100.277783970047849, 6.536001087936296 ], [ 100.277737528705757, 6.536587345500363 ], [ 100.277722034101842, 6.537175213681979 ], [ 100.277737528705757, 6.537763081172396 ], [ 100.277783970047849, 6.538349336670477 ], [ 100.277861230835654, 6.538932373299083 ], [ 100.277969099302695, 6.539510593009328 ], [ 100.27810727978904, 6.540082410960546 ], [ 100.27827539355151, 6.540646259864088 ], [ 100.278472979802061, 6.54120059427878 ], [ 100.278699496970432, 6.541743894846665 ], [ 100.278954324188859, 6.542274672456951 ], [ 100.279236762993648, 6.542791472327274 ], [ 100.279546039239634, 6.543292877990595 ], [ 100.279881305222148, 6.543777515177175 ], [ 100.280241642000433, 6.54424405558083 ], [ 100.280626061916408, 6.544691220499192 ], [ 100.281033511301857, 6.54511778433788 ], [ 100.281462873366266, 6.545522577969305 ], [ 100.281912971258123, 6.545904491936469 ], [ 100.282382571290356, 6.546262479493353 ], [ 100.282870386321903, 6.546595559473432 ], [ 100.283375079285719, 6.546902818978303 ], [ 100.283895266853435, 6.547183415879438 ], [ 100.284429523227104, 6.547436581125801 ], [ 100.284976384047127, 6.547661620851246 ], [ 100.285534350406024, 6.547857918275956 ], [ 100.286101892956765, 6.548024935396525 ], [ 100.286677456104698, 6.548162214460219 ], [ 100.287259462271223, 6.548269379219341 ], [ 100.28784631621788, 6.548346135962211 ], [ 100.288436409418821, 6.548392274317984 ], [ 100.289028124469596, 6.548407667833151 ], [ 100.289619839520356, 6.548392274317984 ], [ 100.290209932721297, 6.548346135962211 ], [ 100.290796786667954, 6.548269379219341 ], [ 100.291378792834479, 6.548162214460219 ], [ 100.291954355982412, 6.548024935396525 ], [ 100.292521898533167, 6.547857918275956 ], [ 100.293079864892064, 6.547661620851246 ], [ 100.293626725712073, 6.547436581125801 ], [ 100.294160982085742, 6.547183415879438 ], [ 100.294681169653458, 6.546902818978303 ], [ 100.295185862617274, 6.546595559473432 ], [ 100.295673677648821, 6.546262479493353 ], [ 100.296143277681054, 6.545904491936469 ], [ 100.296593375572911, 6.545522577969305 ], [ 100.29702273763732, 6.54511778433788 ], [ 100.297430187022755, 6.544691220499192 ], [ 100.297814606938758, 6.54424405558083 ], [ 100.298174943717044, 6.543777515177175 ], [ 100.298510209699543, 6.543292877990595 ], [ 100.298819485945529, 6.542791472327274 ], [ 100.299101924750303, 6.542274672456951 ], [ 100.299356751968745, 6.541743894846665 ], [ 100.299583269137116, 6.54120059427878 ], [ 100.299780855387652, 6.540646259864088 ], [ 100.299948969150137, 6.540082410960546 ], [ 100.300087149636468, 6.539510593009328 ], [ 100.300195018103523, 6.538932373299083 ], [ 100.300272278891313, 6.538349336670477 ], [ 100.30031872023342, 6.537763081172396 ], [ 100.300334214837335, 6.537175213681979 ] ] ] } },
{ "type": "Feature", "properties": { "state": "Perlis", "parlimen": "P.001 Perlis Utara", "code_parlimen": "P.001", "dun": "N.04 Bandar Kangar", "code_dun": "N.04", "voters_total": 3269 }, "geometry": { "type": "Polygon", "coordinates": [ [ [ 100.202482683475196, 6.440217745015265 ], [ 100.202469365711607, 6.439712369350576 ], [ 100.202429448923851, 6.439208378384387 ], [ 100.202363042521128, 6.438707153527113 ], [ 100.202270328518736, 6.438210068611526 ], [ 100.202151561039301, 6.437718486126986 ], [ 100.202007065616286, 6.437233753484886 ], [ 100.201837238301522, 6.436757199325243 ], [ 100.201642544579926, 6.436290129874751 ], [ 100.201423518093449, 6.435833825366248 ], [ 100.201180759178456, 6.43538953652939 ], [ 100.200914933220261, 6.434958481162091 ], [ 100.200626768829338, 6.434541840792363 ], [ 100.200317055844252, 6.434140757439343 ], [ 100.199986643166795, 6.433756330482759 ], [ 100.199636436435114, 6.433389613649157 ], [ 100.199267395541526, 6.433041612123316 ], [ 100.198880532001454, 6.432713279792629 ], [ 100.198476906181, 6.432405516632166 ], [ 100.198057624390486, 6.432119166237455 ], [ 100.197623835852127, 6.431855013511875 ], [ 100.197176729550165, 6.431613782514831 ], [ 100.196717530971895, 6.431396134476784 ], [ 100.196247498748718, 6.431202665986549 ], [ 100.195767921206269, 6.431033907355696 ], [ 100.195280112833245, 6.430890321164717 ], [ 100.194785410678534, 6.430772300994865 ], [ 100.194285170686314, 6.430680170349134 ], [ 100.193780763979632, 6.430614181765321 ], [ 100.193273573102232, 6.430574516123786 ], [ 100.192764988229044, 6.430561282151458 ], [ 100.192256403355856, 6.430574516123786 ], [ 100.19174921247847, 6.430614181765321 ], [ 100.191244805771788, 6.430680170349134 ], [ 100.190744565779568, 6.430772300994865 ], [ 100.190249863624842, 6.430890321164717 ], [ 100.189762055251819, 6.431033907355696 ], [ 100.189282477709369, 6.431202665986549 ], [ 100.188812445486178, 6.431396134476784 ], [ 100.188353246907909, 6.431613782514831 ], [ 100.187906140605946, 6.431855013511875 ], [ 100.187472352067616, 6.432119166237455 ], [ 100.187053070277088, 6.432405516632166 ], [ 100.18664944445662, 6.432713279792629 ], [ 100.186262580916562, 6.433041612123316 ], [ 100.185893540022974, 6.433389613649157 ], [ 100.185543333291292, 6.433756330482759 ], [ 100.185212920613836, 6.434140757439343 ], [ 100.18490320762875, 6.434541840792363 ], [ 100.184615043237812, 6.434958481162091 ], [ 100.184349217279632, 6.43538953652939 ], [ 100.184106458364639, 6.435833825366248 ], [ 100.183887431878176, 6.436290129874751 ], [ 100.183692738156566, 6.436757199325243 ], [ 100.183522910841802, 6.437233753484886 ], [ 100.183378415418773, 6.437718486126986 ], [ 100.183259647939337, 6.438210068611526 ], [ 100.18316693393696, 6.438707153527113 ], [ 100.183100527534222, 6.439208378384387 ], [ 100.18306061074648, 6.439712369350576 ], [ 100.183047292982891, 6.440217745015265 ], [ 100.18306061074648, 6.44072312017679 ], [ 100.183100527534222, 6.441227109638972 ], [ 100.18316693393696, 6.441728332007882 ], [ 100.183259647939337, 6.442225413478025 ], [ 100.183378415418773, 6.442716991597763 ], [ 100.183522910841802, 6.443201719003524 ], [ 100.183692738156566, 6.443678267112697 ], [ 100.183887431878176, 6.444145329764843 ], [ 100.184106458364639, 6.444601626801637 ], [ 100.184349217279632, 6.445045907575267 ], [ 100.184615043237812, 6.445476954376148 ], [ 100.18490320762875, 6.44589358577016 ], [ 100.185212920613836, 6.446294659836471 ], [ 100.185543333291292, 6.446679077297127 ], [ 100.185893540022974, 6.447045784529601 ], [ 100.186262580916562, 6.447393776454314 ], [ 100.18664944445662, 6.447722099289061 ], [ 100.187053070277088, 6.448029853162838 ], [ 100.187472352067616, 6.448316194581808 ], [ 100.187906140605946, 6.448580338740983 ], [ 100.188353246907909, 6.4488215616748 ], [ 100.188812445486178, 6.449039202241126 ], [ 100.189282477709369, 6.449232663933026 ], [ 100.189762055251819, 6.449401416513409 ], [ 100.190249863624842, 6.449544997468063 ], [ 100.190744565779568, 6.449663013273113 ], [ 100.191244805771788, 6.449755140473387 ], [ 100.19174921247847, 6.449821126568835 ], [ 100.192256403355856, 6.449860790706364 ], [ 100.192764988229044, 6.449874024175514 ], [ 100.193273573102232, 6.449860790706364 ], [ 100.193780763979632, 6.449821126568835 ], [ 100.194285170686314, 6.449755140473387 ], [ 100.194785410678534, 6.449663013273113 ], [ 100.195280112833245, 6.449544997468063 ], [ 100.195767921206269, 6.449401416513409 ], [ 100.196247498748718, 6.449232663933026 ], [ 100.196717530971895, 6.449039202241126 ], [ 100.197176729550165, 6.4488215616748 ], [ 100.197623835852127, 6.448580338740983 ], [ 100.198057624390486, 6.448316194581808 ], [ 100.198476906181, 6.448029853162838 ], [ 100.198880532001454, 6.447722099289061 ], [ 100.199267395541526, 6.447393776454314 ], [ 100.199636436435114, 6.447045784529601 ], [ 100.199986643166795, 6.446679077297127 ], [ 100.200317055844252, 6.446294659836471 ], [ 100.200626768829338, 6.44589358577016 ], [ 100.200914933220261, 6.445476954376148 ], [ 100.201180759178456, 6.445045907575267 ], [ 100.201423518093449, 6.444601626801637 ], [ 100.201642544579926, 6.444145329764843 ], [ 100.201837238301522, 6.443678267112697 ], [ 100.202007065616286, 6.443201719003524 ], [ 100.202151561039301, 6.442716991597763 ], [ 100.202270328518736, 6.442225413478025 ], [ 100.202363042521128, 6.441728332007882 ], [ 100.202429448923851, 6.441227109638972 ], [ 100.202469365711607, 6.44072312017679 ], [ 100.202482683475196, 6.440217745015265 ] ] ] } },
{ "type": "Feature", "properties": { "state": "Perlis", "parlimen": "P.001 Perlis Utara", "code_parlimen": "P.001", "dun": "N.05 Sena", "code_dun": "N.05", "voters_total": 3827 }, "geometry": { "type": "Polygon", "coordinates": [ [ [ 100.243680365055809, 6.437779709868423 ], [ 100.243665955417754, 6.437232897663383 ], [ 100.243622765999376, 6.436687583646222 ], [ 100.24355091517991, 6.436145262492023 ], [ 100.243450599897415, 6.435607420677377 ], [ 100.243322095109122, 6.435075532405921 ], [ 100.243165753037758, 6.434551055567458 ], [ 100.242982002206006, 6.434035427741751 ], [ 100.242771346262174, 6.433530062257941 ], [ 100.242534362599542, 6.433036344320376 ], [ 100.24227170077387, 6.432555627211549 ], [ 100.241984080722958, 6.432089228582392 ], [ 100.241672290793375, 6.431638426840319 ], [ 100.241337185579624, 6.431204457644692 ], [ 100.240979683581841, 6.430788510519527 ], [ 100.240600764688125, 6.430391725592624 ], [ 100.240201467488845, 6.430015190470001 ], [ 100.239782886429836, 6.429659937254359 ], [ 100.23934616881273, 6.429326939715683 ], [ 100.238892511650135, 6.42901711062169 ], [ 100.238423158384791, 6.428731299235454 ], [ 100.237939395481391, 6.428470288987286 ], [ 100.237442548900432, 6.428234795326828 ], [ 100.236933980463846, 6.4280254637617 ], [ 100.236415084122342, 6.427842868087807 ], [ 100.235887282134783, 6.427687508816254 ], [ 100.235352021169689, 6.427559811801112 ], [ 100.234810768340154, 6.427460127072004 ], [ 100.234265007182586, 6.427388727874363 ], [ 100.233716233590386, 6.427345809920367 ], [ 100.233165951713787, 6.427331490852371 ], [ 100.232615669837188, 6.427345809920367 ], [ 100.232066896244987, 6.427388727874363 ], [ 100.231521135087419, 6.427460127072004 ], [ 100.230979882257884, 6.427559811801112 ], [ 100.230444621292776, 6.427687508816254 ], [ 100.229916819305217, 6.427842868087807 ], [ 100.229397922963713, 6.4280254637617 ], [ 100.228889354527141, 6.428234795326828 ], [ 100.228392507946168, 6.428470288987286 ], [ 100.227908745042768, 6.428731299235454 ], [ 100.227439391777438, 6.42901711062169 ], [ 100.226985734614829, 6.429326939715683 ], [ 100.226549016997723, 6.429659937254359 ], [ 100.226130435938728, 6.430015190470001 ], [ 100.225731138739434, 6.430391725592624 ], [ 100.225352219845718, 6.430788510519527 ], [ 100.224994717847935, 6.431204457644692 ], [ 100.224659612634198, 6.431638426840319 ], [ 100.224347822704615, 6.432089228582392 ], [ 100.224060202653689, 6.432555627211549 ], [ 100.223797540828016, 6.433036344320376 ], [ 100.223560557165385, 6.433530062257941 ], [ 100.223349901221567, 6.434035427741751 ], [ 100.223166150389815, 6.434551055567458 ], [ 100.223009808318452, 6.435075532405921 ], [ 100.222881303530158, 6.435607420677377 ], [ 100.222780988247649, 6.436145262492023 ], [ 100.222709137428183, 6.436687583646222 ], [ 100.222665948009819, 6.437232897663383 ], [ 100.22265153837175, 6.437779709868423 ], [ 100.222665948009819, 6.438326521484614 ], [ 100.222709137428183, 6.438871833741694 ], [ 100.222780988247649, 6.439414151983867 ], [ 100.222881303530158, 6.439951989766445 ], [ 100.223009808318452, 6.440483872929944 ], [ 100.223166150389815, 6.441008343640547 ], [ 100.223349901221567, 6.441523964385627 ], [ 100.223560557165385, 6.442029321913635 ], [ 100.223797540828016, 6.442523031107347 ], [ 100.224060202653689, 6.443003738780117 ], [ 100.224347822704615, 6.443470127384357 ], [ 100.224659612634198, 6.443920918622521 ], [ 100.224994717847935, 6.444354876950293 ], [ 100.225352219845718, 6.444770812962766 ], [ 100.225731138739434, 6.445167586653863 ], [ 100.226130435938728, 6.445544110540694 ], [ 100.226549016997723, 6.44589935264363 ], [ 100.226985734614829, 6.446232339314453 ], [ 100.227439391777438, 6.446542157904537 ], [ 100.227908745042768, 6.446827959265843 ], [ 100.228392507946168, 6.447088960077954 ], [ 100.228889354527141, 6.447324444994583 ], [ 100.229397922963713, 6.447533768603897 ], [ 100.229916819305217, 6.44771635719715 ], [ 100.230444621292776, 6.447871710340869 ], [ 100.230979882257884, 6.447999402248053 ], [ 100.231521135087419, 6.448099082945083 ], [ 100.232066896244987, 6.448170479230696 ], [ 100.232615669837188, 6.448213395424612 ], [ 100.233165951713787, 6.448227713903759 ], [ 100.233716233590386, 6.448213395424612 ], [ 100.234265007182586, 6.448170479230696 ], [ 100.234810768340154, 6.448099082945083 ], [ 100.235352021169689, 6.447999402248053 ], [ 100.235887282134783, 6.447871710340869 ], [ 100.236415084122342, 6.44771635719715 ], [ 100.236933980463846, 6.447533768603897 ], [ 100.237442548900432, 6.447324444994583 ], [ 100.237939395481391, 6.447088960077954 ], [ 100.238423158384791, 6.446827959265843 ], [ 100.238892511650135, 6.446542157904537 ], [ 100.23934616881273, 6.446232339314453 ], [ 100.239782886429836, 6.44589935264363 ], [ 100.240201467488845, 6.445544110540694 ], [ 100.240600764688125, 6.445167586653863 ], [ 100.240979683581841, 6.444770812962766 ], [ 100.241337185579624, 6.444354876950293 ], [ 100.241672290793375, 6.443920918622521 ], [ 100.241984080722958, 6.443470127384357 ], [ 100.24227170077387, 6.443003738780117 ], [ 100.242534362599542, 6.442523031107347 ], [ 100.242771346262174, 6.442029321913635 ], [ 100.242982002206006, 6.441523964385627 ], [ 100.243165753037758, 6.441008343640547 ], [ 100.243322095109122, 6.440483872929944 ], [ 100.243450599897415, 6.439951989766445 ], [ 100.24355091517991, 6.439414151983867 ], [ 100.243622765999376, 6.438871833741694 ], [ 100.243665955417754, 6.438326521484614 ], [ 100.243680365055809, 6.437779709868423 ] ] ] } },
{ "type": "Feature", "properties": { "state": "Perlis", "parlimen": "P.001 Perlis Utara", "code_parlimen": "P.001", "dun": "N.06 Bintong", "code_dun": "N.06", "voters_total": 5148 }, "geometry": { "type": "Polygon", "coordinates": [ [ [ 100.18450496614453, 6.49523024883274 ], [ 100.184488253579474, 6.494596117926999 ], [ 100.184438161692327, 6.493963724334294 ], [ 100.184354827781476, 6.493334801411405 ], [ 100.184238480259353, 6.492711073008651 ], [ 100.184089438026419, 6.492094248744758 ], [ 100.183908109597112, 6.491486019320688 ], [ 100.183694991980019, 6.490888051885231 ], [ 100.183450669315761, 6.49030198546507 ], [ 100.183175811275717, 6.489729426471901 ], [ 100.182871171226694, 6.489171944298868 ], [ 100.182537584165914, 6.48863106701847 ], [ 100.18217596443229, 6.488108277193613 ], [ 100.181787303200409, 6.487605007813388 ], [ 100.181372665763647, 6.487122638364738 ], [ 100.180933188614446, 6.486662491050708 ], [ 100.180470076329087, 6.486225827165661 ], [ 100.179984598266188, 6.485813843637524 ], [ 100.179478085087339, 6.485427669746397 ], [ 100.178951925109985, 6.485068364028572 ], [ 100.178407560502038, 6.484736911374537 ], [ 100.177846483329049, 6.484434220328757 ], [ 100.177270231464547, 6.48416112059888 ], [ 100.176680384374848, 6.48391836078094 ], [ 100.176078558789811, 6.483706606307016 ], [ 100.175466404271546, 6.483526437620791 ], [ 100.174845598693025, 6.4833783485862 ], [ 100.174217843639184, 6.483262745133431 ], [ 100.173584859743016, 6.483179944145944 ], [ 100.172948381969363, 6.483130172591694 ], [ 100.172310154859574, 6.48311356690083 ], [ 100.17167192774977, 6.483130172591694 ], [ 100.171035449976117, 6.483179944145944 ], [ 100.170402466079949, 6.483262745133431 ], [ 100.169774711026122, 6.4833783485862 ], [ 100.169153905447601, 6.483526437620791 ], [ 100.168541750929322, 6.483706606307016 ], [ 100.167939925344285, 6.48391836078094 ], [ 100.167350078254586, 6.48416112059888 ], [ 100.166773826390084, 6.484434220328757 ], [ 100.166212749217095, 6.484736911374537 ], [ 100.165668384609148, 6.485068364028572 ], [ 100.165142224631779, 6.485427669746397 ], [ 100.164635711452945, 6.485813843637524 ], [ 100.164150233390046, 6.486225827165661 ], [ 100.163687121104687, 6.486662491050708 ], [ 100.163247643955486, 6.487122638364738 ], [ 100.162833006518738, 6.487605007813388 ], [ 100.162444345286858, 6.488108277193613 ], [ 100.162082725553233, 6.48863106701847 ], [ 100.161749138492439, 6.489171944298868 ], [ 100.16144449844343, 6.489729426471901 ], [ 100.161169640403386, 6.49030198546507 ], [ 100.160925317739114, 6.490888051885231 ], [ 100.16071220012202, 6.491486019320688 ], [ 100.160530871692714, 6.492094248744758 ], [ 100.160381829459794, 6.492711073008651 ], [ 100.160265481937657, 6.493334801411405 ], [ 100.160182148026806, 6.493963724334294 ], [ 100.160132056139659, 6.494596117926999 ], [ 100.160115343574617, 6.49523024883274 ], [ 100.160132056139659, 6.495864378939436 ], [ 100.160182148026806, 6.496496770143763 ], [ 100.160265481937657, 6.497125689115079 ], [ 100.160381829459794, 6.497749412046401 ], [ 100.160530871692714, 6.498366229378924 ], [ 100.16071220012202, 6.498974450487625 ], [ 100.160925317739114, 6.499572408314842 ], [ 100.161169640403386, 6.500158463939131 ], [ 100.16144449844343, 6.500731011067101 ], [ 100.161749138492439, 6.501288480435602 ], [ 100.162082725553233, 6.501829344112412 ], [ 100.162444345286858, 6.50235211968369 ], [ 100.162833006518738, 6.502855374316485 ], [ 100.163247643955486, 6.50333772868545 ], [ 100.163687121104687, 6.503797860752754 ], [ 100.164150233390046, 6.504234509391062 ], [ 100.164635711452945, 6.504646477839515 ], [ 100.165142224631779, 6.505032636983212 ], [ 100.165668384609148, 6.505391928447456 ], [ 100.166212749217095, 6.505723367497914 ], [ 100.166773826390084, 6.506026045739151 ], [ 100.167350078254586, 6.50629913360383 ], [ 100.167939925344285, 6.506541882625897 ], [ 100.168541750929322, 6.506753627491582 ], [ 100.169153905447601, 6.506933787862451 ], [ 100.169774711026122, 6.507081869965671 ], [ 100.170402466079949, 6.507197467946995 ], [ 100.171035449976117, 6.507280264982923 ], [ 100.17167192774977, 6.507330034148793 ], [ 100.172310154859574, 6.5073466390406 ], [ 100.172948381969363, 6.507330034148793 ], [ 100.173584859743016, 6.507280264982923 ], [ 100.174217843639184, 6.507197467946995 ], [ 100.174845598693025, 6.507081869965671 ], [ 100.175466404271546, 6.506933787862451 ], [ 100.176078558789811, 6.506753627491582 ], [ 100.176680384374848, 6.506541882625897 ], [ 100.177270231464547, 6.50629913360383 ], [ 100.177846483329049, 6.506026045739151 ], [ 100.178407560502038, 6.505723367497914 ], [ 100.178951925109985, 6.505391928447456 ], [ 100.179478085087339, 6.505032636983212 ], [ 100.179984598266188, 6.504646477839515 ], [ 100.180470076329087, 6.504234509391062 ], [ 100.180933188614446, 6.503797860752754 ], [ 100.181372665763647, 6.50333772868545 ], [ 100.181787303200409, 6.502855374316485 ], [ 100.18217596443229, 6.50235211968369 ], [ 100.182537584165914, 6.501829344112412 ], [ 100.182871171226694, 6.501288480435602 ], [ 100.183175811275717, 6.500731011067101 ], [ 100.183450669315761, 6.500158463939131 ], [ 100.183694991980019, 6.499572408314842 ], [ 100.183908109597112, 6.498974450487625 ], [ 100.184089438026419, 6.498366229378924 ], [ 100.184238480259353, 6.497749412046401 ], [ 100.184354827781476, 6.497125689115079 ], [ 100.184438161692327, 6.496496770143763 ], [ 100.184488253579474, 6.495864378939436 ], [ 100.18450496614453, 6.49523024883274 ] ] ] } },
{ "type": "Feature", "properties": { "state": "Perlis", "parlimen": "P.002 Perlis Selatan", "code_parlimen": "P.002", "dun": "N.07 Kurong Anai", "code_dun": "N.07", "voters_total": 4900 }, "geometry": { "type": "Polygon", "coordinates": [ [ [ 100.33649367041636, 6.474109858770392 ], [ 100.336477365375885, 6.473491164805203 ], [ 100.336428494945423, 6.472874165882218 ], [ 100.33634719307544, 6.472260553161991 ], [ 100.336233682608722, 6.4716520085298 ], [ 100.336088274669535, 6.471050199985565 ], [ 100.335911367810979, 6.470456777071747 ], [ 100.335703446922437, 6.469873366351732 ], [ 100.335465081900566, 6.469301566951264 ], [ 100.335196926087406, 6.468742946174858 ], [ 100.33489971447932, 6.468199035209474 ], [ 100.334574261712731, 6.467671324927165 ], [ 100.334221459831028, 6.467161261798161 ], [ 100.333842275839615, 6.466670243925573 ], [ 100.333437749055491, 6.466199617212705 ], [ 100.33300898825847, 6.465750671673399 ], [ 100.332557168652045, 6.465324637895547 ], [ 100.3320835286424, 6.464922683667482 ], [ 100.331589366443822, 6.464545910776514 ], [ 100.331076036520599, 6.464195351988363 ], [ 100.330544945874351, 6.463871968215773 ], [ 100.329997550187628, 6.463576645884155 ], [ 100.329435349833943, 6.46331019450129 ], [ 100.328859885765411, 6.463073344438087 ], [ 100.328272735289005, 6.462866744926111 ], [ 100.327675507743422, 6.462690962277652 ], [ 100.327069840087816, 6.462546478333093 ], [ 100.326457392415136, 6.462433689139836 ], [ 100.32583984340188, 6.46235290386651 ], [ 100.325218885707002, 6.462304343955304 ], [ 100.324596221332342, 6.46228814251486 ], [ 100.323973556957682, 6.462304343955304 ], [ 100.32335259926279, 6.46235290386651 ], [ 100.322735050249534, 6.462433689139836 ], [ 100.322122602576854, 6.462546478333093 ], [ 100.321516934921263, 6.462690962277652 ], [ 100.320919707375666, 6.462866744926111 ], [ 100.320332556899274, 6.463073344438087 ], [ 100.319757092830741, 6.46331019450129 ], [ 100.319194892477071, 6.463576645884155 ], [ 100.318647496790319, 6.463871968215773 ], [ 100.318116406144085, 6.464195351988363 ], [ 100.317603076220863, 6.464545910776514 ], [ 100.317108914022285, 6.464922683667482 ], [ 100.316635274012626, 6.465324637895547 ], [ 100.316183454406215, 6.465750671673399 ], [ 100.315754693609179, 6.466199617212705 ], [ 100.315350166825056, 6.466670243925573 ], [ 100.314970982833657, 6.467161261798161 ], [ 100.314618180951953, 6.467671324927165 ], [ 100.31429272818535, 6.468199035209474 ], [ 100.313995516577265, 6.468742946174858 ], [ 100.313727360764105, 6.469301566951264 ], [ 100.313488995742247, 6.469873366351732 ], [ 100.313281074853705, 6.470456777071747 ], [ 100.313104167995135, 6.471050199985565 ], [ 100.312958760055949, 6.4716520085298 ], [ 100.312845249589245, 6.472260553161991 ], [ 100.312763947719262, 6.472874165882218 ], [ 100.3127150772888, 6.473491164805203 ], [ 100.312698772248325, 6.474109858770392 ], [ 100.3127150772888, 6.474728551977464 ], [ 100.312763947719262, 6.475345548634392 ], [ 100.312845249589245, 6.475959157605433 ], [ 100.312958760055949, 6.476567697046424 ], [ 100.313104167995135, 6.477169499014278 ], [ 100.313281074853705, 6.477762914038628 ], [ 100.313488995742247, 6.478346315642474 ], [ 100.313727360764105, 6.478918104800003 ], [ 100.313995516577265, 6.479476714318912 ], [ 100.31429272818535, 6.480020613135557 ], [ 100.314618180951953, 6.48054831051101 ], [ 100.314970982833657, 6.481058360116435 ], [ 100.315350166825056, 6.481549363996898 ], [ 100.315754693609179, 6.482019976402397 ], [ 100.316183454406215, 6.482468907475853 ], [ 100.316635274012626, 6.482894926787856 ], [ 100.317108914022285, 6.483296866708551 ], [ 100.317603076220863, 6.483673625607395 ], [ 100.318116406144085, 6.484024170871979 ], [ 100.318647496790319, 6.484347541737701 ], [ 100.319194892477071, 6.484642851920604 ], [ 100.319757092830741, 6.484909292045948 ], [ 100.320332556899274, 6.485146131866212 ], [ 100.320919707375666, 6.485352722262032 ], [ 100.321516934921263, 6.485528497021011 ], [ 100.322122602576854, 6.4856729743892 ], [ 100.322735050249534, 6.485785758391245 ], [ 100.32335259926279, 6.485866539915397 ], [ 100.323973556957682, 6.485915097560533 ], [ 100.324596221332342, 6.48593129824286 ], [ 100.325218885707002, 6.485915097560533 ], [ 100.32583984340188, 6.485866539915397 ], [ 100.326457392415136, 6.485785758391245 ], [ 100.327069840087816, 6.4856729743892 ], [ 100.327675507743422, 6.485528497021011 ], [ 100.328272735289005, 6.485352722262032 ], [ 100.328859885765411, 6.485146131866212 ], [ 100.329435349833943, 6.484909292045948 ], [ 100.329997550187628, 6.484642851920604 ], [ 100.330544945874351, 6.484347541737701 ], [ 100.331076036520599, 6.484024170871979 ], [ 100.331589366443822, 6.483673625607395 ], [ 100.3320835286424, 6.483296866708551 ], [ 100.332557168652045, 6.482894926787856 ], [ 100.33300898825847, 6.482468907475853 ], [ 100.333437749055491, 6.482019976402397 ], [ 100.333842275839615, 6.481549363996898 ], [ 100.334221459831028, 6.481058360116435 ], [ 100.334574261712731, 6.48054831051101 ], [ 100.33489971447932, 6.480020613135557 ], [ 100.335196926087406, 6.479476714318912 ], [ 100.335465081900566, 6.478918104800003 ], [ 100.335703446922437, 6.478346315642474 ], [ 100.335911367810979, 6.477762914038628 ], [ 100.336088274669535, 6.477169499014278 ], [ 100.336233682608722, 6.476567697046424 ], [ 100.33634719307544, 6.475959157605433 ], [ 100.336428494945423, 6.475345548634392 ], [ 100.336477365375885, 6.474728551977464 ], [ 100.33649367041636, 6.474109858770392 ] ] ] } },
{ "type": "Feature", "properties": { "state": "Perlis", "parlimen": "P.002 Perlis Selatan", "code_parlimen": "P.002", "dun": "N.08 Arau", "code_dun": "N.08", "voters_total": 4967 }, "geometry": { "type": "Polygon", "coordinates": [ [ [ 100.27717241142777, 6.414428114750938 ], [ 100.277155995292532, 6.41380513200923 ], [ 100.277106791882289, 6.413183856061583 ], [ 100.277024936060172, 6.412565989791617 ], [ 100.276910652187325, 6.411953226743367 ], [ 100.276764253507864, 6.411347246479226 ], [ 100.276586141290409, 6.410749709976169 ], [ 100.276376803728169, 6.410162255072827 ], [ 100.276136814600846, 6.409586491979902 ], [ 100.275866831701975, 6.409023998866302 ], [ 100.275567595035866, 6.408476317533018 ], [ 100.27523992478946, 6.407944949186644 ], [ 100.274884719084142, 6.407431350324145 ], [ 100.274502951514037, 6.406936928740063 ], [ 100.274095668477514, 6.40646303966731 ], [ 100.273663986309074, 6.4060109820619 ], [ 100.273209088219545, 6.405581995041942 ], [ 100.272732221052934, 6.405177254490667 ], [ 100.272234691869045, 6.404797869832758 ], [ 100.271717864360753, 6.404444880992857 ], [ 100.271183155116361, 6.40411925554459 ], [ 100.270632029736717, 6.403821886057831 ], [ 100.270065998818197, 6.403553587651738 ], [ 100.269486613812205, 6.403315095759975 ], [ 100.268895462772747, 6.40310706411444 ], [ 100.268294166003756, 6.402930062952952 ], [ 100.267684371617847, 6.402784577455897 ], [ 100.267067751019084, 6.402671006415991 ], [ 100.266445994321671, 6.402589661144959 ], [ 100.265820805717439, 6.402540764619952 ], [ 100.265193898804966, 6.402524450872291 ], [ 100.264566991892494, 6.402540764619952 ], [ 100.263941803288262, 6.402589661144959 ], [ 100.263320046590849, 6.402671006415991 ], [ 100.262703425992072, 6.402784577455897 ], [ 100.262093631606177, 6.402930062952952 ], [ 100.261492334837172, 6.40310706411444 ], [ 100.260901183797714, 6.403315095759975 ], [ 100.260321798791722, 6.403553587651738 ], [ 100.259755767873202, 6.403821886057831 ], [ 100.259204642493557, 6.40411925554459 ], [ 100.258669933249166, 6.404444880992857 ], [ 100.258153105740874, 6.404797869832758 ], [ 100.257655576556985, 6.405177254490667 ], [ 100.257178709390374, 6.405581995041942 ], [ 100.256723811300844, 6.4060109820619 ], [ 100.256292129132405, 6.40646303966731 ], [ 100.255884846095881, 6.406936928740063 ], [ 100.255503078525777, 6.407431350324145 ], [ 100.255147872820459, 6.407944949186644 ], [ 100.254820202574052, 6.408476317533018 ], [ 100.254520965907972, 6.409023998866302 ], [ 100.254250983009072, 6.409586491979902 ], [ 100.254010993881749, 6.410162255072827 ], [ 100.25380165631951, 6.410749709976169 ], [ 100.253623544102055, 6.411347246479226 ], [ 100.253477145422593, 6.411953226743367 ], [ 100.253362861549746, 6.412565989791617 ], [ 100.253281005727629, 6.413183856061583 ], [ 100.253231802317387, 6.41380513200923 ], [ 100.253215386182148, 6.414428114750938 ], [ 100.253231802317387, 6.415051096731132 ], [ 100.253281005727629, 6.415672370402545 ], [ 100.253362861549746, 6.416290232906505 ], [ 100.253477145422593, 6.416902990740262 ], [ 100.253623544102055, 6.41750896439853 ], [ 100.25380165631951, 6.418106492976701 ], [ 100.254010993881749, 6.418693938722997 ], [ 100.254250983009072, 6.419269691527031 ], [ 100.254520965907972, 6.419832173332614 ], [ 100.254820202574052, 6.42037984246267 ], [ 100.255147872820459, 6.420911197844276 ], [ 100.255503078525777, 6.421424783122538 ], [ 100.255884846095881, 6.421919190651723 ], [ 100.256292129132405, 6.422393065352909 ], [ 100.256723811300844, 6.422845108427575 ], [ 100.257178709390374, 6.423274080916774 ], [ 100.257655576556985, 6.423678807096509 ], [ 100.258153105740874, 6.424058177699521 ], [ 100.258669933249166, 6.424411152955171 ], [ 100.259204642493557, 6.424736765438683 ], [ 100.259755767873202, 6.425034122722201 ], [ 100.260321798791722, 6.425302409820265 ], [ 100.260901183797714, 6.425540891423137 ], [ 100.261492334837172, 6.425748913911626 ], [ 100.262093631606177, 6.42592590714824 ], [ 100.262703425992072, 6.426071386039423 ], [ 100.263320046590849, 6.426184951864823 ], [ 100.263941803288262, 6.426266293369861 ], [ 100.264566991892494, 6.426315187618634 ], [ 100.265193898804966, 6.426331500604769 ], [ 100.265820805717439, 6.426315187618634 ], [ 100.266445994321671, 6.426266293369861 ], [ 100.267067751019084, 6.426184951864823 ], [ 100.267684371617847, 6.426071386039423 ], [ 100.268294166003756, 6.42592590714824 ], [ 100.268895462772747, 6.425748913911626 ], [ 100.269486613812205, 6.425540891423137 ], [ 100.270065998818197, 6.425302409820265 ], [ 100.270632029736717, 6.425034122722201 ], [ 100.271183155116361, 6.424736765438683 ], [ 100.271717864360753, 6.424411152955171 ], [ 100.272234691869045, 6.424058177699521 ], [ 100.272732221052934, 6.423678807096509 ], [ 100.273209088219545, 6.423274080916774 ], [ 100.273663986309074, 6.422845108427575 ], [ 100.274095668477514, 6.422393065352909 ], [ 100.274502951514037, 6.421919190651723 ], [ 100.274884719084142, 6.421424783122538 ], [ 100.27523992478946, 6.420911197844276 ], [ 100.275567595035866, 6.42037984246267 ], [ 100.275866831701975, 6.419832173332614 ], [ 100.276136814600846, 6.419269691527031 ], [ 100.276376803728169, 6.418693938722997 ], [ 100.276586141290409, 6.418106492976701 ], [ 100.276764253507864, 6.41750896439853 ], [ 100.276910652187325, 6.416902990740262 ], [ 100.277024936060172, 6.416290232906505 ], [ 100.277106791882289, 6.415672370402545 ], [ 100.277155995292532, 6.415051096731132 ], [ 100.27717241142777, 6.414428114750938 ] ] ] } },
{ "type": "Feature", "properties": { "state": "Perlis", "parlimen": "P.002 Perlis Selatan", "code_parlimen": "P.002", "dun": "N.09 Hutan Aji", "code_dun": "N.09", "voters_total": 4839 }, "geometry": { "type": "Polygon", "coordinates": [ [ [ 100.232246633943731, 6.376144654865781 ], [ 100.232230430711638, 6.375529705628921 ], [ 100.232181865427378, 6.374916441190716 ], [ 100.232101071204923, 6.37430654247551 ], [ 100.231988269495673, 6.373701681188316 ], [ 100.231843769481273, 6.3731035152327 ], [ 100.231667967226201, 6.372513684166292 ], [ 100.231461344592219, 6.371933804706614 ], [ 100.231224467917642, 6.371365466299431 ], [ 100.230957986464915, 6.370810226761775 ], [ 100.230662630641206, 6.370269608011619 ], [ 100.230339209996302, 6.36974509189594 ], [ 100.229988611003705, 6.369238116128515 ], [ 100.229611794630884, 6.368750070348709 ], [ 100.229209793705323, 6.368282292311982 ], [ 100.228783710083619, 6.367836064222552 ], [ 100.228334711631334, 6.367412609218348 ], [ 100.227864029022072, 6.367013088017876 ], [ 100.227372952364107, 6.366638595738069 ], [ 100.226862827664419, 6.366290158892087 ], [ 100.226335053139366, 6.365968732575095 ], [ 100.225791075382261, 6.365675197845777 ], [ 100.2252323853983, 6.365410359310918 ], [ 100.224660514517879, 6.365174942919441 ], [ 100.224077030199368, 6.36496959397219 ], [ 100.223483531732683, 6.364794875352715 ], [ 100.222881645855907, 6.364651265984081 ], [ 100.222273022296363, 6.364539159515817 ], [ 100.221659329248936, 6.364458863244682 ], [ 100.221042248803627, 6.364410597272121 ], [ 100.220423472335028, 6.364394493900862 ], [ 100.219804695866415, 6.364410597272121 ], [ 100.219187615421106, 6.364458863244682 ], [ 100.218573922373679, 6.364539159515817 ], [ 100.217965298814136, 6.364651265984081 ], [ 100.21736341293736, 6.364794875352715 ], [ 100.216769914470689, 6.36496959397219 ], [ 100.216186430152163, 6.365174942919441 ], [ 100.215614559271742, 6.365410359310918 ], [ 100.215055869287781, 6.365675197845777 ], [ 100.214511891530677, 6.365968732575095 ], [ 100.213984117005623, 6.366290158892087 ], [ 100.213473992305936, 6.366638595738069 ], [ 100.21298291564797, 6.367013088017876 ], [ 100.212512233038709, 6.367412609218348 ], [ 100.212063234586438, 6.367836064222552 ], [ 100.211637150964719, 6.368282292311982 ], [ 100.211235150039158, 6.368750070348709 ], [ 100.210858333666337, 6.369238116128515 ], [ 100.21050773467374, 6.36974509189594 ], [ 100.210184314028837, 6.370269608011619 ], [ 100.209888958205127, 6.370810226761775 ], [ 100.209622476752401, 6.371365466299431 ], [ 100.209385600077823, 6.371933804706614 ], [ 100.209178977443855, 6.372513684166292 ], [ 100.209003175188769, 6.3731035152327 ], [ 100.208858675174369, 6.373701681188316 ], [ 100.208745873465119, 6.37430654247551 ], [ 100.208665079242664, 6.374916441190716 ], [ 100.208616513958404, 6.375529705628921 ], [ 100.208600310726311, 6.376144654865781 ], [ 100.208616513958404, 6.376759603365097 ], [ 100.208665079242664, 6.377372865598733 ], [ 100.208745873465119, 6.377982760666529 ], [ 100.208858675174369, 6.37858761690341 ], [ 100.209003175188769, 6.379185776461162 ], [ 100.209178977443855, 6.37977559985223 ], [ 100.209385600077823, 6.380355470443198 ], [ 100.209622476752401, 6.380923798885461 ], [ 100.209888958205127, 6.381479027471169 ], [ 100.210184314028837, 6.382019634402346 ], [ 100.21050773467374, 6.382544137961501 ], [ 100.210858333666337, 6.383051100572422 ], [ 100.211235150039158, 6.383539132739886 ], [ 100.211637150964719, 6.384006896857591 ], [ 100.212063234586438, 6.384453110873816 ], [ 100.212512233038709, 6.384876551804803 ], [ 100.21298291564797, 6.385276059086266 ], [ 100.213473992305936, 6.385650537753743 ], [ 100.213984117005623, 6.38599896144322 ], [ 100.214511891530677, 6.386320375203675 ], [ 100.215055869287781, 6.386613898114002 ], [ 100.215614559271742, 6.386878725696926 ], [ 100.216186430152163, 6.387114132123471 ], [ 100.216769914470689, 6.387319472202024 ], [ 100.21736341293736, 6.387494183146159 ], [ 100.217965298814136, 6.38763778611693 ], [ 100.218573922373679, 6.38774988753488 ], [ 100.219187615421106, 6.387830180158593 ], [ 100.219804695866415, 6.387878443926597 ], [ 100.220423472335028, 6.387894546560323 ], [ 100.221042248803627, 6.387878443926597 ], [ 100.221659329248936, 6.387830180158593 ], [ 100.222273022296363, 6.38774988753488 ], [ 100.222881645855907, 6.38763778611693 ], [ 100.223483531732683, 6.387494183146159 ], [ 100.224077030199368, 6.387319472202024 ], [ 100.224660514517879, 6.387114132123471 ], [ 100.2252323853983, 6.386878725696926 ], [ 100.225791075382261, 6.386613898114002 ], [ 100.226335053139366, 6.386320375203675 ], [ 100.226862827664419, 6.38599896144322 ], [ 100.227372952364107, 6.385650537753743 ], [ 100.227864029022072, 6.385276059086266 ], [ 100.228334711631334, 6.384876551804803 ], [ 100.228783710083619, 6.384453110873816 ], [ 100.229209793705323, 6.384006896857591 ], [ 100.229611794630884, 6.383539132739886 ], [ 100.229988611003705, 6.383051100572422 ], [ 100.230339209996302, 6.382544137961501 ], [ 100.230662630641206, 6.382019634402346 ], [ 100.230957986464915, 6.381479027471169 ], [ 100.231224467917642, 6.380923798885461 ], [ 100.231461344592219, 6.380355470443198 ], [ 100.231667967226201, 6.37977559985223 ], [ 100.231843769481273, 6.379185776461162 ], [ 100.231988269495673, 6.37858761690341 ], [ 100.232101071204923, 6.377982760666529 ], [ 100.232181865427378, 6.377372865598733 ], [ 100.232230430711638, 6.376759603365097 ], [ 100.232246633943731, 6.376144654865781 ] ] ] } },
{ "type": "Feature", "properties": { "state": "Perlis", "parlimen": "P.002 Perlis Selatan", "code_parlimen": "P.002", "dun": "N.10 Kayang", "code_dun": "N.10", "voters_total": 4625 }, "geometry": { "type": "Polygon", "coordinates": [ [ [ 100.188313050505528, 6.368664987512632 ], [ 100.188297209610724, 6.368063781036712 ], [ 100.188249730345106, 6.367464221724796 ], [ 100.188170742846054, 6.36686795293599 ], [ 100.188060463612786, 6.36627660901595 ], [ 100.18791919491305, 6.365691810817147 ], [ 100.187747323954511, 6.365115161255899 ], [ 100.187545321823521, 6.36454824091874 ], [ 100.187313742193879, 6.363992603729704 ], [ 100.187053219809258, 6.363449772690809 ], [ 100.186764468743405, 6.362921235707176 ], [ 100.186448280442917, 6.362408441508282 ], [ 100.186105521557948, 6.361912795676606 ], [ 100.185737131566782, 6.361435656794515 ], [ 100.185344120200753, 6.360978332719871 ], [ 100.184927564676755, 6.360542077000725 ], [ 100.184488606744466, 6.360128085438804 ], [ 100.18402844955709, 6.359737492811365 ], [ 100.183548354373514, 6.359371369760173 ], [ 100.183049637101234, 6.359030719856384 ], [ 100.182533664689629, 6.358716476849213 ], [ 100.182001851383205, 6.358429502106097 ], [ 100.181455654845323, 6.358170582251145 ], [ 100.180896572162681, 6.357940427008545 ], [ 100.180326135742035, 6.357739667256864 ], [ 100.179745909110011, 6.357568853299324 ], [ 100.17915748262746, 6.357428453355165 ], [ 100.178562469130455, 6.357318852275927 ], [ 100.177962499509633, 6.357240350490321 ], [ 100.177359218240042, 6.357193163180552 ], [ 100.176754278873716, 6.357177419692403 ], [ 100.176149339507376, 6.357193163180552 ], [ 100.175546058237785, 6.357240350490321 ], [ 100.174946088616963, 6.357318852275927 ], [ 100.174351075119958, 6.357428453355165 ], [ 100.173762648637407, 6.357568853299324 ], [ 100.173182422005382, 6.357739667256864 ], [ 100.172611985584751, 6.357940427008545 ], [ 100.172052902902095, 6.358170582251145 ], [ 100.171506706364198, 6.358429502106097 ], [ 100.170974893057803, 6.358716476849213 ], [ 100.170458920646183, 6.359030719856384 ], [ 100.169960203373918, 6.359371369760173 ], [ 100.169480108190314, 6.359737492811365 ], [ 100.169019951002952, 6.360128085438804 ], [ 100.168580993070663, 6.360542077000725 ], [ 100.168164437546665, 6.360978332719871 ], [ 100.16777142618065, 6.361435656794515 ], [ 100.167403036189469, 6.361912795676606 ], [ 100.1670602773045, 6.362408441508282 ], [ 100.166744089004013, 6.362921235707176 ], [ 100.16645533793816, 6.363449772690809 ], [ 100.166194815553553, 6.363992603729704 ], [ 100.165963235923897, 6.36454824091874 ], [ 100.165761233792921, 6.365115161255899 ], [ 100.165589362834368, 6.365691810817147 ], [ 100.165448094134632, 6.36627660901595 ], [ 100.165337814901349, 6.36686795293599 ], [ 100.165258827402297, 6.367464221724796 ], [ 100.165211348136694, 6.368063781036712 ], [ 100.16519550724189, 6.368664987512632 ], [ 100.165211348136694, 6.369266193284455 ], [ 100.165258827402297, 6.369865750491734 ], [ 100.165337814901349, 6.370462015798457 ], [ 100.165448094134632, 6.371053354897094 ], [ 100.165589362834368, 6.371638146988023 ], [ 100.165761233792921, 6.37221478922182 ], [ 100.165963235923897, 6.372781701092266 ], [ 100.166194815553553, 6.373337328768059 ], [ 100.16645533793816, 6.373880149351415 ], [ 100.166744089004013, 6.374408675051789 ], [ 100.1670602773045, 6.3749214572633 ], [ 100.167403036189469, 6.375417090534812 ], [ 100.16777142618065, 6.375894216421565 ], [ 100.168164437546665, 6.376351527208104 ], [ 100.168580993070663, 6.37678776949194 ], [ 100.169019951002952, 6.377201747618523 ], [ 100.169480108190314, 6.377592326957846 ], [ 100.169960203373918, 6.377958437013711 ], [ 100.170458920646183, 6.378299074357337 ], [ 100.170974893057803, 6.378613305377125 ], [ 100.171506706364198, 6.378900268836968 ], [ 100.172052902902095, 6.379159178236394 ], [ 100.172611985584751, 6.379389323965752 ], [ 100.173182422005382, 6.379590075250707 ], [ 100.173762648637407, 6.379760881880808 ], [ 100.174351075119958, 6.379901275717082 ], [ 100.174946088616963, 6.380010871974929 ], [ 100.175546058237785, 6.380089370278451 ], [ 100.176149339507376, 6.380136555483584 ], [ 100.176754278873716, 6.380152298267622 ], [ 100.177359218240042, 6.380136555483584 ], [ 100.177962499509633, 6.380089370278451 ], [ 100.178562469130455, 6.380010871974929 ], [ 100.17915748262746, 6.379901275717082 ], [ 100.179745909110011, 6.379760881880808 ], [ 100.180326135742035, 6.379590075250707 ], [ 100.180896572162681, 6.379389323965752 ], [ 100.181455654845323, 6.379159178236394 ], [ 100.182001851383205, 6.378900268836968 ], [ 100.182533664689629, 6.378613305377125 ], [ 100.183049637101234, 6.378299074357337 ], [ 100.183548354373514, 6.377958437013711 ], [ 100.18402844955709, 6.377592326957846 ], [ 100.184488606744466, 6.377201747618523 ], [ 100.184927564676755, 6.37678776949194 ], [ 100.185344120200753, 6.376351527208104 ], [ 100.185737131566782, 6.375894216421565 ], [ 100.186105521557948, 6.375417090534812 ], [ 100.186448280442917, 6.3749214572633 ], [ 100.186764468743405, 6.374408675051789 ], [ 100.187053219809258, 6.373880149351415 ], [ 100.187313742193879, 6.373337328768059 ], [ 100.187545321823521, 6.372781701092266 ], [ 100.187747323954511, 6.37221478922182 ], [ 100.18791919491305, 6.371638146988023 ], [ 100.188060463612786, 6.371053354897094 ], [ 100.188170742846054, 6.370462015798457 ], [ 100.188249730345106, 6.369865750491734 ], [ 100.188297209610724, 6.369266193284455 ], [ 100.188313050505528, 6.368664987512632 ] ] ] } },
{ "type": "Feature", "properties": { "state": "Perlis", "parlimen": "P.002 Perlis Selatan", "code_parlimen": "P.002", "dun": "N.11 Kuala Perlis", "code_dun": "N.11", "voters_total": 4020 }, "geometry": { "type": "Polygon", "coordinates": [ [ [ 100.153477984837963, 6.401551025339679 ], [ 100.153463216321612, 6.400990554660905 ], [ 100.153418951252078, 6.400431619580762 ], [ 100.153345310956809, 6.399875752109046 ], [ 100.153242497278754, 6.399324475852437 ], [ 100.153110792023043, 6.398779301838166 ], [ 100.152950556184635, 6.398241724372258 ], [ 100.152762228958807, 6.397713216943522 ], [ 100.152546326537433, 6.397195228184493 ], [ 100.152303440694013, 6.396689177900505 ], [ 100.152034237161786, 6.396196453177752 ], [ 100.151739453808887, 6.39571840458093 ], [ 100.151419898616012, 6.395256342451039 ], [ 100.151076447461733, 6.394811533313322 ], [ 100.150710041721823, 6.394385196405302 ], [ 100.15032168568888, 6.393978500334483 ], [ 100.149912443819858, 6.393592559874696 ], [ 100.149483437818219, 6.393228432910082 ], [ 100.149035843559645, 6.392887117534994 ], [ 100.148570887868857, 6.392569549317724 ], [ 100.148089845157102, 6.392276598735693 ], [ 100.14759403392901, 6.392009068789076 ], [ 100.147084813168675, 6.391767692799259 ], [ 100.146563578614845, 6.391553132398558 ], [ 100.146031758935152, 6.391365975716177 ], [ 100.145490811810404, 6.391206735765928 ], [ 100.144942219939068, 6.391075849039694 ], [ 100.144387486973329, 6.390973674310774 ], [ 100.143828133397662, 6.390900491650276 ], [ 100.143265692361382, 6.390856501659257 ], [ 100.142701705476256, 6.390841824918765 ], [ 100.14213771859113, 6.390856501659257 ], [ 100.141575277554836, 6.390900491650276 ], [ 100.141015923979168, 6.390973674310774 ], [ 100.140461191013429, 6.391075849039694 ], [ 100.139912599142093, 6.391206735765928 ], [ 100.139371652017346, 6.391365975716177 ], [ 100.138839832337652, 6.391553132398558 ], [ 100.138318597783808, 6.391767692799259 ], [ 100.137809377023487, 6.392009068789076 ], [ 100.137313565795395, 6.392276598735693 ], [ 100.13683252308364, 6.392569549317724 ], [ 100.136367567392838, 6.392887117534994 ], [ 100.135919973134278, 6.393228432910082 ], [ 100.13549096713264, 6.393592559874696 ], [ 100.135081725263618, 6.393978500334483 ], [ 100.134693369230689, 6.394385196405302 ], [ 100.134326963490764, 6.394811533313322 ], [ 100.133983512336485, 6.395256342451039 ], [ 100.133663957143611, 6.39571840458093 ], [ 100.133369173790712, 6.396196453177752 ], [ 100.133099970258485, 6.396689177900505 ], [ 100.132857084415065, 6.397195228184493 ], [ 100.132641181993677, 6.397713216943522 ], [ 100.132452854767863, 6.398241724372258 ], [ 100.132292618929469, 6.398779301838166 ], [ 100.132160913673744, 6.399324475852437 ], [ 100.132058099995689, 6.399875752109046 ], [ 100.131984459700419, 6.400431619580762 ], [ 100.131940194630886, 6.400990554660905 ], [ 100.13192542611452, 6.401551025339679 ], [ 100.131940194630886, 6.402111495403335 ], [ 100.131984459700419, 6.402670428644875 ], [ 100.132058099995689, 6.403226293074607 ], [ 100.132160913673744, 6.403777565119245 ], [ 100.132292618929469, 6.404322733797652 ], [ 100.132452854767863, 6.404860304862288 ], [ 100.132641181993677, 6.405388804894478 ], [ 100.132857084415065, 6.405906785342718 ], [ 100.133099970258485, 6.406412826492725 ], [ 100.133369173790712, 6.406905541358393 ], [ 100.133663957143611, 6.407383579482984 ], [ 100.133983512336485, 6.407845630640292 ], [ 100.134326963490764, 6.40829042842526 ], [ 100.134693369230689, 6.408716753724726 ], [ 100.135081725263618, 6.409123438058421 ], [ 100.13549096713264, 6.409509366781083 ], [ 100.135919973134278, 6.409873482137157 ], [ 100.136367567392838, 6.410214786159496 ], [ 100.13683252308364, 6.410532343404171 ], [ 100.137313565795395, 6.410825283513984 ], [ 100.137809377023487, 6.411092803603514 ], [ 100.138318597783808, 6.411334170459338 ], [ 100.138839832337652, 6.411548722549262 ], [ 100.139371652017346, 6.411735871835086 ], [ 100.139912599142093, 6.411895105384062 ], [ 100.140461191013429, 6.412025986774443 ], [ 100.141015923979168, 6.412128157291381 ], [ 100.141575277554836, 6.41220133690992 ], [ 100.14213771859113, 6.412245325062324 ], [ 100.142701705476256, 6.412260001187696 ], [ 100.143265692361382, 6.412245325062324 ], [ 100.143828133397662, 6.41220133690992 ], [ 100.144387486973329, 6.412128157291381 ], [ 100.144942219939068, 6.412025986774443 ], [ 100.145490811810404, 6.411895105384062 ], [ 100.146031758935152, 6.411735871835086 ], [ 100.146563578614845, 6.411548722549262 ], [ 100.147084813168675, 6.411334170459338 ], [ 100.14759403392901, 6.411092803603514 ], [ 100.148089845157102, 6.410825283513984 ], [ 100.148570887868857, 6.410532343404171 ], [ 100.149035843559645, 6.410214786159496 ], [ 100.149483437818219, 6.409873482137157 ], [ 100.149912443819858, 6.409509366781083 ], [ 100.15032168568888, 6.409123438058421 ], [ 100.150710041721823, 6.408716753724726 ], [ 100.151076447461733, 6.40829042842526 ], [ 100.151419898616012, 6.407845630640292 ], [ 100.151739453808887, 6.407383579482984 ], [ 100.152034237161786, 6.406905541358393 ], [ 100.152303440694013, 6.406412826492725 ], [ 100.152546326537433, 6.405906785342718 ], [ 100.152762228958807, 6.405388804894478 ], [ 100.152950556184635, 6.404860304862288 ], [ 100.153110792023043, 6.404322733797652 ], [ 100.153242497278754, 6.403777565119245 ], [ 100.153345310956809, 6.403226293074607 ], [ 100.153418951252078, 6.402670428644875 ], [ 100.153463216321612, 6.402111495403335 ], [ 100.153477984837963, 6.401551025339679 ] ] ] } },
{ "type": "Feature", "properties": { "state": "Perlis", "parlimen": "P.002 Perlis Selatan", "code_parlimen": "P.002", "dun": "N.12 Sanglang", "code_dun": "N.12", "voters_total": 4777 }, "geometry": { "type": "Polygon", "coordinates": [ [ [ 100.204023655915506, 6.305439584182524 ], [ 100.204007556820557, 6.304828503400126 ], [ 100.203959303662174, 6.304219096830568 ], [ 100.20387902869895, 6.30361303482378 ], [ 100.203766951958968, 6.303011978568307 ], [ 100.203623380636756, 6.30241757553785 ], [ 100.203448708251372, 6.301831454975539 ], [ 100.203243413567634, 6.301255223427926 ], [ 100.203008059284059, 6.300690460341216 ], [ 100.202743290490318, 6.300138713731776 ], [ 100.202449832899319, 6.29960149594266 ], [ 100.202128490857888, 6.299080279497887 ], [ 100.201780145142237, 6.298576493065841 ], [ 100.201405750543756, 6.298091517542909 ], [ 100.20100633325201, 6.297626682267825 ], [ 100.200582988042072, 6.297183261377572 ], [ 100.200136875273685, 6.296762470314382 ], [ 100.199669217710962, 6.296365462493698 ], [ 100.199181297170753, 6.295993326142141 ], [ 100.198674451009396, 6.295647081314116 ], [ 100.198150068456954, 6.295327677095321 ], [ 100.197609586809534, 6.29503598900082 ], [ 100.197054487489808, 6.294772816574723 ], [ 100.196486291986389, 6.294538881198242 ], [ 100.195906557683671, 6.294334824111872 ], [ 100.195316873593072, 6.294161204657415 ], [ 100.194718855997735, 6.294018498744459 ], [ 100.194114144022279, 6.293907097545621 ], [ 100.193504395140209, 6.293827306424048 ], [ 100.192891280630818, 6.293779344096269 ], [ 100.192276480998387, 6.293763342032497 ], [ 100.191661681365943, 6.293779344096269 ], [ 100.191048566856551, 6.293827306424048 ], [ 100.190438817974481, 6.293907097545621 ], [ 100.18983410599904, 6.294018498744459 ], [ 100.189236088403689, 6.294161204657415 ], [ 100.18864640431309, 6.294334824111872 ], [ 100.1880666700104, 6.294538881198242 ], [ 100.187498474506967, 6.294772816574723 ], [ 100.186943375187226, 6.29503598900082 ], [ 100.186402893539821, 6.295327677095321 ], [ 100.185878510987365, 6.295647081314116 ], [ 100.185371664826008, 6.295993326142141 ], [ 100.184883744285813, 6.296365462493698 ], [ 100.184416086723104, 6.296762470314382 ], [ 100.183969973954689, 6.297183261377572 ], [ 100.18354662874475, 6.297626682267825 ], [ 100.183147211453004, 6.298091517542909 ], [ 100.182772816854538, 6.298576493065841 ], [ 100.182424471138873, 6.299080279497887 ], [ 100.18210312909747, 6.29960149594266 ], [ 100.181809671506443, 6.300138713731776 ], [ 100.181544902712716, 6.300690460341216 ], [ 100.181309548429127, 6.301255223427926 ], [ 100.181104253745389, 6.301831454975539 ], [ 100.180929581360004, 6.30241757553785 ], [ 100.180786010037806, 6.303011978568307 ], [ 100.180673933297811, 6.30361303482378 ], [ 100.180593658334587, 6.304219096830568 ], [ 100.180545405176218, 6.304828503400126 ], [ 100.180529306081255, 6.305439584182524 ], [ 100.180545405176218, 6.306050664244755 ], [ 100.180593658334587, 6.306660068661739 ], [ 100.180673933297811, 6.307266127107133 ], [ 100.180786010037806, 6.307867178431385 ], [ 100.180929581360004, 6.308461575214839 ], [ 100.181104253745389, 6.309047688282796 ], [ 100.181309548429127, 6.309623911170839 ], [ 100.181544902712716, 6.310188664527622 ], [ 100.181809671506443, 6.310740400443362 ], [ 100.18210312909747, 6.311277606692205 ], [ 100.182424471138873, 6.31179881087655 ], [ 100.182772816854538, 6.312302584462324 ], [ 100.183147211453004, 6.312787546693933 ], [ 100.18354662874475, 6.313252368378215 ], [ 100.183969973954689, 6.313695775527123 ], [ 100.184416086723104, 6.314116552848969 ], [ 100.184883744285813, 6.31451354707885 ], [ 100.185371664826008, 6.314885670139073 ], [ 100.185878510987365, 6.31523190212085 ], [ 100.186402893539821, 6.315551294079205 ], [ 100.186943375187226, 6.315842970633431 ], [ 100.187498474506967, 6.31610613236583 ], [ 100.1880666700104, 6.316340058012384 ], [ 100.18864640431309, 6.316544106439171 ], [ 100.189236088403689, 6.316717718399287 ], [ 100.18983410599904, 6.316860418065239 ], [ 100.190438817974481, 6.316971814332868 ], [ 100.191048566856551, 6.317051601893035 ], [ 100.191661681365943, 6.317099562068253 ], [ 100.192276480998387, 6.317115563411859 ], [ 100.192891280630818, 6.317099562068253 ], [ 100.193504395140209, 6.317051601893035 ], [ 100.194114144022279, 6.316971814332868 ], [ 100.194718855997735, 6.316860418065239 ], [ 100.195316873593072, 6.316717718399287 ], [ 100.195906557683671, 6.316544106439171 ], [ 100.196486291986389, 6.316340058012384 ], [ 100.197054487489808, 6.31610613236583 ], [ 100.197609586809534, 6.315842970633431 ], [ 100.198150068456954, 6.315551294079205 ], [ 100.198674451009396, 6.31523190212085 ], [ 100.199181297170753, 6.314885670139073 ], [ 100.199669217710962, 6.31451354707885 ], [ 100.200136875273685, 6.314116552848969 ], [ 100.200582988042072, 6.313695775527123 ], [ 100.20100633325201, 6.313252368378215 ], [ 100.201405750543756, 6.312787546693933 ], [ 100.201780145142237, 6.312302584462324 ], [ 100.202128490857888, 6.31179881087655 ], [ 100.202449832899319, 6.311277606692205 ], [ 100.202743290490318, 6.310740400443362 ], [ 100.203008059284059, 6.310188664527622 ], [ 100.203243413567634, 6.309623911170839 ], [ 100.203448708251372, 6.309047688282796 ], [ 100.203623380636756, 6.308461575214839 ], [ 100.203766951958968, 6.307867178431385 ], [ 100.20387902869895, 6.307266127107133 ], [ 100.203959303662174, 6.306660068661739 ], [ 100.204007556820557, 6.306050664244755 ], [ 100.204023655915506, 6.305439584182524 ] ] ] } }
]
}
