{
"type": "FeatureCollection",
"name": "PLS_SE-06",
"crs": { "type": "name", "properties": { "name": "urn:ogc:def:crs:OGC:1.3:CRS84" } },
"features": [
{ "type": "Feature", "properties": { "state": "Perlis", "parlimen": "P.001 Kangar", "code_parlimen": "P.001", "dun": "N.01 Titi Tinggi", "code_dun": "N.01", "voters_total": 6234 }, "geometry": { "type": "Polygon", "coordinates": [ [ [ 100.251316164206855, 6.645646978201428 ], [ 100.251300599346337, 6.64505657363619 ], [ 100.251253947427017, 6.644467786622988 ], [ 100.251176336318565, 6.643882230994819 ], [ 100.251067978747599, 6.643301511733443 ], [ 100.250929171714716, 6.642727220569967 ], [ 100.250760295680337, 6.642160931621867 ], [ 100.250561813521941, 6.641604197078123 ], [ 100.250334269265309, 6.641058542944454 ], [ 100.25007828659345, 6.640525464860302 ], [ 100.249794567137101, 6.640006423998859 ], [ 100.249483888551495, 6.639502843061726 ], [ 100.249147102385109, 6.63901610237882 ], [ 100.248785131745379, 6.638547536124436 ], [ 100.248398968768697, 6.638098428659822 ], [ 100.24798967190091, 6.637670011012243 ], [ 100.24755836299633, 6.637263457500207 ], [ 100.2471062242426, 6.636879882514125 ], [ 100.246634494920684, 6.636520337461304 ], [ 100.24614446800787, 6.636185807883392 ], [ 100.245637486633825, 6.635877210754585 ], [ 100.24511494039929, 6.63559539196771 ], [ 100.244578261567128, 6.635341124015024 ], [ 100.24402892113676, 6.635115103870508 ], [ 100.243468424812079, 6.634917951078948 ], [ 100.242898308874587, 6.634750206057412 ], [ 100.24232013597242, 6.634612328613573 ], [ 100.241735490837328, 6.634504696685153 ], [ 100.241145975940995, 6.634427605303682 ], [ 100.240553207102764, 6.634381265785675 ], [ 100.239958809060795, 6.634365805153184 ], [ 100.23936441101884, 6.634381265785675 ], [ 100.238771642180595, 6.634427605303682 ], [ 100.238182127284261, 6.634504696685153 ], [ 100.23759748214917, 6.634612328613573 ], [ 100.237019309247003, 6.634750206057412 ], [ 100.236449193309511, 6.634917951078948 ], [ 100.235888696984844, 6.635115103870508 ], [ 100.235339356554476, 6.635341124015024 ], [ 100.234802677722314, 6.63559539196771 ], [ 100.234280131487765, 6.635877210754585 ], [ 100.23377315011372, 6.636185807883392 ], [ 100.233283123200906, 6.636520337461304 ], [ 100.23281139387899, 6.636879882514125 ], [ 100.232359255125289, 6.637263457500207 ], [ 100.231927946220694, 6.637670011012243 ], [ 100.231518649352893, 6.638098428659822 ], [ 100.231132486376225, 6.638547536124436 ], [ 100.230770515736495, 6.63901610237882 ], [ 100.230433729570109, 6.639502843061726 ], [ 100.230123050984517, 6.640006423998859 ], [ 100.22983933152814, 6.640525464860302 ], [ 100.229583348856281, 6.641058542944454 ], [ 100.229355804599663, 6.641604197078123 ], [ 100.229157322441267, 6.642160931621867 ], [ 100.228988446406873, 6.642727220569967 ], [ 100.22884963937399, 6.643301511733443 ], [ 100.228741281803039, 6.643882230994819 ], [ 100.228663670694573, 6.644467786622988 ], [ 100.228617018775253, 6.64505657363619 ], [ 100.228601453914735, 6.645646978201428 ], [ 100.228617018775253, 6.646237382057834 ], [ 100.228663670694573, 6.646826166952303 ], [ 100.228741281803039, 6.647411719075041 ], [ 100.22884963937399, 6.647992433482713 ], [ 100.228988446406873, 6.648566718497376 ], [ 100.229157322441267, 6.64913300006893 ], [ 100.229355804599663, 6.649689726089208 ], [ 100.229583348856281, 6.65023537064587 ], [ 100.22983933152814, 6.650768438204435 ], [ 100.230123050984517, 6.651287467706984 ], [ 100.230433729570109, 6.651791036576393 ], [ 100.230770515736495, 6.652277764614952 ], [ 100.231132486376225, 6.652746317786914 ], [ 100.231518649352893, 6.653195411874357 ], [ 100.231927946220694, 6.653623815996577 ], [ 100.232359255125289, 6.654030355983251 ], [ 100.23281139387899, 6.654413917592151 ], [ 100.233283123200906, 6.654773449562561 ], [ 100.23377315011372, 6.655107966496139 ], [ 100.234280131487765, 6.65541655155721 ], [ 100.234802677722314, 6.655698358985217 ], [ 100.235339356554476, 6.655952616412277 ], [ 100.235888696984844, 6.6561786269798 ], [ 100.236449193309511, 6.656375771247893 ], [ 100.237019309247003, 6.656543508892884 ], [ 100.23759748214917, 6.656681380187921 ], [ 100.238182127284261, 6.656789007262624 ], [ 100.238771642180595, 6.656866095138665 ], [ 100.23936441101884, 6.656912432537952 ], [ 100.239958809060795, 6.656927892461587 ], [ 100.240553207102764, 6.656912432537952 ], [ 100.241145975940995, 6.656866095138665 ], [ 100.241735490837328, 6.656789007262624 ], [ 100.24232013597242, 6.656681380187921 ], [ 100.242898308874587, 6.656543508892884 ], [ 100.243468424812079, 6.656375771247893 ], [ 100.24402892113676, 6.6561786269798 ], [ 100.244578261567128, 6.655952616412277 ], [ 100.24511494039929, 6.655698358985217 ], [ 100.245637486633825, 6.65541655155721 ], [ 100.24614446800787, 6.655107966496139 ], [ 100.246634494920684, 6.654773449562561 ], [ 100.2471062242426, 6.654413917592151 ], [ 100.24755836299633, 6.654030355983251 ], [ 100.24798967190091, 6.653623815996577 ], [ 100.248398968768697, 6.653195411874357 ], [ 100.248785131745379, 6.652746317786914 ], [ 100.249147102385109, 6.652277764614952 ], [ 100.249483888551495, 6.651791036576393 ], [ 100.249794567137101, 6.651287467706984 ], [ 100.25007828659345, 6.650768438204435 ], [ 100.250334269265309, 6.65023537064587 ], [ 100.250561813521941, 6.649689726089208 ], [ 100.250760295680337, 6.64913300006893 ], [ 100.250929171714716, 6.648566718497376 ], [ 100.251067978747599, 6.647992433482713 ], [ 100.251176336318565, 6.647411719075041 ], [ 100.251253947427017, 6.646826166952303 ], [ 100.251300599346337, 6.646237382057834 ], [ 100.251316164206855, 6.645646978201428 ] ] ] } },
{ "type": "Feature", "properties": { "state": "Perlis", "parlimen": "P.001 Kangar", "code_parlimen": "P.001", "dun": "N.02 Chuping", "code_dun": "N.02", "voters_total": 7779 }, "geometry": { "type": "Polygon", "coordinates": [ [ [ 100.277021116579448, 6.547663390266854 ], [ 100.277003729616851, 6.547003739442216 ], [ 100.27695161638556, 6.546345895806597 ], [ 100.276864919724261, 6.545691662474475 ], [ 100.276743877262533, 6.545042832671736 ], [ 100.276588820769305, 6.544401184820338 ], [ 100.27640017524368, 6.543768477663566 ], [ 100.276178457749907, 6.543146445445102 ], [ 100.275924276000225, 6.542536793155101 ], [ 100.275638326689176, 6.54194119185652 ], [ 100.275321393583909, 6.541361274104324 ], [ 100.274974345376052, 6.540798629470142 ], [ 100.274598133300614, 6.540254800184747 ], [ 100.274193788528748, 6.539731276910278 ], [ 100.273762419341367, 6.539229494653672 ], [ 100.273305208091429, 6.538750828832773 ], [ 100.272823407963187, 6.538296591505571 ], [ 100.272318339537307, 6.537868027773258 ], [ 100.271791387171234, 6.537466312366747 ], [ 100.27124399520477, 6.537092546426052 ], [ 100.270677664001269, 6.536747754481424 ], [ 100.270093945835171, 6.53643288164448 ], [ 100.269494440637416, 6.536148791017077 ], [ 100.268880791610059, 6.535896261324951 ], [ 100.268254680722436, 6.535675984782753 ], [ 100.267617824100967, 6.535488565196153 ], [ 100.266971967325389, 6.535334516306398 ], [ 100.266318880644235, 6.535214260381803 ], [ 100.265660354122701, 6.535128127059964 ], [ 100.264998192736215, 6.535076352443991 ], [ 100.264334211423076, 6.535059078455218 ], [ 100.263670230109966, 6.535076352443991 ], [ 100.263008068723479, 6.535128127059964 ], [ 100.262349542201932, 6.535214260381803 ], [ 100.261696455520777, 6.535334516306398 ], [ 100.261050598745214, 6.535488565196153 ], [ 100.260413742123731, 6.535675984782753 ], [ 100.259787631236122, 6.535896261324951 ], [ 100.259173982208765, 6.536148791017077 ], [ 100.258574477010995, 6.53643288164448 ], [ 100.257990758844898, 6.536747754481424 ], [ 100.257424427641411, 6.537092546426052 ], [ 100.256877035674933, 6.537466312366747 ], [ 100.256350083308874, 6.537868027773258 ], [ 100.255845014882993, 6.538296591505571 ], [ 100.255363214754752, 6.538750828832773 ], [ 100.254906003504814, 6.539229494653672 ], [ 100.254474634317432, 6.539731276910278 ], [ 100.254070289545552, 6.540254800184747 ], [ 100.253694077470129, 6.540798629470142 ], [ 100.253347029262272, 6.541361274104324 ], [ 100.253030096157005, 6.54194119185652 ], [ 100.252744146845956, 6.542536793155101 ], [ 100.252489965096274, 6.543146445445102 ], [ 100.252268247602501, 6.543768477663566 ], [ 100.252079602076876, 6.544401184820338 ], [ 100.251924545583648, 6.545042832671736 ], [ 100.251803503121906, 6.545691662474475 ], [ 100.251716806460621, 6.546345895806597 ], [ 100.251664693229316, 6.547003739442216 ], [ 100.251647306266733, 6.547663390266854 ], [ 100.251664693229316, 6.548323040219803 ], [ 100.251716806460621, 6.548980881249872 ], [ 100.251803503121906, 6.549635110271161 ], [ 100.251924545583648, 6.550283934105017 ], [ 100.252079602076876, 6.550925574394848 ], [ 100.252268247602501, 6.551558272480221 ], [ 100.252489965096274, 6.552180294216874 ], [ 100.252744146845956, 6.55278993472946 ], [ 100.253030096157005, 6.553385523084061 ], [ 100.253347029262272, 6.553965426867553 ], [ 100.253694077470129, 6.55452805666133 ], [ 100.254070289545552, 6.555071870397223 ], [ 100.254474634317432, 6.55559537758344 ], [ 100.254906003504814, 6.556097143389327 ], [ 100.255363214754752, 6.556575792577286 ], [ 100.255845014882993, 6.557030013271537 ], [ 100.256350083308874, 6.557458560553131 ], [ 100.256877035674933, 6.557860259871391 ], [ 100.257424427641411, 6.558234010262582 ], [ 100.257990758844898, 6.558578787366806 ], [ 100.258574477010995, 6.558893646235047 ], [ 100.259173982208765, 6.559177723918483 ], [ 100.259787631236122, 6.55943024183318 ], [ 100.260413742123731, 6.559650507893555 ], [ 100.261050598745214, 6.559837918408768 ], [ 100.261696455520777, 6.559991959736969 ], [ 100.262349542201932, 6.560112209692669 ], [ 100.263008068723479, 6.560198338703673 ], [ 100.263670230109966, 6.560250110714098 ], [ 100.264334211423076, 6.560267383831195 ], [ 100.264998192736215, 6.560250110714098 ], [ 100.265660354122701, 6.560198338703673 ], [ 100.266318880644235, 6.560112209692669 ], [ 100.266971967325389, 6.559991959736969 ], [ 100.267617824100967, 6.559837918408768 ], [ 100.268254680722436, 6.559650507893555 ], [ 100.268880791610059, 6.55943024183318 ], [ 100.269494440637416, 6.559177723918483 ], [ 100.270093945835171, 6.558893646235047 ], [ 100.270677664001269, 6.558578787366806 ], [ 100.27124399520477, 6.558234010262582 ], [ 100.271791387171234, 6.557860259871391 ], [ 100.272318339537307, 6.557458560553131 ], [ 100.272823407963187, 6.557030013271537 ], [ 100.273305208091429, 6.556575792577286 ], [ 100.273762419341367, 6.556097143389327 ], [ 100.274193788528748, 6.55559537758344 ], [ 100.274598133300614, 6.555071870397223 ], [ 100.274974345376052, 6.55452805666133 ], [ 100.275321393583909, 6.553965426867553 ], [ 100.275638326689176, 6.553385523084061 ], [ 100.275924276000225, 6.55278993472946 ], [ 100.276178457749907, 6.552180294216874 ], [ 100.27640017524368, 6.551558272480221 ], [ 100.276588820769305, 6.550925574394848 ], [ 100.276743877262533, 6.550283934105017 ], [ 100.276864919724261, 6.549635110271161 ], [ 100.27695161638556, 6.548980881249872 ], [ 100.277003729616851, 6.548323040219803 ], [ 100.277021116579448, 6.547663390266854 ] ] ] } },
{ "type": "Feature", "properties": { "state": "Perlis", "parlimen": "P.001 Kangar", "code_parlimen": "P.001", "dun": "N.03 Bintong", "code_dun": "N.03", "voters_total": 6498 }, "geometry": { "type": "Polygon", "coordinates": [ [ [ 100.184440663434756, 6.495350997218088 ], [ 100.184424772417927, 6.494748038777118 ], [ 100.184377142923637, 6.494146732283923 ], [ 100.184297905500998, 6.493548725886748 ], [ 100.184187277334289, 6.492955658694282 ], [ 100.184045561647636, 6.492369156282871 ], [ 100.183873146873836, 6.491790826240623 ], [ 100.183670505589859, 6.491222253760925 ], [ 100.183438193221363, 6.490664997297126 ], [ 100.183176846520382, 6.490120584290598 ], [ 100.182887181820078, 6.489590506983633 ], [ 100.182569993071255, 6.489076218328821 ], [ 100.182226149666235, 6.488579128006125 ], [ 100.181856594055844, 6.488100598558519 ], [ 100.181462339166387, 6.487641941656686 ], [ 100.181044465623074, 6.487204414503286 ], [ 100.180604118788253, 6.486789216386396 ], [ 100.180142505621987, 6.486397485391784 ], [ 100.179660891373871, 6.486030295282829 ], [ 100.179160596115096, 6.485688652556798 ], [ 100.178642991120171, 6.485373493685523 ], [ 100.178109495108444, 6.485085682548011 ], [ 100.17756157035538, 6.484826008062085 ], [ 100.177000718684624, 6.48459518202147 ], [ 100.176428477351649, 6.484393837144315 ], [ 100.175846414830147, 6.484222525338572 ], [ 100.175256126513062, 6.4840817161888 ], [ 100.174659230339614, 6.483971795668837 ], [ 100.174057362360742, 6.483893065083413 ], [ 100.173452172254727, 6.483845740242288 ], [ 100.172845318805599, 6.483829950868415 ], [ 100.172238465356486, 6.483845740242288 ], [ 100.171633275250471, 6.483893065083413 ], [ 100.171031407271585, 6.483971795668837 ], [ 100.170434511098136, 6.4840817161888 ], [ 100.169844222781066, 6.484222525338572 ], [ 100.169262160259549, 6.484393837144315 ], [ 100.168689918926574, 6.48459518202147 ], [ 100.168129067255833, 6.484826008062085 ], [ 100.167581142502769, 6.485085682548011 ], [ 100.167047646491028, 6.485373493685523 ], [ 100.166530041496102, 6.485688652556798 ], [ 100.166029746237342, 6.486030295282829 ], [ 100.165548131989226, 6.486397485391784 ], [ 100.165086518822974, 6.486789216386396 ], [ 100.164646171988139, 6.487204414503286 ], [ 100.164228298444826, 6.487641941656686 ], [ 100.163834043555354, 6.488100598558519 ], [ 100.163464487944992, 6.488579128006125 ], [ 100.163120644539958, 6.489076218328821 ], [ 100.162803455791121, 6.489590506983633 ], [ 100.162513791090817, 6.490120584290598 ], [ 100.162252444389836, 6.490664997297126 ], [ 100.16202013202134, 6.491222253760925 ], [ 100.161817490737363, 6.491790826240623 ], [ 100.161645075963577, 6.492369156282871 ], [ 100.16150336027691, 6.492955658694282 ], [ 100.161392732110201, 6.493548725886748 ], [ 100.161313494687562, 6.494146732283923 ], [ 100.161265865193286, 6.494748038777118 ], [ 100.161249974176457, 6.495350997218088 ], [ 100.161265865193286, 6.495953954936613 ], [ 100.161313494687562, 6.496555259270415 ], [ 100.161392732110201, 6.497153262094911 ], [ 100.16150336027691, 6.497746324340558 ], [ 100.161645075963577, 6.498332820485195 ], [ 100.161817490737363, 6.498911143009376 ], [ 100.16202013202134, 6.499479706802088 ], [ 100.162252444389836, 6.500036953505134 ], [ 100.162513791090817, 6.500581355784134 ], [ 100.162803455791121, 6.501111421514301 ], [ 100.163120644539958, 6.501625697869869 ], [ 100.163464487944992, 6.502122775305631 ], [ 100.163834043555354, 6.502601291419819 ], [ 100.164228298444826, 6.503059934687834 ], [ 100.164646171988139, 6.503497448056392 ], [ 100.165086518822974, 6.503912632388441 ], [ 100.165548131989226, 6.504304349749236 ], [ 100.166029746237342, 6.504671526524784 ], [ 100.166530041496102, 6.505013156363883 ], [ 100.167047646491028, 6.505328302935927 ], [ 100.167581142502769, 6.505616102496615 ], [ 100.168129067255833, 6.505875766255 ], [ 100.168689918926574, 6.506106582534886 ], [ 100.169262160259549, 6.506307918725057 ], [ 100.169844222781066, 6.506479223012732 ], [ 100.170434511098136, 6.506620025895716 ], [ 100.171031407271585, 6.506729941468874 ], [ 100.171633275250471, 6.506808668481593 ], [ 100.172238465356486, 6.506855991163338 ], [ 100.172845318805599, 6.506871779814793 ], [ 100.173452172254727, 6.506855991163338 ], [ 100.174057362360742, 6.506808668481593 ], [ 100.174659230339614, 6.506729941468874 ], [ 100.175256126513062, 6.506620025895716 ], [ 100.175846414830147, 6.506479223012732 ], [ 100.176428477351649, 6.506307918725057 ], [ 100.177000718684624, 6.506106582534886 ], [ 100.17756157035538, 6.505875766255 ], [ 100.178109495108444, 6.505616102496615 ], [ 100.178642991120171, 6.505328302935927 ], [ 100.179160596115096, 6.505013156363883 ], [ 100.179660891373871, 6.504671526524784 ], [ 100.180142505621987, 6.504304349749236 ], [ 100.180604118788253, 6.503912632388441 ], [ 100.181044465623074, 6.503497448056392 ], [ 100.181462339166387, 6.503059934687834 ], [ 100.181856594055844, 6.502601291419819 ], [ 100.182226149666235, 6.502122775305631 ], [ 100.182569993071255, 6.501625697869869 ], [ 100.182887181820078, 6.501111421514301 ], [ 100.183176846520382, 6.500581355784134 ], [ 100.183438193221363, 6.500036953505134 ], [ 100.183670505589859, 6.499479706802088 ], [ 100.183873146873836, 6.498911143009376 ], [ 100.184045561647636, 6.498332820485195 ], [ 100.184187277334289, 6.497746324340558 ], [ 100.184297905500998, 6.497153262094911 ], [ 100.184377142923637, 6.496555259270415 ], [ 100.184424772417927, 6.495953954936613 ], [ 100.184440663434756, 6.495350997218088 ] ] ] } },
{ "type": "Feature", "properties": { "state": "Perlis", "parlimen": "P.001 Kangar", "code_parlimen": "P.001", "dun": "N.04 Bandar Kangar", "code_dun": "N.04", "voters_total": 8912 }, "geometry": { "type": "Polygon", "coordinates": [ [ [ 100.205679022122624, 6.435247647607437 ], [ 100.205660411991943, 6.434541432858643 ], [ 100.205604632608967, 6.433837152817728 ], [ 100.20551183686112, 6.433136737879478 ], [ 100.205382279095076, 6.432442107852603 ], [ 100.205216314419673, 6.431755166697426 ], [ 100.205014397732555, 6.43107779730696 ], [ 100.204777082473342, 6.430411856345676 ], [ 100.20450501910662, 6.429759169159998 ], [ 100.20419895333923, 6.429121524774644 ], [ 100.203859724076096, 6.428500670988496 ], [ 100.203488261121109, 6.427898309583237 ], [ 100.203085582628376, 6.427316091658286 ], [ 100.202652792311639, 6.426755613104381 ], [ 100.202191076419112, 6.426218410228721 ], [ 100.201701700481948, 6.42570595554306 ], [ 100.201186005845571, 6.425219653726968 ], [ 100.200645405993143, 6.424760837776792 ], [ 100.200081382671286, 6.42433076535119 ], [ 100.199495481828691, 6.423930615323111 ], [ 100.19888930937887, 6.423561484547803 ], [ 100.198264526798368, 6.423224384855622 ], [ 100.197622846572813, 6.422920240277906 ], [ 100.196966027503066, 6.422649884513592 ], [ 100.196295869884608, 6.422414058643422 ], [ 100.195614210572842, 6.422213409098113 ], [ 100.19492291794856, 6.422048485886025 ], [ 100.194223886796806, 6.421919741085131 ], [ 100.19351903311339, 6.421827527603545 ], [ 100.192810288853238, 6.421772098211894 ], [ 100.192099596635117, 6.421753604850326 ], [ 100.191388904416996, 6.421772098211894 ], [ 100.190680160156845, 6.421827527603545 ], [ 100.189975306473428, 6.421919741085131 ], [ 100.189276275321674, 6.422048485886025 ], [ 100.188584982697392, 6.422213409098113 ], [ 100.18790332338564, 6.422414058643422 ], [ 100.187233165767168, 6.422649884513592 ], [ 100.186576346697436, 6.422920240277906 ], [ 100.185934666471866, 6.423224384855622 ], [ 100.185309883891364, 6.423561484547803 ], [ 100.184703711441543, 6.423930615323111 ], [ 100.184117810598948, 6.42433076535119 ], [ 100.183553787277091, 6.424760837776792 ], [ 100.183013187424663, 6.425219653726968 ], [ 100.182497492788286, 6.42570595554306 ], [ 100.182008116851122, 6.426218410228721 ], [ 100.181546400958595, 6.426755613104381 ], [ 100.181113610641873, 6.427316091658286 ], [ 100.180710932149125, 6.427898309583237 ], [ 100.180339469194138, 6.428500670988496 ], [ 100.180000239931005, 6.429121524774644 ], [ 100.179694174163615, 6.429759169159998 ], [ 100.179422110796892, 6.430411856345676 ], [ 100.17918479553768, 6.43107779730696 ], [ 100.178982878850562, 6.431755166697426 ], [ 100.178816914175172, 6.432442107852603 ], [ 100.178687356409114, 6.433136737879478 ], [ 100.178594560661267, 6.433837152817728 ], [ 100.178538781278291, 6.434541432858643 ], [ 100.178520171147611, 6.435247647607437 ], [ 100.178538781278291, 6.435953861374418 ], [ 100.178594560661267, 6.436658138480674 ], [ 100.178687356409114, 6.437358548563578 ], [ 100.178816914175172, 6.4380531718676 ], [ 100.178982878850562, 6.438740104506079 ], [ 100.17918479553768, 6.439417463679319 ], [ 100.179422110796892, 6.440083392834791 ], [ 100.179694174163615, 6.440736066755406 ], [ 100.180000239931005, 6.441373696561783 ], [ 100.180339469194138, 6.44199453461477 ], [ 100.180710932149125, 6.44259687930507 ], [ 100.181113610641873, 6.443179079716399 ], [ 100.181546400958595, 6.443739540149881 ], [ 100.182008116851122, 6.444276724496878 ], [ 100.182497492788286, 6.444789160448614 ], [ 100.183013187424663, 6.445275443530767 ], [ 100.183553787277091, 6.445734240952278 ], [ 100.184117810598948, 6.446164295257459 ], [ 100.184703711441543, 6.446564427771915 ], [ 100.185309883891364, 6.446933541832263 ], [ 100.185934666471866, 6.447270625791296 ], [ 100.186576346697436, 6.447574755790037 ], [ 100.187233165767168, 6.447845098289288 ], [ 100.18790332338564, 6.448080912353634 ], [ 100.188584982697392, 6.448281551681703 ], [ 100.189276275321674, 6.448446466377092 ], [ 100.189975306473428, 6.448575204455146 ], [ 100.190680160156845, 6.448667413081386 ], [ 100.191388904416996, 6.44872283953839 ], [ 100.192099596635117, 6.448741331918147 ], [ 100.192810288853238, 6.44872283953839 ], [ 100.19351903311339, 6.448667413081386 ], [ 100.194223886796806, 6.448575204455146 ], [ 100.19492291794856, 6.448446466377092 ], [ 100.195614210572842, 6.448281551681703 ], [ 100.196295869884608, 6.448080912353634 ], [ 100.196966027503066, 6.447845098289288 ], [ 100.197622846572813, 6.447574755790037 ], [ 100.198264526798368, 6.447270625791296 ], [ 100.19888930937887, 6.446933541832263 ], [ 100.199495481828691, 6.446564427771915 ], [ 100.200081382671286, 6.446164295257459 ], [ 100.200645405993143, 6.445734240952278 ], [ 100.201186005845571, 6.445275443530767 ], [ 100.201701700481948, 6.444789160448614 ], [ 100.202191076419112, 6.444276724496878 ], [ 100.202652792311639, 6.443739540149881 ], [ 100.203085582628376, 6.443179079716399 ], [ 100.203488261121109, 6.44259687930507 ], [ 100.203859724076096, 6.44199453461477 ], [ 100.20419895333923, 6.441373696561783 ], [ 100.20450501910662, 6.440736066755406 ], [ 100.204777082473342, 6.440083392834791 ], [ 100.205014397732555, 6.439417463679319 ], [ 100.205216314419673, 6.438740104506079 ], [ 100.205382279095076, 6.4380531718676 ], [ 100.20551183686112, 6.437358548563578 ], [ 100.205604632608967, 6.436658138480674 ], [ 100.205660411991943, 6.435953861374418 ], [ 100.205679022122624, 6.435247647607437 ] ] ] } },
{ "type": "Feature", "properties": { "state": "Perlis", "parlimen": "P.001 Kangar", "code_parlimen": "P.001", "dun": "N.05 Paya", "code_dun": "N.05", "voters_total": 7354 }, "geometry": { "type": "Polygon", "coordinates": [ [ [ 100.234318795009457, 6.475687892798618 ], [ 100.234301889679685, 6.475046422876432 ], [ 100.234251220026749, 6.474406710366961 ], [ 100.234166924932609, 6.47377050868784 ], [ 100.23404923544426, 6.473139561640271 ], [ 100.233898474140432, 6.472515598629232 ], [ 100.233715054247369, 6.471900329923096 ], [ 100.233499478506246, 6.471295441965513 ], [ 100.233252337795165, 6.470702592752629 ], [ 100.232974309509686, 6.470123407288189 ], [ 100.232666155705985, 6.469559473129038 ], [ 100.232328721012209, 6.469012336033188 ], [ 100.231962930313401, 6.468483495722358 ], [ 100.23156978621644, 6.467974401770818 ], [ 100.231150366302003, 6.467486449631466 ], [ 100.230705820170897, 6.467020976810341 ], [ 100.230237366293153, 6.466579259199928 ], [ 100.229746288668295, 6.466162507581345 ], [ 100.229233933305977, 6.465771864304909 ], [ 100.228701704536618, 6.465408400158424 ], [ 100.228151061162279, 6.465073111431511 ], [ 100.227583512458196, 6.464766917184195 ], [ 100.227000614035887, 6.464490656727189 ], [ 100.226403963579415, 6.464245087320854 ], [ 100.225795196466208, 6.46403088209903 ], [ 100.22517598128465, 6.463848628223534 ], [ 100.224548015260467, 6.463698825274371 ], [ 100.223913019604879, 6.46358188387998 ], [ 100.223272734796865, 6.463498124591507 ], [ 100.222628915812578, 6.463447777003844 ], [ 100.221983327315101, 6.463430979126246 ], [ 100.221337738817624, 6.463447777003844 ], [ 100.220693919833323, 6.463498124591507 ], [ 100.220053635025323, 6.46358188387998 ], [ 100.219418639369735, 6.463698825274371 ], [ 100.218790673345552, 6.463848628223534 ], [ 100.21817145816398, 6.46403088209903 ], [ 100.217562691050787, 6.464245087320854 ], [ 100.216966040594329, 6.464490656727189 ], [ 100.21638314217202, 6.464766917184195 ], [ 100.215815593467937, 6.465073111431511 ], [ 100.215264950093584, 6.465408400158424 ], [ 100.214732721324225, 6.465771864304909 ], [ 100.214220365961907, 6.466162507581345 ], [ 100.213729288337049, 6.466579259199928 ], [ 100.213260834459305, 6.467020976810341 ], [ 100.212816288328199, 6.467486449631466 ], [ 100.212396868413748, 6.467974401770818 ], [ 100.212003724316801, 6.468483495722358 ], [ 100.211637933617993, 6.469012336033188 ], [ 100.211300498924231, 6.469559473129038 ], [ 100.210992345120516, 6.470123407288189 ], [ 100.210714316835023, 6.470702592752629 ], [ 100.210467176123956, 6.471295441965513 ], [ 100.210251600382833, 6.471900329923096 ], [ 100.21006818048977, 6.472515598629232 ], [ 100.209917419185942, 6.473139561640271 ], [ 100.209799729697593, 6.47377050868784 ], [ 100.209715434603453, 6.474406710366961 ], [ 100.209664764950503, 6.475046422876432 ], [ 100.209647859620745, 6.475687892798618 ], [ 100.209664764950503, 6.476329361905628 ], [ 100.209715434603453, 6.476969071978513 ], [ 100.209799729697593, 6.477605269626345 ], [ 100.209917419185942, 6.478236211092105 ], [ 100.21006818048977, 6.478860167031918 ], [ 100.210251600382833, 6.479475427254917 ], [ 100.210467176123956, 6.480080305410412 ], [ 100.210714316835023, 6.48067314360962 ], [ 100.210992345120516, 6.48125231696948 ], [ 100.211300498924231, 6.481816238065749 ], [ 100.211637933617993, 6.482363361283579 ], [ 100.212003724316801, 6.482892187053231 ], [ 100.212396868413748, 6.483401265959818 ], [ 100.212816288328199, 6.483889202715248 ], [ 100.213260834459305, 6.484354659982036 ], [ 100.213729288337049, 6.484796362038098 ], [ 100.214220365961907, 6.48521309827276 ], [ 100.214732721324225, 6.48560372650423 ], [ 100.215264950093584, 6.48596717610955 ], [ 100.215815593467937, 6.486302450958418 ], [ 100.21638314217202, 6.486608632142865 ], [ 100.216966040594329, 6.486884880495291 ], [ 100.217562691050787, 6.48713043888795 ], [ 100.21817145816398, 6.487344634307673 ], [ 100.218790673345552, 6.487526879700032 ], [ 100.219418639369735, 6.487676675577994 ], [ 100.220053635025323, 6.487793611390551 ], [ 100.220693919833323, 6.487877366647747 ], [ 100.221337738817624, 6.487927711798825 ], [ 100.221983327315101, 6.48794450886126 ], [ 100.222628915812578, 6.487927711798825 ], [ 100.223272734796865, 6.487877366647747 ], [ 100.223913019604879, 6.487793611390551 ], [ 100.224548015260467, 6.487676675577994 ], [ 100.22517598128465, 6.487526879700032 ], [ 100.225795196466208, 6.487344634307673 ], [ 100.226403963579415, 6.48713043888795 ], [ 100.227000614035887, 6.486884880495291 ], [ 100.227583512458196, 6.486608632142865 ], [ 100.228151061162279, 6.486302450958418 ], [ 100.228701704536618, 6.48596717610955 ], [ 100.229233933305977, 6.48560372650423 ], [ 100.229746288668295, 6.48521309827276 ], [ 100.230237366293153, 6.484796362038098 ], [ 100.230705820170897, 6.484354659982036 ], [ 100.231150366302003, 6.483889202715248 ], [ 100.23156978621644, 6.483401265959818 ], [ 100.231962930313401, 6.482892187053231 ], [ 100.232328721012209, 6.482363361283579 ], [ 100.232666155705985, 6.481816238065749 ], [ 100.232974309509686, 6.48125231696948 ], [ 100.233252337795165, 6.48067314360962 ], [ 100.233499478506246, 6.480080305410412 ], [ 100.233715054247369, 6.479475427254917 ], [ 100.233898474140432, 6.478860167031918 ], [ 100.23404923544426, 6.478236211092105 ], [ 100.234166924932609, 6.477605269626345 ], [ 100.234251220026749, 6.476969071978513 ], [ 100.234301889679685, 6.476329361905628 ], [ 100.234318795009457, 6.475687892798618 ] ] ] } },
{ "type": "Feature", "properties": { "state": "Perlis", "parlimen": "P.001 Kangar", "code_parlimen": "P.001", "dun": "N.06 Oran", "code_dun": "N.06", "voters_total": 5206 }, "geometry": { "type": "Polygon", "coordinates": [ [ [ 100.328555357248675, 6.490044870565588 ], [ 100.328541133505027, 6.489505168403976 ], [ 100.328498501260469, 6.488966944952578 ], [ 100.328427577366924, 6.488431675451594 ], [ 100.328328556221933, 6.487900827049335 ], [ 100.328201709235529, 6.487375854780641 ], [ 100.328047384086503, 6.486858197578687 ], [ 100.327866003769344, 6.486349274330634 ], [ 100.327658065434889, 6.485850479988288 ], [ 100.327424139027713, 6.485363181744415 ], [ 100.327164865723773, 6.48488871528491 ], [ 100.326880956173198, 6.484428381127426 ], [ 100.326573188552359, 6.483983441056324 ], [ 100.32624240643085, 6.483555114663782 ], [ 100.32588951645954, 6.483144576006512 ], [ 100.325515485885276, 6.482752950387214 ], [ 100.325121339899866, 6.482381311269797 ], [ 100.324708158830049, 6.482030677336551 ], [ 100.32427707517644, 6.481702009695505 ], [ 100.323829270509364, 6.481396209245617 ], [ 100.323365972230263, 6.481114114206996 ], [ 100.322888450207572, 6.480856497822917 ], [ 100.322398013295896, 6.480624066240016 ], [ 100.321896005748755, 6.480417456572338 ], [ 100.321383803533948, 6.480237235154654 ], [ 100.320862810562147, 6.480083895989888 ], [ 100.320334454838857, 6.479957859394716 ], [ 100.319800184550374, 6.479859470847248 ], [ 100.319261464094453, 6.479789000039894 ], [ 100.318719770066394, 6.479746640139991 ], [ 100.318176587211894, 6.47973250726014 ], [ 100.317633404357395, 6.479746640139991 ], [ 100.317091710329336, 6.479789000039894 ], [ 100.316552989873415, 6.479859470847248 ], [ 100.316018719584932, 6.479957859394716 ], [ 100.315490363861642, 6.480083895989888 ], [ 100.314969370889827, 6.480237235154654 ], [ 100.31445716867502, 6.480417456572338 ], [ 100.313955161127893, 6.480624066240016 ], [ 100.313464724216217, 6.480856497822917 ], [ 100.312987202193511, 6.481114114206996 ], [ 100.312523903914411, 6.481396209245617 ], [ 100.312076099247349, 6.481702009695505 ], [ 100.31164501559374, 6.482030677336551 ], [ 100.311231834523923, 6.482381311269797 ], [ 100.310837688538513, 6.482752950387214 ], [ 100.310463657964249, 6.483144576006512 ], [ 100.310110767992924, 6.483555114663782 ], [ 100.30977998587143, 6.483983441056324 ], [ 100.30947221825059, 6.484428381127426 ], [ 100.309188308700016, 6.48488871528491 ], [ 100.308929035396076, 6.485363181744415 ], [ 100.3086951089889, 6.485850479988288 ], [ 100.308487170654445, 6.486349274330634 ], [ 100.308305790337286, 6.486858197578687 ], [ 100.30815146518826, 6.487375854780641 ], [ 100.308024618201856, 6.487900827049335 ], [ 100.307925597056865, 6.488431675451594 ], [ 100.30785467316332, 6.488966944952578 ], [ 100.307812040918748, 6.489505168403976 ], [ 100.307797817175114, 6.490044870565588 ], [ 100.307812040918748, 6.490584572148872 ], [ 100.30785467316332, 6.491122793871626 ], [ 100.307925597056865, 6.491658060512592 ], [ 100.308024618201856, 6.492188904954793 ], [ 100.30815146518826, 6.49271387220676 ], [ 100.308305790337286, 6.49323152339029 ], [ 100.308487170654445, 6.4937404396842 ], [ 100.3086951089889, 6.494239226212801 ], [ 100.308929035396076, 6.494726515869012 ], [ 100.309188308700016, 6.495200973060966 ], [ 100.30947221825059, 6.495661297372584 ], [ 100.30977998587143, 6.496106227127366 ], [ 100.310110767992924, 6.496534542846158 ], [ 100.310463657964249, 6.496945070589215 ], [ 100.310837688538513, 6.497336685173375 ], [ 100.311231834523923, 6.497708313255654 ], [ 100.31164501559374, 6.498058936274661 ], [ 100.312076099247349, 6.498387593241969 ], [ 100.312523903914411, 6.498693383375538 ], [ 100.312987202193511, 6.498975468568293 ], [ 100.313464724216217, 6.49923307568482 ], [ 100.313955161127893, 6.499465498680046 ], [ 100.31445716867502, 6.499672100534004 ], [ 100.314969370889827, 6.49985231499752 ], [ 100.315490363861642, 6.500005648143875 ], [ 100.316018719584932, 6.500131679722332 ], [ 100.316552989873415, 6.500230064309743 ], [ 100.317091710329336, 6.500300532257066 ], [ 100.317633404357395, 6.500342890428324 ], [ 100.318176587211894, 6.500357022729836 ], [ 100.318719770066394, 6.500342890428324 ], [ 100.319261464094453, 6.500300532257066 ], [ 100.319800184550374, 6.500230064309743 ], [ 100.320334454838857, 6.500131679722332 ], [ 100.320862810562147, 6.500005648143875 ], [ 100.321383803533948, 6.49985231499752 ], [ 100.321896005748755, 6.499672100534004 ], [ 100.322398013295896, 6.499465498680046 ], [ 100.322888450207572, 6.49923307568482 ], [ 100.323365972230263, 6.498975468568293 ], [ 100.323829270509364, 6.498693383375538 ], [ 100.32427707517644, 6.498387593241969 ], [ 100.324708158830049, 6.498058936274661 ], [ 100.325121339899866, 6.497708313255654 ], [ 100.325515485885276, 6.497336685173375 ], [ 100.32588951645954, 6.496945070589215 ], [ 100.32624240643085, 6.496534542846158 ], [ 100.326573188552359, 6.496106227127366 ], [ 100.326880956173198, 6.495661297372584 ], [ 100.327164865723773, 6.495200973060966 ], [ 100.327424139027713, 6.494726515869012 ], [ 100.327658065434889, 6.494239226212801 ], [ 100.327866003769344, 6.4937404396842 ], [ 100.328047384086503, 6.49323152339029 ], [ 100.328201709235529, 6.49271387220676 ], [ 100.328328556221933, 6.492188904954793 ], [ 100.328427577366924, 6.491658060512592 ], [ 100.328498501260469, 6.491122793871626 ], [ 100.328541133505027, 6.490584572148872 ], [ 100.328555357248675, 6.490044870565588 ] ] ] } },
{ "type": "Feature", "properties": { "state": "Perlis", "parlimen": "P.002 Arau", "code_parlimen": "P.002", "dun": "N.07 Kuala Perlis", "code_dun": "N.07", "voters_total": 6118 }, "geometry": { "type": "Polygon", "coordinates": [ [ [ 100.153572927002571, 6.40200555654081 ], [ 100.153557507634687, 6.40142038631091 ], [ 100.153511291794445, 6.400836819324175 ], [ 100.153434406156251, 6.400256455105433 ], [ 100.153327061458327, 6.399680884406373 ], [ 100.153189551924967, 6.399111684845156 ], [ 100.153022254460282, 6.39855041658217 ], [ 100.152825627614988, 6.39799861804342 ], [ 100.152600210329609, 6.39745780170348 ], [ 100.152346620457237, 6.396929449939601 ], [ 100.152065553070102, 6.396415010968149 ], [ 100.151757778554355, 6.395915894874721 ], [ 100.151424140498591, 6.395433469748758 ], [ 100.1510655533815, 6.394969057933093 ], [ 100.150683000065413, 6.394523932399051 ], [ 100.150277529102453, 6.394099313256732 ], [ 100.149850251860286, 6.393696364410213 ], [ 100.149402339476168, 6.393316190366787 ], [ 100.148935019646785, 6.392959833209011 ], [ 100.148449573263306, 6.392628269737849 ], [ 100.147947330900564, 6.392322408794842 ], [ 100.147429669169924, 6.392043088770372 ], [ 100.146898006946202, 6.391791075305324 ], [ 100.146353801478639, 6.3915670591919 ], [ 100.14579854439657, 6.391371654479885 ], [ 100.145233757621057, 6.391205396793067 ], [ 100.144660989193397, 6.391068741860813 ], [ 100.144081809032045, 6.390962064268677 ], [ 100.143497804629547, 6.390885656431345 ], [ 100.142910576701411, 6.390839727790978 ], [ 100.142321734798543, 6.390824404243014 ], [ 100.141732892895675, 6.390839727790978 ], [ 100.141145664967524, 6.390885656431345 ], [ 100.140561660565041, 6.390962064268677 ], [ 100.139982480403688, 6.391068741860813 ], [ 100.139409711976029, 6.391205396793067 ], [ 100.138844925200516, 6.391371654479885 ], [ 100.138289668118446, 6.3915670591919 ], [ 100.137745462650884, 6.391791075305324 ], [ 100.137213800427162, 6.392043088770372 ], [ 100.136696138696522, 6.392322408794842 ], [ 100.136193896333765, 6.392628269737849 ], [ 100.1357084499503, 6.392959833209011 ], [ 100.135241130120917, 6.393316190366787 ], [ 100.134793217736799, 6.393696364410213 ], [ 100.134365940494632, 6.394099313256732 ], [ 100.133960469531658, 6.394523932399051 ], [ 100.1335779162156, 6.394969057933093 ], [ 100.133219329098495, 6.395433469748758 ], [ 100.132885691042731, 6.395915894874721 ], [ 100.132577916526969, 6.396415010968149 ], [ 100.132296849139848, 6.396929449939601 ], [ 100.13204325926749, 6.39745780170348 ], [ 100.131817841982084, 6.39799861804342 ], [ 100.131621215136789, 6.39855041658217 ], [ 100.131453917672104, 6.399111684845156 ], [ 100.131316408138773, 6.399680884406373 ], [ 100.131209063440821, 6.400256455105433 ], [ 100.131132177802641, 6.400836819324175 ], [ 100.131085961962384, 6.40142038631091 ], [ 100.1310705425945, 6.40200555654081 ], [ 100.131085961962384, 6.402590726100134 ], [ 100.131132177802641, 6.403174291082483 ], [ 100.131209063440821, 6.403754651985001 ], [ 100.131316408138773, 6.404330218092332 ], [ 100.131453917672104, 6.40489941183662 ], [ 100.131621215136789, 6.405460673121202 ], [ 100.131817841982084, 6.406012463596547 ], [ 100.13204325926749, 6.406553270876397 ], [ 100.132296849139848, 6.407081612682785 ], [ 100.132577916526969, 6.407596040908441 ], [ 100.132885691042731, 6.408095145585484 ], [ 100.133219329098495, 6.408577558749585 ], [ 100.1335779162156, 6.409041958188949 ], [ 100.133960469531658, 6.409487071067844 ], [ 100.134365940494632, 6.409911677414828 ], [ 100.134793217736799, 6.410314613466014 ], [ 100.135241130120917, 6.410694774854305 ], [ 100.1357084499503, 6.411051119635767 ], [ 100.136193896333765, 6.411382671145054 ], [ 100.136696138696522, 6.411688520671703 ], [ 100.137213800427162, 6.411967829950363 ], [ 100.137745462650884, 6.412219833457933 ], [ 100.138289668118446, 6.412443840511266 ], [ 100.138844925200516, 6.412639237159877 ], [ 100.139409711976029, 6.41280548786829 ], [ 100.139982480403688, 6.412942136983602 ], [ 100.140561660565041, 6.41304880998401 ], [ 100.141145664967524, 6.413125214505118 ], [ 100.141732892895675, 6.413171141141111 ], [ 100.142321734798543, 6.4131864640185 ], [ 100.142910576701411, 6.413171141141111 ], [ 100.143497804629547, 6.413125214505118 ], [ 100.144081809032045, 6.41304880998401 ], [ 100.144660989193397, 6.412942136983602 ], [ 100.145233757621057, 6.41280548786829 ], [ 100.14579854439657, 6.412639237159877 ], [ 100.146353801478639, 6.412443840511266 ], [ 100.146898006946202, 6.412219833457933 ], [ 100.147429669169924, 6.411967829950363 ], [ 100.147947330900564, 6.411688520671703 ], [ 100.148449573263306, 6.411382671145054 ], [ 100.148935019646785, 6.411051119635767 ], [ 100.149402339476168, 6.410694774854305 ], [ 100.149850251860286, 6.410314613466014 ], [ 100.150277529102453, 6.409911677414828 ], [ 100.150683000065413, 6.409487071067844 ], [ 100.1510655533815, 6.409041958188949 ], [ 100.151424140498591, 6.408577558749585 ], [ 100.151757778554355, 6.408095145585484 ], [ 100.152065553070102, 6.407596040908441 ], [ 100.152346620457237, 6.407081612682785 ], [ 100.152600210329609, 6.406553270876397 ], [ 100.152825627614988, 6.406012463596547 ], [ 100.153022254460282, 6.405460673121202 ], [ 100.153189551924967, 6.40489941183662 ], [ 100.153327061458327, 6.404330218092332 ], [ 100.153434406156251, 6.403754651985001 ], [ 100.153511291794445, 6.403174291082483 ], [ 100.153557507634687, 6.402590726100134 ], [ 100.153572927002571, 6.40200555654081 ] ] ] } },
{ "type": "Feature", "properties": { "state": "Perlis", "parlimen": "P.002 Arau", "code_parlimen": "P.002", "dun": "N.08 Kayang", "code_dun": "N.08", "voters_total": 6096 }, "geometry": { "type": "Polygon", "coordinates": [ [ [ 100.185408270382766, 6.373360791830539 ], [ 100.185392878763466, 6.372776641977274 ], [ 100.185346746092904, 6.372194092575715 ], [ 100.185269998817517, 6.37161474036151 ], [ 100.185162847296283, 6.371040173312382 ], [ 100.185025585224039, 6.370471966295427 ], [ 100.184858588826629, 6.369911676750349 ], [ 100.184662315829527, 6.36936084042029 ], [ 100.184437304203385, 6.368820967142268 ], [ 100.184184170689434, 6.368293536708315 ], [ 100.183903609109052, 6.367779994809206 ], [ 100.183596388462021, 6.367281749071386 ], [ 100.183263350818777, 6.366800165198294 ], [ 100.182905409012335, 6.366336563226568 ], [ 100.18252354413633, 6.365892213907418 ], [ 100.182118802855854, 6.365468335222961 ], [ 100.181692294538593, 6.36506608904733 ], [ 100.18124518821422, 6.364686577961406 ], [ 100.180778709370074, 6.364330842230226 ], [ 100.180294136592266, 6.363999856951068 ], [ 100.179792798061072, 6.363694529380274 ], [ 100.179276067910578, 6.363415696445948 ], [ 100.178745362462209, 6.363164122453483 ], [ 100.178202136342691, 6.362940496990264 ], [ 100.177647878497069, 6.362745433034989 ], [ 100.177084108107593, 6.362579465277192 ], [ 100.176512370429677, 6.36244304865137 ], [ 100.175934232556571, 6.362336557089672 ], [ 100.175351279124015, 6.362260282496743 ], [ 100.17476510796682, 6.362214433949423 ], [ 100.174177325739393, 6.362199137123564 ], [ 100.173589543511966, 6.362214433949423 ], [ 100.173003372354771, 6.362260282496743 ], [ 100.172420418922215, 6.362336557089672 ], [ 100.171842281049095, 6.36244304865137 ], [ 100.171270543371207, 6.362579465277192 ], [ 100.170706772981717, 6.362745433034989 ], [ 100.170152515136095, 6.362940496990264 ], [ 100.169609289016563, 6.363164122453483 ], [ 100.169078583568208, 6.363415696445948 ], [ 100.168561853417714, 6.363694529380274 ], [ 100.16806051488652, 6.363999856951068 ], [ 100.167575942108698, 6.364330842230226 ], [ 100.167109463264552, 6.364686577961406 ], [ 100.166662356940193, 6.36506608904733 ], [ 100.166235848622932, 6.365468335222961 ], [ 100.165831107342456, 6.365892213907418 ], [ 100.165449242466451, 6.366336563226568 ], [ 100.165091300660023, 6.366800165198294 ], [ 100.164758263016765, 6.367281749071386 ], [ 100.164451042369734, 6.367779994809206 ], [ 100.164170480789352, 6.368293536708315 ], [ 100.163917347275415, 6.368820967142268 ], [ 100.163692335649259, 6.36936084042029 ], [ 100.163496062652172, 6.369911676750349 ], [ 100.163329066254747, 6.370471966295427 ], [ 100.163191804182489, 6.371040173312382 ], [ 100.163084652661269, 6.37161474036151 ], [ 100.163007905385882, 6.372194092575715 ], [ 100.16296177271532, 6.372776641977274 ], [ 100.16294638109602, 6.373360791830539 ], [ 100.16296177271532, 6.373944941018597 ], [ 100.163007905385882, 6.374527488431776 ], [ 100.163084652661269, 6.375106837356218 ], [ 100.163191804182489, 6.375681399850257 ], [ 100.163329066254747, 6.376249601096706 ], [ 100.163496062652172, 6.376809883719078 ], [ 100.163692335649259, 6.377360712050067 ], [ 100.163917347275415, 6.377900576340314 ], [ 100.164170480789352, 6.378427996896227 ], [ 100.164451042369734, 6.378941528135299 ], [ 100.164758263016765, 6.37943976254785 ], [ 100.165091300660023, 6.379921334554536 ], [ 100.165449242466451, 6.380384924248722 ], [ 100.165831107342456, 6.380829261013714 ], [ 100.166235848622932, 6.381253127004945 ], [ 100.166662356940193, 6.381655360487352 ], [ 100.167109463264552, 6.382034859019118 ], [ 100.167575942108698, 6.38239058247276 ], [ 100.16806051488652, 6.382721555885509 ], [ 100.168561853417714, 6.383026872131035 ], [ 100.169078583568208, 6.383305694405339 ], [ 100.169609289016563, 6.383557258519763 ], [ 100.170152515136095, 6.383780874995206 ], [ 100.170706772981717, 6.383975930951411 ], [ 100.171270543371207, 6.384141891786501 ], [ 100.171842281049095, 6.384278302641805 ], [ 100.172420418922215, 6.384384789648414 ], [ 100.173003372354771, 6.384461060951594 ], [ 100.173589543511966, 6.38450690751052 ], [ 100.174177325739393, 6.38452220367116 ], [ 100.17476510796682, 6.38450690751052 ], [ 100.175351279124015, 6.384461060951594 ], [ 100.175934232556571, 6.384384789648414 ], [ 100.176512370429677, 6.384278302641805 ], [ 100.177084108107593, 6.384141891786501 ], [ 100.177647878497069, 6.383975930951411 ], [ 100.178202136342691, 6.383780874995206 ], [ 100.178745362462209, 6.383557258519763 ], [ 100.179276067910578, 6.383305694405339 ], [ 100.179792798061072, 6.383026872131035 ], [ 100.180294136592266, 6.382721555885509 ], [ 100.180778709370074, 6.38239058247276 ], [ 100.18124518821422, 6.382034859019118 ], [ 100.181692294538593, 6.381655360487352 ], [ 100.182118802855854, 6.381253127004945 ], [ 100.18252354413633, 6.380829261013714 ], [ 100.182905409012335, 6.380384924248722 ], [ 100.183263350818777, 6.379921334554536 ], [ 100.183596388462021, 6.37943976254785 ], [ 100.183903609109052, 6.378941528135299 ], [ 100.184184170689434, 6.378427996896227 ], [ 100.184437304203385, 6.377900576340314 ], [ 100.184662315829527, 6.377360712050067 ], [ 100.184858588826629, 6.376809883719078 ], [ 100.185025585224039, 6.376249601096706 ], [ 100.185162847296283, 6.375681399850257 ], [ 100.185269998817517, 6.375106837356218 ], [ 100.185346746092904, 6.374527488431776 ], [ 100.185392878763466, 6.373944941018597 ], [ 100.185408270382766, 6.373360791830539 ] ] ] } },
{ "type": "Feature", "properties": { "state": "Perlis", "parlimen": "P.002 Arau", "code_parlimen": "P.002", "dun": "N.09 Utan Aji", "code_dun": "N.09", "voters_total": 5947 }, "geometry": { "type": "Polygon", "coordinates": [ [ [ 100.232698581720015, 6.410926472948385 ], [ 100.232683379367344, 6.410349548609693 ], [ 100.232637813977945, 6.409774204930522 ], [ 100.23256201044336, 6.409202018895976 ], [ 100.232456176535806, 6.408634558841524 ], [ 100.232320602338689, 6.408073380154129 ], [ 100.23215565945145, 6.407520021008885 ], [ 100.23196179997106, 6.406975998152655 ], [ 100.231739555252915, 6.406442802746568 ], [ 100.231489534454326, 6.405921896278413 ], [ 100.231212422864886, 6.405414706556436 ], [ 100.230908980028246, 6.404922623795389 ], [ 100.230580037660133, 6.404446996805524 ], [ 100.230226497368676, 6.403989129295216 ], [ 100.229849328183278, 6.403550276296923 ], [ 100.229449563898427, 6.403131640726771 ], [ 100.229028300240245, 6.402734370086906 ], [ 100.228586691863157, 6.402359553319633 ], [ 100.228125949185028, 6.402008217822218 ], [ 100.227647335069491, 6.401681326630271 ], [ 100.227152161364572, 6.401379775777595 ], [ 100.22664178530701, 6.401104391839704 ], [ 100.22611760580206, 6.400855929667729 ], [ 100.225581059589331, 6.400635070318973 ], [ 100.225033617304689, 6.400442419189755 ], [ 100.224476779449418, 6.400278504355595 ], [ 100.223912072277315, 6.400143775123518 ], [ 100.223341043611526, 6.400038600800221 ], [ 100.222765258601925, 6.399963269679526 ], [ 100.222186295435208, 6.399917988252039 ], [ 100.221605741009157, 6.399902880639019 ], [ 100.221025186583091, 6.399917988252039 ], [ 100.22044622341636, 6.399963269679526 ], [ 100.219870438406758, 6.400038600800221 ], [ 100.21929940974097, 6.400143775123518 ], [ 100.218734702568881, 6.400278504355595 ], [ 100.218177864713596, 6.400442419189755 ], [ 100.217630422428968, 6.400635070318973 ], [ 100.217093876216225, 6.400855929667729 ], [ 100.216569696711289, 6.401104391839704 ], [ 100.216059320653713, 6.401379775777595 ], [ 100.215564146948807, 6.401681326630271 ], [ 100.215085532833271, 6.402008217822218 ], [ 100.214624790155142, 6.402359553319633 ], [ 100.21418318177804, 6.402734370086906 ], [ 100.213761918119886, 6.403131640726771 ], [ 100.213362153835021, 6.403550276296923 ], [ 100.212984984649609, 6.403989129295216 ], [ 100.212631444358152, 6.404446996805524 ], [ 100.212302501990038, 6.404922623795389 ], [ 100.211999059153413, 6.405414706556436 ], [ 100.211721947563973, 6.405921896278413 ], [ 100.21147192676537, 6.406442802746568 ], [ 100.211249682047239, 6.406975998152655 ], [ 100.211055822566848, 6.407520021008885 ], [ 100.21089087967961, 6.408073380154129 ], [ 100.210755305482493, 6.408634558841524 ], [ 100.210649471574939, 6.409202018895976 ], [ 100.210573668040354, 6.409774204930522 ], [ 100.210528102650954, 6.410349548609693 ], [ 100.210512900298284, 6.410926472948385 ], [ 100.210528102650954, 6.411503396634351 ], [ 100.210573668040354, 6.412078738362493 ], [ 100.210649471574939, 6.412650921169094 ], [ 100.210755305482493, 6.41321837675404 ], [ 100.21089087967961, 6.413779549779336 ], [ 100.211055822566848, 6.414332902131945 ], [ 100.211249682047239, 6.41487691713938 ], [ 100.21147192676537, 6.415410103726553 ], [ 100.211721947563973, 6.415931000502273 ], [ 100.211999059153413, 6.4164381797645 ], [ 100.212302501990038, 6.416930251413071 ], [ 100.212631444358152, 6.417405866759458 ], [ 100.212984984649609, 6.417863722222908 ], [ 100.213362153835021, 6.418302562902925 ], [ 100.213761918119886, 6.418721186018317 ], [ 100.21418318177804, 6.419118444203436 ], [ 100.214624790155142, 6.419493248652432 ], [ 100.215085532833271, 6.419844572102975 ], [ 100.215564146948807, 6.420171451651471 ], [ 100.216059320653713, 6.420472991391659 ], [ 100.216569696711289, 6.420748364869799 ], [ 100.217093876216225, 6.420996817349326 ], [ 100.217630422428968, 6.421217667879154 ], [ 100.218177864713596, 6.421410311159604 ], [ 100.218734702568881, 6.421574219201116 ], [ 100.21929940974097, 6.421708942771094 ], [ 100.219870438406758, 6.421814112624896 ], [ 100.22044622341636, 6.421889440517633 ], [ 100.221025186583091, 6.421934719994093 ], [ 100.221605741009157, 6.4219498269544 ], [ 100.222186295435208, 6.421934719994093 ], [ 100.222765258601925, 6.421889440517633 ], [ 100.223341043611526, 6.421814112624896 ], [ 100.223912072277315, 6.421708942771094 ], [ 100.224476779449418, 6.421574219201116 ], [ 100.225033617304689, 6.421410311159604 ], [ 100.225581059589331, 6.421217667879154 ], [ 100.22611760580206, 6.420996817349326 ], [ 100.22664178530701, 6.420748364869799 ], [ 100.227152161364572, 6.420472991391659 ], [ 100.227647335069491, 6.420171451651471 ], [ 100.228125949185028, 6.419844572102975 ], [ 100.228586691863157, 6.419493248652432 ], [ 100.229028300240245, 6.419118444203436 ], [ 100.229449563898427, 6.418721186018317 ], [ 100.229849328183278, 6.418302562902925 ], [ 100.230226497368676, 6.417863722222908 ], [ 100.230580037660133, 6.417405866759458 ], [ 100.230908980028246, 6.416930251413071 ], [ 100.231212422864886, 6.4164381797645 ], [ 100.231489534454326, 6.415931000502273 ], [ 100.231739555252915, 6.415410103726553 ], [ 100.23196179997106, 6.41487691713938 ], [ 100.23215565945145, 6.414332902131945 ], [ 100.232320602338689, 6.413779549779336 ], [ 100.232456176535806, 6.41321837675404 ], [ 100.23256201044336, 6.412650921169094 ], [ 100.232637813977945, 6.412078738362493 ], [ 100.232683379367344, 6.411503396634351 ], [ 100.232698581720015, 6.410926472948385 ] ] ] } },
{ "type": "Feature", "properties": { "state": "Perlis", "parlimen": "P.002 Arau", "code_parlimen": "P.002", "dun": "N.10 Bandar Arau", "code_dun": "N.10", "voters_total": 6417 }, "geometry": { "type": "Polygon", "coordinates": [ [ [ 100.271037081629146, 6.419317246677859 ], [ 100.271021289966669, 6.418717968076902 ], [ 100.270973958263028, 6.418120331354682 ], [ 100.270895216251148, 6.417525974600646 ], [ 100.270785279757433, 6.4169365269197 ], [ 100.27064445011014, 6.416353603966866 ], [ 100.270473113313557, 6.415778803518636 ], [ 100.270271738989933, 6.415213701093254 ], [ 100.270040879092306, 6.414659845632046 ], [ 100.269781166391581, 6.414118755253516 ], [ 100.269493312742242, 6.413591913091802 ], [ 100.269178107131125, 6.413080763231077 ], [ 100.268836413514876, 6.412586706746888 ], [ 100.268469168452, 6.412111097865372 ], [ 100.268077378535637, 6.411655240250857 ], [ 100.267662117634742, 6.411220383432009 ], [ 100.267224523950588, 6.410807719376388 ], [ 100.266765796897005, 6.410418379222707 ], [ 100.266287193812985, 6.410053430179857 ], [ 100.265790026516342, 6.409713872601213 ], [ 100.265275657708031, 6.409400637242122 ], [ 100.264745497237243, 6.409114582708168 ], [ 100.26420099823693, 6.408856493101304 ], [ 100.263643653141045, 6.408627075870133 ], [ 100.263074989593747, 6.408426959870456 ], [ 100.262496566262286, 6.408256693641085 ], [ 100.261909968564808, 6.4081167439 ], [ 100.261316804324835, 6.408007494264816 ], [ 100.260718699364304, 6.407929244200979 ], [ 100.260117293047358, 6.407882208200781 ], [ 100.259514233786888, 6.40786651519526 ], [ 100.258911174526432, 6.407882208200781 ], [ 100.258309768209472, 6.407929244200979 ], [ 100.257711663248955, 6.408007494264816 ], [ 100.257118499008968, 6.4081167439 ], [ 100.25653190131149, 6.408256693641085 ], [ 100.255953477980029, 6.408426959870456 ], [ 100.25538481443273, 6.408627075870133 ], [ 100.254827469336846, 6.408856493101304 ], [ 100.254282970336547, 6.409114582708168 ], [ 100.253752809865759, 6.409400637242122 ], [ 100.253238441057448, 6.409713872601213 ], [ 100.25274127376079, 6.410053430179857 ], [ 100.252262670676785, 6.410418379222707 ], [ 100.251803943623202, 6.410807719376388 ], [ 100.251366349939047, 6.411220383432009 ], [ 100.250951089038139, 6.411655240250857 ], [ 100.25055929912179, 6.412111097865372 ], [ 100.250192054058886, 6.412586706746888 ], [ 100.249850360442665, 6.413080763231077 ], [ 100.249535154831548, 6.413591913091802 ], [ 100.249247301182194, 6.414118755253516 ], [ 100.248987588481484, 6.414659845632046 ], [ 100.248756728583842, 6.415213701093254 ], [ 100.248555354260219, 6.415778803518636 ], [ 100.24838401746365, 6.416353603966866 ], [ 100.248243187816357, 6.4169365269197 ], [ 100.248133251322614, 6.417525974600646 ], [ 100.248054509310748, 6.418120331354682 ], [ 100.248007177607121, 6.418717968076902 ], [ 100.247991385944616, 6.419317246677859 ], [ 100.248007177607121, 6.419916524573584 ], [ 100.248054509310748, 6.420514159187873 ], [ 100.248133251322614, 6.42110851245438 ], [ 100.248243187816357, 6.421697955306379 ], [ 100.24838401746365, 6.422280872141759 ], [ 100.248555354260219, 6.422855665251088 ], [ 100.248756728583842, 6.4234207591965 ], [ 100.248987588481484, 6.423974605129569 ], [ 100.249247301182194, 6.424515685036199 ], [ 100.249535154831548, 6.425042515896969 ], [ 100.249850360442665, 6.425553653751545 ], [ 100.250192054058886, 6.426047697655916 ], [ 100.25055929912179, 6.42652329352175 ], [ 100.250951089038139, 6.426979137827348 ], [ 100.251366349939047, 6.427413981189829 ], [ 100.251803943623202, 6.427826631789109 ], [ 100.252262670676785, 6.428215958633873 ], [ 100.25274127376079, 6.428580894661041 ], [ 100.253238441057448, 6.428920439659853 ], [ 100.253752809865759, 6.429233663012795 ], [ 100.254282970336547, 6.429519706245819 ], [ 100.254827469336846, 6.429777785380783 ], [ 100.25538481443273, 6.4300071930838 ], [ 100.255953477980029, 6.430207300603509 ], [ 100.25653190131149, 6.430377559493978 ], [ 100.257118499008968, 6.43051750311761 ], [ 100.257711663248955, 6.430626747923859 ], [ 100.258309768209472, 6.430704994500156 ], [ 100.258911174526432, 6.430752028392433 ], [ 100.259514233786888, 6.430767720692724 ], [ 100.260117293047358, 6.430752028392433 ], [ 100.260718699364304, 6.430704994500156 ], [ 100.261316804324835, 6.430626747923859 ], [ 100.261909968564808, 6.43051750311761 ], [ 100.262496566262286, 6.430377559493978 ], [ 100.263074989593747, 6.430207300603509 ], [ 100.263643653141045, 6.4300071930838 ], [ 100.26420099823693, 6.429777785380783 ], [ 100.264745497237243, 6.429519706245819 ], [ 100.265275657708031, 6.429233663012795 ], [ 100.265790026516342, 6.428920439659853 ], [ 100.266287193812985, 6.428580894661041 ], [ 100.266765796897005, 6.428215958633873 ], [ 100.267224523950588, 6.427826631789109 ], [ 100.267662117634742, 6.427413981189829 ], [ 100.268077378535637, 6.426979137827348 ], [ 100.268469168452, 6.42652329352175 ], [ 100.268836413514876, 6.426047697655916 ], [ 100.269178107131125, 6.425553653751545 ], [ 100.269493312742242, 6.425042515896969 ], [ 100.269781166391581, 6.424515685036199 ], [ 100.270040879092306, 6.423974605129569 ], [ 100.270271738989933, 6.4234207591965 ], [ 100.270473113313557, 6.422855665251088 ], [ 100.27064445011014, 6.422280872141759 ], [ 100.270785279757433, 6.421697955306379 ], [ 100.270895216251148, 6.42110851245438 ], [ 100.270973958263028, 6.420514159187873 ], [ 100.271021289966669, 6.419916524573584 ], [ 100.271037081629146, 6.419317246677859 ] ] ] } },
{ "type": "Feature", "properties": { "state": "Perlis", "parlimen": "P.002 Arau", "code_parlimen": "P.002", "dun": "N.11 Kurong Anai", "code_dun": "N.11", "voters_total": 6575 }, "geometry": { "type": "Polygon", "coordinates": [ [ [ 100.306229465075205, 6.410728639816587 ], [ 100.306213480182961, 6.41012201810319 ], [ 100.306165569319774, 6.409517058379151 ], [ 100.306085863805947, 6.408915418805942 ], [ 100.305974582108774, 6.408318748450531 ], [ 100.305832029243632, 6.40772868276524 ], [ 100.305658595938027, 6.40714683910486 ], [ 100.305454757560597, 6.406574812293334 ], [ 100.305221072818156, 6.40601417025205 ], [ 100.304958182224368, 6.405466449701954 ], [ 100.304666806344045, 6.404933151951024 ], [ 100.304347743818226, 6.404415738778845 ], [ 100.304001869175124, 6.403915628429419 ], [ 100.303630130433106, 6.403434191723289 ], [ 100.303233546502213, 6.402972748299702 ], [ 100.302813204391427, 6.402532562998923 ], [ 100.302370256229267, 6.402114842394763 ], [ 100.301905916105852, 6.401720731486882 ], [ 100.30142145674516, 6.401351310561758 ], [ 100.300918206016675, 6.401007592231122 ], [ 100.300397543295617, 6.40069051865584 ], [ 100.299860895682357, 6.400400958962936 ], [ 100.299309734090656, 6.400139706862832 ], [ 100.298745569216166, 6.399907478473331 ], [ 100.298169947395564, 6.399704910356296 ], [ 100.297584446368248, 6.399532557772427 ], [ 100.296990670951871, 6.399390893158991 ], [ 100.296390248643547, 6.399280304834512 ], [ 100.295784825159075, 6.39920109593416 ], [ 100.29517605992217, 6.399153483578651 ], [ 100.294565621516057, 6.399137598278995 ], [ 100.293955183109915, 6.399153483578651 ], [ 100.293346417873025, 6.39920109593416 ], [ 100.292740994388552, 6.399280304834512 ], [ 100.292140572080228, 6.399390893158991 ], [ 100.291546796663837, 6.399532557772427 ], [ 100.290961295636549, 6.399704910356296 ], [ 100.290385673815933, 6.399907478473331 ], [ 100.289821508941444, 6.400139706862832 ], [ 100.289270347349742, 6.400400958962936 ], [ 100.288733699736468, 6.40069051865584 ], [ 100.28821303701541, 6.401007592231122 ], [ 100.287709786286925, 6.401351310561758 ], [ 100.287225326926247, 6.401720731486882 ], [ 100.286760986802832, 6.402114842394763 ], [ 100.286318038640658, 6.402532562998923 ], [ 100.285897696529887, 6.402972748299702 ], [ 100.285501112598993, 6.403434191723289 ], [ 100.285129373856961, 6.403915628429419 ], [ 100.284783499213873, 6.404415738778845 ], [ 100.284464436688054, 6.404933151951024 ], [ 100.284173060807717, 6.405466449701954 ], [ 100.283910170213929, 6.40601417025205 ], [ 100.283676485471503, 6.406574812293334 ], [ 100.283472647094058, 6.40714683910486 ], [ 100.283299213788467, 6.40772868276524 ], [ 100.283156660923325, 6.408318748450531 ], [ 100.283045379226152, 6.408915418805942 ], [ 100.282965673712326, 6.409517058379151 ], [ 100.282917762849124, 6.41012201810319 ], [ 100.28290177795688, 6.410728639816587 ], [ 100.282917762849124, 6.411335260808354 ], [ 100.282965673712326, 6.411940218375416 ], [ 100.283045379226152, 6.412541854379916 ], [ 100.283156660923325, 6.413138519793993 ], [ 100.283299213788467, 6.413728579219468 ], [ 100.283472647094058, 6.414310415370113 ], [ 100.283676485471503, 6.41488243350431 ], [ 100.283910170213929, 6.415443065795693 ], [ 100.284173060807717, 6.41599077563017 ], [ 100.284464436688054, 6.416524061817137 ], [ 100.284783499213873, 6.417041462703724 ], [ 100.285129373856961, 6.417541560180554 ], [ 100.285501112598993, 6.418022983568074 ], [ 100.285897696529887, 6.41848441337297 ], [ 100.286318038640658, 6.418924584904225 ], [ 100.286760986802832, 6.419342291738848 ], [ 100.287225326926247, 6.419736389028052 ], [ 100.287709786286925, 6.420105796634577 ], [ 100.28821303701541, 6.420449502092593 ], [ 100.288733699736468, 6.420766563382295 ], [ 100.289270347349742, 6.421056111511237 ], [ 100.289821508941444, 6.421317352895708 ], [ 100.290385673815933, 6.421549571535321 ], [ 100.290961295636549, 6.421752130975015 ], [ 100.291546796663837, 6.421924476049161 ], [ 100.292140572080228, 6.422066134402782 ], [ 100.292740994388552, 6.422176717785925 ], [ 100.293346417873025, 6.422255923117568 ], [ 100.293955183109915, 6.422303533316101 ], [ 100.294565621516057, 6.422319417894115 ], [ 100.29517605992217, 6.422303533316101 ], [ 100.295784825159075, 6.422255923117568 ], [ 100.296390248643547, 6.422176717785925 ], [ 100.296990670951871, 6.422066134402782 ], [ 100.297584446368248, 6.421924476049161 ], [ 100.298169947395564, 6.421752130975015 ], [ 100.298745569216166, 6.421549571535321 ], [ 100.299309734090656, 6.421317352895708 ], [ 100.299860895682357, 6.421056111511237 ], [ 100.300397543295617, 6.420766563382295 ], [ 100.300918206016675, 6.420449502092593 ], [ 100.30142145674516, 6.420105796634577 ], [ 100.301905916105852, 6.419736389028052 ], [ 100.302370256229267, 6.419342291738848 ], [ 100.302813204391427, 6.418924584904225 ], [ 100.303233546502213, 6.41848441337297 ], [ 100.303630130433106, 6.418022983568074 ], [ 100.304001869175124, 6.417541560180554 ], [ 100.304347743818226, 6.417041462703724 ], [ 100.304666806344045, 6.416524061817137 ], [ 100.304958182224368, 6.41599077563017 ], [ 100.305221072818156, 6.415443065795693 ], [ 100.305454757560597, 6.41488243350431 ], [ 100.305658595938027, 6.414310415370113 ], [ 100.305832029243632, 6.413728579219468 ], [ 100.305974582108774, 6.413138519793993 ], [ 100.306085863805947, 6.412541854379916 ], [ 100.306165569319774, 6.411940218375416 ], [ 100.306213480182961, 6.411335260808354 ], [ 100.306229465075205, 6.410728639816587 ] ] ] } },
{ "type": "Feature", "properties": { "state": "Perlis", "parlimen": "P.002 Arau", "code_parlimen": "P.002", "dun": "N.12 Sanglang", "code_dun": "N.12", "voters_total": 5882 }, "geometry": { "type": "Polygon", "coordinates": [ [ [ 100.213541699249362, 6.318326996045974 ], [ 100.213526580204899, 6.317753129790685 ], [ 100.213481264511785, 6.317180835829169 ], [ 100.21340587637718, 6.316611682787253 ], [ 100.213300622434716, 6.316047230686859 ], [ 100.213165791178128, 6.315489026669894 ], [ 100.213001752170527, 6.314938600757491 ], [ 100.21280895503142, 6.314397461656071 ], [ 100.212587928204371, 6.313867092621734 ], [ 100.21233927750859, 6.313348947394516 ], [ 100.212063684478267, 6.312844446213274 ], [ 100.211761904494807, 6.312354971922573 ], [ 100.211434764716159, 6.311881866181941 ], [ 100.211083161809654, 6.311426425787933 ], [ 100.210708059494522, 6.310989899119241 ], [ 100.210310485900081, 6.310573482714428 ], [ 100.209891530747896, 6.310178317991748 ], [ 100.209452342364955, 6.309805488120102 ], [ 100.20899412453609, 6.309456015049521 ], [ 100.208518133204493, 6.309130856709587 ], [ 100.208025673029326, 6.308830904383314 ], [ 100.207518093809725, 6.308556980263611 ], [ 100.206996786784998, 6.308309835199278 ], [ 100.20646318082153, 6.308090146636529 ], [ 100.205918738496123, 6.307898516761714 ], [ 100.205364952087351, 6.307735470850386 ], [ 100.204803339485309, 6.307601455827206 ], [ 100.204235440031056, 6.307496839040692 ], [ 100.203662810297558, 6.307421907256042 ], [ 100.203087019823073, 6.307376865868986 ], [ 100.202509646809304, 6.307361838342625 ], [ 100.201932273795535, 6.307376865868986 ], [ 100.201356483321049, 6.307421907256042 ], [ 100.200783853587552, 6.307496839040692 ], [ 100.200215954133299, 6.307601455827206 ], [ 100.199654341531257, 6.307735470850386 ], [ 100.199100555122484, 6.307898516761714 ], [ 100.198556112797078, 6.308090146636529 ], [ 100.19802250683361, 6.308309835199278 ], [ 100.197501199808883, 6.308556980263611 ], [ 100.196993620589282, 6.308830904383314 ], [ 100.196501160414115, 6.309130856709587 ], [ 100.196025169082517, 6.309456015049521 ], [ 100.195566951253653, 6.309805488120102 ], [ 100.195127762870698, 6.310178317991748 ], [ 100.194708807718527, 6.310573482714428 ], [ 100.194311234124072, 6.310989899119241 ], [ 100.19393613180894, 6.311426425787933 ], [ 100.193584528902448, 6.311881866181941 ], [ 100.193257389123801, 6.312354971922573 ], [ 100.192955609140341, 6.312844446213274 ], [ 100.192680016110018, 6.313348947394516 ], [ 100.192431365414222, 6.313867092621734 ], [ 100.192210338587188, 6.314397461656071 ], [ 100.192017541448081, 6.314938600757491 ], [ 100.19185350244048, 6.315489026669894 ], [ 100.191718671183892, 6.316047230686859 ], [ 100.191613417241427, 6.316611682787253 ], [ 100.191538029106823, 6.317180835829169 ], [ 100.191492713413709, 6.317753129790685 ], [ 100.191477594369246, 6.318326996045974 ], [ 100.191492713413709, 6.318900861664834 ], [ 100.191538029106823, 6.319473153724074 ], [ 100.191613417241427, 6.320042303618678 ], [ 100.191718671183892, 6.320606751361229 ], [ 100.19185350244048, 6.321164949857553 ], [ 100.192017541448081, 6.321715369146984 ], [ 100.192210338587188, 6.32225650059571 ], [ 100.192431365414222, 6.32278686103143 ], [ 100.192680016110018, 6.323304996808355 ], [ 100.192955609140341, 6.323809487791149 ], [ 100.193257389123801, 6.324298951246972 ], [ 100.193584528902448, 6.324772045635021 ], [ 100.19393613180894, 6.325227474283113 ], [ 100.194311234124072, 6.325663988941256 ], [ 100.194708807718527, 6.326080393202468 ], [ 100.195127762870698, 6.326475545781548 ], [ 100.195566951253653, 6.326848363642644 ], [ 100.196025169082517, 6.32719782496731 ], [ 100.196501160414115, 6.327522971954648 ], [ 100.196993620589282, 6.327822913446057 ], [ 100.197501199808883, 6.328096827367311 ], [ 100.19802250683361, 6.328343962981325 ], [ 100.198556112797078, 6.32856364294547 ], [ 100.199100555122484, 6.32875526516759 ], [ 100.199654341531257, 6.328918304455961 ], [ 100.200215954133299, 6.329052313958499 ], [ 100.200783853587552, 6.329156926387169 ], [ 100.201356483321049, 6.329231855024508 ], [ 100.201932273795535, 6.329276894509275 ], [ 100.202509646809304, 6.32929192139922 ], [ 100.203087019823073, 6.329276894509275 ], [ 100.203662810297558, 6.329231855024508 ], [ 100.204235440031056, 6.329156926387169 ], [ 100.204803339485309, 6.329052313958499 ], [ 100.205364952087351, 6.328918304455961 ], [ 100.205918738496123, 6.32875526516759 ], [ 100.20646318082153, 6.32856364294547 ], [ 100.206996786784998, 6.328343962981325 ], [ 100.207518093809725, 6.328096827367311 ], [ 100.208025673029326, 6.327822913446057 ], [ 100.208518133204493, 6.327522971954648 ], [ 100.20899412453609, 6.32719782496731 ], [ 100.209452342364955, 6.326848363642644 ], [ 100.209891530747896, 6.326475545781548 ], [ 100.210310485900081, 6.326080393202468 ], [ 100.210708059494522, 6.325663988941256 ], [ 100.211083161809654, 6.325227474283113 ], [ 100.211434764716159, 6.324772045635021 ], [ 100.211761904494807, 6.324298951246972 ], [ 100.212063684478267, 6.323809487791149 ], [ 100.21233927750859, 6.323304996808355 ], [ 100.212587928204371, 6.32278686103143 ], [ 100.21280895503142, 6.32225650059571 ], [ 100.213001752170527, 6.321715369146984 ], [ 100.213165791178128, 6.321164949857553 ], [ 100.213300622434716, 6.320606751361229 ], [ 100.21340587637718, 6.320042303618678 ], [ 100.213481264511785, 6.319473153724074 ], [ 100.213526580204899, 6.318900861664834 ], [ 100.213541699249362, 6.318326996045974 ] ] ] } }
]
}
