{"type":"Topology","objects":{"JHR_SE-01":{"type":"GeometryCollection","geometries":[{"type":"Polygon","arcs":[[0,1,2,3,4,5,6,7]],"properties":{"state":"Johor","parlimen":"P.089 Muar Dalam","code_parlimen":"P.089","dun":"N.01 Bukit Serampang","code_dun":"N.01"}},{"type":"Polygon","arcs":[[8,9,10,11,-8]],"properties":{"state":"Johor","parlimen":"P.089 Muar Dalam","code_parlimen":"P.089","dun":"N.02 Jorak","code_dun":"N.02"}},{"type":"Polygon","arcs":[[-4,12,13,14,15]],"properties":{"state":"Johor","parlimen":"P.090 Segamat Selatan","code_parlimen":"P.090","dun":"N.03 Labis","code_dun":"N.03"}},{"type":"Polygon","arcs":[[16,17,18,19,20,-5,-16]],"properties":{"state":"Johor","parlimen":"P.090 Segamat Selatan","code_parlimen":"P.090","dun":"N.04 Bekok","code_dun":"N.04"}},{"type":"Polygon","arcs":[[21,22,23,-11,24]],"properties":{"state":"Johor","parlimen":"P.091 Muar Pantai","code_parlimen":"P.091","dun":"N.05 Bandar Maharani","code_dun":"N.05"}},{"type":"Polygon","arcs":[[-10,25,26,27,-25]],"properties":{"state":"Johor","parlimen":"P.091 Muar Pantai","code_parlimen":"P.091","dun":"N.06 Parit Bakar","code_dun":"N.06"}},{"type":"Polygon","arcs":[[28,-27,29]],"properties":{"state":"Johor","parlimen":"P.092 Muar Selatan","code_parlimen":"P.092","dun":"N.07 Parit Jawa","code_dun":"N.07"}},{"type":"Polygon","arcs":[[-26,-9,-7,30,31,32,33,-30]],"properties":{"state":"Johor","parlimen":"P.092 Muar Selatan","code_parlimen":"P.092","dun":"N.08 Simpang Kiri","code_dun":"N.08"}},{"type":"Polygon","arcs":[[-32,34,35,36]],"properties":{"state":"Johor","parlimen":"P.093 Batu Pahat","code_parlimen":"P.093","dun":"N.09 Broleh","code_dun":"N.09"}},{"type":"Polygon","arcs":[[37,38,-33,-37]],"properties":{"state":"Johor","parlimen":"P.093 Batu Pahat","code_parlimen":"P.093","dun":"N.10 Bandar Penggaram","code_dun":"N.10"}},{"type":"Polygon","arcs":[[-35,-31,-6,-21,39,40,41]],"properties":{"state":"Johor","parlimen":"P.094 Batu Pahat Dalam","code_parlimen":"P.094","dun":"N.11 Tanjong Sembrong","code_dun":"N.11"}},{"type":"Polygon","arcs":[[42,43,-38,-36,-42]],"properties":{"state":"Johor","parlimen":"P.094 Batu Pahat Dalam","code_parlimen":"P.094","dun":"N.12 Ayer Hitam","code_dun":"N.12"}},{"type":"Polygon","arcs":[[-19,44,45,46,47]],"properties":{"state":"Johor","parlimen":"P.095 Kluang Utara","code_parlimen":"P.095","dun":"N.13 Gunong Lambak","code_dun":"N.13"}},{"type":"Polygon","arcs":[[48,49,-40,-20,-48]],"properties":{"state":"Johor","parlimen":"P.095 Kluang Utara","code_parlimen":"P.095","dun":"N.14 Sri Lalang","code_dun":"N.14"}},{"type":"Polygon","arcs":[[50,51,52,53,-46,54,55]],"properties":{"state":"Johor","parlimen":"P.096 Johore Tenggara","code_parlimen":"P.096","dun":"N.15 Kota Tinggi","code_dun":"N.15"}},{"type":"Polygon","arcs":[[56,57,58,-56]],"properties":{"state":"Johor","parlimen":"P.096 Johore Tenggara","code_parlimen":"P.096","dun":"N.16 Johore Lama","code_dun":"N.16"}},{"type":"Polygon","arcs":[[59,-43,-41,-50,60,61]],"properties":{"state":"Johor","parlimen":"P.097 Pontian Utara","code_parlimen":"P.097","dun":"N.17 Rengit","code_dun":"N.17"}},{"type":"Polygon","arcs":[[62,63,64,65,-62]],"properties":{"state":"Johor","parlimen":"P.097 Pontian Utara","code_parlimen":"P.097","dun":"N.18 Benut","code_dun":"N.18"}},{"type":"MultiPolygon","arcs":[[[-64,66,67,68,69,70]],[[71]]],"properties":{"state":"Johor","parlimen":"P.098 Pontian Selatan","code_parlimen":"P.098","dun":"N.19 Pontian Dalam","code_dun":"N.19"}},{"type":"Polygon","arcs":[[72,-65,-71]],"properties":{"state":"Johor","parlimen":"P.098 Pontian Selatan","code_parlimen":"P.098","dun":"N.20 Pontian Kechil","code_dun":"N.20"}},{"type":"Polygon","arcs":[[-67,-63,-61,-49,-47,-54,73]],"properties":{"state":"Johor","parlimen":"P.099 Kluang Selatan","code_parlimen":"P.099","dun":"N.21 Rengam","code_dun":"N.21"}},{"type":"Polygon","arcs":[[-53,74,-68,-74]],"properties":{"state":"Johor","parlimen":"P.099 Kluang Selatan","code_parlimen":"P.099","dun":"N.22 Senai-Kulai","code_dun":"N.22"}},{"type":"Polygon","arcs":[[75,-51,-59,76,77]],"properties":{"state":"Johor","parlimen":"P.100 Johore Bahru Timor","code_parlimen":"P.100","dun":"N.23 Plentong","code_dun":"N.23"}},{"type":"Polygon","arcs":[[78,79,80,-78]],"properties":{"state":"Johor","parlimen":"P.100 Johore Bahru Timor","code_parlimen":"P.100","dun":"N.24 Tanjong Petri","code_dun":"N.24"}},{"type":"Polygon","arcs":[[81,-69,-75,-52,-76,-81,82]],"properties":{"state":"Johor","parlimen":"P.101 Johore Bahru Barat","code_parlimen":"P.101","dun":"N.25 Gelang Patah","code_dun":"N.25"}},{"type":"Polygon","arcs":[[-80,83,-83]],"properties":{"state":"Johor","parlimen":"P.101 Johore Bahru Barat","code_parlimen":"P.101","dun":"N.26 Tampoi","code_dun":"N.26"}},{"type":"MultiPolygon","arcs":[[[-18,84,85,-45]],[[86]]],"properties":{"state":"Johor","parlimen":"P.102 Johore Timor","code_parlimen":"P.102","dun":"N.27 Endau","code_dun":"N.27"}},{"type":"MultiPolygon","arcs":[[[87]],[[88]],[[89]],[[90]],[[91]],[[92]],[[93]],[[94]],[[95]],[[96,-57,-55,-86]]],"properties":{"state":"Johor","parlimen":"P.102 Johore Timor","code_parlimen":"P.102","dun":"N.28 Mersing","code_dun":"N.28"}},{"type":"Polygon","arcs":[[97,98,-14,99]],"properties":{"state":"Johor","parlimen":"P.103 Segamat Utara","code_parlimen":"P.103","dun":"N.29 Batu Anam","code_dun":"N.29"}},{"type":"Polygon","arcs":[[-13,-3,100,-100]],"properties":{"state":"Johor","parlimen":"P.103 Segamat Utara","code_parlimen":"P.103","dun":"N.30 Bandar Segamat","code_dun":"N.30"}},{"type":"Polygon","arcs":[[-23,101,-98,-101,-2,102]],"properties":{"state":"Johor","parlimen":"P.104 Muar Utara","code_parlimen":"P.104","dun":"N.31 Tangkak","code_dun":"N.31"}},{"type":"Polygon","arcs":[[-1,-12,-24,-103]],"properties":{"state":"Johor","parlimen":"P.104 Muar Utara","code_parlimen":"P.104","dun":"N.32 Serom","code_dun":"N.32"}}]}},"arcs":[[[102.688783,2.175947],[102.689615,2.184269],[102.688284,2.196086],[102.688783,2.210067],[102.677632,2.219887],[102.67397,2.229374],[102.678131,2.234035],[102.688949,2.235865],[102.694941,2.242024],[102.698936,2.249514],[102.707258,2.256671],[102.709089,2.268488],[102.715913,2.287296]],[[102.715913,2.287296],[102.719408,2.295118],[102.714914,2.299945],[102.713416,2.313094],[102.712085,2.346549],[102.712917,2.36053],[102.724901,2.400475],[102.730343,2.41136]],[[102.730343,2.41136],[102.742668,2.412085],[102.749326,2.414415],[102.761642,2.415081],[102.7683,2.412418],[102.77296,2.409422],[102.777288,2.407757],[102.784278,2.4011],[102.7926,2.396772],[102.800257,2.396772],[102.80525,2.394442],[102.810243,2.384788]],[[102.810243,2.384788],[102.809702,2.378422],[102.811034,2.374427],[102.815861,2.372763],[102.818191,2.371931],[102.818191,2.369101],[102.822851,2.368935],[102.827678,2.377756],[102.831506,2.380586],[102.834502,2.382749],[102.839994,2.377923],[102.844488,2.378588],[102.847817,2.383082],[102.849648,2.391904],[102.852977,2.396231],[102.854808,2.397896],[102.857471,2.405718],[102.860134,2.409047],[102.866791,2.413042],[102.870952,2.415538],[102.876778,2.415538],[102.879441,2.410878],[102.884434,2.403555],[102.90191,2.398561],[102.909733,2.397563],[102.918887,2.390572],[102.923714,2.380419],[102.934034,2.362777],[102.939692,2.358116],[102.949512,2.354621],[102.957335,2.349295],[102.964991,2.335813],[102.973646,2.333483],[102.982634,2.334648],[103.023912,2.302858]],[[103.023912,2.302858],[103.016755,2.289543],[102.959602,2.197421]],[[102.959602,2.197421],[102.919324,2.132253]],[[102.919324,2.132253],[102.900912,2.102463],[102.898915,2.100133],[102.894878,2.090979],[102.889386,2.080493],[102.879066,2.089814],[102.87374,2.087983],[102.869003,2.08139],[102.869954,2.074335],[102.779743,2.078496],[102.770755,2.065513],[102.767093,2.063183],[102.761767,2.05586],[102.742765,2.048492]],[[102.742765,2.048492],[102.746578,2.063623],[102.745586,2.084454],[102.749554,2.097349],[102.743721,2.107955],[102.729933,2.11644],[102.728342,2.124925],[102.728342,2.134471],[102.753797,2.142425],[102.766524,2.142955],[102.767585,2.15144],[102.763872,2.174243],[102.752736,2.180076],[102.758569,2.189092],[102.775009,2.20394],[102.791448,2.209243],[102.804175,2.226213],[102.798872,2.230985],[102.784024,2.231516],[102.760691,2.231516],[102.755388,2.210304],[102.740539,2.198637],[102.733115,2.198637],[102.728873,2.187501],[102.715615,2.187501],[102.725691,2.207122],[102.723039,2.215607],[102.707661,2.210304],[102.688783,2.175947]],[[102.742765,2.048492],[102.738219,2.046729]],[[102.738219,2.046729],[102.729145,2.04321],[102.710504,2.038217],[102.697521,2.026566],[102.683873,2.024569],[102.662569,2.029229],[102.65175,2.030394],[102.641764,2.032725],[102.627283,2.044209],[102.598322,2.043543],[102.596825,2.050201],[102.597324,2.052697],[102.603316,2.05536],[102.607144,2.056858],[102.612137,2.058024],[102.615799,2.061019],[102.602484,2.070839],[102.595327,2.073503],[102.587337,2.082324],[102.576352,2.084987]],[[102.576352,2.084987],[102.572191,2.089647],[102.574355,2.097137],[102.576403,2.103013]],[[102.576403,2.103013],[102.579931,2.100882],[102.589751,2.089897],[102.602067,2.088233],[102.608725,2.093725],[102.608059,2.099051],[102.598239,2.101548],[102.591249,2.107706],[102.591249,2.115196],[102.594578,2.122852],[102.597407,2.12951],[102.598905,2.136833],[102.60007,2.143158],[102.603399,2.149649],[102.610057,2.150481],[102.619544,2.148318],[102.622706,2.145821],[102.626201,2.143324],[102.626035,2.139496],[102.620542,2.135002],[102.614051,2.128345],[102.610556,2.120522],[102.613052,2.112866],[102.617713,2.112533],[102.625536,2.121354],[102.627533,2.123352],[102.634357,2.126347],[102.643012,2.127513],[102.648671,2.132006],[102.643844,2.14166],[102.643345,2.148983],[102.645841,2.15897],[102.640515,2.164795],[102.640848,2.176779],[102.646674,2.181939],[102.653498,2.181273],[102.665481,2.172119],[102.675468,2.172618],[102.688783,2.175947]],[[102.810243,2.384788],[102.818898,2.396106],[102.818898,2.403763],[102.810576,2.419741],[102.810576,2.437717],[102.803918,2.444374],[102.802254,2.45203],[102.791602,2.459354],[102.784944,2.46934],[102.784944,2.476997],[102.797594,2.478661],[102.808912,2.48432],[102.814904,2.490645],[102.836042,2.49414],[102.846361,2.499133],[102.845695,2.50396],[102.839703,2.505624],[102.832047,2.50862],[102.830549,2.516776],[102.823226,2.517775],[102.812573,2.517941],[102.805416,2.516443],[102.798426,2.518607]],[[102.798426,2.518607],[102.798426,2.521936],[102.809245,2.527927],[102.829384,2.530757],[102.841867,2.532754],[102.850688,2.535084],[102.860841,2.543739],[102.878317,2.549398],[102.88897,2.562214],[102.974748,2.59223]],[[102.974748,2.59223],[103.055133,2.557454],[103.14597,2.518155],[103.154698,2.52166]],[[103.154698,2.52166],[103.023912,2.302858]],[[103.154698,2.52166],[103.289038,2.575624]],[[103.289038,2.575624],[103.376396,2.386621],[103.452871,2.221884]],[[103.452871,2.221884],[103.43423,2.221884],[103.385629,2.175281],[103.327375,2.121021],[103.312728,2.114031],[103.295751,2.09772],[103.287429,2.090063]],[[103.287429,2.090063],[103.279107,2.081741],[103.282436,2.071089],[103.270452,2.065763],[103.265126,2.07009],[103.251811,2.062101],[103.253475,2.055111],[103.244154,2.051116],[103.242157,2.053446],[103.229507,2.04812],[103.231505,2.041463],[103.217857,2.031476]],[[103.217857,2.031476],[103.181,2.08379],[103.1716,2.095521],[103.1707,2.10358],[103.167503,2.146279],[103.165596,2.15066],[103.106781,2.166201],[103.103821,2.167001],[103.085297,2.16482],[103.009796,2.162981],[103.002998,2.16528],[102.993896,2.16768],[102.987999,2.171131],[102.961296,2.195531],[102.959602,2.197421]],[[102.562119,2.048656],[102.55222,2.057988],[102.539893,2.058735],[102.532422,2.068068],[102.51692,2.08188],[102.502165,2.090652],[102.489278,2.098305],[102.48685,2.10745],[102.481434,2.11193],[102.481247,2.116783],[102.488718,2.121076],[102.502726,2.119396],[102.499177,2.126115],[102.504407,2.127421],[102.506835,2.122009],[102.516734,2.119769],[102.522337,2.121449]],[[102.522337,2.121449],[102.532662,2.11453],[102.536823,2.107373],[102.547641,2.09955]],[[102.547641,2.09955],[102.552508,2.099734],[102.556463,2.099883],[102.56362,2.102214],[102.567614,2.105875],[102.571942,2.105709],[102.576403,2.103013]],[[102.576352,2.084987],[102.576329,2.069217],[102.570343,2.064727],[102.570842,2.057743],[102.562119,2.048656]],[[102.738219,2.046729],[102.740588,2.035887],[102.74841,2.0259],[102.757398,2.023237],[102.76855,2.013417],[102.767551,2.007426]],[[102.767551,2.007426],[102.734263,1.994942],[102.727106,1.981627],[102.715622,1.98662],[102.703638,1.982127],[102.686162,1.986288],[102.681834,1.995275],[102.674011,2.00393],[102.667687,2.002765],[102.60802,1.969651]],[[102.60802,1.969651],[102.595552,1.981273],[102.552736,2.020666],[102.548485,2.024577],[102.542135,2.03503],[102.546991,2.047163],[102.555582,2.049402],[102.562119,2.048656]],[[102.827958,1.849205],[102.812581,1.856485],[102.775227,1.864699],[102.744223,1.867406],[102.729654,1.865539],[102.723304,1.861245],[102.710417,1.851352],[102.683335,1.871139],[102.646541,1.925087],[102.614976,1.963166],[102.60802,1.969651]],[[102.767551,2.007426],[102.774373,1.984144],[102.784493,1.959857],[102.805744,1.954798],[102.821935,1.94063],[102.834079,1.927475],[102.841162,1.903188],[102.841162,1.884973],[102.835091,1.866757],[102.827958,1.849205]],[[102.919324,2.132253],[102.939068,2.117942],[102.958375,2.097969],[102.977017,2.088982],[103.022289,2.049369],[103.010638,2.035388],[103.00165,2.030061],[102.992662,2.015748],[102.996324,2.010089],[103.000319,2.00676],[103.005312,2.007093],[103.026949,1.963485],[103.020957,1.955163],[103.003314,1.948506],[102.978015,1.95017],[102.9647,1.947507],[102.957044,1.953832],[102.946392,1.960156],[102.939734,1.961821],[102.931079,1.957826]],[[102.931079,1.957826],[102.924754,1.954664],[102.919095,1.949837],[102.915267,1.943512],[102.913104,1.93802],[102.908776,1.931529],[102.913104,1.91605],[102.912937,1.902401],[102.912105,1.889419],[102.906612,1.885924],[102.888803,1.877102],[102.883644,1.870944],[102.882811,1.861124],[102.88897,1.853801],[102.896792,1.84964],[102.905281,1.841651],[102.906113,1.828335]],[[102.906113,1.828335],[102.900454,1.82251],[102.895294,1.82018],[102.886917,1.812429]],[[102.886917,1.812429],[102.848068,1.839684],[102.827958,1.849205]],[[102.931079,1.957826],[102.937404,1.92587],[102.944062,1.911223],[102.953382,1.905231],[102.968695,1.903234],[102.98434,1.889253],[102.993994,1.886922],[102.995924,1.883706],[102.997988,1.880265]],[[102.997988,1.880265],[102.992662,1.873607],[102.983009,1.869613],[102.989333,1.846977],[102.98221,1.839394],[102.979014,1.835992]],[[102.979014,1.835992],[102.967577,1.847161],[102.952052,1.858635],[102.941928,1.858635],[102.935178,1.85796],[102.935178,1.844461],[102.921004,1.830287],[102.906113,1.828335]],[[102.979014,1.835992],[102.987003,1.822011],[102.984673,1.812024],[102.97735,1.806698],[102.975685,1.803036],[102.964034,1.794381],[102.957044,1.782731],[102.95677,1.74205]],[[102.95677,1.74205],[102.936598,1.736823],[102.885423,1.791708],[102.886917,1.812429]],[[103.217857,2.031476],[103.238403,2.00064],[103.239197,1.99845],[103.248703,1.992711],[103.251297,1.991451],[103.254799,1.98823],[103.255402,1.983159],[103.252098,1.9797],[103.2351,1.968969],[103.229301,1.966091],[103.215693,1.964983],[103.211033,1.963319],[103.20787,1.955995],[103.207537,1.949171],[103.205041,1.943179],[103.199715,1.939018],[103.191892,1.936522],[103.184568,1.931529],[103.182571,1.927534],[103.183903,1.92304],[103.189903,1.92044],[103.197052,1.914552],[103.202544,1.912221],[103.200401,1.9094],[103.196885,1.903566],[103.194222,1.89874],[103.190061,1.892082],[103.19289,1.884259],[103.197197,1.87728],[103.20088,1.874273],[103.194888,1.858627],[103.194128,1.845513]],[[103.194128,1.845513],[103.17375,1.835992],[103.170271,1.834453]],[[103.170271,1.834453],[103.157687,1.851364],[103.14529,1.873402],[103.131516,1.892686],[103.143913,1.903705],[103.149422,1.914725],[103.148045,1.928499],[103.132894,1.934008],[103.117742,1.927121],[103.099836,1.913347],[103.086062,1.910592],[103.077797,1.905083],[103.064023,1.910592],[103.044739,1.913347],[103.036475,1.909215],[103.029588,1.891309],[103.040607,1.878912],[103.03372,1.878912],[103.014436,1.883044],[102.997988,1.880265]],[[103.170271,1.834453],[103.15644,1.828335],[103.148118,1.828002],[103.137799,1.821678],[103.124483,1.821678],[103.108505,1.808362],[103.098186,1.806365],[103.069891,1.804368],[103.058906,1.803702],[103.059904,1.797044],[103.06057,1.787058],[103.05358,1.77341],[103.048586,1.761759],[103.051915,1.755434],[103.061569,1.754768],[103.060903,1.749442],[103.053912,1.73413],[103.057241,1.725808],[103.058906,1.721147],[103.054824,1.712109]],[[103.054824,1.712109],[103.052024,1.714047],[103.003463,1.735329],[102.975074,1.742797],[102.95677,1.74205]],[[103.452871,2.221884],[103.490986,2.139829],[103.562599,2.041391]],[[103.562599,2.041391],[103.563797,2.033781],[103.567299,1.936061],[103.562599,1.93617],[103.553596,1.934541],[103.552902,1.906911]],[[103.552902,1.906911],[103.521777,1.885924],[103.50014,1.907561],[103.470181,1.891583],[103.462192,1.895577],[103.46086,1.903899],[103.457531,1.907561],[103.443217,1.919878],[103.442885,1.933193],[103.436227,1.939851],[103.393618,1.912887],[103.378971,1.907894],[103.346682,1.888254],[103.334698,1.891583],[103.320051,1.889585],[103.318054,1.890251],[103.315391,1.89591],[103.315058,1.900571],[103.324712,1.902235],[103.328706,1.909891],[103.324379,1.913553],[103.316722,1.913886],[103.30607,1.918213]],[[103.30607,1.918213],[103.303355,1.929307],[103.302681,1.946814],[103.285174,1.950181],[103.284501,1.970381],[103.283828,1.973075],[103.295275,1.984522],[103.314128,2.000682],[103.319515,2.006742],[103.312782,2.022902],[103.324229,2.039736],[103.324229,2.04849],[103.310762,2.053876],[103.298641,2.071383],[103.287429,2.090063]],[[103.30607,1.918213],[103.298414,1.915883],[103.266124,1.897575],[103.26912,1.889253],[103.276777,1.882262],[103.276777,1.874939],[103.272449,1.864952],[103.286763,1.852303],[103.283767,1.816352],[103.253808,1.812357],[103.254806,1.769082]],[[103.254806,1.769082],[103.224098,1.774511],[103.219398,1.773581],[103.193497,1.783329],[103.190781,1.787692],[103.194128,1.845513]],[[103.908211,1.673972],[103.9049,1.672791],[103.903603,1.670831],[103.902397,1.664039],[103.902298,1.66024],[103.900597,1.65598],[103.876796,1.63102],[103.886398,1.62833],[103.890099,1.626951],[103.8965,1.621321],[103.895996,1.618441],[103.888298,1.607261],[103.882301,1.60702],[103.879097,1.60563],[103.874603,1.6039],[103.868599,1.604351],[103.863503,1.602961],[103.860802,1.60204],[103.858398,1.601461],[103.855598,1.601231],[103.850601,1.601792],[103.846001,1.602819],[103.812599,1.62799],[103.780899,1.639461],[103.776802,1.641291],[103.757328,1.64169]],[[103.757328,1.64169],[103.734901,1.64215],[103.731234,1.647426]],[[103.731234,1.647426],[103.660301,1.749461],[103.659599,1.755911],[103.651701,1.770485]],[[103.651701,1.770485],[103.64511,1.782647],[103.645798,1.79091],[103.6381,1.800541],[103.637703,1.804461],[103.6283,1.820762],[103.619977,1.826588],[103.609159,1.83208],[103.600337,1.850555],[103.590185,1.856547],[103.586356,1.861374],[103.580696,1.87506],[103.574303,1.883231],[103.570396,1.884949],[103.565796,1.885979],[103.560699,1.88643],[103.552902,1.906911]],[[103.562599,2.041391],[103.748303,2.044292],[103.808888,1.861873],[103.817543,1.852885],[103.834853,1.847892],[103.86581,1.830582],[103.877794,1.832912],[103.888779,1.835243],[103.901429,1.83258],[103.934384,1.793299],[103.948365,1.791302],[103.956021,1.790636],[103.966008,1.780317],[103.972665,1.771329],[103.989642,1.772994],[103.998297,1.784312]],[[103.998297,1.784312],[104.00677,1.770535],[104.012745,1.750222],[104.017524,1.733493],[104.003186,1.733493],[103.994821,1.743053],[103.994821,1.750222],[103.972118,1.747832],[103.962559,1.747832],[103.958974,1.734688],[103.949415,1.711985],[103.938661,1.701231],[103.927907,1.689282],[103.921932,1.680918],[103.908211,1.673972]],[[103.998297,1.784312],[104.004955,1.790636],[104.057883,1.81294],[104.060879,1.823592],[104.083848,1.824923],[104.132223,1.849391]],[[104.132223,1.849391],[104.148659,1.844911],[104.151648,1.854618],[104.162854,1.846405],[104.158371,1.835951],[104.170325,1.810563],[104.188255,1.788161],[104.200956,1.754558],[104.199835,1.744103],[104.200769,1.738503],[104.221314,1.710313],[104.214403,1.703405],[104.214216,1.697805],[104.227104,1.677082],[104.241298,1.658786],[104.24933,1.653372],[104.250264,1.647211],[104.245034,1.639556],[104.247088,1.630408],[104.26203,1.614912],[104.265766,1.609125],[104.256987,1.601097],[104.255867,1.60315],[104.254373,1.60091],[104.253812,1.594936],[104.260349,1.58336],[104.264645,1.58336],[104.263524,1.578506],[104.260349,1.579813],[104.254559,1.56357],[104.268754,1.540605],[104.279213,1.531457],[104.280707,1.526789],[104.282762,1.524735],[104.28575,1.510732],[104.282762,1.504571],[104.279774,1.507558],[104.275851,1.504944],[104.273423,1.496916],[104.274357,1.486087],[104.282762,1.467229],[104.290697,1.454197],[104.295836,1.445757],[104.294342,1.441089],[104.29733,1.43306],[104.293595,1.433247],[104.288552,1.438662],[104.279027,1.432687],[104.274918,1.425032],[104.274544,1.411962],[104.279774,1.382273],[104.281828,1.379846],[104.283696,1.380406],[104.283509,1.36827],[104.2794,1.368456],[104.276038,1.363415],[104.26091,1.358373],[104.251758,1.358],[104.251384,1.367336],[104.246528,1.368643],[104.240551,1.366589],[104.22617,1.349971],[104.228224,1.347544],[104.225049,1.346423],[104.218699,1.348477],[104.216084,1.348851],[104.200956,1.336714],[104.193298,1.344556],[104.183399,1.348291],[104.164722,1.342129],[104.159305,1.342876],[104.156877,1.346423],[104.137453,1.341382],[104.129982,1.350905],[104.12662,1.35632],[104.112239,1.360054],[104.10813,1.363788],[104.087958,1.36883],[104.096923,1.382834],[104.106822,1.390863],[104.111305,1.391796],[104.112986,1.401319],[104.11504,1.40692],[104.113172,1.409908],[104.105515,1.4058],[104.098791,1.418123],[104.089266,1.429139],[104.07339,1.439409],[104.066293,1.442956],[104.058448,1.444076],[104.056207,1.449304],[104.02783,1.452675]],[[104.02783,1.452675],[104.023263,1.521169],[104.012944,1.565775],[103.982985,1.588411],[103.972832,1.615041],[103.972998,1.627524],[103.972,1.638343],[103.970668,1.641173],[103.96684,1.644834],[103.949863,1.65016],[103.941208,1.652491],[103.928392,1.656485],[103.925179,1.66111],[103.925011,1.661352],[103.922096,1.663599],[103.912598,1.672461],[103.908211,1.673972]],[[103.209867,1.613572],[103.185006,1.623314],[103.136072,1.652438],[103.08116,1.693884],[103.054824,1.712109]],[[103.254806,1.769082],[103.304073,1.746779]],[[103.304073,1.746779],[103.294494,1.728505],[103.287813,1.717052],[103.266816,1.722778],[103.264907,1.697963],[103.251545,1.711325],[103.235319,1.72755],[103.215276,1.73614],[103.213367,1.728505],[103.20955,1.713234],[103.203823,1.697009],[103.211459,1.689373],[103.221003,1.675057],[103.221957,1.656923],[103.222912,1.629244],[103.209867,1.613572]],[[103.304073,1.746779],[103.304874,1.746433],[103.31639,1.741453],[103.378998,1.70417],[103.42158,1.662227]],[[103.42158,1.662227],[103.405602,1.637594],[103.393285,1.630271],[103.389291,1.621949],[103.393951,1.612295],[103.390622,1.608633],[103.387293,1.606303],[103.402606,1.59665],[103.394617,1.582336],[103.375975,1.579007],[103.379304,1.568022],[103.393285,1.54705]],[[103.393285,1.54705],[103.398611,1.542057],[103.387626,1.528742],[103.371606,1.514634]],[[103.371606,1.514634],[103.370471,1.517267],[103.35609,1.537618],[103.335171,1.555541],[103.287918,1.582987],[103.209867,1.613572]],[[103.42158,1.662227],[103.448031,1.635885]],[[103.448031,1.635885],[103.494797,1.589311],[103.498901,1.584709],[103.504196,1.584611],[103.50763,1.583667]],[[103.50763,1.583667],[103.507963,1.57701],[103.508129,1.570352],[103.506798,1.563528],[103.509794,1.558202],[103.51279,1.544387],[103.518282,1.535566],[103.525273,1.532736],[103.533262,1.526578],[103.539587,1.524414],[103.553068,1.521585],[103.557729,1.522251],[103.560725,1.523249],[103.565218,1.525746],[103.567216,1.526412],[103.570545,1.526578],[103.573041,1.526079],[103.575371,1.519754],[103.574872,1.503443],[103.575038,1.49612],[103.579532,1.487797],[103.579865,1.482971],[103.576869,1.480807],[103.572542,1.479475],[103.567549,1.479309],[103.563721,1.478643],[103.557895,1.47648],[103.555232,1.471486],[103.554733,1.467492],[103.5539,1.461167],[103.550072,1.444689],[103.547409,1.429876],[103.54225,1.415562],[103.539753,1.407906],[103.535259,1.387101],[103.537423,1.378779],[103.53942,1.371455],[103.537913,1.359494]],[[103.537913,1.359494],[103.548185,1.332046],[103.523531,1.315801],[103.513072,1.301236],[103.510644,1.283684],[103.514006,1.262397],[103.506535,1.261464],[103.487297,1.281444],[103.471422,1.301423],[103.453118,1.317481],[103.440604,1.322336],[103.431452,1.353892],[103.4322,1.358373]],[[103.4322,1.358373],[103.443035,1.357542],[103.455005,1.340968],[103.475261,1.334523],[103.481706,1.354779],[103.484469,1.362145],[103.47434,1.363987],[103.462371,1.381481],[103.467895,1.398055],[103.479865,1.420153],[103.458688,1.415549],[103.455925,1.42844],[103.469737,1.439489],[103.47342,1.456062],[103.476182,1.479081],[103.468816,1.491972],[103.470657,1.513149],[103.46145,1.529722],[103.447639,1.529722],[103.443955,1.546296],[103.427382,1.549058],[103.41265,1.549058],[103.393285,1.54705]],[[103.426331,1.335449],[103.426682,1.335094],[103.427048,1.334766],[103.427452,1.334476],[103.427818,1.334125],[103.428192,1.333763],[103.428596,1.333435],[103.428993,1.333118],[103.429459,1.332901],[103.429939,1.332721],[103.430405,1.332477],[103.430824,1.33217],[103.431213,1.331839],[103.431587,1.331479],[103.431976,1.331151],[103.432373,1.33083],[103.432732,1.330504],[103.43306,1.330139],[103.433403,1.329797],[103.4338,1.329531],[103.434189,1.329266],[103.434586,1.329025],[103.434967,1.328762],[103.435333,1.32843],[103.43576,1.328136],[103.436188,1.32786],[103.436607,1.327623],[103.436958,1.327233],[103.437302,1.32683],[103.437599,1.326456],[103.437843,1.326121],[103.438087,1.325861],[103.4384,1.325663],[103.438721,1.325499],[103.438835,1.325275],[103.438927,1.32502],[103.439102,1.32474],[103.439232,1.324409],[103.439453,1.324031],[103.439682,1.323511],[103.439781,1.322841],[103.439789,1.322094],[103.439522,1.321528],[103.439262,1.32095],[103.438942,1.320471],[103.438797,1.319951],[103.438629,1.3195],[103.438499,1.319069],[103.438362,1.318707],[103.438309,1.31831],[103.438202,1.317925],[103.43808,1.317508],[103.438057,1.317027],[103.438042,1.316521],[103.43795,1.31602],[103.437798,1.315541],[103.437691,1.315081],[103.437492,1.314687],[103.437248,1.314313],[103.437019,1.3139],[103.436745,1.313513],[103.436432,1.313153],[103.436111,1.312836],[103.435791,1.312578],[103.435471,1.312405],[103.435188,1.312223],[103.434921,1.312063],[103.434616,1.311926],[103.434273,1.311787],[103.433861,1.311671],[103.433403,1.311541],[103.432983,1.311311],[103.432549,1.311108],[103.432152,1.310919],[103.43174,1.310801],[103.431343,1.3106],[103.430786,1.31052],[103.430206,1.310331],[103.429588,1.310131],[103.429016,1.30983],[103.428528,1.309369],[103.428047,1.308941],[103.42762,1.308531],[103.427361,1.308047],[103.427116,1.30758],[103.426231,1.307074],[103.425652,1.306965],[103.425026,1.306917],[103.424431,1.30678],[103.423851,1.306653],[103.423317,1.306509],[103.422791,1.306406],[103.422256,1.306331],[103.421814,1.306103],[103.421341,1.305832],[103.421127,1.30562],[103.420898,1.305673],[103.420578,1.305871],[103.420212,1.306131],[103.41983,1.306386],[103.419479,1.306639],[103.419167,1.30691],[103.418877,1.307229],[103.418579,1.307601],[103.418198,1.307986],[103.418015,1.30831],[103.417931,1.309303],[103.418045,1.309702],[103.418053,1.310115],[103.418007,1.310511],[103.417809,1.310851],[103.417656,1.311229],[103.417587,1.311701],[103.417679,1.31225],[103.417542,1.312831],[103.417458,1.313431],[103.417236,1.313957],[103.417046,1.314475],[103.416954,1.31499],[103.416992,1.315491],[103.417236,1.315949],[103.41761,1.316348],[103.417931,1.316672],[103.418106,1.316982],[103.418098,1.317339],[103.418053,1.31775],[103.418106,1.31813],[103.418266,1.31849],[103.418327,1.318901],[103.418373,1.319341],[103.41851,1.31976],[103.418556,1.320177],[103.418373,1.320594],[103.418335,1.321023],[103.418381,1.321453],[103.418564,1.321884],[103.418617,1.322369],[103.418716,1.322871],[103.418861,1.32335],[103.418892,1.323837],[103.418938,1.32432],[103.419121,1.324756],[103.419167,1.325271],[103.419167,1.325822],[103.41925,1.326456],[103.419182,1.326944],[103.419182,1.32729],[103.418976,1.32778],[103.419113,1.328336],[103.41925,1.328756],[103.419388,1.328963],[103.419533,1.32938],[103.419456,1.330148],[103.419388,1.330636],[103.419319,1.33119],[103.419319,1.331819],[103.419388,1.332516],[103.419525,1.333004],[103.419533,1.333489],[103.419456,1.334048],[103.419319,1.334536],[103.419182,1.334953],[103.419113,1.335301],[103.419113,1.335721],[103.419044,1.336208],[103.418976,1.336555],[103.418907,1.336694],[103.418625,1.336765],[103.41835,1.33697],[103.418106,1.337248],[103.418106,1.337756],[103.418404,1.338351],[103.418594,1.338515],[103.418938,1.338802],[103.419586,1.3389],[103.420227,1.33893],[103.420425,1.338902],[103.421638,1.338362],[103.423294,1.337751],[103.423859,1.337562],[103.424431,1.337186],[103.424965,1.336703],[103.425453,1.336218],[103.425896,1.335789],[103.426331,1.335449]],[[103.4322,1.358373],[103.414083,1.395157],[103.407732,1.43026],[103.387934,1.476751],[103.371606,1.514634]],[[103.651701,1.770485],[103.639897,1.761474],[103.625261,1.752231],[103.606004,1.755312],[103.591368,1.752231],[103.583665,1.759163],[103.577503,1.756082],[103.568259,1.759934],[103.549002,1.745298],[103.537448,1.735284],[103.531285,1.742217],[103.526663,1.747609],[103.503555,1.732203],[103.515109,1.714486],[103.515879,1.694459],[103.506636,1.700621],[103.498933,1.695229],[103.503555,1.685215],[103.51742,1.678282],[103.525893,1.682134],[103.535907,1.675972],[103.539758,1.665958],[103.522042,1.665958],[103.500474,1.663647],[103.482757,1.659795],[103.448031,1.635885]],[[103.731234,1.647426],[103.717345,1.639591],[103.69654,1.62378],[103.700035,1.616956],[103.691713,1.611629],[103.68722,1.620284],[103.681228,1.615957],[103.683059,1.607136],[103.660755,1.590325],[103.653266,1.597316],[103.648272,1.590658],[103.65726,1.578341],[103.65776,1.568188],[103.658758,1.5597],[103.658425,1.549713],[103.64794,1.553542],[103.63812,1.548548],[103.628965,1.54988],[103.621642,1.563362],[103.61332,1.568521],[103.593513,1.565858],[103.591516,1.590325],[103.590684,1.602142],[103.567382,1.628107],[103.554067,1.631103],[103.545079,1.628273],[103.509461,1.590658],[103.50763,1.583667]],[[103.7751,1.511682],[103.776765,1.509684],[103.782257,1.507687],[103.788582,1.506356],[103.798236,1.497701],[103.800899,1.502028],[103.799567,1.511016],[103.808388,1.518006],[103.811551,1.523499],[103.798901,1.526329],[103.792743,1.530822],[103.786751,1.534983],[103.784088,1.538479],[103.786585,1.543805],[103.792077,1.549131],[103.799401,1.555456],[103.795406,1.564277],[103.786085,1.577093],[103.780426,1.590075],[103.777597,1.5964],[103.765613,1.598897],[103.760786,1.596067],[103.759288,1.592738],[103.754462,1.592572],[103.757328,1.64169]],[[104.02783,1.452675],[104.018479,1.453785],[104.006712,1.44669],[103.988782,1.4325],[103.969544,1.426525],[103.954789,1.427272],[103.922478,1.434554],[103.92061,1.429886],[103.888111,1.436048],[103.866446,1.465922],[103.815083,1.484593],[103.804251,1.481792],[103.794725,1.48534],[103.788935,1.476938],[103.782125,1.47019]],[[103.782125,1.47019],[103.781824,1.474401],[103.781824,1.480998],[103.780724,1.487963],[103.779625,1.493827],[103.777792,1.501891],[103.7751,1.511682]],[[103.782125,1.47019],[103.769643,1.457821],[103.767643,1.455839],[103.756997,1.453599]],[[103.756997,1.453599],[103.756792,1.493706],[103.752131,1.491542],[103.748636,1.482721],[103.741146,1.486882],[103.732658,1.505191],[103.734156,1.516509],[103.738351,1.518788],[103.741812,1.52067],[103.74847,1.521502]],[[103.74847,1.521502],[103.75313,1.520503],[103.76295,1.515676],[103.769275,1.514678],[103.7751,1.511682]],[[103.720763,1.465735],[103.708249,1.461254],[103.695175,1.455653],[103.696296,1.451172],[103.687891,1.445197],[103.687891,1.441836],[103.682288,1.442583],[103.672949,1.436981],[103.667159,1.421111],[103.650163,1.403373],[103.646428,1.388809],[103.637276,1.373871],[103.60347,1.343996],[103.54557,1.352398],[103.537913,1.359494]],[[103.74847,1.521502],[103.729812,1.537257],[103.709717,1.544912],[103.694406,1.5363],[103.685794,1.517162],[103.695363,1.498024],[103.703019,1.488455],[103.720763,1.465735]],[[103.756997,1.453599],[103.731036,1.45976],[103.720763,1.465735]],[[103.289038,2.575624],[103.352915,2.591297],[103.414176,2.557711],[103.447795,2.554353],[103.469834,2.527484],[103.607672,2.456578],[103.613649,2.462176],[103.623735,2.461056],[103.641665,2.486433],[103.632326,2.490912],[103.632326,2.506213],[103.618505,2.517781],[103.62747,2.531589],[103.623361,2.534575],[103.61589,2.531216],[103.607672,2.533455],[103.593478,2.527857],[103.590863,2.535694],[103.59796,2.542411],[103.594225,2.551368],[103.609914,2.565548],[103.612155,2.556965],[103.620373,2.556219],[103.618879,2.575624],[103.611781,2.578982],[103.603563,2.568907],[103.600575,2.580102],[103.610287,2.588311],[103.623361,2.58346],[103.628217,2.589431],[103.612902,2.598387],[103.630832,2.606596],[103.615143,2.621522],[103.625976,2.630105],[103.616264,2.636075],[103.618132,2.651001],[103.606178,2.650628],[103.605058,2.634583],[103.596466,2.637195],[103.591983,2.652121],[103.594598,2.662569],[103.604684,2.665554],[103.620373,2.656598],[103.640918,2.6663],[103.663798,2.667186],[103.682848,2.65338],[103.729915,2.63323],[103.746725,2.635096],[103.75046,2.651888],[103.767643,2.644425],[103.770258,2.628379],[103.761293,2.620543],[103.775488,2.611214],[103.782585,2.62017],[103.79155,2.614572],[103.781464,2.607482],[103.794165,2.594049],[103.812469,2.581734],[103.824422,2.585839],[103.828157,2.576883],[103.818819,2.573151],[103.822928,2.555612],[103.831893,2.54591],[103.825543,2.544417],[103.827784,2.534714],[103.83787,2.514936],[103.848329,2.506726],[103.845341,2.500382],[103.833761,2.502994],[103.819566,2.491052],[103.821807,2.482095],[103.83264,2.469033],[103.833014,2.453732],[103.841605,2.439177],[103.847132,2.435706],[103.849343,2.434318],[103.854679,2.430966],[103.859942,2.423583]],[[103.859942,2.423583],[103.838556,2.422247],[103.818869,2.428809],[103.807056,2.418309],[103.788681,2.420934],[103.774243,2.431434],[103.770306,2.444559],[103.757181,2.437997],[103.742743,2.431434],[103.726993,2.427497],[103.703368,2.414372],[103.682368,2.409122],[103.670556,2.402559],[103.653493,2.397309],[103.639056,2.392059],[103.616743,2.386809],[103.619368,2.367122],[103.621993,2.351372],[103.624618,2.332996],[103.624618,2.315934],[103.628556,2.293621],[103.618056,2.277871],[103.607556,2.266059],[103.604931,2.246371],[103.603618,2.225371],[103.597056,2.205684],[103.586556,2.179434],[103.586556,2.161059],[103.581306,2.146621],[103.581306,2.126934],[103.574743,2.104621],[103.569493,2.083621],[103.562931,2.066558],[103.562599,2.041391]],[[103.837627,2.478472],[103.841214,2.48407],[103.840429,2.486533],[103.842334,2.487989],[103.84536,2.486197],[103.848835,2.480935],[103.851091,2.480828],[103.851188,2.480823],[103.854999,2.47724],[103.855447,2.474105],[103.852197,2.474441],[103.851076,2.47556],[103.850174,2.475586],[103.847154,2.475672],[103.845024,2.478696],[103.837627,2.478472]],[[103.960188,2.474024],[103.959118,2.473958],[103.957105,2.474694],[103.956859,2.476821],[103.956325,2.47755],[103.957202,2.478495],[103.958614,2.480174],[103.960021,2.47958],[103.962168,2.479767],[103.962967,2.479697],[103.962381,2.478769],[103.964681,2.477048],[103.964526,2.475456],[103.964481,2.474419],[103.963118,2.47442],[103.961674,2.474444],[103.961143,2.47296],[103.960188,2.474024]],[[103.985507,2.445728],[103.985881,2.444148],[103.987145,2.443092],[103.987849,2.442001],[103.989437,2.441539],[103.990529,2.440566],[103.989848,2.438046],[103.991626,2.436504],[103.993231,2.433765],[103.994983,2.430629],[103.996107,2.430336],[103.996956,2.429213],[103.99788,2.428142],[103.995426,2.426118],[103.993706,2.42397],[103.992558,2.42449],[103.991471,2.425047],[103.98994,2.425518],[103.988268,2.42643],[103.986942,2.426502],[103.983745,2.428338],[103.982337,2.428106],[103.980012,2.429378],[103.97736,2.432105],[103.97626,2.434085],[103.975251,2.436524],[103.975658,2.437676],[103.97544,2.438386],[103.976055,2.439725],[103.975907,2.441941],[103.974519,2.443713],[103.974873,2.444873],[103.974069,2.445856],[103.974288,2.446907],[103.973796,2.449247],[103.974687,2.451539],[103.974461,2.453925],[103.973239,2.45467],[103.971845,2.457308],[103.975063,2.459375],[103.976027,2.458867],[103.976124,2.457795],[103.977743,2.457983],[103.978237,2.456295],[103.97766,2.454828],[103.98024,2.452443],[103.981336,2.450937],[103.981934,2.45104],[103.983718,2.450596],[103.984951,2.448877],[103.985453,2.447166],[103.985507,2.445728]],[[104.066715,2.230595],[104.065851,2.228858],[104.066034,2.226786],[104.06779,2.223907],[104.06981,2.222411],[104.06998,2.221367],[104.071466,2.219883],[104.072613,2.220355],[104.074123,2.219793],[104.075085,2.219669],[104.074225,2.218077],[104.074568,2.216419],[104.076048,2.214188],[104.077456,2.213141],[104.079783,2.213544],[104.080409,2.213327],[104.080929,2.21179],[104.081954,2.209382],[104.082428,2.208119],[104.084575,2.206627],[104.086897,2.203404],[104.087209,2.202437],[104.087153,2.200948],[104.086823,2.200288],[104.087282,2.198879],[104.088117,2.199163],[104.089125,2.198504],[104.089838,2.198278],[104.090348,2.197346],[104.089654,2.1965],[104.090423,2.195477],[104.089497,2.195069],[104.088113,2.196374],[104.087716,2.19716],[104.086465,2.19781],[104.085352,2.198917],[104.084117,2.198668],[104.08334,2.199011],[104.082956,2.199651],[104.082038,2.198945],[104.081367,2.198902],[104.081028,2.199815],[104.080505,2.199477],[104.079907,2.200773],[104.078388,2.200891],[104.075784,2.199584],[104.07369,2.198649],[104.071445,2.196398],[104.073215,2.199307],[104.07469,2.202982],[104.075229,2.205773],[104.074965,2.208092],[104.074951,2.210795],[104.073846,2.212256],[104.073745,2.213439],[104.073577,2.214115],[104.072672,2.215958],[104.071832,2.216144],[104.071418,2.216477],[104.070213,2.216089],[104.069649,2.216207],[104.068876,2.216102],[104.068075,2.217172],[104.067266,2.217403],[104.065818,2.217368],[104.065424,2.217955],[104.064491,2.218344],[104.063787,2.219254],[104.063388,2.219241],[104.063023,2.21848],[104.062998,2.217931],[104.062524,2.21773],[104.061751,2.217911],[104.061218,2.219076],[104.061361,2.219555],[104.060808,2.220358],[104.060818,2.220852],[104.060179,2.221754],[104.059192,2.221962],[104.057597,2.222768],[104.05678,2.223155],[104.056158,2.223967],[104.055605,2.223948],[104.054784,2.2242],[104.05427,2.225962],[104.053713,2.226467],[104.053173,2.227607],[104.053289,2.228463],[104.052362,2.228932],[104.051458,2.229582],[104.051226,2.230271],[104.053676,2.230295],[104.054563,2.230683],[104.059688,2.230681],[104.062035,2.231656],[104.061871,2.232991],[104.061699,2.234831],[104.062182,2.234839],[104.062831,2.233784],[104.064633,2.233045],[104.065224,2.232285],[104.066771,2.231263],[104.066715,2.230595]],[[104.10664,2.315659],[104.108757,2.316344],[104.110198,2.317378],[104.111805,2.316294],[104.11319,2.31673],[104.116017,2.316041],[104.118138,2.316323],[104.119456,2.315073],[104.121441,2.315111],[104.124426,2.314374],[104.126119,2.31386],[104.126178,2.312652],[104.127741,2.312445],[104.129026,2.312901],[104.12936,2.311677],[104.130868,2.311513],[104.132999,2.309372],[104.135493,2.310537],[104.136765,2.30946],[104.136746,2.30819],[104.134987,2.308139],[104.135403,2.306154],[104.13648,2.305578],[104.137414,2.304223],[104.138285,2.303984],[104.14021,2.300908],[104.14186,2.299875],[104.141826,2.298119],[104.142898,2.2956],[104.142947,2.293805],[104.144239,2.291336],[104.142998,2.290448],[104.143264,2.289476],[104.141867,2.28866],[104.139841,2.289935],[104.13832,2.289556],[104.136573,2.288942],[104.13639,2.289848],[104.135573,2.289162],[104.135367,2.28848],[104.134752,2.288144],[104.136196,2.286681],[104.135979,2.285352],[104.134985,2.284389],[104.13471,2.283301],[104.133933,2.282895],[104.132938,2.282478],[104.131981,2.281832],[104.130748,2.281557],[104.130051,2.280926],[104.12931,2.280654],[104.127833,2.281155],[104.1265,2.281231],[104.125876,2.281437],[104.125455,2.282049],[104.124758,2.282683],[104.121675,2.283024],[104.118505,2.283446],[104.117806,2.284216],[104.114819,2.284908],[104.113298,2.284731],[104.112605,2.285881],[104.110793,2.286627],[104.110056,2.287069],[104.110377,2.287934],[104.11191,2.288666],[104.111738,2.289665],[104.110773,2.290515],[104.109355,2.290263],[104.108735,2.290842],[104.107841,2.290717],[104.106404,2.291088],[104.105751,2.291868],[104.10459,2.292285],[104.1041,2.292898],[104.104067,2.293387],[104.103592,2.29387],[104.099937,2.294276],[104.098373,2.295279],[104.097804,2.296321],[104.097345,2.297579],[104.096434,2.298415],[104.096436,2.298852],[104.095134,2.29937],[104.094724,2.30083],[104.094919,2.30183],[104.094727,2.302702],[104.094878,2.304208],[104.094393,2.304921],[104.093785,2.306721],[104.094849,2.310923],[104.094206,2.312824],[104.093728,2.312831],[104.092304,2.312353],[104.09163,2.314609],[104.092237,2.31702],[104.09346,2.317595],[104.095562,2.315809],[104.09759,2.316207],[104.097833,2.313866],[104.09906,2.313881],[104.099821,2.315244],[104.100972,2.314953],[104.10184,2.314095],[104.102809,2.312956],[104.104355,2.312631],[104.106105,2.314235],[104.10664,2.315659]],[[103.953199,2.487477],[103.951767,2.48825],[103.950522,2.488981],[103.949043,2.489686],[103.947431,2.491629],[103.947709,2.492901],[103.947221,2.495416],[103.948355,2.495715],[103.948896,2.494806],[103.950307,2.494527],[103.951808,2.495531],[103.952545,2.494639],[103.953737,2.494283],[103.954515,2.492777],[103.954465,2.492403],[103.955439,2.490976],[103.955449,2.490055],[103.954981,2.488428],[103.953199,2.487477]],[[104.100576,2.183897],[104.100434,2.183495],[104.100541,2.182742],[104.100522,2.181834],[104.099553,2.182234],[104.098974,2.182571],[104.098745,2.182949],[104.098194,2.183286],[104.097519,2.183473],[104.097086,2.183237],[104.096759,2.183396],[104.096736,2.184222],[104.096605,2.184323],[104.096588,2.18472],[104.096818,2.185152],[104.097551,2.185413],[104.09816,2.185728],[104.098616,2.186283],[104.099378,2.186296],[104.0999,2.186732],[104.099799,2.187105],[104.099131,2.188179],[104.099478,2.188794],[104.100257,2.188564],[104.101057,2.188133],[104.101851,2.187955],[104.103754,2.18678],[104.104293,2.186204],[104.104163,2.185759],[104.103568,2.185282],[104.102858,2.185203],[104.102056,2.184688],[104.101203,2.184562],[104.100576,2.183897]],[[104.343178,2.568912],[104.3416,2.563242],[104.336892,2.562323],[104.334193,2.561417],[104.331275,2.563977],[104.327909,2.566452],[104.326822,2.569069],[104.321475,2.571014],[104.319749,2.572823],[104.318452,2.573683],[104.319531,2.57594],[104.317042,2.581153],[104.314109,2.582531],[104.311789,2.583594],[104.309548,2.589129],[104.309945,2.59387],[104.316323,2.596617],[104.319841,2.598411],[104.32761,2.59341],[104.329678,2.595057],[104.33471,2.59178],[104.333333,2.588263],[104.334911,2.584271],[104.333912,2.582415],[104.33591,2.580493],[104.340505,2.580708],[104.34334,2.578077],[104.345884,2.570445],[104.343178,2.568912]],[[104.511495,2.467019],[104.511584,2.468181],[104.512486,2.468598],[104.513869,2.468343],[104.514937,2.467125],[104.518449,2.465716],[104.519877,2.464817],[104.520184,2.463682],[104.525042,2.459829],[104.525573,2.457073],[104.524317,2.455697],[104.526212,2.453755],[104.527126,2.454772],[104.528913,2.45535],[104.532731,2.454116],[104.537938,2.451232],[104.540385,2.450545],[104.541095,2.448795],[104.541163,2.444369],[104.540048,2.440458],[104.53969,2.437178],[104.539435,2.436158],[104.539567,2.434856],[104.540123,2.432778],[104.539412,2.431067],[104.538206,2.430747],[104.536604,2.428769],[104.535837,2.427156],[104.533315,2.425732],[104.531322,2.424056],[104.529214,2.422817],[104.527029,2.422215],[104.525473,2.422063],[104.524553,2.421703],[104.521848,2.421853],[104.519622,2.42189],[104.518915,2.422824],[104.519206,2.424815],[104.518674,2.42709],[104.517756,2.428206],[104.517533,2.429271],[104.51688,2.430359],[104.516942,2.431331],[104.512962,2.437618],[104.511631,2.4382],[104.510121,2.43886],[104.508808,2.439303],[104.506342,2.438884],[104.505541,2.439275],[104.504949,2.43921],[104.504419,2.437153],[104.503278,2.43712],[104.502628,2.437544],[104.502966,2.438838],[104.503517,2.439634],[104.503329,2.440544],[104.50216,2.441176],[104.5017,2.442138],[104.501731,2.443559],[104.501626,2.445842],[104.502633,2.44612],[104.503209,2.447189],[104.502979,2.448486],[104.502586,2.449793],[104.501826,2.450129],[104.501073,2.450562],[104.500442,2.45126],[104.499801,2.451851],[104.499177,2.452867],[104.499545,2.454177],[104.499397,2.456342],[104.500398,2.457397],[104.500676,2.458468],[104.502059,2.45939],[104.503431,2.459229],[104.503897,2.460309],[104.505799,2.46267],[104.506794,2.46351],[104.507334,2.464471],[104.509467,2.464975],[104.510834,2.465619],[104.511982,2.466326],[104.511495,2.467019]],[[104.506632,2.467895],[104.501637,2.466641],[104.49955,2.467063],[104.49511,2.466555],[104.49266,2.468656],[104.49515,2.471306],[104.498202,2.473705],[104.50106,2.477057],[104.503273,2.476214],[104.503581,2.472286],[104.508023,2.473069],[104.510556,2.474932],[104.513102,2.474392],[104.513102,2.472231],[104.511344,2.470706],[104.509015,2.470397],[104.506632,2.467895]],[[103.859942,2.423583],[103.912952,2.349231],[103.940595,2.34102],[103.963381,2.308548],[103.95591,2.307802],[103.953669,2.295858],[103.973093,2.264505],[103.983926,2.253681],[103.982805,2.245842],[103.972346,2.249948],[103.960019,2.248455],[103.957778,2.235391],[103.96226,2.223447],[103.958151,2.217101],[103.968984,2.195078],[103.988035,2.172682],[103.993638,2.162603],[104.007833,2.149165],[104.021654,2.120796],[104.043319,2.072267],[104.057514,2.058828],[104.05602,2.052109],[104.063864,2.04091],[104.13297,1.92182],[104.124752,1.91734],[104.116534,1.930033],[104.105328,1.896433],[104.113546,1.865819],[104.132223,1.849391]],[[102.630654,2.459021],[102.631153,2.463848],[102.634482,2.4745],[102.631652,2.48199],[102.614976,2.481442]],[[102.614976,2.481442],[102.60433,2.501781],[102.606384,2.510364],[102.612548,2.51279],[102.619085,2.520067],[102.611988,2.529023],[102.608439,2.545817],[102.612174,2.554026],[102.606945,2.567274],[102.616657,2.582014],[102.623568,2.584999],[102.625248,2.589291],[102.632719,2.589664],[102.638883,2.602538],[102.638509,2.610374],[102.627303,2.615599],[102.625435,2.631085],[102.628496,2.639868],[102.631593,2.648757],[102.70258,2.831474],[102.785126,2.804728],[102.793344,2.805474],[102.891213,2.685937],[102.967416,2.595401],[102.974748,2.59223]],[[102.798426,2.518607],[102.776399,2.49862],[102.766024,2.49862],[102.765375,2.487596],[102.758242,2.487596],[102.743327,2.473329],[102.719982,2.469438],[102.700527,2.456469],[102.677182,2.44739],[102.655782,2.446742],[102.640867,2.451929],[102.630654,2.459021]],[[102.730343,2.41136],[102.725691,2.411086],[102.720864,2.414581],[102.717369,2.421738],[102.712376,2.429561],[102.709547,2.4254],[102.703721,2.421572],[102.695233,2.412584],[102.66494,2.421905],[102.65279,2.411252],[102.650294,2.412251],[102.634482,2.424568],[102.630654,2.431725],[102.628989,2.436718],[102.626326,2.444041],[102.624162,2.446538],[102.623164,2.4497],[102.62616,2.453695],[102.627333,2.455085],[102.630654,2.459021]],[[102.522337,2.121449],[102.52271,2.126115],[102.534477,2.134514],[102.537279,2.144593],[102.530928,2.154671],[102.534477,2.158591],[102.529247,2.16083],[102.530742,2.168296],[102.524765,2.16475],[102.524952,2.167923],[102.516547,2.16475],[102.51636,2.169976],[102.512251,2.167176],[102.504593,2.167923],[102.502539,2.172775],[102.495442,2.172962],[102.490399,2.180614],[102.485543,2.178188],[102.478258,2.180427],[102.474897,2.183974],[102.477325,2.187146],[102.472842,2.197598],[102.467799,2.196665],[102.46892,2.203944],[102.494694,2.220741],[102.494918,2.225606],[102.495349,2.234968],[102.495362,2.23524],[102.495442,2.236977],[102.489091,2.242203],[102.48741,2.245936],[102.493947,2.247429],[102.491519,2.25676],[102.501979,2.294085],[102.509263,2.306029],[102.506461,2.310508],[102.51001,2.320212],[102.513932,2.321892],[102.514119,2.329543],[102.508702,2.340927],[102.512998,2.35511],[102.525325,2.359402],[102.524204,2.365187],[102.53429,2.371718],[102.534471,2.374465],[102.537092,2.38982],[102.557637,2.397284],[102.563053,2.395978],[102.594057,2.410906],[102.594057,2.419863],[102.590696,2.420983],[102.594805,2.456251],[102.608812,2.467261],[102.615536,2.468007],[102.614976,2.481442]],[[102.715913,2.287296],[102.70107,2.297017],[102.693832,2.298687],[102.676571,2.297573],[102.658196,2.288108],[102.642606,2.272517],[102.626458,2.262495],[102.60864,2.250802],[102.588039,2.24245],[102.576346,2.241336],[102.575789,2.23187],[102.575789,2.221291],[102.570778,2.219064],[102.563539,2.223518],[102.551289,2.221291],[102.541267,2.206814],[102.54238,2.193451],[102.546278,2.178417],[102.553517,2.156145],[102.55463,2.134986],[102.549619,2.11327],[102.547641,2.09955]]],"bbox":[102.467799,1.261464,104.541163,2.831474]}
