{"type":"Topology","objects":{"JHR_SE-11":{"type":"GeometryCollection","geometries":[{"type":"Polygon","arcs":[[0,1,2]],"properties":{"state":"Johor","parlimen":"P.140 Segamat","code_parlimen":"P.140","dun":"N.01 Buloh Kasap","code_dun":"N.01"}},{"type":"Polygon","arcs":[[3,4,5,6,7,-1]],"properties":{"state":"Johor","parlimen":"P.140 Segamat","code_parlimen":"P.140","dun":"N.02 Jementah","code_dun":"N.02"}},{"type":"Polygon","arcs":[[-4,-3,8,9]],"properties":{"state":"Johor","parlimen":"P.141 Sekijang","code_parlimen":"P.141","dun":"N.03 Pemanis","code_dun":"N.03"}},{"type":"Polygon","arcs":[[10,-5,-10,11,12]],"properties":{"state":"Johor","parlimen":"P.141 Sekijang","code_parlimen":"P.141","dun":"N.04 Kemelah","code_dun":"N.04"}},{"type":"Polygon","arcs":[[13,14,15,-13]],"properties":{"state":"Johor","parlimen":"P.142 Labis","code_parlimen":"P.142","dun":"N.05 Tenang","code_dun":"N.05"}},{"type":"Polygon","arcs":[[16,17,18,19,20,-15]],"properties":{"state":"Johor","parlimen":"P.142 Labis","code_parlimen":"P.142","dun":"N.06 Bekok","code_dun":"N.06"}},{"type":"Polygon","arcs":[[21,22,23,24,25,-6,-11,-16,-21]],"properties":{"state":"Johor","parlimen":"P.143 Pagoh","code_parlimen":"P.143","dun":"N.07 Bukit Serampang","code_dun":"N.07"}},{"type":"Polygon","arcs":[[26,27,28,29,30,31,32,33,-24]],"properties":{"state":"Johor","parlimen":"P.143 Pagoh","code_parlimen":"P.143","dun":"N.08 Jorak","code_dun":"N.08"}},{"type":"Polygon","arcs":[[-25,-34,34,-32,35,36]],"properties":{"state":"Johor","parlimen":"P.144 Ledang","code_parlimen":"P.144","dun":"N.09 Gambir","code_dun":"N.09"}},{"type":"Polygon","arcs":[[37,38,-7,-26,-37]],"properties":{"state":"Johor","parlimen":"P.144 Ledang","code_parlimen":"P.144","dun":"N.10 Tangkak","code_dun":"N.10"}},{"type":"Polygon","arcs":[[-31,39,40,41,-38,-36]],"properties":{"state":"Johor","parlimen":"P.144 Ledang","code_parlimen":"P.144","dun":"N.11 Serom","code_dun":"N.11"}},{"type":"Polygon","arcs":[[42,-40,-30,43]],"properties":{"state":"Johor","parlimen":"P.145 Bakri","code_parlimen":"P.145","dun":"N.12 Bentayan","code_dun":"N.12"}},{"type":"Polygon","arcs":[[-29,44,45,-44]],"properties":{"state":"Johor","parlimen":"P.145 Bakri","code_parlimen":"P.145","dun":"N.13 Sungai Abong","code_dun":"N.13"}},{"type":"Polygon","arcs":[[-28,46,47,48,-45]],"properties":{"state":"Johor","parlimen":"P.145 Bakri","code_parlimen":"P.145","dun":"N.14 Bukit Naning","code_dun":"N.14"}},{"type":"Polygon","arcs":[[-46,-49,49,50,-41,-43]],"properties":{"state":"Johor","parlimen":"P.146 Muar","code_parlimen":"P.146","dun":"N.15 Maharani","code_dun":"N.15"}},{"type":"Polygon","arcs":[[51,52,-50,-48]],"properties":{"state":"Johor","parlimen":"P.146 Muar","code_parlimen":"P.146","dun":"N.16 Sungai Balang","code_dun":"N.16"}},{"type":"Polygon","arcs":[[53,54,55,56,-52,57]],"properties":{"state":"Johor","parlimen":"P.147 Parit Sulong","code_parlimen":"P.147","dun":"N.17 Semerah","code_dun":"N.17"}},{"type":"Polygon","arcs":[[-47,-27,-23,58,59,60,-58]],"properties":{"state":"Johor","parlimen":"P.147 Parit Sulong","code_parlimen":"P.147","dun":"N.18 Sri Medan","code_dun":"N.18"}},{"type":"Polygon","arcs":[[-59,-22,-20,61,62,63,64]],"properties":{"state":"Johor","parlimen":"P.148 Ayer Hitam","code_parlimen":"P.148","dun":"N.19 Yong Peng","code_dun":"N.19"}},{"type":"Polygon","arcs":[[65,66,67,68,-60,-65]],"properties":{"state":"Johor","parlimen":"P.148 Ayer Hitam","code_parlimen":"P.148","dun":"N.20 Semarang","code_dun":"N.20"}},{"type":"Polygon","arcs":[[-54,-61,-69,69,70]],"properties":{"state":"Johor","parlimen":"P.149 Sri Gading","code_parlimen":"P.149","dun":"N.21 Parit Yaani","code_dun":"N.21"}},{"type":"Polygon","arcs":[[-68,71,72,-70]],"properties":{"state":"Johor","parlimen":"P.149 Sri Gading","code_parlimen":"P.149","dun":"N.22 Parit Raja","code_dun":"N.22"}},{"type":"Polygon","arcs":[[-55,-71,-73,73]],"properties":{"state":"Johor","parlimen":"P.150 Batu Pahat","code_parlimen":"P.150","dun":"N.23 Penggaram","code_dun":"N.23"}},{"type":"Polygon","arcs":[[-72,74,75,-56,-74]],"properties":{"state":"Johor","parlimen":"P.150 Batu Pahat","code_parlimen":"P.150","dun":"N.24 Senggarang","code_dun":"N.24"}},{"type":"Polygon","arcs":[[-67,76,77,78,-75]],"properties":{"state":"Johor","parlimen":"P.150 Batu Pahat","code_parlimen":"P.150","dun":"N.25 Rengit","code_dun":"N.25"}},{"type":"Polygon","arcs":[[79,80,-77,-66,-64,81,82]],"properties":{"state":"Johor","parlimen":"P.151 Simpang Renggam","code_parlimen":"P.151","dun":"N.26 Machap","code_dun":"N.26"}},{"type":"Polygon","arcs":[[83,84,85,86,87,-83]],"properties":{"state":"Johor","parlimen":"P.151 Simpang Renggam","code_parlimen":"P.151","dun":"N.27 Layang-Layang","code_dun":"N.27"}},{"type":"Polygon","arcs":[[-63,88,89,90,91,-84,-82]],"properties":{"state":"Johor","parlimen":"P.152 Kluang","code_parlimen":"P.152","dun":"N.28 Mengkibol","code_dun":"N.28"}},{"type":"Polygon","arcs":[[92,-90]],"properties":{"state":"Johor","parlimen":"P.152 Kluang","code_parlimen":"P.152","dun":"N.29 Mahkota","code_dun":"N.29"}},{"type":"Polygon","arcs":[[-62,-19,93,-91,-93,-89]],"properties":{"state":"Johor","parlimen":"P.153 Sembrong","code_parlimen":"P.153","dun":"N.30 Paloh","code_dun":"N.30"}},{"type":"Polygon","arcs":[[-85,-92,-94,94,95,96]],"properties":{"state":"Johor","parlimen":"P.153 Sembrong","code_parlimen":"P.153","dun":"N.31 Kahang","code_dun":"N.31"}},{"type":"MultiPolygon","arcs":[[[-95,-18,97,98]],[[99]]],"properties":{"state":"Johor","parlimen":"P.154 Mersing","code_parlimen":"P.154","dun":"N.32 Endau","code_dun":"N.32"}},{"type":"MultiPolygon","arcs":[[[100]],[[101]],[[102]],[[103]],[[104]],[[105]],[[106]],[[107]],[[108]],[[109,110,111,-96,-99]]],"properties":{"state":"Johor","parlimen":"P.154 Mersing","code_parlimen":"P.154","dun":"N.33 Tenggaroh","code_dun":"N.33"}},{"type":"Polygon","arcs":[[-112,112,113,114,-86,-97]],"properties":{"state":"Johor","parlimen":"P.155 Tenggara","code_parlimen":"P.155","dun":"N.34 Panti","code_dun":"N.34"}},{"type":"Polygon","arcs":[[-115,115,116,117,118,119]],"properties":{"state":"Johor","parlimen":"P.155 Tenggara","code_parlimen":"P.155","dun":"N.35 Pasir Raja","code_dun":"N.35"}},{"type":"Polygon","arcs":[[-113,-111,120,121,122]],"properties":{"state":"Johor","parlimen":"P.156 Kota Tinggi","code_parlimen":"P.156","dun":"N.36 Sedili","code_dun":"N.36"}},{"type":"Polygon","arcs":[[123,124,-116,-114,-123]],"properties":{"state":"Johor","parlimen":"P.156 Kota Tinggi","code_parlimen":"P.156","dun":"N.37 Johor Lama","code_dun":"N.37"}},{"type":"Polygon","arcs":[[125,-124,-122,126,127]],"properties":{"state":"Johor","parlimen":"P.157 Pengerang","code_parlimen":"P.157","dun":"N.38 Penawar","code_dun":"N.38"}},{"type":"Polygon","arcs":[[128,129,-128]],"properties":{"state":"Johor","parlimen":"P.157 Pengerang","code_parlimen":"P.157","dun":"N.39 Tanjong Surat","code_dun":"N.39"}},{"type":"Polygon","arcs":[[130,131,-117,-125,-126,-130,132,133]],"properties":{"state":"Johor","parlimen":"P.158 Tebrau","code_parlimen":"P.158","dun":"N.40 Tiram","code_dun":"N.40"}},{"type":"Polygon","arcs":[[134,135,136,137,-118,-132,138]],"properties":{"state":"Johor","parlimen":"P.158 Tebrau","code_parlimen":"P.158","dun":"N.41 Puteri Wangsa","code_dun":"N.41"}},{"type":"Polygon","arcs":[[139,-139,-131,140,141]],"properties":{"state":"Johor","parlimen":"P.159 Pasir Gudang","code_parlimen":"P.159","dun":"N.42 Johor Jaya","code_dun":"N.42"}},{"type":"Polygon","arcs":[[-134,142,143,-141]],"properties":{"state":"Johor","parlimen":"P.159 Pasir Gudang","code_parlimen":"P.159","dun":"N.43 Permas","code_dun":"N.43"}},{"type":"Polygon","arcs":[[144,145,-135,-140,146]],"properties":{"state":"Johor","parlimen":"P.160 Johor Bahru","code_parlimen":"P.160","dun":"N.44 Tanjong Puteri","code_dun":"N.44"}},{"type":"Polygon","arcs":[[-142,-144,147,148,-147]],"properties":{"state":"Johor","parlimen":"P.160 Johor Bahru","code_parlimen":"P.160","dun":"N.45 Stulang","code_dun":"N.45"}},{"type":"Polygon","arcs":[[-149,149,150,151,152,-145]],"properties":{"state":"Johor","parlimen":"P.161 Pulai","code_parlimen":"P.161","dun":"N.46 Pengkalan Rinting","code_dun":"N.46"}},{"type":"Polygon","arcs":[[-153,153,-136,-146]],"properties":{"state":"Johor","parlimen":"P.161 Pulai","code_parlimen":"P.161","dun":"N.47 Kempas","code_dun":"N.47"}},{"type":"Polygon","arcs":[[154,-137,-154,-152,155]],"properties":{"state":"Johor","parlimen":"P.162 Gelang Patah","code_parlimen":"P.162","dun":"N.48 Skudai","code_dun":"N.48"}},{"type":"Polygon","arcs":[[156,157,158,159,160,-156,-151]],"properties":{"state":"Johor","parlimen":"P.162 Gelang Patah","code_parlimen":"P.162","dun":"N.49 Nusa Jaya","code_dun":"N.49"}},{"type":"Polygon","arcs":[[-87,-120,161,162]],"properties":{"state":"Johor","parlimen":"P.163 Kulai","code_parlimen":"P.163","dun":"N.50 Bukit Permai","code_dun":"N.50"}},{"type":"Polygon","arcs":[[163,-160,164,165,166,-80,-88,-163]],"properties":{"state":"Johor","parlimen":"P.163 Kulai","code_parlimen":"P.163","dun":"N.51 Bukit Batu","code_dun":"N.51"}},{"type":"Polygon","arcs":[[-162,-119,-138,-155,-161,-164]],"properties":{"state":"Johor","parlimen":"P.163 Kulai","code_parlimen":"P.163","dun":"N.52 Senai","code_dun":"N.52"}},{"type":"Polygon","arcs":[[167,-78,-81,-167,168]],"properties":{"state":"Johor","parlimen":"P.164 Pontian","code_parlimen":"P.164","dun":"N.53 Benut","code_dun":"N.53"}},{"type":"Polygon","arcs":[[-166,169,170,171,-169]],"properties":{"state":"Johor","parlimen":"P.164 Pontian","code_parlimen":"P.164","dun":"N.54 Pulai Sebatang","code_dun":"N.54"}},{"type":"Polygon","arcs":[[-165,-159,172,-170]],"properties":{"state":"Johor","parlimen":"P.165 Tanjong Piai","code_parlimen":"P.165","dun":"N.55 Pekan Nenas","code_dun":"N.55"}},{"type":"MultiPolygon","arcs":[[[-158,173,-171,-173]],[[174]]],"properties":{"state":"Johor","parlimen":"P.165 Tanjong Piai","code_parlimen":"P.165","dun":"N.56 Kukup","code_dun":"N.56"}}]}},"arcs":[[[102.781535,2.53342],[102.774334,2.535807],[102.769481,2.539706],[102.766535,2.547114],[102.746057,2.558948],[102.729799,2.569958],[102.715598,2.579734],[102.697179,2.583233],[102.674236,2.583151],[102.646102,2.584253],[102.622435,2.581475],[102.616657,2.582014]],[[102.616657,2.582014],[102.623568,2.584999],[102.625248,2.589291],[102.632719,2.589664],[102.638883,2.602538],[102.638509,2.610374],[102.627303,2.615599],[102.625435,2.631085],[102.628371,2.639529],[102.631902,2.649016],[102.70258,2.831474],[102.785126,2.804728],[102.793344,2.805474],[102.891213,2.685937]],[[102.891213,2.685937],[102.88048,2.669006],[102.830828,2.605828],[102.835762,2.596598],[102.826532,2.587845],[102.825736,2.562542],[102.817859,2.546549],[102.804093,2.547742],[102.79725,2.544002],[102.788657,2.547742],[102.781535,2.53342]],[[102.781535,2.53342],[102.78806,2.528128],[102.795619,2.521524],[102.799796,2.518063],[102.806441,2.516551],[102.812329,2.519813],[102.820047,2.517904],[102.820365,2.511459],[102.820126,2.50565],[102.828163,2.510981],[102.832698,2.50756],[102.829993,2.502149]],[[102.829993,2.502149],[102.827447,2.499125],[102.817501,2.498648],[102.80879,2.498728],[102.801992,2.493934],[102.796384,2.486474],[102.792307,2.48302],[102.785515,2.480242],[102.779029,2.482244],[102.776542,2.47943],[102.777211,2.472844],[102.779372,2.469809],[102.780967,2.464921],[102.784054,2.459724],[102.793143,2.459255],[102.793161,2.451286],[102.797946,2.44681],[102.800776,2.439041],[102.798049,2.434872],[102.800949,2.430381],[102.797946,2.425612],[102.801239,2.42093],[102.800776,2.416094],[102.810359,2.405293],[102.807375,2.403662],[102.810598,2.399445],[102.806063,2.396461],[102.80845,2.393318],[102.804326,2.390111]],[[102.804326,2.390111],[102.801908,2.392221],[102.7981,2.39824],[102.793306,2.395908],[102.788418,2.395805],[102.782271,2.398092],[102.776004,2.40701],[102.772336,2.411348],[102.765505,2.415091],[102.752154,2.41347],[102.745669,2.410585],[102.734132,2.410346],[102.726851,2.410799],[102.723379,2.41631],[102.719543,2.424263],[102.716149,2.429681],[102.710747,2.425462],[102.705202,2.419483],[102.699376,2.41615],[102.698777,2.411787],[102.693066,2.412713],[102.689086,2.405859],[102.68816,2.402927],[102.688857,2.396899],[102.681537,2.39658],[102.674496,2.401731],[102.668785,2.406413],[102.669413,2.423877],[102.660332,2.416653],[102.652457,2.408732]],[[102.652457,2.408732],[102.636931,2.423838],[102.632277,2.428726],[102.629327,2.432123],[102.629896,2.441935],[102.626754,2.443276],[102.620953,2.44767],[102.62546,2.456811],[102.629896,2.45944],[102.63149,2.4637],[102.631303,2.469595],[102.630692,2.481043],[102.614519,2.480765]],[[102.614519,2.480765],[102.607765,2.49965],[102.608269,2.508609],[102.612548,2.51279],[102.619085,2.520067],[102.610519,2.534826],[102.610907,2.550649],[102.614862,2.556273],[102.606945,2.567274],[102.616657,2.582014]],[[102.891213,2.685937],[102.967416,2.595401]],[[102.967416,2.595401],[102.980828,2.583181],[103.013748,2.546191],[103.002894,2.543946],[102.995222,2.548437],[102.991667,2.541139],[102.98493,2.543946],[102.975761,2.544694],[102.9621,2.552928],[102.955551,2.547875],[102.916564,2.483769],[102.903197,2.496977],[102.892534,2.501115],[102.883464,2.497295],[102.871528,2.499364],[102.861502,2.505093],[102.874234,2.512573],[102.869459,2.517506],[102.855296,2.517506],[102.844793,2.510186],[102.852779,2.505147],[102.844713,2.501831],[102.834449,2.502069],[102.829993,2.502149]],[[102.921995,2.384168],[102.913004,2.391727],[102.906718,2.396978],[102.899397,2.393414],[102.894808,2.395146],[102.88759,2.398612],[102.883535,2.401726],[102.883563,2.409232],[102.875874,2.412432],[102.871858,2.414511],[102.869846,2.414224],[102.866855,2.412494],[102.863111,2.408739],[102.860745,2.411672],[102.859135,2.414643],[102.8556,2.409614],[102.853726,2.404442],[102.850593,2.404348],[102.848345,2.402333],[102.848342,2.396272],[102.85161,2.391513],[102.849177,2.388706],[102.843223,2.386034],[102.839878,2.388272],[102.838407,2.383332],[102.840125,2.376802],[102.835915,2.374089],[102.833215,2.375126],[102.829485,2.380811],[102.826553,2.377416],[102.82547,2.373694],[102.824389,2.370196],[102.821181,2.371317],[102.816757,2.369449],[102.804362,2.375006],[102.801069,2.379379],[102.802442,2.382099],[102.805426,2.386913],[102.804326,2.390111]],[[102.967416,2.595401],[102.979365,2.590666],[102.993137,2.584481],[103.055133,2.557454]],[[103.055133,2.557454],[103.056387,2.47432],[103.036495,2.47798],[103.023605,2.471614],[103.009282,2.478457],[102.998779,2.486414],[102.984457,2.480208],[102.970134,2.487051],[102.962337,2.476229],[102.954857,2.467158],[102.945309,2.472092],[102.923984,2.435012],[102.923109,2.393716],[102.921995,2.384168]],[[103.055133,2.557454],[103.135623,2.522675],[103.14597,2.518155]],[[103.14597,2.518155],[103.073801,2.392362],[103.075484,2.375455],[103.057661,2.351107],[103.050977,2.349515],[103.035222,2.358268],[103.03554,2.366066],[103.032437,2.373863],[103.026517,2.378779],[103.025952,2.382218],[103.021974,2.38564],[103.023207,2.390295],[103.022014,2.392204],[103.018831,2.395347],[103.015688,2.395148],[103.012823,2.392682],[103.013858,2.388743],[103.011272,2.384367],[103.005955,2.388415],[103.003092,2.385263],[102.9998,2.379603],[102.983864,2.390304],[102.973368,2.375177],[102.996196,2.359375],[102.999564,2.355258],[102.99976,2.349242],[102.989281,2.336517],[102.988992,2.327395]],[[102.988992,2.327395],[102.982786,2.333522],[102.976249,2.332627],[102.972339,2.334274],[102.964261,2.334068],[102.961097,2.337387],[102.957212,2.337515],[102.952788,2.341374],[102.952839,2.347137],[102.948098,2.352316],[102.943166,2.35079],[102.934574,2.359228],[102.929892,2.36674],[102.923515,2.376532],[102.921995,2.384168]],[[103.14597,2.518155],[103.154698,2.52166],[103.290487,2.576917]],[[103.290487,2.576917],[103.378879,2.378213]],[[103.378879,2.378213],[103.301291,2.3033],[103.222051,2.272731],[103.186104,2.25864],[103.176071,2.248762],[103.1576,2.250452],[103.151075,2.249895],[103.151075,2.244245],[103.106135,2.214478],[103.105826,2.175272],[103.105312,2.168069]],[[103.105312,2.168069],[103.099446,2.168789],[103.082475,2.170315],[103.040233,2.170881],[103.027186,2.175259],[103.012545,2.180192],[102.999495,2.180033],[102.967311,2.198057],[102.96084,2.203305]],[[102.96084,2.203305],[102.97276,2.218624],[103.010953,2.277823],[103.026549,2.300898],[102.994483,2.322939],[102.988992,2.327395]],[[102.96084,2.203305],[102.920422,2.137575]],[[102.920422,2.137575],[102.905208,2.112174]],[[102.905208,2.112174],[102.874646,2.140343],[102.84525,2.166904],[102.842863,2.176525],[102.84631,2.183883],[102.849256,2.192883],[102.842001,2.194735],[102.841885,2.198906],[102.827975,2.203612],[102.822422,2.201804],[102.81629,2.205748],[102.839365,2.21685],[102.841829,2.221886],[102.839975,2.227191],[102.835036,2.23496],[102.825676,2.237681],[102.808649,2.23402],[102.800925,2.242678],[102.792436,2.240671],[102.778061,2.239445],[102.773842,2.236307],[102.772478,2.231063],[102.77515,2.225666],[102.782948,2.227257],[102.78995,2.229803],[102.789313,2.224074],[102.782311,2.211343],[102.773877,2.201318],[102.757804,2.20275],[102.750165,2.202909],[102.746982,2.195429],[102.748096,2.187791],[102.741094,2.179834],[102.732501,2.182062],[102.719292,2.176333],[102.71599,2.175099],[102.709227,2.174344],[102.706695,2.178935],[102.709704,2.18604],[102.715354,2.193639],[102.71561,2.200317],[102.712266,2.204639],[102.707205,2.207039],[102.702111,2.205701],[102.694827,2.20019],[102.68993,2.191224],[102.685873,2.185324]],[[102.685873,2.185324],[102.680065,2.188507],[102.681019,2.193679],[102.682611,2.19909],[102.680741,2.205853],[102.687425,2.210229],[102.686629,2.215958],[102.692835,2.218027],[102.693631,2.225188],[102.687266,2.227257],[102.691881,2.24699],[102.695063,2.259403],[102.707635,2.282001],[102.717661,2.294573],[102.705407,2.299188],[102.700315,2.291708],[102.682014,2.303007],[102.67358,2.304439],[102.670238,2.308418],[102.673341,2.317091],[102.675728,2.333721],[102.668726,2.34502],[102.663395,2.35791],[102.668495,2.360128],[102.662679,2.363718],[102.650107,2.365708],[102.624247,2.368811],[102.611031,2.371746]],[[102.611031,2.371746],[102.615653,2.377961],[102.640558,2.399286],[102.652457,2.408732]],[[102.905208,2.112174],[102.899613,2.101921],[102.895754,2.095438],[102.893059,2.090964],[102.886813,2.080699],[102.882439,2.081355],[102.874196,2.083579],[102.869411,2.08008],[102.867128,2.077073]],[[102.867128,2.077073],[102.838419,2.079281],[102.83203,2.075363],[102.825881,2.078968],[102.773438,2.078979],[102.765669,2.074965],[102.763904,2.064111],[102.756135,2.056599],[102.745767,2.051876],[102.729557,2.045561],[102.718152,2.039608],[102.710717,2.037052],[102.701044,2.036795],[102.689111,2.040256],[102.689008,2.048283],[102.699688,2.057297],[102.699945,2.065169],[102.690488,2.06593],[102.677518,2.067124],[102.670039,2.074365]],[[102.670039,2.074365],[102.661567,2.078909],[102.659355,2.086267],[102.657785,2.088528],[102.653059,2.090977],[102.652016,2.084709],[102.641354,2.081446],[102.62409,2.07261],[102.622815,2.065612],[102.616131,2.060838],[102.609946,2.060553],[102.606356,2.062645],[102.603017,2.068307],[102.597827,2.070536],[102.593299,2.074086],[102.583109,2.077548]],[[102.583109,2.077548],[102.578494,2.083993],[102.569311,2.086477]],[[102.569311,2.086477],[102.568474,2.093354],[102.569725,2.099343],[102.576403,2.103013],[102.579931,2.100882],[102.584251,2.093963],[102.591976,2.08717],[102.597684,2.088105],[102.601146,2.094281],[102.60152,2.100549],[102.599087,2.102608],[102.587665,2.101998],[102.581631,2.108559],[102.5889,2.117639],[102.589569,2.123711],[102.588242,2.127597],[102.596517,2.133096],[102.595853,2.139715],[102.595383,2.143571],[102.599672,2.149617],[102.603756,2.15085],[102.610044,2.150791],[102.615275,2.150035]],[[102.615275,2.150035],[102.620694,2.147395],[102.623725,2.144421],[102.623253,2.138929],[102.619365,2.135837],[102.609471,2.133873],[102.602895,2.123659],[102.602473,2.117026],[102.610804,2.111151],[102.615108,2.114238],[102.616227,2.122172],[102.620337,2.129164],[102.627283,2.129422],[102.632226,2.126476],[102.637882,2.123659],[102.644936,2.127842],[102.647787,2.135762],[102.637444,2.141485],[102.633795,2.147847],[102.635461,2.15391],[102.641926,2.158687],[102.640996,2.163482],[102.636023,2.170564],[102.637072,2.177645]],[[102.637072,2.177645],[102.648496,2.182834],[102.653046,2.179632]],[[102.653046,2.179632],[102.657723,2.174547],[102.663331,2.174033],[102.672138,2.175892],[102.682685,2.181963],[102.685873,2.185324]],[[102.653046,2.179632],[102.649491,2.177065],[102.637072,2.177645]],[[102.615275,2.150035],[102.615295,2.152223],[102.618478,2.158589],[102.613226,2.167898],[102.613943,2.176094],[102.611396,2.187234],[102.613545,2.196623],[102.616171,2.203307],[102.616807,2.214606],[102.60519,2.225745],[102.589276,2.232747],[102.57376,2.237283]],[[102.57376,2.237283],[102.577898,2.240306],[102.599408,2.248315],[102.607946,2.250654],[102.612789,2.254907],[102.61438,2.264456],[102.605946,2.27655],[102.593374,2.297557],[102.599262,2.306787],[102.593851,2.314903],[102.59401,2.329066],[102.598625,2.335432],[102.610561,2.339569],[102.611516,2.352778],[102.609129,2.359143],[102.611031,2.371746]],[[102.57376,2.237283],[102.571293,2.233145],[102.571134,2.225427],[102.570542,2.21779],[102.567712,2.216298],[102.565843,2.221011],[102.562024,2.225069],[102.556927,2.224823],[102.550645,2.219101],[102.541248,2.219672],[102.533089,2.218897],[102.527093,2.218146],[102.522973,2.220974],[102.517942,2.217589],[102.512372,2.221886],[102.502188,2.222523],[102.494841,2.223937]],[[102.494841,2.223937],[102.494918,2.225606],[102.495349,2.234968],[102.495362,2.23524],[102.495442,2.236977],[102.489091,2.242203],[102.48741,2.245936],[102.493947,2.247429],[102.491519,2.25676],[102.496428,2.273811],[102.501979,2.294085],[102.509263,2.306029],[102.506461,2.310508],[102.51001,2.320212],[102.513932,2.321892],[102.514119,2.329543],[102.508702,2.340927],[102.511435,2.34995],[102.512998,2.35511],[102.525325,2.359402],[102.524204,2.365187],[102.535241,2.371006],[102.535465,2.375181],[102.538019,2.377572],[102.535602,2.382697],[102.539607,2.390202],[102.555304,2.396265],[102.565661,2.396229],[102.594277,2.409653],[102.594057,2.419863],[102.590696,2.420983],[102.596557,2.454662],[102.608812,2.467261],[102.615536,2.468007],[102.615872,2.476508],[102.614519,2.480765]],[[102.569311,2.086477],[102.565461,2.080428],[102.55551,2.083755],[102.552577,2.07897],[102.5582,2.069448],[102.570459,2.05914],[102.572266,2.055203],[102.569345,2.049532]],[[102.569345,2.049532],[102.564534,2.046576]],[[102.564534,2.046576],[102.55222,2.057988],[102.539893,2.058735],[102.532422,2.068068],[102.51692,2.08188],[102.502165,2.090652],[102.489278,2.098305],[102.48685,2.10745],[102.481434,2.11193],[102.481247,2.116783],[102.488718,2.121076],[102.502726,2.119396],[102.499177,2.126115],[102.504407,2.127421],[102.506835,2.122009],[102.516734,2.119769],[102.522337,2.121449],[102.52271,2.126115],[102.534477,2.134514],[102.537279,2.144593],[102.530928,2.154671],[102.534477,2.158591],[102.529247,2.16083],[102.530742,2.168296],[102.524765,2.16475],[102.524952,2.167923],[102.516547,2.16475],[102.51636,2.169976],[102.512251,2.167176],[102.504593,2.167923],[102.502539,2.172775],[102.495442,2.172962],[102.490399,2.180614],[102.485543,2.178188],[102.478258,2.180427],[102.474897,2.183974],[102.477325,2.187146],[102.472842,2.197598],[102.467799,2.196665],[102.46892,2.203944],[102.494694,2.220741],[102.494841,2.223937]],[[102.586838,2.034617],[102.581202,2.029977],[102.574053,2.035407],[102.567558,2.042865],[102.570239,2.047058],[102.569345,2.049532]],[[102.583109,2.077548],[102.582783,2.071733],[102.585395,2.066372],[102.577799,2.06541],[102.576184,2.05967],[102.57615,2.055718],[102.581133,2.053312],[102.58481,2.055271],[102.585291,2.058364],[102.587869,2.058674],[102.592131,2.052213],[102.592131,2.048501],[102.58237,2.043002],[102.582095,2.039016],[102.586838,2.034617]],[[102.670039,2.074365],[102.657704,2.06596],[102.645194,2.054275],[102.651105,2.047676],[102.65413,2.039703],[102.654267,2.034204],[102.648218,2.033654],[102.643132,2.037091],[102.64217,2.029255],[102.642273,2.027434]],[[102.642273,2.027434],[102.634987,2.027469],[102.631756,2.029908],[102.63112,2.03365],[102.625229,2.033882],[102.61377,2.025848],[102.609501,2.021687],[102.605854,2.018865],[102.600523,2.019474],[102.593059,2.029221],[102.586838,2.034617]],[[102.867128,2.077073],[102.873913,2.059667],[102.87237,2.055242],[102.865132,2.045934],[102.860141,2.042692],[102.854859,2.040944],[102.851617,2.036519],[102.83029,2.00871],[102.829613,2.004477],[102.817856,1.984801],[102.814333,1.977011],[102.800737,1.95454]],[[102.800737,1.95454],[102.79806,1.957651],[102.793225,1.958939],[102.781358,1.960056],[102.775423,1.959505],[102.774759,1.948715],[102.76713,1.948784],[102.757507,1.956138],[102.757919,1.96473],[102.764037,1.973735],[102.772953,1.977667],[102.770693,1.984907],[102.767195,1.990309],[102.765205,1.995249],[102.765343,2.002741],[102.76112,2.002415],[102.75438,1.99907],[102.743141,1.997861],[102.734756,1.993049],[102.726493,1.986414],[102.720596,1.980952],[102.713104,1.985694],[102.703619,1.986038],[102.696127,1.982739],[102.687191,1.982326],[102.686091,1.990575],[102.678393,1.996486],[102.672447,2.003359]],[[102.672447,2.003359],[102.678427,2.008102],[102.682139,2.01092],[102.688824,2.018271],[102.680746,2.023055],[102.670454,2.021041],[102.659869,2.024341],[102.651451,2.026533],[102.642273,2.027434]],[[102.672447,2.003359],[102.663235,1.99312],[102.63895,1.975267],[102.625776,1.968614],[102.621068,1.963665],[102.619256,1.95855]],[[102.619256,1.95855],[102.614976,1.963166],[102.60802,1.969651],[102.595552,1.981273],[102.576233,1.999048],[102.552736,2.020666],[102.548485,2.024577],[102.542135,2.03503],[102.547431,2.04602],[102.555461,2.046576],[102.564534,2.046576]],[[102.800737,1.95454],[102.79864,1.93567],[102.797972,1.925791],[102.790362,1.909811],[102.788438,1.901769],[102.786045,1.896593],[102.781713,1.882675],[102.779365,1.876681],[102.778677,1.872144],[102.777388,1.866847],[102.778935,1.864153]],[[102.778935,1.864153],[102.744223,1.867406],[102.729654,1.865539],[102.723304,1.861245],[102.710417,1.851352],[102.683335,1.871139],[102.659507,1.906075],[102.646541,1.925087],[102.627086,1.948728],[102.619256,1.95855]],[[102.893533,1.908804],[102.896275,1.904564],[102.8971,1.901693],[102.893899,1.896485],[102.893755,1.889087],[102.896534,1.885804],[102.909849,1.885335]],[[102.909849,1.885335],[102.91317,1.870186],[102.918521,1.86324],[102.922588,1.860796],[102.93031,1.858992],[102.929516,1.854229],[102.928194,1.849811],[102.931032,1.84831],[102.933702,1.847444],[102.92966,1.835753]],[[102.92966,1.835753],[102.923165,1.836691],[102.918727,1.827893],[102.910083,1.820433],[102.902623,1.820278],[102.89675,1.82204],[102.892489,1.811733],[102.890711,1.809394]],[[102.890711,1.809394],[102.848068,1.839684],[102.827958,1.849205],[102.812581,1.856485],[102.778935,1.864153]],[[102.800737,1.95454],[102.805669,1.954547],[102.811876,1.945454],[102.819743,1.943577],[102.818299,1.937298],[102.821836,1.93239],[102.820465,1.923153],[102.832301,1.92207],[102.837064,1.928638],[102.842549,1.93239],[102.853664,1.933617],[102.864128,1.934989],[102.867276,1.935734],[102.867533,1.927039],[102.875611,1.917623],[102.88338,1.916492],[102.893533,1.908804]],[[102.920422,2.137575],[102.929083,2.128264],[102.959106,2.09189],[102.968056,2.090446],[103.009338,2.054072],[103.021463,2.045989],[103.005585,2.032709],[102.99346,2.015099],[102.997502,2.009325],[103.00443,2.007882],[103.008544,1.994169],[103.013163,1.985725]],[[103.013163,1.985725],[103.020019,1.973023],[103.023764,1.967763],[103.028476,1.962926]],[[103.028476,1.962926],[103.027072,1.960026],[103.025385,1.95412],[103.018902,1.951393],[103.01172,1.948196],[102.995106,1.946925],[102.97167,1.94808],[102.96544,1.945027],[102.958916,1.950301],[102.95049,1.956495],[102.937172,1.964161],[102.933052,1.968621],[102.931595,1.959866],[102.923381,1.958444],[102.917743,1.94979],[102.910591,1.951524],[102.911152,1.942729],[102.905063,1.932777],[102.895812,1.921637],[102.90173,1.914492],[102.893533,1.908804]],[[103.105312,2.168069],[103.168224,2.151576],[103.165075,2.141178],[103.163966,2.138441],[103.173673,2.125113],[103.173346,2.09736],[103.182153,2.085322],[103.19868,2.060279],[103.210805,2.041225],[103.219393,2.029822]],[[103.219393,2.029822],[103.228559,2.015893],[103.240143,1.997706],[103.245608,2.000436],[103.250247,1.995144],[103.254469,1.989117]],[[103.254469,1.989117],[103.248219,1.984304],[103.236795,1.978467],[103.230058,1.973976],[103.224301,1.968332],[103.219826,1.964418],[103.21463,1.963857],[103.209001,1.958661],[103.208637,1.947264],[103.207932,1.943166],[103.2033,1.940131],[103.198272,1.9385]],[[103.198272,1.9385],[103.193376,1.945201],[103.187025,1.951191],[103.178364,1.957254],[103.170714,1.955161],[103.1666,1.951769],[103.165517,1.945778],[103.16162,1.93986],[103.153537,1.946356],[103.140546,1.952562],[103.132896,1.961512],[103.126112,1.968152],[103.111677,1.969884],[103.102151,1.982442],[103.090603,1.994855],[103.080102,1.998536],[103.072105,1.993888],[103.068321,1.986028],[103.071048,1.981243],[103.078009,1.977498],[103.076675,1.968344],[103.075887,1.964532],[103.073354,1.960429],[103.071658,1.961367],[103.067976,1.965513],[103.059175,1.977766],[103.048561,1.979964],[103.041439,1.985302],[103.035969,1.985148],[103.023483,1.985581],[103.013163,1.985725]],[[103.198272,1.9385],[103.187622,1.933561],[103.184068,1.928448],[103.184068,1.921524],[103.188729,1.914022],[103.199534,1.911346],[103.204165,1.904864],[103.202228,1.900253],[103.190581,1.884386],[103.188948,1.879331],[103.192691,1.874559],[103.197369,1.871939],[103.199637,1.86926],[103.187906,1.859227],[103.187862,1.836297]],[[103.187862,1.836297],[103.175815,1.828407],[103.162695,1.820587],[103.155466,1.823049],[103.141845,1.813488]],[[103.141845,1.813488],[103.136685,1.817601],[103.13055,1.823014],[103.128674,1.828716],[103.126653,1.831675],[103.122611,1.833191],[103.122683,1.845532],[103.118498,1.844738],[103.117776,1.852244],[103.112652,1.863503],[103.119075,1.866823],[103.109909,1.872957],[103.105471,1.872199],[103.106601,1.87628],[103.103771,1.878646],[103.096093,1.877122],[103.094138,1.879901],[103.096902,1.884641],[103.096799,1.891947],[103.090651,1.896976],[103.088595,1.902731],[103.08833,1.906264],[103.088618,1.910739],[103.076566,1.910667],[103.075339,1.902944]],[[103.075339,1.902944],[103.070972,1.90345],[103.060002,1.908502],[103.04297,1.91442],[103.038495,1.923513],[103.04629,1.940113],[103.052497,1.950361],[103.039073,1.959022],[103.028476,1.962926]],[[103.075339,1.902944],[103.072013,1.896889],[103.069594,1.890715],[103.064964,1.886753],[103.05987,1.883872],[103.056937,1.881402],[103.0556,1.877183],[103.053953,1.87389],[103.051117,1.872169],[103.042274,1.872038],[103.027084,1.87181],[103.021189,1.876675],[103.015205,1.880574],[103.012679,1.881229],[103.008644,1.881357],[103.003592,1.880422],[103.000007,1.87919],[102.997048,1.874816],[102.989845,1.866275],[102.981949,1.860363],[102.971123,1.855744],[102.960947,1.856466]],[[102.960947,1.856466],[102.960586,1.86325],[102.951276,1.861518],[102.94478,1.865884],[102.9398,1.868591],[102.94211,1.876746],[102.945285,1.877179],[102.948245,1.874076],[102.951276,1.869204],[102.95243,1.871766],[102.962679,1.889376],[102.963256,1.89847],[102.955965,1.899461],[102.953156,1.900646],[102.946513,1.901722],[102.934664,1.90013],[102.921801,1.895294],[102.909849,1.885335]],[[103.141845,1.813488],[103.139336,1.81184],[103.137323,1.806206],[103.133509,1.804141],[103.127014,1.79678],[103.12723,1.790501],[103.116332,1.783645],[103.107527,1.782851],[103.104929,1.785665],[103.09165,1.785954],[103.084721,1.790718],[103.076061,1.798656],[103.067689,1.795048],[103.060668,1.788739],[103.058738,1.790539],[103.057409,1.792954],[103.051306,1.800244],[103.040985,1.800316],[103.034201,1.806307],[103.013513,1.805975],[103.001796,1.807967],[102.994146,1.807678],[102.986892,1.80876],[102.983885,1.816109],[102.98249,1.822293],[102.979349,1.835096],[102.97004,1.84232],[102.964772,1.84629]],[[102.964772,1.84629],[102.961235,1.848888],[102.960947,1.856466]],[[102.964772,1.84629],[102.962535,1.843258],[102.959936,1.83799],[102.953369,1.837485],[102.947667,1.832072],[102.934027,1.831278],[102.92966,1.835753]],[[103.141845,1.813488],[103.145201,1.809121],[103.142314,1.801471],[103.139427,1.792666],[103.128241,1.786387],[103.118064,1.777294],[103.115322,1.767117],[103.112796,1.759323],[103.109548,1.738754],[103.108466,1.729372],[103.085371,1.707792],[103.084649,1.700214],[103.08116,1.693884]],[[103.08116,1.693884],[103.054824,1.712109],[103.052024,1.714047],[103.028768,1.724296],[103.003463,1.735329],[102.975074,1.742797],[102.95677,1.74205],[102.936598,1.736823],[102.885423,1.791708],[102.890711,1.809394]],[[103.187862,1.836297],[103.188078,1.812508],[103.188438,1.783653],[103.214253,1.771832],[103.22562,1.767155]],[[103.22562,1.767155],[103.22243,1.759026],[103.214847,1.737671],[103.208342,1.730089],[103.201295,1.717726],[103.196184,1.698046],[103.194358,1.688158],[103.193682,1.677935],[103.195381,1.669124],[103.196948,1.664201],[103.19868,1.658788],[103.199277,1.650413],[103.199185,1.644786],[103.203083,1.637714],[103.202722,1.633095],[103.198175,1.62696],[103.189758,1.630398],[103.188432,1.627465],[103.186916,1.622052]],[[103.186916,1.622052],[103.18168,1.625202],[103.136072,1.652438],[103.08116,1.693884]],[[103.404442,1.76387],[103.391626,1.746369],[103.373387,1.722727],[103.362428,1.708732]],[[103.362428,1.708732],[103.315735,1.73261],[103.297515,1.740971],[103.277225,1.750562],[103.256486,1.752314],[103.22562,1.767155]],[[103.254469,1.989117],[103.259449,1.99352],[103.269192,1.98006],[103.276106,1.97265],[103.279107,1.96983],[103.284808,1.972139],[103.286612,1.96817],[103.280045,1.961602],[103.29217,1.946013],[103.304294,1.946302],[103.305305,1.936486],[103.301408,1.932012],[103.307181,1.920031],[103.297943,1.913103],[103.309346,1.899534],[103.320605,1.879471]],[[103.320605,1.879471],[103.327822,1.862438],[103.30646,1.84454],[103.309924,1.830394],[103.326956,1.805856],[103.339081,1.818558],[103.350196,1.829817],[103.359289,1.819568],[103.364919,1.823898],[103.372425,1.816248],[103.349041,1.790844],[103.354237,1.786225],[103.364341,1.780307],[103.374012,1.780307],[103.381951,1.76645],[103.392777,1.758222],[103.404442,1.76387]],[[103.320605,1.879471],[103.328833,1.885389],[103.335184,1.890369],[103.341679,1.882213],[103.345865,1.877378],[103.349041,1.879759],[103.355031,1.883584],[103.361454,1.88842],[103.368239,1.893833],[103.380219,1.904009]],[[103.380219,1.904009],[103.397901,1.911804],[103.407283,1.919959],[103.414449,1.926156],[103.423378,1.933527],[103.431516,1.938682],[103.435445,1.933442],[103.439544,1.929413],[103.434424,1.924678],[103.439875,1.916701],[103.445798,1.909169],[103.449793,1.904153],[103.45867,1.901555],[103.453112,1.894988],[103.464044,1.885158],[103.469363,1.888111],[103.476978,1.893359],[103.484002,1.898163],[103.488831,1.900965],[103.49276,1.903529],[103.497024,1.904452],[103.50788,1.891486],[103.51896,1.879748],[103.533966,1.892001],[103.54688,1.901416],[103.551085,1.903339]],[[103.551085,1.903339],[103.552866,1.899848],[103.556895,1.893364],[103.559999,1.88925],[103.565351,1.884643],[103.570427,1.881708],[103.574818,1.877903],[103.57806,1.875952],[103.586847,1.862979],[103.592448,1.854137],[103.598286,1.85219],[103.602941,1.843746],[103.607127,1.836528],[103.61521,1.832776],[103.618757,1.830825],[103.621675,1.829633],[103.624231,1.822635],[103.628381,1.817944],[103.631636,1.814017],[103.633109,1.803005],[103.641841,1.792612]],[[103.641841,1.792612],[103.633578,1.792071],[103.628262,1.793185],[103.624899,1.795282],[103.620172,1.798115],[103.615567,1.799338],[103.610724,1.801929],[103.595886,1.79918],[103.588658,1.798772],[103.582433,1.795324],[103.576075,1.795607],[103.568786,1.790266],[103.5547,1.790025],[103.551255,1.793444],[103.538547,1.800905],[103.532086,1.800731],[103.527612,1.804304],[103.516575,1.803145],[103.511731,1.804045],[103.500936,1.804856],[103.486579,1.803659],[103.474475,1.795264],[103.457226,1.782634]],[[103.457226,1.782634],[103.450442,1.777366],[103.44558,1.772341],[103.437424,1.783933],[103.434754,1.781768],[103.430712,1.786892],[103.404442,1.76387]],[[103.219393,2.029822],[103.235371,2.042362],[103.232917,2.045971],[103.239412,2.052755],[103.245042,2.050301],[103.264095,2.066756],[103.271456,2.064014],[103.282282,2.07354],[103.280117,2.082056],[103.285187,2.088672]],[[103.285187,2.088672],[103.288922,2.083933],[103.300397,2.067045],[103.303934,2.062426],[103.297799,2.057807],[103.297655,2.046476],[103.293324,2.037527],[103.294118,2.021721],[103.302923,2.019123],[103.312161,2.02403],[103.318079,2.029588],[103.326812,2.03298],[103.331287,2.0363],[103.339731,2.041785],[103.348247,2.051672],[103.360733,2.057951],[103.364702,2.065529]],[[103.364702,2.065529],[103.369898,2.059395],[103.380436,2.058817],[103.386642,2.050734],[103.386354,2.046692],[103.390251,2.040774],[103.397179,2.042795],[103.40353,2.040486]],[[103.40353,2.040486],[103.413057,2.026917],[103.425182,2.01104],[103.410315,1.999348],[103.388952,1.98448],[103.372785,1.9725],[103.366171,1.967891],[103.351559,1.957807],[103.344205,1.952075],[103.34969,1.946013],[103.36528,1.928836],[103.375844,1.921791],[103.380219,1.911587],[103.380219,1.904009]],[[103.285187,2.088672],[103.299079,2.102924],[103.308769,2.109554],[103.30747,2.095264],[103.312089,2.087758],[103.317574,2.086459],[103.325513,2.083428],[103.337133,2.083139],[103.347453,2.076138],[103.356114,2.07087],[103.364702,2.065529]],[[103.378879,2.378213],[103.447945,2.223759],[103.456107,2.207447],[103.481421,2.153321],[103.493168,2.136185],[103.492879,2.127813],[103.480177,2.118575],[103.469207,2.105584],[103.456505,2.105584],[103.428213,2.081046],[103.417243,2.074984],[103.407428,2.063148],[103.412047,2.051889],[103.404541,2.045249],[103.40353,2.040486]],[[103.378879,2.378213],[103.459103,2.393116],[103.506447,2.363093],[103.535316,2.338843],[103.564257,2.348009],[103.616653,2.369372],[103.623005,2.369228]],[[103.623005,2.369228],[103.622499,2.35501],[103.631737,2.279951],[103.618458,2.278219],[103.612107,2.270136],[103.613261,2.25166],[103.58497,2.139072],[103.560862,2.042778]],[[103.560862,2.042778],[103.564762,1.995306],[103.569381,1.940456],[103.551482,1.939878],[103.550905,1.911587],[103.551085,1.903339]],[[103.290487,2.576917],[103.352915,2.591297],[103.414176,2.557711],[103.447795,2.554353],[103.469834,2.527484],[103.607672,2.456578],[103.613649,2.462176],[103.623735,2.461056],[103.641665,2.486433],[103.632326,2.490912],[103.632326,2.506213],[103.618505,2.517781],[103.62747,2.531589],[103.623361,2.534575],[103.61589,2.531216],[103.607672,2.533455],[103.593478,2.527857],[103.590863,2.535694],[103.59796,2.542411],[103.594225,2.551368],[103.609914,2.565548],[103.612155,2.556965],[103.620373,2.556219],[103.618879,2.575624],[103.611781,2.578982],[103.603563,2.568907],[103.600575,2.580102],[103.610287,2.588311],[103.623361,2.58346],[103.628217,2.589431],[103.612902,2.598387],[103.630832,2.606596],[103.615143,2.621522],[103.625976,2.630105],[103.616264,2.636075],[103.618132,2.651001],[103.606178,2.650628],[103.605058,2.634583],[103.596466,2.637195],[103.591983,2.652121],[103.594598,2.662569],[103.604684,2.665554],[103.620373,2.656598],[103.640918,2.6663],[103.663798,2.667186],[103.682848,2.65338],[103.729915,2.63323],[103.746725,2.635096],[103.75046,2.651888],[103.767643,2.644425],[103.770258,2.628379],[103.761293,2.620543],[103.775488,2.611214],[103.782585,2.62017],[103.79155,2.614572],[103.781464,2.607482],[103.794165,2.594049],[103.812469,2.581734],[103.824422,2.585839],[103.828157,2.576883],[103.818819,2.573151],[103.822928,2.555612],[103.831893,2.54591],[103.825543,2.544417],[103.827784,2.534714],[103.83787,2.514936],[103.848329,2.506726],[103.845341,2.500382],[103.833761,2.502994],[103.819566,2.491052],[103.821807,2.482095],[103.83264,2.469033],[103.832641,2.469005],[103.833014,2.453732],[103.841605,2.439177]],[[103.841605,2.439177],[103.840313,2.436095],[103.838004,2.432703],[103.837787,2.428986],[103.83454,2.42812],[103.833501,2.424956],[103.827756,2.426388],[103.823064,2.423717],[103.819239,2.42747],[103.814115,2.422418],[103.80531,2.421985],[103.801774,2.425666],[103.79234,2.426654],[103.787864,2.426706],[103.787376,2.429202],[103.785003,2.437112],[103.78273,2.443788],[103.779977,2.444457],[103.697027,2.408492],[103.663421,2.396075],[103.634985,2.38525],[103.623005,2.369228]],[[103.842334,2.487989],[103.84536,2.486197],[103.848835,2.480935],[103.851091,2.480828],[103.851188,2.480823],[103.854999,2.47724],[103.855447,2.474105],[103.852197,2.474441],[103.851076,2.47556],[103.850174,2.475586],[103.847154,2.475672],[103.845024,2.478696],[103.837627,2.478472],[103.841214,2.48407],[103.840429,2.486533],[103.842334,2.487989]],[[103.963118,2.47442],[103.961674,2.474444],[103.961143,2.47296],[103.960188,2.474024],[103.959118,2.473958],[103.957105,2.474694],[103.956859,2.476821],[103.956325,2.47755],[103.957202,2.478495],[103.958614,2.480174],[103.960021,2.47958],[103.962168,2.479767],[103.962967,2.479697],[103.962381,2.478769],[103.964681,2.477048],[103.964526,2.475456],[103.964481,2.474419],[103.963118,2.47442]],[[103.952545,2.494639],[103.953737,2.494283],[103.954515,2.492777],[103.954465,2.492403],[103.955439,2.490976],[103.955449,2.490055],[103.954981,2.488428],[103.953199,2.487477],[103.951767,2.48825],[103.950522,2.488981],[103.949043,2.489686],[103.947431,2.491629],[103.947709,2.492901],[103.947221,2.495416],[103.948355,2.495715],[103.948896,2.494806],[103.950307,2.494527],[103.951808,2.495531],[103.952545,2.494639]],[[104.511344,2.470706],[104.509015,2.470397],[104.506632,2.467895],[104.501637,2.466641],[104.49955,2.467063],[104.49511,2.466555],[104.49266,2.468656],[104.49515,2.471306],[104.498202,2.473705],[104.50106,2.477057],[104.503273,2.476214],[104.503581,2.472286],[104.508023,2.473069],[104.510556,2.474932],[104.513102,2.474392],[104.513102,2.472231],[104.511344,2.470706]],[[104.3416,2.563242],[104.336892,2.562323],[104.334193,2.561417],[104.331275,2.563977],[104.327909,2.566452],[104.326822,2.569069],[104.321475,2.571014],[104.319749,2.572823],[104.318452,2.573683],[104.319531,2.57594],[104.317042,2.581153],[104.314109,2.582531],[104.311789,2.583594],[104.309548,2.589129],[104.309945,2.59387],[104.316323,2.596617],[104.319841,2.598411],[104.32761,2.59341],[104.329678,2.595057],[104.33471,2.59178],[104.333333,2.588263],[104.334911,2.584271],[104.333912,2.582415],[104.33591,2.580493],[104.340505,2.580708],[104.34334,2.578077],[104.345884,2.570445],[104.343178,2.568912],[104.3416,2.563242]],[[103.975907,2.441941],[103.974519,2.443713],[103.974873,2.444873],[103.974069,2.445856],[103.974288,2.446907],[103.973796,2.449247],[103.974687,2.451539],[103.974461,2.453925],[103.973239,2.45467],[103.971845,2.457308],[103.975063,2.459375],[103.976027,2.458867],[103.976124,2.457795],[103.977743,2.457983],[103.978237,2.456295],[103.97766,2.454828],[103.98024,2.452443],[103.981336,2.450937],[103.981934,2.45104],[103.983718,2.450596],[103.984951,2.448877],[103.985453,2.447166],[103.985507,2.445728],[103.985881,2.444148],[103.987145,2.443092],[103.987849,2.442001],[103.989437,2.441539],[103.990529,2.440566],[103.989848,2.438046],[103.991626,2.436504],[103.993231,2.433765],[103.994983,2.430629],[103.996107,2.430336],[103.996956,2.429213],[103.99788,2.428142],[103.995426,2.426118],[103.993706,2.42397],[103.992558,2.42449],[103.991471,2.425047],[103.98994,2.425518],[103.988268,2.42643],[103.986942,2.426502],[103.983745,2.428338],[103.982337,2.428106],[103.980012,2.429378],[103.97736,2.432105],[103.97626,2.434085],[103.975251,2.436524],[103.975658,2.437676],[103.97544,2.438386],[103.976055,2.439725],[103.975907,2.441941]],[[104.102056,2.184688],[104.101203,2.184562],[104.100576,2.183897],[104.100434,2.183495],[104.100541,2.182742],[104.100522,2.181834],[104.099553,2.182234],[104.098974,2.182571],[104.098745,2.182949],[104.098194,2.183286],[104.097519,2.183473],[104.097086,2.183237],[104.096759,2.183396],[104.096736,2.184222],[104.096605,2.184323],[104.096588,2.18472],[104.096818,2.185152],[104.097551,2.185413],[104.09816,2.185728],[104.098616,2.186283],[104.099378,2.186296],[104.0999,2.186732],[104.099799,2.187105],[104.099131,2.188179],[104.099478,2.188794],[104.100257,2.188564],[104.101057,2.188133],[104.101851,2.187955],[104.103754,2.18678],[104.104293,2.186204],[104.104163,2.185759],[104.103568,2.185282],[104.102858,2.185203],[104.102056,2.184688]],[[104.527029,2.422215],[104.525473,2.422063],[104.524553,2.421703],[104.521848,2.421853],[104.519622,2.42189],[104.518915,2.422824],[104.519206,2.424815],[104.518674,2.42709],[104.517756,2.428206],[104.517533,2.429271],[104.51688,2.430359],[104.516942,2.431331],[104.512962,2.437618],[104.511631,2.4382],[104.510121,2.43886],[104.508808,2.439303],[104.506342,2.438884],[104.505541,2.439275],[104.504949,2.43921],[104.504419,2.437153],[104.503278,2.43712],[104.502628,2.437544],[104.502966,2.438838],[104.503517,2.439634],[104.503329,2.440544],[104.50216,2.441176],[104.5017,2.442138],[104.501731,2.443559],[104.501626,2.445842],[104.502633,2.44612],[104.503209,2.447189],[104.502979,2.448486],[104.502586,2.449793],[104.501826,2.450129],[104.501073,2.450562],[104.500442,2.45126],[104.499801,2.451851],[104.499177,2.452867],[104.499545,2.454177],[104.499397,2.456342],[104.500398,2.457397],[104.500676,2.458468],[104.502059,2.45939],[104.503431,2.459229],[104.503897,2.460309],[104.505799,2.46267],[104.506794,2.46351],[104.507334,2.464471],[104.509467,2.464975],[104.510834,2.465619],[104.511982,2.466326],[104.511495,2.467019],[104.511584,2.468181],[104.512486,2.468598],[104.513869,2.468343],[104.514937,2.467125],[104.518449,2.465716],[104.519877,2.464817],[104.520184,2.463682],[104.525042,2.459829],[104.525573,2.457073],[104.524317,2.455697],[104.526212,2.453755],[104.527126,2.454772],[104.528913,2.45535],[104.532731,2.454116],[104.537938,2.451232],[104.540385,2.450545],[104.541095,2.448795],[104.541163,2.444369],[104.540048,2.440458],[104.53969,2.437178],[104.539435,2.436158],[104.539567,2.434856],[104.540123,2.432778],[104.539412,2.431067],[104.538206,2.430747],[104.536604,2.428769],[104.535837,2.427156],[104.533315,2.425732],[104.531322,2.424056],[104.529214,2.422817],[104.527029,2.422215]],[[104.089654,2.1965],[104.090423,2.195477],[104.089497,2.195069],[104.088113,2.196374],[104.087716,2.19716],[104.086465,2.19781],[104.085352,2.198917],[104.084117,2.198668],[104.08334,2.199011],[104.082956,2.199651],[104.082038,2.198945],[104.081367,2.198902],[104.081028,2.199815],[104.080505,2.199477],[104.079907,2.200773],[104.078388,2.200891],[104.075784,2.199584],[104.07369,2.198649],[104.071445,2.196398],[104.073215,2.199307],[104.07469,2.202982],[104.075229,2.205773],[104.074965,2.208092],[104.074951,2.210795],[104.073846,2.212256],[104.073745,2.213439],[104.073577,2.214115],[104.072672,2.215958],[104.071832,2.216144],[104.071418,2.216477],[104.070213,2.216089],[104.069649,2.216207],[104.068876,2.216102],[104.068075,2.217172],[104.067266,2.217403],[104.065818,2.217368],[104.065424,2.217955],[104.064491,2.218344],[104.063787,2.219254],[104.063388,2.219241],[104.063023,2.21848],[104.062998,2.217931],[104.062524,2.21773],[104.061751,2.217911],[104.061218,2.219076],[104.061361,2.219555],[104.060808,2.220358],[104.060818,2.220852],[104.060179,2.221754],[104.059192,2.221962],[104.057597,2.222768],[104.05678,2.223155],[104.056158,2.223967],[104.055605,2.223948],[104.054784,2.2242],[104.05427,2.225962],[104.053713,2.226467],[104.053173,2.227607],[104.053289,2.228463],[104.052362,2.228932],[104.051458,2.229582],[104.051226,2.230271],[104.053676,2.230295],[104.054563,2.230683],[104.059688,2.230681],[104.062035,2.231656],[104.061871,2.232991],[104.061699,2.234831],[104.062182,2.234839],[104.062831,2.233784],[104.064633,2.233045],[104.065224,2.232285],[104.066771,2.231263],[104.066715,2.230595],[104.065851,2.228858],[104.066034,2.226786],[104.06779,2.223907],[104.06981,2.222411],[104.06998,2.221367],[104.071466,2.219883],[104.072613,2.220355],[104.074123,2.219793],[104.075085,2.219669],[104.074225,2.218077],[104.074568,2.216419],[104.076048,2.214188],[104.077456,2.213141],[104.079783,2.213544],[104.080409,2.213327],[104.080929,2.21179],[104.081954,2.209382],[104.082428,2.208119],[104.084575,2.206627],[104.086897,2.203404],[104.087209,2.202437],[104.087153,2.200948],[104.086823,2.200288],[104.087282,2.198879],[104.088117,2.199163],[104.089125,2.198504],[104.089838,2.198278],[104.090348,2.197346],[104.089654,2.1965]],[[104.141826,2.298119],[104.142898,2.2956],[104.142947,2.293805],[104.144239,2.291336],[104.142998,2.290448],[104.143264,2.289476],[104.141867,2.28866],[104.139841,2.289935],[104.13832,2.289556],[104.136573,2.288942],[104.13639,2.289848],[104.135573,2.289162],[104.135367,2.28848],[104.134752,2.288144],[104.136196,2.286681],[104.135979,2.285352],[104.134985,2.284389],[104.13471,2.283301],[104.133933,2.282895],[104.132938,2.282478],[104.131981,2.281832],[104.130748,2.281557],[104.130051,2.280926],[104.12931,2.280654],[104.127833,2.281155],[104.1265,2.281231],[104.125876,2.281437],[104.125455,2.282049],[104.124758,2.282683],[104.121675,2.283024],[104.118505,2.283446],[104.117806,2.284216],[104.114819,2.284908],[104.113298,2.284731],[104.112605,2.285881],[104.110793,2.286627],[104.110056,2.287069],[104.110377,2.287934],[104.11191,2.288666],[104.111738,2.289665],[104.110773,2.290515],[104.109355,2.290263],[104.108735,2.290842],[104.107841,2.290717],[104.106404,2.291088],[104.105751,2.291868],[104.10459,2.292285],[104.1041,2.292898],[104.104067,2.293387],[104.103592,2.29387],[104.099937,2.294276],[104.098373,2.295279],[104.097804,2.296321],[104.097345,2.297579],[104.096434,2.298415],[104.096436,2.298852],[104.095134,2.29937],[104.094724,2.30083],[104.094919,2.30183],[104.094727,2.302702],[104.094878,2.304208],[104.094393,2.304921],[104.093785,2.306721],[104.094849,2.310923],[104.094206,2.312824],[104.093728,2.312831],[104.092304,2.312353],[104.09163,2.314609],[104.092237,2.31702],[104.09346,2.317595],[104.095562,2.315809],[104.09759,2.316207],[104.097833,2.313866],[104.09906,2.313881],[104.099821,2.315244],[104.100972,2.314953],[104.10184,2.314095],[104.102809,2.312956],[104.104355,2.312631],[104.106105,2.314235],[104.10664,2.315659],[104.108757,2.316344],[104.110198,2.317378],[104.111805,2.316294],[104.11319,2.31673],[104.116017,2.316041],[104.118138,2.316323],[104.119456,2.315073],[104.121441,2.315111],[104.124426,2.314374],[104.126119,2.31386],[104.126178,2.312652],[104.127741,2.312445],[104.129026,2.312901],[104.12936,2.311677],[104.130868,2.311513],[104.132999,2.309372],[104.135493,2.310537],[104.136765,2.30946],[104.136746,2.30819],[104.134987,2.308139],[104.135403,2.306154],[104.13648,2.305578],[104.137414,2.304223],[104.138285,2.303984],[104.14021,2.300908],[104.14186,2.299875],[104.141826,2.298119]],[[103.841605,2.439177],[103.847132,2.435706],[103.851509,2.429047],[103.855933,2.428121],[103.912952,2.349231],[103.940595,2.34102],[103.963381,2.308548],[103.95591,2.307802],[103.953669,2.295858],[103.973093,2.264505],[103.983926,2.253681],[103.982805,2.245842],[103.972346,2.249948],[103.960019,2.248455],[103.957778,2.235391],[103.96226,2.223447],[103.958151,2.217101],[103.968984,2.195078],[103.988035,2.172682],[103.993638,2.162603],[104.007833,2.149165],[104.021654,2.120796],[104.043319,2.072267],[104.057514,2.058828],[104.05602,2.052109],[104.062844,2.042367]],[[104.062844,2.042367],[104.054663,2.042264],[104.047563,2.035781],[104.038044,2.042469],[103.923874,2.042264],[103.75227,2.043159]],[[103.75227,2.043159],[103.560862,2.042778]],[[103.75227,2.043159],[103.792057,1.90934],[103.794243,1.903552],[103.811016,1.855908],[103.840301,1.844745],[103.867246,1.82668],[103.901233,1.834947],[103.923892,1.810146],[103.938283,1.792386],[103.94211,1.786645]],[[103.94211,1.786645],[103.936004,1.78277],[103.930036,1.775258],[103.928081,1.763219],[103.922627,1.756119],[103.919848,1.745005],[103.914247,1.742974],[103.901846,1.742056],[103.89821,1.740487]],[[103.89821,1.740487],[103.89553,1.73731],[103.895148,1.732947],[103.89266,1.731951],[103.892928,1.727091],[103.888335,1.72667],[103.882288,1.730344],[103.877618,1.731339],[103.872489,1.733789],[103.872872,1.739377],[103.869272,1.742227],[103.866098,1.743778],[103.864681,1.748141],[103.860663,1.746457],[103.854883,1.743319],[103.837888,1.742176],[103.829967,1.741635],[103.82346,1.745156],[103.800955,1.741405],[103.776536,1.749672],[103.774775,1.754878],[103.768728,1.761078],[103.765958,1.769908],[103.751964,1.777995],[103.738568,1.78565],[103.735808,1.789047],[103.728464,1.791544],[103.718283,1.790166],[103.708539,1.796148],[103.696169,1.802982],[103.68557,1.809259],[103.677977,1.814464],[103.670746,1.8116],[103.668756,1.8054],[103.665629,1.80047],[103.657294,1.798206],[103.649062,1.798309],[103.645414,1.794669],[103.641841,1.792612]],[[103.89821,1.740487],[103.900009,1.736544],[103.898937,1.725751],[103.898975,1.715532],[103.908888,1.724641],[103.912945,1.725942],[103.907128,1.718517],[103.907204,1.716986],[103.914806,1.717736],[103.912748,1.703124],[103.921803,1.697876],[103.932814,1.698391],[103.936827,1.694069],[103.928081,1.692834],[103.929007,1.689232],[103.937445,1.686557],[103.93055,1.679148],[103.933637,1.669887],[103.931656,1.666105],[103.926923,1.661963]],[[103.926923,1.661963],[103.924968,1.664613],[103.921443,1.664407],[103.918819,1.669347],[103.914069,1.672696],[103.909452,1.672571],[103.907166,1.670736],[103.902355,1.670761],[103.900065,1.66824],[103.899794,1.666016],[103.898546,1.662771],[103.898465,1.659054],[103.898208,1.652082],[103.894097,1.647917],[103.891129,1.64438],[103.888514,1.641182],[103.882538,1.635316],[103.878154,1.630716],[103.883071,1.627048],[103.891745,1.620957],[103.894612,1.618162],[103.881905,1.60113],[103.875513,1.60691],[103.870576,1.600862],[103.866748,1.597379],[103.86227,1.601475],[103.857601,1.598719],[103.851171,1.603388],[103.846501,1.598796],[103.838144,1.60758],[103.819622,1.623787],[103.800173,1.631299],[103.791769,1.634391],[103.783732,1.637376],[103.776498,1.639902]],[[103.776498,1.639902],[103.776995,1.646039],[103.773283,1.648361],[103.777187,1.651155],[103.777646,1.65525],[103.771063,1.659422],[103.765934,1.657432],[103.7667,1.668684],[103.745496,1.669526],[103.741132,1.671363],[103.722761,1.660417]],[[103.722761,1.660417],[103.703815,1.686137]],[[103.703815,1.686137],[103.672813,1.725866],[103.671282,1.729234],[103.678784,1.733521],[103.667914,1.757404],[103.663857,1.758093],[103.658116,1.75549],[103.649389,1.776158],[103.643878,1.78565],[103.644949,1.789478],[103.641841,1.792612]],[[104.062844,2.042367],[104.065468,2.038559],[104.13297,1.92182],[104.124752,1.91734],[104.116534,1.930033],[104.105328,1.896433],[104.113546,1.865819],[104.132223,1.849391],[104.145652,1.845646],[104.148659,1.844911],[104.151648,1.854618],[104.162854,1.846405],[104.158371,1.835951],[104.170325,1.810563],[104.188255,1.788161],[104.200956,1.754558],[104.199835,1.744103],[104.200769,1.738503]],[[104.200769,1.738503],[104.198815,1.73421],[104.177535,1.721043],[104.162837,1.711551],[104.140791,1.697466],[104.132065,1.699916],[104.124869,1.684606],[104.116449,1.684606],[104.114918,1.669756],[104.115377,1.657508],[104.074654,1.653221],[104.070826,1.658274]],[[104.070826,1.658274],[104.071209,1.660111],[104.071515,1.679248],[104.069219,1.690577],[104.062482,1.691955],[104.052244,1.699241],[104.044019,1.706728],[104.038687,1.711777],[104.034006,1.714001],[104.021299,1.754265],[104.00997,1.786569],[104.000421,1.781947],[103.98869,1.768673],[103.98231,1.766203],[103.968727,1.772686],[103.963993,1.780815],[103.951131,1.788121],[103.946294,1.788739],[103.94211,1.786645]],[[104.070826,1.658274],[104.059956,1.658121],[104.051842,1.655518],[104.012496,1.655977],[104.009741,1.65215],[104.0102,1.632247],[104.022601,1.623061],[104.033164,1.61954],[104.034542,1.603465],[104.036073,1.588768],[104.047096,1.593973],[104.055593,1.599638],[104.058752,1.593619],[104.065697,1.586012],[104.067411,1.582913],[104.069227,1.572702],[104.072381,1.560038],[104.066854,1.558687],[104.057324,1.558346],[104.05345,1.555469],[104.051879,1.550279],[104.049885,1.547111],[104.042427,1.54659],[104.033088,1.54636],[104.023002,1.538596]],[[104.023002,1.538596],[104.021811,1.550338],[104.01286,1.564503],[104.005996,1.573987],[104.000029,1.579835],[103.99515,1.583636],[103.984174,1.594215],[103.974474,1.609928],[103.97317,1.618266],[103.975268,1.631143],[103.973425,1.639027],[103.969454,1.642176],[103.961924,1.644666],[103.956223,1.647947],[103.950443,1.653027],[103.935462,1.653223],[103.927251,1.656952],[103.925819,1.66003],[103.926923,1.661963]],[[104.026686,1.482371],[104.024477,1.527858],[104.023002,1.538596]],[[104.200769,1.738503],[104.207953,1.728397],[104.221314,1.710313],[104.214403,1.703405],[104.214216,1.697805],[104.227104,1.677082],[104.241298,1.658786],[104.24933,1.653372],[104.250264,1.647211],[104.245034,1.639556],[104.247088,1.630408],[104.26203,1.614912],[104.265766,1.609125],[104.256987,1.601097],[104.255867,1.60315],[104.254373,1.60091],[104.253812,1.594936],[104.260349,1.58336],[104.264645,1.58336],[104.263524,1.578506],[104.260349,1.579813],[104.254559,1.56357],[104.268754,1.540605],[104.279213,1.531457],[104.280707,1.526789],[104.282762,1.524735],[104.28575,1.510732],[104.282762,1.504571],[104.279774,1.507558],[104.275851,1.504944],[104.273423,1.496916],[104.274357,1.486087],[104.282762,1.467229],[104.290697,1.454197],[104.295836,1.445757],[104.294342,1.441089],[104.29733,1.43306],[104.293595,1.433247],[104.288552,1.438662]],[[104.288552,1.438662],[104.282623,1.447608],[104.269775,1.452143],[104.259447,1.463479],[104.245844,1.455418],[104.239547,1.46373],[104.218386,1.476326],[104.231234,1.477585],[104.230982,1.486402],[104.215112,1.495219],[104.226196,1.502776],[104.216119,1.518646],[104.201509,1.509074],[104.196471,1.515371],[104.194203,1.527715],[104.196974,1.547363],[104.195211,1.55744],[104.182868,1.559455],[104.168761,1.548371],[104.153395,1.548623],[104.136265,1.550638],[104.126945,1.537539],[104.109311,1.526455],[104.094701,1.518142],[104.083113,1.517638],[104.070266,1.520661],[104.057922,1.513104],[104.05238,1.496478],[104.043312,1.484135],[104.026686,1.482371]],[[104.288552,1.438662],[104.279027,1.432687],[104.274918,1.425032],[104.274544,1.411962],[104.279774,1.382273],[104.281828,1.379846],[104.283696,1.380406],[104.283509,1.36827],[104.2794,1.368456],[104.276038,1.363415],[104.26091,1.358373],[104.251758,1.358],[104.251384,1.367336],[104.246528,1.368643],[104.240551,1.366589],[104.22617,1.349971],[104.228224,1.347544],[104.225049,1.346423],[104.218699,1.348477],[104.216084,1.348851],[104.200956,1.336714],[104.193298,1.344556],[104.183399,1.348291],[104.164722,1.342129],[104.159305,1.342876],[104.156877,1.346423],[104.137453,1.341382],[104.129982,1.350905],[104.12662,1.35632],[104.112239,1.360054],[104.10813,1.363788],[104.087958,1.36883],[104.096923,1.382834],[104.106822,1.390863],[104.111305,1.391796],[104.112986,1.401319],[104.11504,1.40692],[104.113172,1.409908],[104.105515,1.4058],[104.098791,1.418123],[104.089266,1.429139],[104.07339,1.439409],[104.066293,1.442956],[104.058448,1.444076],[104.056207,1.449304],[104.02783,1.452675]],[[104.02783,1.452675],[104.026686,1.482371]],[[103.910116,1.490086],[103.91062,1.494369],[103.91528,1.497643],[103.915784,1.502492],[103.911628,1.512254],[103.912447,1.52466],[103.910368,1.53291],[103.910053,1.540593],[103.905015,1.548591],[103.901498,1.551927],[103.894498,1.55174],[103.888956,1.559045],[103.88058,1.558982],[103.872267,1.556148],[103.866977,1.550858],[103.863451,1.543931],[103.860869,1.543931],[103.839394,1.555834],[103.832277,1.559423],[103.828373,1.553503],[103.831711,1.549536],[103.828184,1.544561],[103.824909,1.544309],[103.821319,1.547143],[103.820186,1.551992],[103.813951,1.554259],[103.810362,1.557849],[103.806205,1.564146]],[[103.806205,1.564146],[103.810236,1.567484],[103.817793,1.575545],[103.819556,1.596957],[103.80948,1.600232],[103.801419,1.607034],[103.792854,1.614591],[103.778495,1.605522],[103.769805,1.607789],[103.763381,1.615598],[103.7659,1.630209],[103.776498,1.639902]],[[104.02783,1.452675],[104.018479,1.453785],[104.006712,1.44669],[103.988782,1.4325],[103.969544,1.426525],[103.954789,1.427272],[103.922478,1.434554]],[[103.922478,1.434554],[103.920445,1.44065],[103.920067,1.452048],[103.91717,1.456331],[103.913958,1.462125],[103.913076,1.467289],[103.918429,1.47113],[103.918744,1.476483],[103.917862,1.484607],[103.91421,1.489645],[103.910116,1.490086]],[[103.758217,1.517481],[103.753305,1.518111],[103.747889,1.521134],[103.74291,1.515309]],[[103.74291,1.515309],[103.74185,1.518054],[103.737607,1.521424],[103.736599,1.526145],[103.732089,1.529832],[103.723414,1.533529],[103.71705,1.538021],[103.705173,1.54027],[103.701648,1.542561],[103.700342,1.544482]],[[103.700342,1.544482],[103.697697,1.550071],[103.694642,1.554983],[103.692407,1.561376],[103.685164,1.56591],[103.687521,1.57231],[103.692973,1.575419],[103.699019,1.577812],[103.701773,1.573339],[103.703831,1.569583],[103.706702,1.566917],[103.711111,1.562446],[103.719675,1.573341],[103.711551,1.573215],[103.711677,1.588676],[103.702735,1.600389],[103.696319,1.605805],[103.686298,1.617078]],[[103.686298,1.617078],[103.689321,1.618779],[103.691779,1.616688],[103.697319,1.608828],[103.700262,1.610285],[103.701286,1.612387],[103.698074,1.616511],[103.697387,1.619463],[103.706747,1.626326],[103.724273,1.63934],[103.738379,1.639529],[103.732022,1.647474],[103.722761,1.660417]],[[103.806205,1.564146],[103.802867,1.564776],[103.801041,1.559297],[103.801067,1.553855],[103.79997,1.550292],[103.79424,1.546261],[103.785751,1.536384],[103.783156,1.533603],[103.780889,1.527557],[103.77585,1.526675],[103.770577,1.523649],[103.768167,1.523779],[103.764389,1.528817],[103.75658,1.527557],[103.758595,1.52403],[103.761744,1.521134],[103.758217,1.517481]],[[103.761051,1.510805],[103.757902,1.514521],[103.758217,1.517481]],[[103.910116,1.490086],[103.907031,1.491472],[103.904323,1.489393],[103.90004,1.485678],[103.890279,1.485489],[103.886752,1.489016],[103.885933,1.494243],[103.880895,1.494117],[103.880706,1.490023],[103.881462,1.485867],[103.885556,1.482844],[103.886626,1.479821],[103.881084,1.479443],[103.880958,1.474846],[103.874094,1.475287],[103.871386,1.477743],[103.854256,1.494494],[103.840149,1.508097],[103.833065,1.511309],[103.828215,1.515434],[103.825791,1.519087],[103.822799,1.521008],[103.818076,1.519654],[103.809795,1.516284],[103.799593,1.513136],[103.798081,1.509861],[103.804127,1.50772],[103.806016,1.500288],[103.802867,1.497643],[103.79667,1.495627]],[[103.79667,1.495627],[103.796103,1.499938],[103.788194,1.503437],[103.782085,1.50413],[103.777047,1.506775],[103.77245,1.512884],[103.768986,1.51301],[103.766404,1.511813],[103.761051,1.510805]],[[103.922478,1.434554],[103.92061,1.429886],[103.888111,1.436048],[103.866446,1.465922],[103.815083,1.484593],[103.804251,1.481792],[103.797124,1.484679]],[[103.797124,1.484679],[103.79616,1.486721],[103.79667,1.495627]],[[103.756863,1.473334],[103.755826,1.475656],[103.755533,1.482741],[103.75713,1.488074],[103.757461,1.492416],[103.752927,1.492101],[103.753179,1.484229],[103.749463,1.48467],[103.746126,1.486811],[103.740647,1.488953],[103.735545,1.490212],[103.729386,1.489152],[103.724395,1.486883],[103.718038,1.486119],[103.714795,1.48637],[103.711961,1.489267],[103.706734,1.492479],[103.703711,1.494306]],[[103.703711,1.494306],[103.70645,1.497958],[103.709347,1.501611],[103.713315,1.504004],[103.71533,1.508034],[103.723076,1.509483],[103.730192,1.509735],[103.7329,1.511246],[103.736049,1.514395],[103.74291,1.515309]],[[103.761051,1.510805],[103.762027,1.506271],[103.764656,1.502338],[103.765333,1.498305],[103.766813,1.490181],[103.764805,1.482098],[103.762625,1.473082],[103.759414,1.473838],[103.756863,1.473334]],[[103.797124,1.484679],[103.788935,1.476938],[103.769643,1.457821],[103.767643,1.455839]],[[103.767643,1.455839],[103.765239,1.462125],[103.760991,1.467634],[103.757814,1.470924],[103.756863,1.473334]],[[103.767643,1.455839],[103.756997,1.453599],[103.75046,1.455127],[103.739915,1.457685],[103.731036,1.45976],[103.718858,1.465336],[103.708249,1.461254],[103.695175,1.455653]],[[103.695175,1.455653],[103.691399,1.455748],[103.687809,1.460031],[103.682582,1.466328],[103.677229,1.46828],[103.67112,1.464061],[103.666145,1.467399],[103.660792,1.464817],[103.652731,1.46425],[103.64593,1.463998],[103.640514,1.466013],[103.639632,1.470422],[103.635917,1.472941],[103.630941,1.47716],[103.627163,1.481443],[103.636169,1.481002],[103.640199,1.482324],[103.644041,1.486985],[103.64001,1.490196],[103.643285,1.493912],[103.649583,1.49958],[103.65059,1.504108]],[[103.65059,1.504108],[103.660233,1.503767],[103.668061,1.500137],[103.676116,1.501612],[103.679307,1.502981],[103.681449,1.505311],[103.687557,1.505248],[103.690139,1.507011]],[[103.690139,1.507011],[103.694737,1.501091],[103.698267,1.498577],[103.703711,1.494306]],[[103.690139,1.507011],[103.684283,1.512616],[103.682204,1.515261],[103.680126,1.521685],[103.683779,1.526849],[103.687117,1.533839],[103.692123,1.539397],[103.696185,1.54316],[103.700342,1.544482]],[[103.661487,1.566187],[103.662067,1.569797],[103.65821,1.577135],[103.649394,1.584882],[103.647882,1.590162],[103.645458,1.596658],[103.652432,1.601688],[103.660446,1.607585],[103.66498,1.601287],[103.668999,1.602615],[103.671939,1.60601],[103.676096,1.609663],[103.686298,1.617078]],[[103.65059,1.504108],[103.643096,1.510884],[103.647189,1.515292],[103.652542,1.520897],[103.646623,1.526061],[103.641144,1.52921],[103.635035,1.523731],[103.623825,1.522094],[103.630375,1.530092],[103.635602,1.535823],[103.643033,1.543191],[103.644733,1.54993],[103.649016,1.54993],[103.657077,1.547662],[103.659218,1.557739],[103.661487,1.566187]],[[103.695175,1.455653],[103.696296,1.451172],[103.687891,1.445197],[103.687891,1.441836],[103.682288,1.442583],[103.672949,1.436981],[103.667159,1.421111],[103.650163,1.403373],[103.646428,1.388809],[103.637276,1.373871],[103.60347,1.343996],[103.54557,1.352398],[103.542529,1.354468]],[[103.542529,1.354468],[103.541981,1.362791],[103.538577,1.372604],[103.535866,1.380886],[103.535537,1.38379],[103.537679,1.395678],[103.539846,1.407949],[103.545679,1.425812],[103.548768,1.440617],[103.550866,1.44992],[103.553222,1.459834],[103.552756,1.466706],[103.558109,1.473696],[103.563777,1.480309],[103.57733,1.477475],[103.580356,1.480257],[103.580088,1.487803],[103.577317,1.490448],[103.574672,1.493156],[103.575312,1.503422],[103.575365,1.516898],[103.575673,1.525807],[103.571206,1.525226],[103.565417,1.525183],[103.561969,1.524559],[103.558204,1.524361],[103.553732,1.524172],[103.545161,1.523685],[103.538358,1.52279],[103.532341,1.523145],[103.532279,1.529884],[103.5252,1.533066]],[[103.5252,1.533066],[103.517395,1.544954],[103.513427,1.544514],[103.510281,1.553657],[103.508641,1.558116],[103.508129,1.570352],[103.508909,1.583552],[103.505668,1.58314]],[[103.505668,1.58314],[103.507108,1.587977],[103.51035,1.593173],[103.54158,1.62425],[103.549324,1.630162],[103.564383,1.629602],[103.570106,1.629469]],[[103.570106,1.629469],[103.572877,1.621408],[103.593281,1.59521],[103.594289,1.576821],[103.615071,1.576537],[103.632642,1.576632],[103.632768,1.56665],[103.648764,1.566839],[103.661487,1.566187]],[[103.703815,1.686137],[103.69735,1.686935],[103.691966,1.684353],[103.683149,1.677551],[103.687872,1.672261],[103.674836,1.662185],[103.664067,1.653809],[103.658903,1.660296],[103.653928,1.660359],[103.647504,1.655825],[103.637932,1.649275],[103.628611,1.641592],[103.62406,1.64125],[103.613497,1.651007],[103.605881,1.659586],[103.597645,1.663153],[103.591874,1.666362],[103.588306,1.670057]],[[103.588306,1.670057],[103.584969,1.672545],[103.57256,1.68255],[103.561012,1.690748],[103.54712,1.701546],[103.536414,1.691847],[103.541956,1.685549],[103.548379,1.676922],[103.548568,1.672576],[103.544853,1.671821],[103.539625,1.677111],[103.536729,1.675473],[103.539877,1.669805],[103.535217,1.670813],[103.526589,1.677488],[103.518276,1.677488],[103.50946,1.671569],[103.504674,1.67774],[103.494597,1.69084],[103.501273,1.696004],[103.511853,1.686053],[103.513238,1.691973],[103.507444,1.703057],[103.51286,1.708221],[103.496235,1.727996],[103.508089,1.739927],[103.507873,1.748371],[103.498635,1.759485],[103.496903,1.765042],[103.493366,1.762805],[103.486607,1.754402],[103.482107,1.757176],[103.470813,1.768038],[103.462693,1.775219],[103.457226,1.782634]],[[103.588306,1.670057],[103.585032,1.665523],[103.590574,1.657966],[103.589062,1.654691],[103.592715,1.650409],[103.579867,1.638947],[103.570106,1.629469]],[[103.505668,1.58314],[103.502941,1.582935],[103.495635,1.590189],[103.465124,1.624919],[103.448711,1.638965]],[[103.448711,1.638965],[103.424838,1.658516],[103.400888,1.677961]],[[103.400888,1.677961],[103.375085,1.698699],[103.362428,1.708732]],[[103.30825,1.571153],[103.287918,1.582987],[103.209867,1.613572],[103.186916,1.622052]],[[103.400888,1.677961],[103.378846,1.651133],[103.359072,1.6369],[103.344839,1.626824],[103.332811,1.622667],[103.320152,1.606357],[103.32179,1.602578],[103.315807,1.596595],[103.311776,1.582237],[103.30825,1.571153]],[[103.448711,1.638965],[103.448058,1.62865],[103.445665,1.624872],[103.440186,1.623297],[103.435777,1.622982],[103.42948,1.616118],[103.425638,1.610198],[103.432125,1.606734],[103.424945,1.597288],[103.432376,1.596658],[103.44239,1.587967],[103.452592,1.589101],[103.452214,1.580032],[103.444531,1.565548],[103.441634,1.556857],[103.430676,1.549804],[103.433195,1.539727],[103.431432,1.530407],[103.422993,1.518063],[103.423875,1.497911],[103.417955,1.49388],[103.41002,1.492495],[103.4041,1.504461],[103.392575,1.494636],[103.393772,1.479207]],[[103.393772,1.479207],[103.393961,1.476184],[103.389883,1.473079]],[[103.389883,1.473079],[103.371606,1.514634],[103.370471,1.517267],[103.35609,1.537618],[103.335171,1.555541],[103.321782,1.563435],[103.30825,1.571153]],[[103.5252,1.533066],[103.51771,1.530438],[103.511538,1.5254],[103.513679,1.519732],[103.51708,1.513813],[103.513175,1.505374],[103.504737,1.50424],[103.504862,1.4924],[103.507382,1.47842],[103.486977,1.477412],[103.480931,1.470422],[103.471485,1.48245],[103.466132,1.489693],[103.45177,1.484623],[103.444594,1.483143],[103.435147,1.477979],[103.429983,1.482198],[103.427401,1.489724],[103.417766,1.484308],[103.414042,1.484296],[103.407122,1.483842],[103.40177,1.482923],[103.398839,1.481732],[103.393772,1.479207]],[[103.542529,1.354468],[103.547057,1.33329],[103.528227,1.320538],[103.523531,1.315801],[103.513072,1.301236],[103.510644,1.283684],[103.514006,1.262397],[103.506535,1.261464],[103.487297,1.281444],[103.471422,1.301423],[103.453118,1.317481],[103.440604,1.322336],[103.431452,1.353892],[103.4322,1.358373],[103.414083,1.395157],[103.407732,1.43026],[103.389883,1.473079]],[[103.418096,1.33687],[103.418792,1.338609],[103.424011,1.33687],[103.431318,1.33165],[103.437407,1.325735],[103.439147,1.321733],[103.437755,1.316862],[103.436712,1.313034],[103.42923,1.310077],[103.426969,1.307641],[103.421575,1.305901],[103.418096,1.308337],[103.41653,1.3146],[103.418792,1.322081],[103.419836,1.329214],[103.418096,1.33687]]],"bbox":[102.467799,1.261464,104.541163,2.831474]}
