{"type":"Topology","objects":{"KDH_SE-07":{"type":"GeometryCollection","geometries":[{"type":"MultiPolygon","arcs":[[[0]],[[1]],[[2]],[[3]],[[4]],[[5]],[[6]],[[7]],[[8]],[[9]],[[10]],[[11]],[[12]]],"properties":{"state":"Kedah","parlimen":"P.003 Jerlun-Langkawi","code_parlimen":"P.003","dun":"N.01 Langkawi","code_dun":"N.01"}},{"type":"Polygon","arcs":[[13,14,15]],"properties":{"state":"Kedah","parlimen":"P.003 Jerlun-Langkawi","code_parlimen":"P.003","dun":"N.02 Jerlun","code_dun":"N.02"}},{"type":"Polygon","arcs":[[16,17,18,-15,19,20]],"properties":{"state":"Kedah","parlimen":"P.004 Kubang Pasu","code_parlimen":"P.004","dun":"N.03 Tunjang","code_dun":"N.03"}},{"type":"Polygon","arcs":[[21,22,-17,23]],"properties":{"state":"Kedah","parlimen":"P.004 Kubang Pasu","code_parlimen":"P.004","dun":"N.04 Jitra","code_dun":"N.04"}},{"type":"Polygon","arcs":[[24,25,-24,-21,26,27]],"properties":{"state":"Kedah","parlimen":"P.005 Padang Terap","code_parlimen":"P.005","dun":"N.05 Kuala Nerang","code_dun":"N.05"}},{"type":"Polygon","arcs":[[28,29,30,-22,-26]],"properties":{"state":"Kedah","parlimen":"P.005 Padang Terap","code_parlimen":"P.005","dun":"N.06 Pokok Sena","code_dun":"N.06"}},{"type":"Polygon","arcs":[[31,32,-18,-23,-31,33,34]],"properties":{"state":"Kedah","parlimen":"P.006 Kota Setar","code_parlimen":"P.006","dun":"N.07 Langgar","code_dun":"N.07"}},{"type":"Polygon","arcs":[[35,-35,36,37,38]],"properties":{"state":"Kedah","parlimen":"P.006 Kota Setar","code_parlimen":"P.006","dun":"N.08 Derga","code_dun":"N.08"}},{"type":"Polygon","arcs":[[39,40,-32,-36,41]],"properties":{"state":"Kedah","parlimen":"P.007 Alor Setar","code_parlimen":"P.007","dun":"N.09 Alor Merah","code_dun":"N.09"}},{"type":"Polygon","arcs":[[-39,42,-42]],"properties":{"state":"Kedah","parlimen":"P.007 Alor Setar","code_parlimen":"P.007","dun":"N.10 Kota Darulaman","code_dun":"N.10"}},{"type":"Polygon","arcs":[[43,-16,-19,-33,-41,44]],"properties":{"state":"Kedah","parlimen":"P.008 Kuala Kedah","code_parlimen":"P.008","dun":"N.11 Alor Janggus","code_dun":"N.11"}},{"type":"Polygon","arcs":[[-40,-43,-38,45,46,47,-45]],"properties":{"state":"Kedah","parlimen":"P.008 Kuala Kedah","code_parlimen":"P.008","dun":"N.12 Pengkalan Kundor","code_dun":"N.12"}},{"type":"Polygon","arcs":[[-34,-30,48,49,-46,-37]],"properties":{"state":"Kedah","parlimen":"P.009 Pendang","code_parlimen":"P.009","dun":"N.13 Bukit Raya","code_dun":"N.13"}},{"type":"Polygon","arcs":[[50,51,52,53,-49,-29,-25,54]],"properties":{"state":"Kedah","parlimen":"P.009 Pendang","code_parlimen":"P.009","dun":"N.14 Ayer Puteh","code_dun":"N.14"}},{"type":"Polygon","arcs":[[-50,-54,55,56,-47]],"properties":{"state":"Kedah","parlimen":"P.010 Jerai","code_parlimen":"P.010","dun":"N.15 Sala","code_dun":"N.15"}},{"type":"Polygon","arcs":[[57,58,59,-56,-53]],"properties":{"state":"Kedah","parlimen":"P.010 Jerai","code_parlimen":"P.010","dun":"N.16 Yan","code_dun":"N.16"}},{"type":"Polygon","arcs":[[-52,60,61,-58]],"properties":{"state":"Kedah","parlimen":"P.011 Merbok","code_parlimen":"P.011","dun":"N.17 Gurun","code_dun":"N.17"}},{"type":"Polygon","arcs":[[62,63,64,-59,-62,65]],"properties":{"state":"Kedah","parlimen":"P.011 Merbok","code_parlimen":"P.011","dun":"N.18 Tanjong Dawai","code_dun":"N.18"}},{"type":"Polygon","arcs":[[66,67,68,-55,-28,69]],"properties":{"state":"Kedah","parlimen":"P.012 Sik","code_parlimen":"P.012","dun":"N.19 Jeneri","code_dun":"N.19"}},{"type":"Polygon","arcs":[[-66,-61,-51,-69,70,71,72]],"properties":{"state":"Kedah","parlimen":"P.012 Sik","code_parlimen":"P.012","dun":"N.20 Bukit Selambau","code_dun":"N.20"}},{"type":"Polygon","arcs":[[73,74,-67]],"properties":{"state":"Kedah","parlimen":"P.013 Baling","code_parlimen":"P.013","dun":"N.21 Bayu","code_dun":"N.21"}},{"type":"Polygon","arcs":[[-68,-75,75,76,-71]],"properties":{"state":"Kedah","parlimen":"P.013 Baling","code_parlimen":"P.013","dun":"N.22 Kupang","code_dun":"N.22"}},{"type":"Polygon","arcs":[[77,-64,78]],"properties":{"state":"Kedah","parlimen":"P.014 Sungai Petani","code_parlimen":"P.014","dun":"N.23 Pantai Merdeka","code_dun":"N.23"}},{"type":"Polygon","arcs":[[79,80,81,-79,-63,-73]],"properties":{"state":"Kedah","parlimen":"P.014 Sungai Petani","code_parlimen":"P.014","dun":"N.24 Tikam Batu","code_dun":"N.24"}},{"type":"Polygon","arcs":[[-81,82,83,84]],"properties":{"state":"Kedah","parlimen":"P.015 Padang Serai","code_parlimen":"P.015","dun":"N.25 Lunas","code_dun":"N.25"}},{"type":"Polygon","arcs":[[-83,-80,-72,-77,85,86]],"properties":{"state":"Kedah","parlimen":"P.015 Padang Serai","code_parlimen":"P.015","dun":"N.26 Merbau Pulas","code_dun":"N.26"}},{"type":"Polygon","arcs":[[87,88,-84,-87,89]],"properties":{"state":"Kedah","parlimen":"P.016 Kulim-Bandar Baharu","code_parlimen":"P.016","dun":"N.27 Kulim","code_dun":"N.27"}},{"type":"Polygon","arcs":[[90,-88]],"properties":{"state":"Kedah","parlimen":"P.016 Kulim-Bandar Baharu","code_parlimen":"P.016","dun":"N.28 Bandar Baharu","code_dun":"N.28"}}]}},"arcs":[[[99.703731,6.303489],[99.704607,6.30109],[99.704114,6.299892],[99.704505,6.299657],[99.703505,6.299027],[99.702899,6.297625],[99.702165,6.297051],[99.702376,6.295793],[99.702084,6.294133],[99.700802,6.29365],[99.700107,6.292724],[99.700109,6.291893],[99.699686,6.291527],[99.699689,6.29038],[99.699362,6.290123],[99.69857,6.291164],[99.696266,6.290668],[99.694388,6.291302],[99.692989,6.2912],[99.691913,6.290549],[99.688532,6.289318],[99.687596,6.290201],[99.687228,6.291791],[99.686095,6.292505],[99.686841,6.293387],[99.685914,6.294567],[99.686782,6.294755],[99.687244,6.295112],[99.689013,6.295878],[99.690122,6.296632],[99.693236,6.297565],[99.694487,6.298925],[99.694024,6.300182],[99.693251,6.303805],[99.697396,6.304042],[99.697568,6.302818],[99.699456,6.301855],[99.70176,6.303293],[99.703731,6.303489]],[[99.904319,6.41433],[99.902831,6.415467],[99.900941,6.416978],[99.900498,6.418869],[99.900506,6.421028],[99.901557,6.423496],[99.902616,6.424835],[99.904352,6.427239],[99.906833,6.429665],[99.907006,6.431988],[99.907039,6.436689],[99.906725,6.437563],[99.906864,6.440843],[99.907924,6.443937],[99.90905,6.444881],[99.912098,6.445429],[99.913211,6.444974],[99.91348,6.442159],[99.912774,6.440868],[99.91129,6.439431],[99.91045,6.437179],[99.910707,6.435962],[99.910267,6.433974],[99.910318,6.432434],[99.910515,6.43001],[99.911014,6.427858],[99.909574,6.425933],[99.909745,6.424075],[99.909848,6.421928],[99.9096,6.420343],[99.908105,6.416787],[99.908911,6.415722],[99.909515,6.412952],[99.908895,6.409665],[99.910929,6.409284],[99.911481,6.40882],[99.911692,6.408298],[99.911219,6.407535],[99.909275,6.406801],[99.907609,6.406828],[99.906894,6.407149],[99.905694,6.409325],[99.90517,6.411913],[99.904319,6.41433]],[[99.873148,6.442767],[99.872498,6.443531],[99.872498,6.444212],[99.873208,6.444896],[99.87437,6.445238],[99.874663,6.445678],[99.875752,6.447813],[99.876239,6.450246],[99.876828,6.451402],[99.877901,6.456411],[99.877924,6.458698],[99.878953,6.459101],[99.880386,6.458905],[99.881006,6.459178],[99.881731,6.460705],[99.881962,6.462518],[99.882221,6.462662],[99.882738,6.462342],[99.88412,6.460786],[99.88537,6.459481],[99.886295,6.458076],[99.886396,6.456958],[99.885977,6.454307],[99.886353,6.451608],[99.888138,6.450361],[99.890065,6.449695],[99.891514,6.448848],[99.893535,6.444177],[99.894454,6.443008],[99.8953,6.442544],[99.895684,6.442005],[99.89639,6.440696],[99.896935,6.439203],[99.897376,6.437397],[99.898175,6.436828],[99.89996,6.433131],[99.901322,6.430935],[99.901868,6.430369],[99.902149,6.429916],[99.902082,6.429151],[99.901688,6.427241],[99.901638,6.426114],[99.899723,6.424199],[99.898942,6.422791],[99.898625,6.420777],[99.897926,6.420725],[99.897711,6.421071],[99.897031,6.422658],[99.895231,6.425519],[99.894454,6.426479],[99.893731,6.427137],[99.892431,6.4278],[99.89076,6.42793],[99.889458,6.427839],[99.888719,6.428178],[99.887518,6.429293],[99.884724,6.430067],[99.879606,6.432001],[99.87849,6.432888],[99.878035,6.433948],[99.877665,6.43594],[99.87805,6.437375],[99.877823,6.438754],[99.876809,6.440161],[99.873148,6.442767]],[[99.87948,6.315001],[99.879364,6.315485],[99.880219,6.317942],[99.883557,6.320754],[99.885962,6.324876],[99.891188,6.327408],[99.90349,6.326574],[99.908057,6.326053],[99.912954,6.327095],[99.916421,6.329234],[99.920031,6.331069],[99.921873,6.329496],[99.922314,6.326851],[99.925452,6.324688],[99.926656,6.321806],[99.929326,6.322444],[99.933034,6.322862],[99.933493,6.321466],[99.931939,6.320962],[99.929988,6.321692],[99.92938,6.321022],[99.929472,6.31979],[99.928736,6.31964],[99.928828,6.318793],[99.929292,6.31885],[99.929935,6.319215],[99.929088,6.317682],[99.928173,6.316085],[99.927543,6.315861],[99.926832,6.316058],[99.925924,6.316383],[99.925458,6.316793],[99.925404,6.317598],[99.926386,6.317485],[99.927107,6.318222],[99.927209,6.318792],[99.925914,6.32032],[99.92455,6.320186],[99.923878,6.318704],[99.923026,6.316732],[99.922195,6.31609],[99.921755,6.314821],[99.920477,6.31349],[99.919548,6.310953],[99.920297,6.309811],[99.920913,6.308539],[99.920406,6.30726],[99.919075,6.306129],[99.918081,6.303595],[99.91879,6.302915],[99.918758,6.301045],[99.917531,6.30003],[99.917182,6.29929],[99.917331,6.297447],[99.916671,6.297215],[99.916063,6.297554],[99.915314,6.297816],[99.915081,6.298378],[99.91567,6.29931],[99.915889,6.299837],[99.915504,6.301279],[99.914705,6.303232],[99.914816,6.305087],[99.914564,6.305651],[99.91165,6.305968],[99.91153,6.30646],[99.911203,6.30666],[99.911415,6.307389],[99.911846,6.307457],[99.91241,6.308646],[99.91188,6.308803],[99.911215,6.308435],[99.910511,6.308585],[99.909452,6.30823],[99.907006,6.308301],[99.905941,6.309828],[99.905722,6.311966],[99.903604,6.312782],[99.901502,6.311806],[99.896443,6.312349],[99.894359,6.311354],[99.892574,6.311456],[99.889926,6.311915],[99.888589,6.313302],[99.886043,6.313112],[99.88344,6.313064],[99.881731,6.311334],[99.880126,6.313337],[99.87948,6.315001]],[[99.742534,6.230571],[99.742621,6.229433],[99.742715,6.227376],[99.742734,6.226376],[99.743625,6.224437],[99.745002,6.223282],[99.746484,6.223054],[99.747788,6.222748],[99.748599,6.222794],[99.749342,6.222793],[99.749579,6.222858],[99.750298,6.22193],[99.750687,6.22032],[99.750834,6.219836],[99.75173,6.218977],[99.751763,6.217709],[99.750853,6.216419],[99.749768,6.21504],[99.748521,6.214192],[99.747879,6.213975],[99.747012,6.213009],[99.745122,6.211406],[99.743212,6.21007],[99.741502,6.209474],[99.740841,6.209227],[99.739761,6.208154],[99.739395,6.207512],[99.739603,6.206446],[99.740019,6.205874],[99.740195,6.205262],[99.740894,6.204465],[99.742078,6.204001],[99.742526,6.204027],[99.743421,6.204266],[99.743698,6.203921],[99.743644,6.2032],[99.743397,6.202691],[99.742803,6.201986],[99.742336,6.201435],[99.742334,6.201001],[99.742677,6.200061],[99.742914,6.199823],[99.743809,6.199569],[99.745017,6.199419],[99.746974,6.199081],[99.747552,6.197844],[99.747622,6.196986],[99.746029,6.195546],[99.745717,6.195188],[99.745289,6.195059],[99.744427,6.194238],[99.743653,6.193104],[99.743465,6.19264],[99.743396,6.192166],[99.743162,6.191876],[99.743109,6.190549],[99.742939,6.189443],[99.742857,6.188898],[99.7427,6.188452],[99.742392,6.188304],[99.742017,6.188037],[99.741736,6.187913],[99.74088,6.187932],[99.740522,6.188195],[99.740271,6.18904],[99.740102,6.190466],[99.73995,6.190752],[99.739698,6.190723],[99.739517,6.190798],[99.738691,6.190677],[99.738299,6.190787],[99.737187,6.191402],[99.736314,6.191454],[99.735505,6.191286],[99.735261,6.190813],[99.734829,6.190884],[99.734385,6.191027],[99.733041,6.191826],[99.731985,6.192035],[99.731263,6.191663],[99.731037,6.191944],[99.730513,6.191628],[99.73009,6.191935],[99.728415,6.191651],[99.7278,6.190963],[99.727289,6.189924],[99.727152,6.189372],[99.727202,6.189016],[99.727295,6.188117],[99.727369,6.187847],[99.727767,6.187831],[99.727866,6.187286],[99.727895,6.186842],[99.727666,6.186628],[99.727405,6.186233],[99.727099,6.185242],[99.727056,6.184873],[99.726761,6.183756],[99.726417,6.183478],[99.726215,6.183019],[99.725408,6.18242],[99.724822,6.182167],[99.724383,6.18195],[99.724191,6.181994],[99.724041,6.181347],[99.723841,6.180708],[99.723509,6.180574],[99.723251,6.180598],[99.722515,6.18096],[99.722128,6.181434],[99.721756,6.18259],[99.722113,6.184013],[99.722726,6.185245],[99.722891,6.185926],[99.722604,6.186778],[99.722269,6.186981],[99.721881,6.187438],[99.721799,6.188351],[99.722033,6.188766],[99.722436,6.188712],[99.723195,6.188975],[99.724639,6.189012],[99.725534,6.189306],[99.726207,6.190419],[99.72629,6.190859],[99.726186,6.191259],[99.725498,6.191862],[99.725312,6.193798],[99.725673,6.195066],[99.723079,6.200205],[99.723043,6.202071],[99.723652,6.203996],[99.724326,6.204398],[99.724487,6.205501],[99.723149,6.206096],[99.721592,6.205756],[99.721207,6.20626],[99.720883,6.208013],[99.72171,6.20924],[99.722905,6.209804],[99.72338,6.210915],[99.724672,6.213027],[99.724733,6.215294],[99.725202,6.215923],[99.726951,6.21735],[99.727407,6.218708],[99.727901,6.221071],[99.727918,6.221983],[99.728616,6.22322],[99.729444,6.225182],[99.731027,6.226852],[99.73334,6.230005],[99.734055,6.230126],[99.73421,6.228488],[99.733489,6.2267],[99.732767,6.224666],[99.73286,6.223862],[99.733253,6.223021],[99.734121,6.222768],[99.73552,6.224345],[99.735559,6.224813],[99.736057,6.225746],[99.737079,6.226102],[99.738441,6.227326],[99.738304,6.229041],[99.738415,6.229932],[99.739253,6.23043],[99.740475,6.230511],[99.740969,6.23093],[99.741964,6.231049],[99.742534,6.230571]],[[99.722057,6.228304],[99.721255,6.227465],[99.721252,6.226444],[99.721747,6.225702],[99.721731,6.224594],[99.722325,6.223514],[99.72233,6.222504],[99.722197,6.221606],[99.721556,6.220433],[99.720825,6.219818],[99.720087,6.220043],[99.719354,6.218396],[99.718811,6.217856],[99.716785,6.217528],[99.716517,6.216068],[99.715738,6.215691],[99.714599,6.215024],[99.714156,6.215901],[99.713313,6.21622],[99.713174,6.217099],[99.712338,6.217797],[99.712094,6.218497],[99.711813,6.218771],[99.711601,6.219312],[99.709948,6.220462],[99.709897,6.221414],[99.710624,6.222489],[99.710314,6.222768],[99.710012,6.222928],[99.709878,6.223798],[99.711667,6.224527],[99.712012,6.225814],[99.712478,6.226784],[99.711304,6.228407],[99.710387,6.229913],[99.709238,6.232083],[99.70916,6.233585],[99.710684,6.234608],[99.711565,6.233967],[99.711749,6.233008],[99.712286,6.232458],[99.712952,6.232474],[99.713772,6.232146],[99.714584,6.232077],[99.716174,6.230552],[99.717483,6.229976],[99.717648,6.229334],[99.717858,6.228722],[99.718398,6.228603],[99.719761,6.229631],[99.721514,6.231193],[99.72246,6.231131],[99.723061,6.229995],[99.722613,6.228857],[99.722057,6.228304]],[[99.716579,6.244757],[99.71772,6.246038],[99.718546,6.247081],[99.718774,6.246798],[99.719194,6.24603],[99.719648,6.245784],[99.720439,6.246334],[99.721301,6.246434],[99.72174,6.24598],[99.721406,6.245207],[99.721631,6.244771],[99.722595,6.244317],[99.723438,6.244408],[99.725437,6.244872],[99.72565,6.245417],[99.726303,6.245668],[99.726332,6.243856],[99.725485,6.243295],[99.724371,6.243107],[99.722852,6.242536],[99.722282,6.241392],[99.722526,6.240669],[99.723413,6.24007],[99.723461,6.238693],[99.724053,6.237093],[99.723873,6.236294],[99.722835,6.236483],[99.722284,6.236758],[99.721737,6.236859],[99.720274,6.237122],[99.719347,6.237428],[99.71897,6.238251],[99.718811,6.239616],[99.719428,6.240487],[99.719217,6.241275],[99.718367,6.241742],[99.71777,6.24261],[99.716468,6.242402],[99.715913,6.243171],[99.716579,6.244757]],[[99.82448,6.249821],[99.822578,6.248385],[99.821609,6.247592],[99.820375,6.246725],[99.819792,6.244727],[99.819215,6.243976],[99.817947,6.239186],[99.818087,6.237397],[99.81799,6.235326],[99.818095,6.231969],[99.818771,6.229258],[99.820928,6.2258],[99.822483,6.224309],[99.82372,6.22285],[99.825331,6.218612],[99.82686,6.217902],[99.828128,6.21798],[99.829479,6.217868],[99.830201,6.217628],[99.830666,6.217648],[99.831396,6.218314],[99.832316,6.220376],[99.834087,6.221146],[99.83461,6.22107],[99.835234,6.220757],[99.835773,6.219551],[99.835945,6.218072],[99.83561,6.217717],[99.834769,6.217289],[99.834171,6.217589],[99.833901,6.217066],[99.833725,6.214573],[99.833514,6.213493],[99.832969,6.212701],[99.831848,6.212072],[99.829675,6.211499],[99.828388,6.212288],[99.827675,6.212031],[99.827515,6.211218],[99.828,6.210655],[99.828735,6.210366],[99.828729,6.21],[99.828537,6.20904],[99.829021,6.208732],[99.828975,6.207996],[99.83005,6.206596],[99.831077,6.204483],[99.831328,6.20388],[99.830773,6.203479],[99.829621,6.203016],[99.828587,6.202227],[99.828141,6.201313],[99.828727,6.20068],[99.829147,6.20036],[99.829666,6.200022],[99.829554,6.19966],[99.82876,6.198411],[99.827931,6.197817],[99.827733,6.197153],[99.828109,6.196551],[99.827539,6.195633],[99.826826,6.195056],[99.8261,6.193921],[99.825764,6.193161],[99.823932,6.191787],[99.822713,6.190818],[99.821594,6.189285],[99.82148,6.188677],[99.821261,6.187347],[99.821417,6.185552],[99.821344,6.184218],[99.820937,6.182706],[99.820633,6.181813],[99.820011,6.181362],[99.819444,6.181099],[99.818344,6.180666],[99.817898,6.180253],[99.817618,6.17973],[99.817057,6.1793],[99.815858,6.178292],[99.815627,6.17761],[99.815482,6.177126],[99.815127,6.176886],[99.814676,6.176644],[99.813608,6.176507],[99.812992,6.176493],[99.812598,6.176197],[99.812753,6.1758],[99.813028,6.175644],[99.812888,6.175239],[99.813279,6.174977],[99.814003,6.17476],[99.814586,6.174519],[99.814918,6.17436],[99.815397,6.173731],[99.815711,6.172918],[99.815921,6.172534],[99.815636,6.172213],[99.814426,6.172838],[99.813617,6.172851],[99.812728,6.17305],[99.810458,6.173191],[99.80945,6.173867],[99.808851,6.174675],[99.808156,6.174882],[99.807055,6.173995],[99.806159,6.172869],[99.805707,6.172516],[99.804956,6.172811],[99.805044,6.173917],[99.804983,6.175395],[99.804748,6.17784],[99.804435,6.179372],[99.805451,6.181945],[99.804379,6.18372],[99.803485,6.184114],[99.802837,6.184583],[99.802694,6.185703],[99.802674,6.186147],[99.802457,6.186983],[99.803031,6.187529],[99.803597,6.187845],[99.804033,6.188183],[99.803928,6.189173],[99.803687,6.190292],[99.802808,6.191038],[99.801583,6.191697],[99.801039,6.1919],[99.80069,6.191423],[99.798554,6.190839],[99.798136,6.189932],[99.797468,6.188227],[99.797488,6.186526],[99.797404,6.186194],[99.795773,6.185219],[99.794916,6.183533],[99.794951,6.182921],[99.794563,6.182569],[99.794062,6.182326],[99.793708,6.182463],[99.793498,6.182171],[99.793392,6.181738],[99.793176,6.18128],[99.792597,6.181042],[99.792219,6.181776],[99.791762,6.182848],[99.790894,6.184022],[99.790146,6.184377],[99.789559,6.184257],[99.789195,6.183707],[99.789272,6.18343],[99.7898,6.183135],[99.790589,6.182408],[99.791003,6.181434],[99.790863,6.180606],[99.790339,6.180503],[99.789386,6.18005],[99.788491,6.180258],[99.788133,6.181458],[99.788018,6.182731],[99.787536,6.183645],[99.787546,6.185607],[99.788326,6.186559],[99.788688,6.186671],[99.789769,6.187542],[99.79002,6.188641],[99.789859,6.188992],[99.789825,6.191127],[99.790103,6.191404],[99.790305,6.192887],[99.789632,6.193949],[99.788037,6.194248],[99.78667,6.195126],[99.7855,6.198336],[99.785049,6.200835],[99.784516,6.202482],[99.783584,6.202682],[99.782945,6.202573],[99.782356,6.202861],[99.782018,6.203701],[99.78259,6.204918],[99.782317,6.205968],[99.782024,6.207389],[99.782756,6.208349],[99.782808,6.209993],[99.782638,6.210745],[99.782542,6.211573],[99.782168,6.211779],[99.781755,6.21032],[99.781228,6.210611],[99.781301,6.211111],[99.781585,6.212191],[99.781657,6.213119],[99.780439,6.214011],[99.779679,6.213343],[99.779353,6.21247],[99.779324,6.211483],[99.778948,6.210589],[99.779163,6.209637],[99.77899,6.208349],[99.777858,6.207414],[99.776261,6.206221],[99.775739,6.206396],[99.775554,6.207054],[99.775725,6.207425],[99.775574,6.209242],[99.774855,6.209858],[99.774197,6.20953],[99.773534,6.209551],[99.772929,6.209146],[99.772719,6.209458],[99.773474,6.21072],[99.774062,6.211395],[99.774146,6.212333],[99.773833,6.213503],[99.774108,6.215366],[99.774271,6.216709],[99.773285,6.217898],[99.772363,6.217459],[99.772054,6.217022],[99.770992,6.217195],[99.769984,6.218627],[99.770152,6.22003],[99.770151,6.221063],[99.770978,6.222667],[99.772132,6.22282],[99.77272,6.222282],[99.773504,6.221946],[99.773823,6.22252],[99.77342,6.224317],[99.7721,6.227494],[99.771547,6.227902],[99.771332,6.228396],[99.771389,6.228775],[99.771776,6.229284],[99.771564,6.22949],[99.771427,6.229715],[99.771511,6.229897],[99.771194,6.23032],[99.771363,6.230606],[99.771566,6.230832],[99.771946,6.230623],[99.772378,6.230305],[99.773114,6.230153],[99.773537,6.23035],[99.773848,6.230249],[99.774368,6.230231],[99.774617,6.230439],[99.775109,6.230191],[99.776187,6.229833],[99.777041,6.229922],[99.777288,6.230413],[99.777091,6.231163],[99.777273,6.231734],[99.777866,6.231683],[99.778276,6.231572],[99.778938,6.231091],[99.779788,6.230738],[99.780411,6.229888],[99.780455,6.229366],[99.780008,6.229033],[99.779535,6.228739],[99.779379,6.227971],[99.779762,6.227818],[99.780037,6.227526],[99.780663,6.227504],[99.781415,6.227445],[99.781876,6.227593],[99.782206,6.22788],[99.782506,6.228337],[99.782414,6.228836],[99.781298,6.231557],[99.781706,6.232029],[99.781938,6.232556],[99.7823,6.233286],[99.782961,6.23392],[99.783848,6.234423],[99.78449,6.235086],[99.785319,6.235181],[99.786046,6.235121],[99.786858,6.235408],[99.787451,6.235885],[99.788324,6.237086],[99.788751,6.239087],[99.789209,6.239884],[99.78955,6.240922],[99.78899,6.242309],[99.789055,6.243338],[99.789812,6.244563],[99.790622,6.24627],[99.791576,6.249566],[99.792367,6.250446],[99.79159,6.252553],[99.791506,6.253277],[99.792079,6.253638],[99.792288,6.254264],[99.792371,6.254941],[99.793071,6.254988],[99.793972,6.254409],[99.794594,6.254907],[99.794141,6.255119],[99.794901,6.256449],[99.795493,6.25804],[99.795738,6.259456],[99.796295,6.259455],[99.796805,6.2601],[99.796529,6.263105],[99.795989,6.264548],[99.796079,6.265449],[99.797304,6.267724],[99.798007,6.268223],[99.79856,6.268093],[99.798922,6.268719],[99.798981,6.269667],[99.798764,6.27049],[99.79769,6.270965],[99.797737,6.271432],[99.798007,6.271928],[99.798308,6.27219],[99.799227,6.272213],[99.800176,6.273642],[99.801795,6.274149],[99.802652,6.274961],[99.80356,6.274965],[99.805128,6.274161],[99.805853,6.273641],[99.807264,6.273489],[99.808459,6.273406],[99.810638,6.275137],[99.811638,6.276384],[99.813563,6.276791],[99.81439,6.277735],[99.81605,6.278627],[99.81701,6.278658],[99.817569,6.278471],[99.819281,6.278766],[99.820137,6.278465],[99.820454,6.277851],[99.822325,6.278217],[99.823888,6.279989],[99.824778,6.282187],[99.825207,6.283759],[99.825799,6.284395],[99.826495,6.286344],[99.826182,6.287534],[99.825722,6.289094],[99.826409,6.290415],[99.829111,6.292758],[99.831776,6.292158],[99.832658,6.292679],[99.833293,6.295535],[99.834435,6.295358],[99.837885,6.295189],[99.839053,6.294866],[99.840789,6.29504],[99.842032,6.294238],[99.841796,6.293452],[99.841191,6.292419],[99.839881,6.291745],[99.839688,6.291237],[99.839358,6.290772],[99.839134,6.290472],[99.839351,6.29014],[99.839412,6.289537],[99.840225,6.287143],[99.840596,6.286401],[99.840987,6.285325],[99.841119,6.283847],[99.840822,6.28296],[99.840201,6.281818],[99.839542,6.280911],[99.839637,6.279735],[99.839118,6.278758],[99.839615,6.277786],[99.840131,6.276866],[99.840277,6.275673],[99.83918,6.275613],[99.836769,6.274805],[99.835774,6.27513],[99.834764,6.273985],[99.834178,6.273404],[99.833405,6.272409],[99.832602,6.271763],[99.831708,6.271296],[99.830696,6.270661],[99.830377,6.269292],[99.82913,6.26936],[99.8281,6.270014],[99.827785,6.270956],[99.8282,6.272114],[99.828357,6.272884],[99.827714,6.273142],[99.827116,6.27282],[99.826145,6.271796],[99.825654,6.270988],[99.824163,6.268178],[99.823829,6.264622],[99.82419,6.263258],[99.824166,6.262058],[99.823209,6.259637],[99.823255,6.258055],[99.823864,6.256593],[99.824353,6.253933],[99.824726,6.253095],[99.824752,6.251379],[99.824527,6.251163],[99.82448,6.249821]],[[99.838501,6.221677],[99.83725,6.221957],[99.836798,6.222571],[99.836118,6.223495],[99.834425,6.223316],[99.833584,6.22266],[99.833267,6.222628],[99.832094,6.223358],[99.830552,6.222804],[99.830032,6.222868],[99.829715,6.221266],[99.829112,6.219298],[99.828392,6.218834],[99.827811,6.218822],[99.827177,6.2199],[99.826691,6.220832],[99.825816,6.221983],[99.82521,6.223263],[99.82428,6.224459],[99.823049,6.225569],[99.82188,6.227323],[99.821214,6.229353],[99.820882,6.230083],[99.820635,6.231275],[99.820611,6.233286],[99.820446,6.234621],[99.820223,6.235795],[99.820121,6.237752],[99.82074,6.241135],[99.82169,6.243817],[99.822831,6.245276],[99.824019,6.246722],[99.824205,6.247479],[99.825415,6.248779],[99.826481,6.249651],[99.826959,6.252058],[99.827431,6.253952],[99.828582,6.255151],[99.830003,6.255277],[99.832008,6.260842],[99.833227,6.262044],[99.83391,6.262489],[99.835844,6.263372],[99.83651,6.263258],[99.836919,6.263111],[99.837844,6.263967],[99.838997,6.264429],[99.839532,6.265367],[99.840459,6.265752],[99.841603,6.266465],[99.842229,6.267269],[99.84346,6.268163],[99.843995,6.268658],[99.845421,6.269383],[99.846687,6.267313],[99.848077,6.265965],[99.848563,6.264616],[99.848621,6.263353],[99.849374,6.262956],[99.850542,6.263021],[99.851977,6.262314],[99.852643,6.262668],[99.853337,6.262284],[99.853429,6.261818],[99.853688,6.260784],[99.85216,6.259966],[99.851832,6.258359],[99.85283,6.257958],[99.855091,6.257617],[99.856851,6.256528],[99.85757,6.254398],[99.858777,6.253767],[99.859671,6.253194],[99.860433,6.252275],[99.859718,6.251643],[99.859718,6.250252],[99.859372,6.249119],[99.859164,6.24822],[99.858269,6.247527],[99.858026,6.246798],[99.856878,6.246018],[99.856989,6.24493],[99.856327,6.244052],[99.855727,6.242733],[99.85664,6.241121],[99.860864,6.240279],[99.862459,6.241647],[99.863497,6.241795],[99.863729,6.240969],[99.863978,6.239666],[99.864771,6.238712],[99.864689,6.238135],[99.864785,6.236627],[99.865152,6.23587],[99.86488,6.234445],[99.864104,6.232896],[99.863519,6.23225],[99.863107,6.231113],[99.861855,6.229191],[99.861222,6.228277],[99.860889,6.227088],[99.86087,6.226305],[99.860615,6.225607],[99.859835,6.224964],[99.859221,6.223636],[99.859075,6.222637],[99.858359,6.221566],[99.856791,6.220134],[99.856692,6.219488],[99.857316,6.218113],[99.857271,6.217116],[99.857022,6.215971],[99.856708,6.215112],[99.854409,6.213342],[99.85349,6.212947],[99.852554,6.213626],[99.85237,6.216311],[99.852953,6.217551],[99.85293,6.218734],[99.852373,6.21976],[99.852292,6.220143],[99.852042,6.220465],[99.852194,6.222961],[99.85272,6.223859],[99.852481,6.225129],[99.851528,6.225706],[99.848954,6.226171],[99.845414,6.225364],[99.841747,6.22463],[99.840467,6.224501],[99.840285,6.224097],[99.839963,6.223005],[99.839114,6.222422],[99.838909,6.221368],[99.838641,6.221108],[99.838501,6.221677]],[[99.714273,6.27023],[99.715856,6.268595],[99.717808,6.26917],[99.720121,6.270657],[99.721047,6.272747],[99.72234,6.271625],[99.722525,6.270941],[99.721757,6.270312],[99.721767,6.26917],[99.721793,6.267536],[99.720498,6.266269],[99.718951,6.265298],[99.71879,6.264385],[99.717735,6.263845],[99.71705,6.264604],[99.716846,6.265614],[99.715029,6.265752],[99.713789,6.267511],[99.712311,6.267597],[99.71169,6.268455],[99.71294,6.270261],[99.714273,6.27023]],[[99.870366,6.280255],[99.871433,6.279121],[99.873043,6.278105],[99.873261,6.276244],[99.872002,6.275545],[99.871342,6.275275],[99.870575,6.275722],[99.870014,6.275194],[99.869824,6.274835],[99.869283,6.274387],[99.868491,6.27551],[99.867691,6.275443],[99.866924,6.274747],[99.866076,6.274782],[99.866252,6.276048],[99.867747,6.277249],[99.86874,6.278173],[99.869681,6.279544],[99.870366,6.280255]],[[99.860534,6.289396],[99.862055,6.290768],[99.862899,6.291155],[99.864414,6.292895],[99.865742,6.293005],[99.866216,6.29087],[99.866493,6.289362],[99.866448,6.288174],[99.866127,6.287466],[99.866273,6.286146],[99.867114,6.285652],[99.86801,6.286491],[99.868895,6.286967],[99.869326,6.286027],[99.868347,6.284228],[99.867785,6.283603],[99.867263,6.28289],[99.866084,6.282541],[99.865107,6.281633],[99.863149,6.281286],[99.862319,6.282399],[99.862027,6.284416],[99.861192,6.286184],[99.860598,6.287732],[99.860534,6.289396]],[[99.90574,6.335588],[99.900463,6.333881],[99.895683,6.332841],[99.894306,6.332041],[99.890306,6.332124],[99.887555,6.331363],[99.88596,6.32971],[99.883962,6.327523],[99.881445,6.326721],[99.879535,6.326584],[99.878236,6.326044],[99.877699,6.321278],[99.877573,6.31945],[99.877948,6.318609],[99.878303,6.317567],[99.878115,6.316639],[99.87763,6.315807],[99.877645,6.315154],[99.877459,6.314077],[99.875851,6.31236],[99.875548,6.311666],[99.874047,6.309575],[99.87362,6.30832],[99.872661,6.307341],[99.871561,6.307237],[99.870465,6.306963],[99.868921,6.305577],[99.867905,6.305779],[99.867267,6.306386],[99.866188,6.307028],[99.866333,6.308295],[99.864534,6.308749],[99.862326,6.307103],[99.861842,6.305981],[99.861937,6.304882],[99.861511,6.304179],[99.861495,6.303386],[99.863601,6.301007],[99.863522,6.299219],[99.86425,6.29752],[99.864234,6.296218],[99.863678,6.294948],[99.863311,6.2949],[99.862824,6.294654],[99.862192,6.295304],[99.86186,6.295757],[99.861235,6.296155],[99.860333,6.296544],[99.859837,6.296322],[99.859226,6.296405],[99.858934,6.296829],[99.858699,6.297212],[99.856904,6.298038],[99.854869,6.29862],[99.853495,6.298729],[99.852429,6.298521],[99.851977,6.298202],[99.851557,6.2984],[99.849751,6.299635],[99.848814,6.300917],[99.848852,6.302439],[99.848732,6.304301],[99.848918,6.30571],[99.849058,6.308165],[99.849716,6.308963],[99.850105,6.310016],[99.85073,6.310207],[99.85117,6.310845],[99.85122,6.311762],[99.850707,6.312728],[99.850357,6.315025],[99.84977,6.315421],[99.847946,6.317308],[99.847803,6.318224],[99.847453,6.318914],[99.845768,6.321038],[99.844464,6.321314],[99.843736,6.321664],[99.84305,6.322736],[99.842274,6.323476],[99.841319,6.323651],[99.840317,6.32329],[99.840092,6.322668],[99.839531,6.322929],[99.839583,6.323261],[99.839027,6.32351],[99.838416,6.324343],[99.837827,6.324591],[99.836655,6.324416],[99.834699,6.323422],[99.833742,6.321828],[99.833272,6.321737],[99.83146,6.321776],[99.831277,6.322649],[99.831242,6.32331],[99.830823,6.323507],[99.828786,6.323285],[99.826703,6.322971],[99.826184,6.323018],[99.825381,6.322946],[99.823788,6.322546],[99.822817,6.321914],[99.821707,6.321618],[99.821399,6.321646],[99.82077,6.321337],[99.81911,6.321054],[99.816666,6.320946],[99.815679,6.321131],[99.814447,6.321449],[99.813249,6.321345],[99.81246,6.320572],[99.811373,6.319759],[99.810889,6.31972],[99.810499,6.319838],[99.809593,6.320024],[99.809366,6.319749],[99.808356,6.31951],[99.807659,6.319694],[99.806259,6.319282],[99.805964,6.318926],[99.806486,6.31795],[99.806611,6.317043],[99.805901,6.316418],[99.805452,6.316345],[99.80465,6.316398],[99.803823,6.316121],[99.803356,6.315542],[99.802747,6.314315],[99.802434,6.31345],[99.802654,6.3122],[99.802636,6.31097],[99.802391,6.309979],[99.802407,6.308811],[99.802246,6.308242],[99.801622,6.308135],[99.801343,6.307533],[99.801289,6.305961],[99.800977,6.304865],[99.799989,6.304334],[99.799624,6.303821],[99.799747,6.303005],[99.799328,6.302392],[99.796932,6.299875],[99.795151,6.29942],[99.793842,6.298214],[99.79283,6.297804],[99.791505,6.297914],[99.790699,6.298479],[99.78989,6.298429],[99.790123,6.297858],[99.788051,6.295981],[99.787068,6.295121],[99.785749,6.293291],[99.785337,6.291851],[99.785577,6.29075],[99.783111,6.288316],[99.781923,6.28855],[99.781096,6.2886],[99.780849,6.28767],[99.780133,6.286842],[99.77702,6.286876],[99.775827,6.28611],[99.776147,6.284731],[99.775268,6.283354],[99.774425,6.280218],[99.77228,6.279631],[99.771014,6.280035],[99.771122,6.28104],[99.769669,6.281086],[99.768924,6.281837],[99.767483,6.282111],[99.766941,6.283007],[99.766298,6.282487],[99.764261,6.281043],[99.762707,6.280994],[99.761754,6.281241],[99.759403,6.282811],[99.758391,6.283099],[99.756264,6.282042],[99.755151,6.279683],[99.753496,6.280265],[99.752763,6.280114],[99.75212,6.279144],[99.75139,6.276959],[99.750748,6.275812],[99.751682,6.275462],[99.751733,6.274762],[99.750537,6.273148],[99.749843,6.273246],[99.749336,6.272275],[99.749236,6.27103],[99.750324,6.270451],[99.749882,6.269482],[99.747166,6.27018],[99.746395,6.270793],[99.745129,6.269968],[99.743202,6.269395],[99.741693,6.269543],[99.740755,6.270041],[99.739579,6.269692],[99.739042,6.268208],[99.739235,6.267034],[99.738328,6.267103],[99.737083,6.266824],[99.735313,6.266352],[99.735501,6.264763],[99.736295,6.262307],[99.738783,6.261385],[99.739155,6.260373],[99.738322,6.258993],[99.736694,6.25873],[99.734809,6.258759],[99.732351,6.260695],[99.730668,6.26112],[99.727204,6.258542],[99.726615,6.260058],[99.726817,6.262067],[99.728356,6.265754],[99.729485,6.269323],[99.729939,6.274966],[99.728653,6.281807],[99.72742,6.285309],[99.72727,6.288112],[99.725803,6.291213],[99.72482,6.291774],[99.721684,6.296742],[99.71914,6.298573],[99.720696,6.303139],[99.718252,6.3065],[99.714569,6.309593],[99.713383,6.310321],[99.71797,6.317701],[99.71854,6.317794],[99.721741,6.322796],[99.722525,6.326199],[99.722422,6.326652],[99.722104,6.334981],[99.720115,6.338735],[99.71887,6.338024],[99.718375,6.338967],[99.71776,6.339281],[99.719487,6.340118],[99.721092,6.340374],[99.720986,6.342274],[99.719994,6.346415],[99.718597,6.348711],[99.717937,6.352006],[99.715731,6.353554],[99.717323,6.354597],[99.713427,6.360408],[99.711721,6.362433],[99.710565,6.361356],[99.708207,6.359713],[99.706694,6.360259],[99.704538,6.359162],[99.702701,6.360452],[99.700724,6.360523],[99.700049,6.35975],[99.69715,6.358942],[99.693783,6.355244],[99.691744,6.355095],[99.692171,6.356822],[99.690613,6.357119],[99.688714,6.358277],[99.685758,6.357176],[99.683487,6.359694],[99.68427,6.361989],[99.684048,6.364612],[99.679423,6.36653],[99.67713,6.365066],[99.673321,6.364409],[99.672408,6.362149],[99.667571,6.365002],[99.664687,6.364733],[99.660518,6.365687],[99.656526,6.364683],[99.652799,6.365933],[99.648956,6.365883],[99.64985,6.36911],[99.646701,6.375154],[99.644628,6.37655],[99.645159,6.380683],[99.642443,6.383226],[99.641971,6.386983],[99.642992,6.389563],[99.642331,6.39448],[99.642458,6.396637],[99.64049,6.398928],[99.64104,6.401098],[99.642666,6.40578],[99.642468,6.411864],[99.641916,6.417216],[99.639662,6.426351],[99.639805,6.428882],[99.639959,6.432518],[99.639166,6.43673],[99.640458,6.436346],[99.640431,6.437995],[99.643883,6.443537],[99.647653,6.442942],[99.649874,6.441515],[99.652887,6.437562],[99.65873,6.435675],[99.662627,6.434589],[99.662819,6.431875],[99.663458,6.429655],[99.665169,6.429131],[99.664803,6.427483],[99.667062,6.426043],[99.671629,6.426987],[99.674542,6.428623],[99.675453,6.431021],[99.674804,6.43389],[99.675727,6.435147],[99.677242,6.435267],[99.67678,6.43728],[99.678756,6.436004],[99.680691,6.435428],[99.68209,6.434174],[99.684233,6.434965],[99.686135,6.433272],[99.688173,6.433137],[99.690513,6.433079],[99.692862,6.434518],[99.700616,6.435839],[99.702262,6.436781],[99.705184,6.437024],[99.706581,6.435745],[99.713942,6.435205],[99.716854,6.433853],[99.723433,6.43261],[99.726603,6.43091],[99.730147,6.43165],[99.732837,6.432172],[99.732555,6.431011],[99.734093,6.430264],[99.733865,6.429011],[99.732826,6.428859],[99.731008,6.428367],[99.729507,6.426396],[99.729757,6.424497],[99.728444,6.422164],[99.728873,6.419776],[99.72893,6.41809],[99.72836,6.417779],[99.727349,6.416248],[99.728142,6.415331],[99.729051,6.415402],[99.730272,6.415646],[99.731053,6.416048],[99.731619,6.415354],[99.732091,6.414516],[99.731704,6.412789],[99.732342,6.40992],[99.730388,6.407266],[99.72933,6.405042],[99.726778,6.402452],[99.726715,6.40136],[99.727862,6.401336],[99.729272,6.402782],[99.73048,6.404716],[99.731118,6.405127],[99.731682,6.406807],[99.733037,6.407775],[99.735375,6.411649],[99.73579,6.413113],[99.737052,6.413391],[99.737775,6.415282],[99.737866,6.41661],[99.738228,6.417972],[99.739441,6.419154],[99.73948,6.420547],[99.738748,6.421496],[99.738858,6.422533],[99.739983,6.423437],[99.740501,6.424496],[99.73984,6.425657],[99.740613,6.426332],[99.742625,6.425606],[99.743642,6.425816],[99.74469,6.426609],[99.7463,6.426771],[99.746434,6.427479],[99.74717,6.429238],[99.747608,6.430644],[99.747956,6.431007],[99.748563,6.430162],[99.74824,6.429231],[99.749005,6.428996],[99.750587,6.429106],[99.75078,6.427232],[99.749391,6.426589],[99.750455,6.424777],[99.75201,6.42522],[99.753984,6.424326],[99.754921,6.42467],[99.754867,6.423547],[99.754706,6.423206],[99.755201,6.422724],[99.758348,6.4222],[99.765411,6.424376],[99.766829,6.425839],[99.768363,6.426809],[99.768127,6.428397],[99.769749,6.42727],[99.771087,6.42654],[99.771204,6.425905],[99.771829,6.425344],[99.771529,6.424158],[99.7714,6.423562],[99.772598,6.422175],[99.775582,6.421322],[99.778422,6.421822],[99.781487,6.422438],[99.783528,6.421708],[99.786781,6.422728],[99.788113,6.4232],[99.790803,6.424832],[99.794839,6.427294],[99.795822,6.429328],[99.796603,6.43313],[99.797402,6.434978],[99.798272,6.434917],[99.798451,6.43593],[99.800585,6.436906],[99.802658,6.440319],[99.807058,6.447949],[99.811448,6.452859],[99.813415,6.454992],[99.814377,6.455787],[99.815083,6.455028],[99.815924,6.453477],[99.816231,6.452303],[99.818967,6.451904],[99.821114,6.452625],[99.822721,6.455126],[99.823008,6.456751],[99.826165,6.458022],[99.827568,6.458958],[99.828696,6.46013],[99.829538,6.460072],[99.829245,6.458774],[99.827106,6.457481],[99.826543,6.455592],[99.8257,6.455414],[99.825613,6.454805],[99.824758,6.453747],[99.824175,6.452682],[99.824444,6.452475],[99.823703,6.451629],[99.824768,6.4518],[99.825155,6.452713],[99.826331,6.454138],[99.827226,6.45445],[99.827142,6.45482],[99.828165,6.455351],[99.829597,6.455915],[99.830442,6.455702],[99.832157,6.454428],[99.832896,6.454482],[99.833899,6.45403],[99.834231,6.452219],[99.835861,6.451593],[99.836736,6.451417],[99.839101,6.451229],[99.840772,6.450084],[99.840826,6.448982],[99.841694,6.448756],[99.84209,6.448229],[99.843146,6.44828],[99.843845,6.447864],[99.844303,6.447148],[99.84416,6.446462],[99.845157,6.445759],[99.845748,6.445632],[99.845717,6.44655],[99.845705,6.44839],[99.845362,6.449091],[99.845821,6.449978],[99.845634,6.45102],[99.845195,6.451274],[99.844949,6.451972],[99.844437,6.452518],[99.843934,6.45379],[99.84301,6.453884],[99.843096,6.454998],[99.842951,6.455539],[99.843471,6.455796],[99.843396,6.456645],[99.842745,6.457212],[99.841939,6.458602],[99.841494,6.459345],[99.841366,6.460448],[99.842178,6.460818],[99.842056,6.461361],[99.841352,6.461933],[99.840946,6.4609],[99.840481,6.460816],[99.839333,6.461622],[99.838411,6.461212],[99.837896,6.460234],[99.837482,6.459851],[99.836948,6.460213],[99.836245,6.460194],[99.83597,6.459478],[99.835401,6.459512],[99.835347,6.460033],[99.836044,6.460688],[99.835713,6.461232],[99.833711,6.461891],[99.832679,6.462321],[99.832758,6.462077],[99.833044,6.461461],[99.831945,6.461092],[99.831348,6.461307],[99.8299,6.462533],[99.829323,6.462593],[99.828975,6.462035],[99.828315,6.462062],[99.827885,6.463163],[99.827527,6.463491],[99.826761,6.463114],[99.826643,6.463735],[99.826013,6.464765],[99.824957,6.465719],[99.825366,6.465992],[99.825767,6.465964],[99.826404,6.466112],[99.826372,6.467255],[99.824516,6.469329],[99.82288,6.469251],[99.821791,6.468066],[99.821657,6.467416],[99.821827,6.466849],[99.82197,6.466181],[99.821724,6.464121],[99.820704,6.463695],[99.819648,6.464488],[99.819124,6.4654],[99.819433,6.466621],[99.819221,6.467341],[99.819012,6.468146],[99.819767,6.468839],[99.820403,6.468958],[99.821055,6.468683],[99.821031,6.469508],[99.821935,6.470595],[99.822062,6.471217],[99.822083,6.472284],[99.823165,6.472985],[99.823552,6.474902],[99.824111,6.475505],[99.823967,6.476269],[99.824936,6.476797],[99.825461,6.477966],[99.826719,6.477706],[99.827994,6.477155],[99.82892,6.476355],[99.828816,6.475152],[99.829429,6.47498],[99.82986,6.475092],[99.830481,6.474873],[99.830688,6.474487],[99.831051,6.474198],[99.831078,6.473819],[99.831133,6.473227],[99.831895,6.472706],[99.832654,6.471839],[99.833565,6.471319],[99.833824,6.470581],[99.834402,6.470035],[99.835293,6.470065],[99.835236,6.470709],[99.834992,6.471665],[99.835631,6.471911],[99.834939,6.472658],[99.835466,6.473386],[99.836253,6.473341],[99.837032,6.472266],[99.837534,6.471667],[99.838744,6.471387],[99.839472,6.471773],[99.840377,6.471596],[99.840784,6.470597],[99.841933,6.469691],[99.843375,6.469444],[99.844004,6.469829],[99.844353,6.470852],[99.844999,6.470596],[99.845332,6.469919],[99.846076,6.469489],[99.846699,6.46949],[99.847286,6.469166],[99.848222,6.469643],[99.848658,6.469399],[99.848739,6.468164],[99.847556,6.46779],[99.847317,6.467257],[99.847697,6.466266],[99.847838,6.465833],[99.848503,6.466211],[99.849548,6.465385],[99.849828,6.464107],[99.850334,6.463793],[99.850735,6.464258],[99.851167,6.4644],[99.851583,6.464096],[99.851675,6.463539],[99.851503,6.463149],[99.852091,6.462396],[99.853819,6.462093],[99.853814,6.460884],[99.855221,6.460064],[99.854853,6.459554],[99.853655,6.459855],[99.852335,6.460324],[99.851407,6.460575],[99.851816,6.459941],[99.852276,6.458923],[99.851164,6.45835],[99.851383,6.457266],[99.852256,6.457531],[99.853156,6.457143],[99.853724,6.456259],[99.856372,6.45575],[99.857552,6.454557],[99.858237,6.452546],[99.858276,6.451362],[99.857935,6.450669],[99.856923,6.450662],[99.856858,6.449996],[99.854991,6.448566],[99.855509,6.44739],[99.855992,6.446263],[99.855416,6.445895],[99.854173,6.443004],[99.854979,6.441279],[99.855115,6.440852],[99.855601,6.440908],[99.855376,6.439679],[99.854053,6.439729],[99.852978,6.438387],[99.853771,6.437088],[99.854717,6.437161],[99.85545,6.438054],[99.855713,6.437615],[99.855337,6.436988],[99.855427,6.436338],[99.854643,6.435981],[99.855949,6.434722],[99.858926,6.434401],[99.858686,6.435388],[99.859418,6.43642],[99.860668,6.436293],[99.861266,6.435437],[99.861919,6.43333],[99.860647,6.432921],[99.860969,6.431898],[99.862067,6.431293],[99.862314,6.432481],[99.863152,6.433658],[99.863809,6.432943],[99.864577,6.432446],[99.86441,6.43126],[99.866581,6.430177],[99.868029,6.42875],[99.868991,6.427331],[99.871548,6.427351],[99.872888,6.429096],[99.874435,6.42906],[99.874512,6.427548],[99.875224,6.426691],[99.879983,6.423398],[99.881236,6.422474],[99.879982,6.420335],[99.881268,6.418684],[99.882582,6.418986],[99.883365,6.419628],[99.884766,6.417566],[99.887046,6.416854],[99.887851,6.415704],[99.887477,6.414757],[99.886826,6.414291],[99.887067,6.412909],[99.888273,6.412497],[99.890896,6.410765],[99.892678,6.408305],[99.892549,6.406337],[99.89353,6.404498],[99.894571,6.40227],[99.894712,6.400115],[99.893566,6.398466],[99.892022,6.397289],[99.890144,6.395702],[99.890689,6.395663],[99.891491,6.395681],[99.892833,6.396467],[99.893427,6.396694],[99.893931,6.396757],[99.894501,6.396135],[99.894851,6.394805],[99.893833,6.393947],[99.890812,6.391903],[99.887415,6.389683],[99.88739,6.388008],[99.887845,6.387009],[99.890503,6.386117],[99.892593,6.387],[99.893801,6.388583],[99.895575,6.389826],[99.897543,6.391773],[99.898402,6.394788],[99.900515,6.397961],[99.901195,6.399922],[99.902147,6.401205],[99.903116,6.401367],[99.904866,6.400836],[99.905877,6.399007],[99.906265,6.397845],[99.904852,6.394719],[99.905319,6.392138],[99.904362,6.389656],[99.903786,6.388115],[99.904162,6.38574],[99.903845,6.383452],[99.902162,6.379531],[99.902587,6.377876],[99.902425,6.375493],[99.90172,6.374063],[99.899897,6.373193],[99.899082,6.373101],[99.898321,6.373382],[99.897753,6.373448],[99.896548,6.373723],[99.896251,6.372656],[99.895833,6.371403],[99.89507,6.370523],[99.894751,6.369627],[99.895714,6.367153],[99.896963,6.366291],[99.898057,6.366135],[99.89872,6.366021],[99.900004,6.363994],[99.90025,6.362865],[99.901625,6.361886],[99.903247,6.361272],[99.904877,6.358663],[99.905928,6.357592],[99.907518,6.354848],[99.909319,6.353523],[99.908875,6.349192],[99.909098,6.347242],[99.909382,6.34659],[99.910186,6.344159],[99.911495,6.343057],[99.91168,6.341912],[99.909016,6.341271],[99.908082,6.339784],[99.907879,6.338082],[99.90574,6.335588]],[[100.257733,6.182367],[100.242438,6.210811],[100.233261,6.222438],[100.211668,6.241131],[100.193133,6.248018],[100.20177,6.265906],[100.20393,6.275922],[100.201231,6.281646],[100.20429,6.285223],[100.20411,6.288979],[100.217965,6.299532],[100.220125,6.307223],[100.227514,6.317094],[100.231101,6.320458],[100.23722,6.324572],[100.243158,6.332083],[100.249636,6.335124],[100.254494,6.348358],[100.255929,6.349327],[100.264031,6.354797],[100.273569,6.366779],[100.279507,6.369461],[100.290367,6.386694]],[[100.290367,6.386694],[100.294801,6.381079],[100.309145,6.360262],[100.322089,6.342769],[100.340461,6.321263],[100.336335,6.319138],[100.33746,6.316075],[100.328334,6.314137],[100.304955,6.303135],[100.310831,6.27835],[100.316832,6.280475],[100.318957,6.270849],[100.324208,6.24847],[100.329396,6.228591]],[[100.329396,6.228591],[100.295038,6.225251],[100.284648,6.224088],[100.280737,6.222584],[100.281165,6.221546],[100.281104,6.220568],[100.286604,6.22124],[100.286787,6.220385],[100.282998,6.21519],[100.284343,6.211402],[100.280921,6.210118],[100.280982,6.209018],[100.280371,6.20853],[100.281959,6.20523],[100.281837,6.204924],[100.282082,6.204069],[100.282937,6.203091],[100.283326,6.201556],[100.270767,6.192637],[100.26142,6.185255],[100.257733,6.182367]],[[100.51712,6.371312],[100.515741,6.37146],[100.51299,6.382586],[100.509677,6.385774],[100.503723,6.385368],[100.497597,6.38168],[100.489595,6.380867],[100.480094,6.375679],[100.479594,6.372741],[100.478031,6.371866],[100.475093,6.374304],[100.473082,6.3731],[100.461059,6.376242],[100.451745,6.376179],[100.446369,6.379117],[100.443228,6.384305],[100.437102,6.384556],[100.431414,6.390244],[100.4221,6.391182],[100.420834,6.394682],[100.421834,6.399808],[100.416583,6.402684],[100.416708,6.406434],[100.412082,6.406934],[100.408707,6.41131],[100.404706,6.412435],[100.399455,6.411185],[100.393079,6.402434],[100.386953,6.394057],[100.379827,6.392432],[100.378952,6.390307],[100.380202,6.38093],[100.378451,6.377929],[100.36995,6.376304],[100.365574,6.373679],[100.364449,6.364427],[100.360573,6.361677],[100.361699,6.353925],[100.3677,6.348674],[100.374326,6.343674],[100.383202,6.342048],[100.388094,6.340329],[100.390094,6.334828],[100.383718,6.333078],[100.381405,6.326452],[100.382718,6.31545],[100.38178,6.306698],[100.38203,6.299072],[100.385156,6.296634],[100.387219,6.293321],[100.385406,6.289508],[100.386406,6.284695],[100.393282,6.280444],[100.393095,6.276381],[100.388156,6.277506],[100.388031,6.274756],[100.392157,6.271818],[100.388031,6.267817],[100.389156,6.263379],[100.393282,6.264004],[100.39447,6.259003],[100.381968,6.25594],[100.373341,6.249626],[100.368903,6.250189],[100.358742,6.24218],[100.364278,6.216666]],[[100.364278,6.216666],[100.358581,6.220277],[100.35091,6.227787]],[[100.35091,6.227787],[100.348472,6.230787],[100.329396,6.228591]],[[100.290367,6.386694],[100.30092,6.403439],[100.305239,6.404333],[100.304699,6.406479],[100.306315,6.408929],[100.309738,6.410592],[100.310709,6.409492],[100.311999,6.410377],[100.355804,6.447606],[100.363001,6.453328],[100.365701,6.484841],[100.366102,6.488454],[100.370739,6.532175],[100.36714,6.539147],[100.372718,6.545225],[100.382076,6.542365],[100.384415,6.538432],[100.387294,6.538968],[100.388194,6.534856],[100.396291,6.534141],[100.40187,6.536644],[100.403129,6.53432],[100.40133,6.533247],[100.402949,6.529493],[100.407448,6.528778],[100.410327,6.522878],[100.415545,6.523593],[100.416085,6.521448],[100.423283,6.518051],[100.427242,6.522342],[100.438398,6.526811],[100.453154,6.527526],[100.456213,6.531102],[100.459632,6.531102],[100.462151,6.52556],[100.46719,6.524845],[100.46719,6.522342],[100.471688,6.52109],[100.472948,6.522699],[100.481945,6.524487],[100.486444,6.52413],[100.488423,6.526454],[100.495081,6.523057],[100.495981,6.518587],[100.493102,6.517693],[100.493642,6.509291],[100.4994,6.504642],[100.501019,6.500351],[100.504978,6.499815],[100.507857,6.50196],[100.510197,6.496239],[100.515235,6.493915],[100.517934,6.489803],[100.524052,6.491412],[100.524952,6.488372],[100.53215,6.490875],[100.536469,6.487478],[100.542227,6.491412],[100.549065,6.485512],[100.552664,6.491591],[100.561661,6.496954],[100.572638,6.483724],[100.584514,6.478717],[100.589732,6.47979],[100.59657,6.476393],[100.600802,6.471684],[100.604995,6.47272]],[[100.604995,6.47272],[100.592418,6.459168],[100.592715,6.452027],[100.591335,6.447374],[100.5908,6.434783],[100.588366,6.433173],[100.580504,6.434296],[100.57536,6.433845],[100.570956,6.430605],[100.569237,6.427823],[100.567809,6.425866],[100.56478,6.42078],[100.56178,6.417217],[100.56328,6.413404],[100.56128,6.409153],[100.562155,6.404403],[100.56103,6.400965],[100.562405,6.396651],[100.558941,6.392455],[100.552497,6.390963],[100.542012,6.387882],[100.532484,6.383112],[100.528212,6.381623],[100.524358,6.377173],[100.52167,6.378861],[100.515857,6.378173],[100.51712,6.371312]],[[100.509103,6.256702],[100.506068,6.254054],[100.503318,6.256055],[100.501692,6.253929],[100.501723,6.250251],[100.498928,6.24916],[100.493151,6.251968],[100.490545,6.255305],[100.488497,6.25245],[100.487214,6.248919],[100.48544,6.247507],[100.484595,6.248626],[100.478388,6.240174],[100.478789,6.236082],[100.47566,6.234959],[100.473895,6.236804],[100.471889,6.237687],[100.470078,6.236938],[100.467185,6.235374],[100.469623,6.234436],[100.469603,6.23171],[100.471047,6.229864],[100.469121,6.227578],[100.470044,6.224569],[100.468279,6.222643],[100.468881,6.219875],[100.472491,6.219635],[100.472874,6.217808],[100.470248,6.217496],[100.469373,6.215933],[100.469603,6.212655],[100.465248,6.21262],[100.463185,6.214745],[100.460934,6.213308]],[[100.460934,6.213308],[100.458028,6.21587],[100.457152,6.220746],[100.454152,6.217621],[100.453589,6.21312],[100.449026,6.21512],[100.44139,6.216821],[100.438399,6.220246],[100.434961,6.218496],[100.431461,6.217496],[100.433586,6.21462],[100.432836,6.208307],[100.426085,6.203243],[100.413692,6.202806],[100.404334,6.203749],[100.396082,6.205062],[100.399501,6.209293],[100.398768,6.21076],[100.396641,6.210835],[100.392046,6.20966],[100.388281,6.21087],[100.384591,6.210577],[100.382391,6.21076],[100.377404,6.211307],[100.373654,6.211495],[100.370278,6.212932],[100.364278,6.216666]],[[100.51712,6.371312],[100.513432,6.365936],[100.515182,6.362685],[100.513369,6.35956],[100.510306,6.36181],[100.502698,6.348116],[100.502694,6.340701],[100.505033,6.331377],[100.507658,6.326626],[100.506596,6.320812],[100.508613,6.31692],[100.518602,6.308073],[100.526872,6.306899],[100.527873,6.303399],[100.531582,6.297059],[100.52757,6.291924],[100.52457,6.289486],[100.524361,6.286789],[100.524923,6.283901],[100.522742,6.280507],[100.521713,6.274514],[100.522837,6.269058],[100.52043,6.261596],[100.515937,6.259189],[100.512903,6.259256],[100.509103,6.256702]],[[100.685267,5.976341],[100.688428,5.978448],[100.689482,5.981691],[100.693037,5.984804],[100.695237,5.986392],[100.698048,5.990792],[100.700344,5.994661],[100.698877,5.996738],[100.69718,5.997821],[100.692397,6.002118],[100.688837,6.011984],[100.682459,6.01391],[100.676753,6.019546],[100.671146,6.0243],[100.660756,6.02783],[100.657346,6.034329],[100.653698,6.041948],[100.650045,6.053504],[100.643546,6.058679],[100.644855,6.061704],[100.641531,6.063488],[100.642423,6.067946],[100.637448,6.0728],[100.639316,6.079936],[100.643105,6.088124],[100.646023,6.092177],[100.647608,6.097122],[100.648171,6.10304],[100.64433,6.110656],[100.641452,6.112237]],[[100.641452,6.112237],[100.642912,6.116047],[100.642831,6.120181],[100.640642,6.122613],[100.638453,6.125936],[100.640216,6.129989],[100.640216,6.135501],[100.635839,6.137366],[100.630813,6.142473],[100.624085,6.14912],[100.617033,6.157145],[100.609846,6.160145],[100.602014,6.161525],[100.595607,6.163623],[100.595046,6.168717],[100.601151,6.176754],[100.600439,6.180586],[100.600844,6.183423],[100.598007,6.185612],[100.598736,6.189016],[100.589269,6.203057],[100.587985,6.207229],[100.588114,6.213982],[100.58552,6.217387],[100.585532,6.223441],[100.583332,6.22833],[100.575389,6.221831],[100.570634,6.218918],[100.564798,6.216937],[100.561799,6.212235],[100.559905,6.206953],[100.543296,6.192787],[100.529576,6.212444],[100.518665,6.233625],[100.519547,6.238198],[100.515857,6.241247],[100.50954,6.253139],[100.509103,6.256702]],[[100.604995,6.47272],[100.610277,6.469121],[100.612495,6.466917],[100.613215,6.462268],[100.625272,6.457977],[100.646865,6.458334],[100.642546,6.449573],[100.649924,6.446891],[100.651723,6.442599],[100.661081,6.450467],[100.676556,6.454043],[100.684114,6.453685],[100.685913,6.46495],[100.69743,6.466917],[100.69707,6.47085],[100.708766,6.470135],[100.712185,6.481757],[100.719383,6.486942],[100.719923,6.490697],[100.722622,6.495166],[100.72856,6.495166],[100.733419,6.510006],[100.738637,6.510185],[100.743316,6.499815],[100.738997,6.4932],[100.738277,6.489624],[100.742236,6.485154],[100.742956,6.471208],[100.752493,6.458513],[100.764369,6.456189],[100.769228,6.456189],[100.775346,6.464235],[100.781104,6.457798],[100.780564,6.455116],[100.788122,6.454043],[100.788662,6.449752],[100.810435,6.445103],[100.823391,6.408624],[100.823571,6.404154],[100.820692,6.401293],[100.823751,6.381979],[100.821052,6.376436],[100.819972,6.369282],[100.821952,6.366421],[100.821952,6.361235],[100.821412,6.356764],[100.824831,6.355512],[100.82753,6.352114],[100.82807,6.348001],[100.830409,6.347106],[100.840666,6.327612],[100.839946,6.323856],[100.848584,6.315808],[100.848404,6.30919],[100.845165,6.309727],[100.841386,6.306508],[100.841926,6.303646],[100.840666,6.299353],[100.837247,6.299711],[100.834908,6.295776],[100.834908,6.287012],[100.837967,6.28254],[100.846064,6.258214],[100.843725,6.251417],[100.852003,6.232009]],[[100.852003,6.232009],[100.852591,6.22999],[100.855905,6.220439],[100.856041,6.210037],[100.854837,6.201252],[100.85654,6.19732],[100.854396,6.192536],[100.857164,6.188244],[100.856159,6.183855],[100.860605,6.174328],[100.857937,6.164039],[100.857013,6.157075],[100.852751,6.154236],[100.841679,6.155359],[100.831409,6.152872],[100.824042,6.156936],[100.814561,6.154637],[100.811264,6.159918],[100.804913,6.16068],[100.802881,6.157885],[100.803569,6.153072],[100.804532,6.147088],[100.809105,6.143023],[100.807594,6.135933],[100.805214,6.130407],[100.805577,6.121378],[100.801563,6.111091],[100.794018,6.101308],[100.78792,6.094957],[100.786777,6.09013],[100.792366,6.084413],[100.787161,6.078316],[100.788051,6.07171],[100.782334,6.070694],[100.785055,6.066877],[100.783992,6.060665],[100.775144,6.061341],[100.777895,6.054968],[100.775729,6.052783],[100.769251,6.055451],[100.765258,6.061748],[100.764424,6.052529],[100.757837,6.052441],[100.752341,6.04851],[100.751137,6.044378],[100.755781,6.035098],[100.748414,6.030144],[100.745333,6.033192],[100.741522,6.029508],[100.73949,6.038527],[100.735933,6.0384],[100.735679,6.026714],[100.730477,6.025563],[100.731467,6.021406],[100.73465,6.018222],[100.730237,6.013609],[100.731995,6.007279],[100.727121,6.003499],[100.73144,6.001975],[100.730852,5.997075],[100.736695,5.998284],[100.737426,5.99676],[100.735498,5.993963],[100.735091,5.985367],[100.731179,5.981134],[100.725209,5.981261],[100.723049,5.976942],[100.718857,5.976434],[100.716444,5.973004],[100.717841,5.966525],[100.719365,5.959412],[100.717079,5.958269],[100.713649,5.962333],[100.708695,5.962969],[100.703614,5.961317],[100.702261,5.962875],[100.700085,5.965938],[100.699107,5.969561],[100.697396,5.97046],[100.69321,5.969842],[100.688498,5.972623],[100.685267,5.976341]],[[100.641452,6.112237],[100.63872,6.113355],[100.63313,6.116531],[100.62462,6.114752],[100.619411,6.115641],[100.613441,6.110052],[100.608868,6.110814],[100.602898,6.109163],[100.600611,6.106241],[100.595022,6.105987],[100.593498,6.104463],[100.587019,6.105225],[100.580922,6.103701],[100.574571,6.104971],[100.570887,6.102558],[100.566441,6.101668],[100.5592,6.103828],[100.556533,6.101796],[100.557295,6.095952],[100.549261,6.094682],[100.541766,6.094174],[100.538717,6.094428],[100.537447,6.092268],[100.533763,6.083631],[100.530842,6.079185],[100.52576,6.078422]],[[100.52576,6.078422],[100.515662,6.083504],[100.507659,6.085155],[100.50207,6.083631],[100.489875,6.077914],[100.482381,6.075628],[100.476156,6.075882],[100.474886,6.076009],[100.471917,6.073643],[100.46513,6.075648]],[[100.46513,6.075648],[100.463786,6.077343],[100.462595,6.082692],[100.457768,6.093109],[100.454006,6.101017],[100.449179,6.102669],[100.443208,6.107623],[100.441049,6.115245],[100.443081,6.126423],[100.440541,6.132012],[100.442954,6.133409],[100.450576,6.130996],[100.452907,6.135489],[100.453431,6.143186],[100.453556,6.15565],[100.45769,6.158815],[100.463666,6.160062],[100.466474,6.162389],[100.466391,6.170628],[100.466273,6.178716],[100.473253,6.185616],[100.472996,6.192668],[100.471247,6.196648],[100.467246,6.20192],[100.461747,6.210682],[100.460934,6.213308]],[[100.399432,6.124962],[100.401401,6.127185],[100.400575,6.129027],[100.402861,6.13125],[100.401591,6.140459],[100.402798,6.142111],[100.401591,6.145287],[100.397018,6.14751],[100.39308,6.146049],[100.389079,6.148526],[100.385395,6.15221],[100.387618,6.157735],[100.385903,6.161165],[100.385776,6.165865],[100.382664,6.166627],[100.382791,6.169866],[100.386983,6.16993],[100.386729,6.173169],[100.389524,6.174185],[100.390349,6.177742],[100.387364,6.183077],[100.378218,6.188285],[100.377202,6.19235],[100.375042,6.197177],[100.370596,6.197792],[100.367167,6.199845]],[[100.367167,6.199845],[100.36615,6.204545],[100.361323,6.20391],[100.357513,6.205434],[100.350272,6.210388],[100.347096,6.215596],[100.339729,6.220804],[100.34138,6.223091],[100.345445,6.220423],[100.347986,6.225377],[100.35091,6.227787]],[[100.46513,6.075648],[100.463244,6.073131],[100.465611,6.0692],[100.463605,6.06606],[100.463425,6.061327],[100.461038,6.05892],[100.460998,6.054828],[100.454198,6.049593],[100.450251,6.045993],[100.447436,6.045837],[100.441406,6.04142],[100.440378,6.043806],[100.43418,6.041907],[100.429206,6.040998]],[[100.429206,6.040998],[100.428569,6.043728],[100.423106,6.047221],[100.421392,6.05135],[100.417962,6.053255],[100.41866,6.0631],[100.416755,6.068816],[100.418406,6.073198],[100.420248,6.074596],[100.420629,6.079994],[100.419359,6.080566],[100.418343,6.078788],[100.41504,6.081074],[100.417136,6.087743],[100.41196,6.094793],[100.407133,6.098922],[100.401416,6.099239],[100.398622,6.094412],[100.401802,6.09031],[100.400972,6.088188],[100.397923,6.087426],[100.393795,6.092443],[100.395065,6.099176],[100.390429,6.101843],[100.391127,6.1054],[100.400845,6.108067],[100.398368,6.117722],[100.401416,6.120389],[100.401416,6.122803],[100.399432,6.124962]],[[100.379584,6.108004],[100.379457,6.11372],[100.382251,6.119182],[100.384792,6.126169],[100.386189,6.129472],[100.389365,6.128963],[100.389492,6.125661],[100.391778,6.123882],[100.395843,6.125915],[100.399432,6.124962]],[[100.429206,6.040998],[100.418936,6.041299],[100.411495,6.041499],[100.404889,6.04158],[100.398296,6.042081],[100.396672,6.043224],[100.393335,6.041486],[100.387983,6.040235],[100.391998,6.028381]],[[100.391998,6.028381],[100.382979,6.024444],[100.380176,6.030033],[100.376789,6.040425],[100.370565,6.057828],[100.363536,6.075779],[100.360402,6.074977],[100.361339,6.097143]],[[100.361339,6.097143],[100.363864,6.097588],[100.364626,6.103367],[100.367008,6.103177],[100.369042,6.101893],[100.372057,6.099303],[100.375106,6.100319],[100.37663,6.103685],[100.379584,6.108004]],[[100.352431,6.113276],[100.350057,6.116557],[100.345403,6.116195],[100.34075,6.113227],[100.335152,6.1118],[100.333369,6.112465],[100.330309,6.112816],[100.329293,6.114721],[100.33196,6.116627],[100.329758,6.119004],[100.32362,6.116516]],[[100.32362,6.116516],[100.321469,6.125153],[100.323056,6.128773],[100.320833,6.130551],[100.323628,6.132584],[100.325915,6.138554],[100.32547,6.144588],[100.323104,6.145064],[100.322469,6.148049],[100.323803,6.15078],[100.320881,6.15421],[100.324025,6.157958],[100.324946,6.16053],[100.319404,6.160847],[100.318769,6.16523],[100.3168,6.168278],[100.317817,6.173868],[100.322199,6.178123],[100.33198,6.181553],[100.335219,6.184157],[100.338554,6.189429],[100.342492,6.190953],[100.347636,6.187714],[100.355385,6.185681],[100.356655,6.188222],[100.359005,6.190445],[100.35837,6.193303],[100.359704,6.195081],[100.362625,6.194383],[100.367167,6.199845]],[[100.379584,6.108004],[100.37844,6.111751],[100.375074,6.112513],[100.372978,6.109655],[100.370692,6.109211],[100.369207,6.110396],[100.371454,6.113974],[100.371263,6.120135],[100.369231,6.124708],[100.366627,6.125978],[100.3665,6.119627],[100.362689,6.117277],[100.362435,6.120707],[100.358942,6.121532],[100.357163,6.117785],[100.354369,6.116134],[100.352431,6.113276]],[[100.361339,6.097143],[100.353627,6.096699],[100.353082,6.099029],[100.356115,6.100382],[100.356836,6.102877],[100.355925,6.105463],[100.352876,6.106924],[100.351479,6.109592],[100.352431,6.113276]],[[100.294237,6.08506],[100.29081,6.087919],[100.284185,6.093447],[100.277707,6.107582],[100.273291,6.136685],[100.271409,6.14909],[100.257733,6.182367]],[[100.32362,6.116516],[100.320516,6.115054],[100.317604,6.114562],[100.319309,6.109655],[100.315689,6.106226],[100.318238,6.103266],[100.315752,6.10197],[100.312386,6.103177],[100.309401,6.101684],[100.308321,6.099398],[100.305971,6.099207],[100.304955,6.097302],[100.305971,6.09311],[100.299366,6.089998],[100.295364,6.086187],[100.294237,6.08506]],[[100.391998,6.028381],[100.393109,6.025803],[100.398193,6.013972],[100.398066,6.011304],[100.404799,5.991615],[100.403909,5.98882],[100.405815,5.985645],[100.405688,5.982596],[100.409499,5.977134],[100.410515,5.97345],[100.410836,5.970345]],[[100.410836,5.970345],[100.407215,5.971044],[100.40176,5.969751],[100.396611,5.970807],[100.392321,5.967837],[100.389145,5.969361],[100.39067,5.975559],[100.385852,5.97754],[100.380373,5.972853],[100.375027,5.974437],[100.368822,5.971929],[100.364567,5.973072],[100.359515,5.968365],[100.354961,5.971665],[100.347256,5.972119]],[[100.347256,5.972119],[100.325033,6.043344],[100.314776,6.060523],[100.309311,6.067791],[100.300732,6.0792],[100.299841,6.080385],[100.294237,6.08506]],[[100.52576,6.078422],[100.531048,6.065926],[100.53308,6.06618],[100.532699,6.056018],[100.536764,6.051699],[100.538543,6.048523],[100.538416,6.044331],[100.541718,6.040648],[100.54337,6.03671],[100.548578,6.034423],[100.553151,6.030613],[100.55531,6.026167],[100.561789,6.027056],[100.564678,6.024356],[100.562837,6.016481],[100.560741,6.008796],[100.558899,6.001237],[100.556263,5.992504],[100.557406,5.986153],[100.552579,5.968877],[100.55296,5.964939],[100.556009,5.961256],[100.541782,5.961764],[100.527301,5.961001],[100.522982,5.957191],[100.52349,5.954015],[100.502751,5.954635],[100.478744,5.954269],[100.459309,5.954396],[100.453847,5.954015],[100.453974,5.950204],[100.457404,5.944361],[100.450968,5.94216],[100.446281,5.939256]],[[100.446281,5.939256],[100.440275,5.94645],[100.436337,5.949245],[100.430572,5.96117],[100.424949,5.966351],[100.416247,5.968623],[100.410836,5.970345]],[[100.599913,5.839519],[100.595022,5.8368],[100.587782,5.835657],[100.578509,5.839595],[100.56949,5.840484],[100.561138,5.843342],[100.554913,5.849694]],[[100.554913,5.849694],[100.544862,5.853123],[100.527965,5.858892],[100.52109,5.861528],[100.521431,5.864832],[100.520902,5.867636],[100.512982,5.867803],[100.503228,5.865456],[100.49483,5.863776],[100.493527,5.859443],[100.490869,5.85744],[100.487569,5.85711],[100.484467,5.858364],[100.48044,5.86074],[100.480999,5.891105],[100.479888,5.894376],[100.476521,5.89482],[100.477474,5.862492],[100.470186,5.86608],[100.465867,5.864651]],[[100.465867,5.864651],[100.460786,5.877481],[100.4511,5.893613]],[[100.4511,5.893613],[100.455456,5.900641],[100.456909,5.914965],[100.45407,5.924272],[100.449318,5.931203],[100.447602,5.934503],[100.446281,5.939256]],[[100.685267,5.976341],[100.676047,5.972546],[100.666901,5.962383],[100.658264,5.958827],[100.653563,5.944155],[100.644402,5.936318],[100.644292,5.931169],[100.641498,5.924437],[100.63286,5.92304],[100.631795,5.91381],[100.63159,5.904315],[100.621894,5.897176],[100.613362,5.888615],[100.613313,5.883182],[100.611134,5.876582],[100.614963,5.870839],[100.611992,5.863974],[100.612977,5.856988],[100.60942,5.85413],[100.605736,5.850128],[100.60599,5.843713],[100.602497,5.841554],[100.599913,5.839519]],[[100.4511,5.893613],[100.436809,5.886714],[100.439516,5.881829],[100.423476,5.872456],[100.432721,5.853801],[100.430737,5.85239],[100.426644,5.850344],[100.41866,5.850075],[100.416247,5.851536],[100.409367,5.850195],[100.407557,5.852799],[100.405524,5.852355],[100.405803,5.848281],[100.401289,5.847407],[100.394938,5.843025],[100.394684,5.841119],[100.397479,5.838769],[100.393414,5.837944],[100.392016,5.833434],[100.38792,5.831465],[100.377567,5.828988],[100.372369,5.8284],[100.366462,5.828908],[100.364923,5.830097]],[[100.364923,5.830097],[100.358953,5.862759],[100.358953,5.868308],[100.354634,5.878332],[100.356433,5.897484],[100.353554,5.90357],[100.352834,5.939546],[100.347256,5.972119]],[[100.465867,5.864651],[100.468566,5.856902],[100.471361,5.850297],[100.465137,5.847375],[100.466042,5.844231],[100.471885,5.836991],[100.464517,5.836229],[100.462358,5.833307],[100.456769,5.833815],[100.451942,5.828988],[100.446988,5.82848],[100.443361,5.825212],[100.445737,5.816829],[100.440763,5.810696],[100.436825,5.805234],[100.439874,5.796723],[100.436952,5.790943],[100.435308,5.785937],[100.421868,5.778241],[100.419899,5.772397],[100.412055,5.762362],[100.404702,5.759739],[100.403558,5.754848],[100.400827,5.752307],[100.399733,5.744642],[100.397549,5.73993],[100.397486,5.733198],[100.394397,5.726143],[100.394383,5.723033],[100.392683,5.716569],[100.385443,5.714664]],[[100.385443,5.714664],[100.362521,5.714513],[100.352115,5.717926]],[[100.352115,5.717926],[100.360392,5.74156],[100.360032,5.745678],[100.357153,5.747647],[100.356613,5.75087],[100.361472,5.752302],[100.36615,5.775756],[100.364531,5.804042],[100.365431,5.820691],[100.364923,5.830097]],[[100.554913,5.849694],[100.554088,5.840167],[100.555167,5.826194],[100.555294,5.817175],[100.555968,5.810988],[100.555818,5.806631],[100.558359,5.794183],[100.557343,5.791642],[100.554294,5.791642],[100.552516,5.789483],[100.553405,5.785545],[100.552007,5.783258],[100.553151,5.780083],[100.550991,5.778685],[100.550864,5.776399],[100.543624,5.77462],[100.544259,5.772461],[100.546831,5.769984],[100.549245,5.767697],[100.5488,5.764585],[100.552293,5.760139],[100.551722,5.756074],[100.547657,5.752835]],[[100.547657,5.752835],[100.532413,5.750168],[100.524474,5.746357],[100.520854,5.743499],[100.518504,5.73791],[100.520981,5.734226],[100.520282,5.727239],[100.517535,5.721269],[100.512962,5.720443],[100.510422,5.717014],[100.510485,5.714664],[100.507754,5.713457],[100.508008,5.709138],[100.507056,5.706788],[100.509533,5.705009],[100.507119,5.701961],[100.506802,5.698785],[100.504198,5.69707],[100.500942,5.699293],[100.498529,5.692243],[100.495099,5.691926],[100.491733,5.69453],[100.487986,5.691036],[100.487859,5.685384],[100.485001,5.684431],[100.479888,5.685511],[100.468328,5.681319],[100.461596,5.683351],[100.456901,5.674506],[100.454863,5.669251],[100.450798,5.665948],[100.448925,5.661947],[100.434126,5.661947],[100.423646,5.661693],[100.415199,5.670077],[100.405037,5.679223],[100.400718,5.683415],[100.400845,5.68659],[100.411261,5.688623],[100.414056,5.693323],[100.417994,5.700436],[100.417104,5.702596],[100.409102,5.704882],[100.403385,5.701453],[100.401099,5.69688],[100.395002,5.69688],[100.395002,5.702723],[100.391318,5.704755],[100.385729,5.704819],[100.384712,5.707677],[100.385443,5.714664]],[[100.548186,5.635927],[100.541531,5.638461],[100.537526,5.638193],[100.533865,5.639549],[100.530309,5.639104],[100.527292,5.640692],[100.521235,5.642575],[100.516789,5.641686],[100.508335,5.64076],[100.505865,5.641051],[100.500869,5.644121],[100.495884,5.644375],[100.491542,5.643592]],[[100.491542,5.643592],[100.486461,5.64067],[100.48265,5.638193],[100.477125,5.638257],[100.474648,5.639336],[100.474203,5.64194],[100.471345,5.641369],[100.463533,5.641178],[100.461754,5.643592],[100.459277,5.643973],[100.457467,5.640988],[100.45275,5.641745],[100.449193,5.643587],[100.445807,5.643379],[100.441875,5.63832],[100.438699,5.634636],[100.433935,5.633874],[100.427394,5.639019],[100.42371,5.640352],[100.420473,5.638906],[100.41678,5.635904],[100.411826,5.631712],[100.408396,5.631966],[100.405687,5.637586],[100.403301,5.64525],[100.403047,5.650458],[100.399352,5.653119],[100.393872,5.653296],[100.387865,5.655606],[100.383839,5.661514],[100.380934,5.668907],[100.375344,5.673697],[100.366135,5.673316],[100.355813,5.673464],[100.337172,5.673527]],[[100.337172,5.673527],[100.340778,5.682741],[100.352115,5.717926]],[[100.547657,5.752835],[100.552007,5.750231],[100.553278,5.747183],[100.553151,5.727493],[100.552897,5.721015],[100.548705,5.719745],[100.54248,5.719745],[100.542099,5.714664],[100.540956,5.709963],[100.542353,5.707423],[100.546291,5.707169],[100.548959,5.704501],[100.545402,5.701961],[100.546799,5.699293],[100.548197,5.69688],[100.548832,5.693958],[100.546672,5.692434],[100.544005,5.693069],[100.541718,5.691926],[100.541718,5.688623],[100.543751,5.687099],[100.547244,5.683986],[100.551309,5.68297],[100.551753,5.681509],[100.547816,5.679096],[100.547625,5.676365],[100.551245,5.671919],[100.548641,5.66633],[100.553405,5.653436],[100.548451,5.642702],[100.548186,5.635927]],[[101.10033,6.051847],[101.09637,6.053959],[101.044158,6.049801],[100.997488,6.046909],[100.994058,6.04386],[100.990362,6.045841],[100.982969,6.043398],[100.984685,6.03627],[100.979735,6.033959],[100.971484,6.03726],[100.963132,6.040806],[100.957034,6.040425],[100.95221,6.03627],[100.924769,6.020609],[100.888018,6.001335],[100.883628,6.001038],[100.878843,5.99787],[100.872402,5.993171],[100.866178,5.977039],[100.870751,5.97526],[100.869354,5.972339],[100.872656,5.971068],[100.871005,5.966876],[100.877738,5.965479],[100.87634,5.962049],[100.880405,5.951125],[100.883327,5.949728],[100.883708,5.943885],[100.895427,5.940031],[100.895427,5.933826],[100.891401,5.926302],[100.897044,5.917061],[100.892617,5.902257],[100.8926,5.895995],[100.888154,5.892438],[100.887138,5.885579],[100.88348,5.885278],[100.885359,5.877195],[100.887539,5.870427],[100.888281,5.864619],[100.888281,5.859792],[100.883835,5.852679],[100.881929,5.839595],[100.874668,5.833198],[100.874404,5.828842],[100.879612,5.825412],[100.878246,5.811903],[100.882311,5.802122],[100.877868,5.790221],[100.876861,5.78535],[100.870763,5.778745],[100.863777,5.775442],[100.863523,5.770488],[100.857397,5.766135],[100.859147,5.761587],[100.863766,5.756726],[100.865417,5.75463],[100.868275,5.754693],[100.873018,5.749633],[100.869255,5.747719],[100.873546,5.744881],[100.87414,5.739798],[100.876582,5.736432],[100.871958,5.73213],[100.880786,5.734226],[100.883581,5.730732],[100.886947,5.729907],[100.885105,5.725842],[100.886185,5.719999],[100.885867,5.714282],[100.8879,5.710535],[100.882946,5.709392],[100.880405,5.705772],[100.876912,5.703803],[100.876975,5.698595],[100.87145,5.698595],[100.873165,5.690846],[100.870179,5.687035],[100.8644,5.688369],[100.856905,5.690401],[100.852396,5.697451]],[[100.852396,5.697451],[100.854634,5.70988],[100.853777,5.715235],[100.848505,5.714028],[100.845711,5.709074],[100.839359,5.708439],[100.833738,5.71622],[100.830773,5.719138],[100.825174,5.716628],[100.816345,5.715802],[100.810839,5.716564],[100.804551,5.721899],[100.797259,5.715866],[100.793083,5.713858],[100.786716,5.711229],[100.783758,5.712417],[100.768198,5.718082],[100.75975,5.717818],[100.746284,5.717884],[100.74006,5.715724],[100.737769,5.712471],[100.733196,5.712028],[100.729385,5.708979],[100.72734,5.705013],[100.72602,5.708049],[100.723776,5.707653],[100.721333,5.703098],[100.718825,5.701778],[100.716556,5.704152],[100.713761,5.702374],[100.715789,5.699072],[100.718334,5.697165],[100.719096,5.692084],[100.714931,5.692867],[100.707367,5.696276],[100.700317,5.695005],[100.700673,5.688049],[100.700253,5.68478],[100.698094,5.683192],[100.692752,5.68663]],[[100.692752,5.68663],[100.691499,5.68802],[100.686497,5.689288],[100.681333,5.693131],[100.677241,5.698082],[100.674427,5.702232],[100.670699,5.706947],[100.673412,5.712669],[100.672422,5.714584],[100.667849,5.715092],[100.665953,5.717488],[100.663709,5.721448],[100.665887,5.724815],[100.667523,5.727525],[100.670563,5.728863],[100.669619,5.733368],[100.666189,5.734321],[100.661597,5.732736],[100.658548,5.734641],[100.652153,5.74226],[100.653189,5.74827],[100.655476,5.749223],[100.65592,5.752208],[100.657636,5.755046],[100.656382,5.759468],[100.658957,5.765739],[100.657438,5.7697],[100.654204,5.77234],[100.650178,5.771086],[100.647091,5.774468],[100.647207,5.780063],[100.648989,5.786795],[100.642257,5.785871],[100.636646,5.784485],[100.633353,5.789006],[100.634369,5.794596],[100.627303,5.795034],[100.628065,5.798083],[100.625557,5.799733],[100.624369,5.80234],[100.623779,5.804179],[100.631158,5.811135],[100.630904,5.814056],[100.628791,5.820657],[100.627234,5.826247],[100.617834,5.82739],[100.615167,5.82523],[100.608857,5.821779],[100.602487,5.82602],[100.602487,5.835591],[100.599913,5.839519]],[[100.852003,6.232009],[100.854702,6.231383],[100.857401,6.232993],[100.85956,6.236033],[100.866128,6.237733],[100.868917,6.239879],[100.869637,6.241042],[100.865768,6.244172],[100.869457,6.252401],[100.869097,6.259824],[100.870267,6.260897],[100.870267,6.263491],[100.871437,6.264922],[100.873056,6.26367],[100.874856,6.263223],[100.875215,6.259824],[100.876655,6.257141],[100.879084,6.256157],[100.880344,6.254279],[100.884393,6.255263],[100.884663,6.252043],[100.885652,6.250612],[100.891051,6.250075],[100.89231,6.248644],[100.89267,6.239343],[100.894739,6.239074],[100.896449,6.237643],[100.896719,6.235676],[100.901847,6.233708],[100.903917,6.233976],[100.907336,6.23657],[100.906616,6.238896],[100.908235,6.241221],[100.911384,6.241489],[100.912464,6.244799],[100.917503,6.247929],[100.922181,6.24462],[100.92731,6.244977],[100.930009,6.244083],[100.931718,6.244083],[100.936397,6.243189],[100.938646,6.243904],[100.940895,6.24301],[100.943685,6.243457],[100.944944,6.245872],[100.944944,6.248913],[100.947553,6.252669],[100.945394,6.257141],[100.946744,6.259019],[100.946294,6.262865],[100.948093,6.264564],[100.952142,6.264385],[100.955651,6.265995],[100.956011,6.268946],[100.95835,6.268499],[100.95907,6.270288],[100.963928,6.271361],[100.967347,6.274223],[100.968157,6.278874],[100.966898,6.283077],[100.971666,6.282898],[100.973376,6.280573],[100.976345,6.2795],[100.979584,6.280305],[100.981833,6.278069],[100.983452,6.278069],[100.987501,6.271003],[100.989481,6.265995],[100.99254,6.265548],[100.993709,6.26367],[101.001447,6.259913],[101.003876,6.260897],[101.004236,6.258751],[101.008285,6.256068],[101.010894,6.256068],[101.010444,6.253474],[101.012064,6.249897],[101.014403,6.247482],[101.018722,6.246945],[101.020971,6.250165],[101.026369,6.24775],[101.027899,6.244799],[101.031408,6.244799],[101.039325,6.249897],[101.042475,6.24936],[101.047153,6.252132],[101.048953,6.254011],[101.054261,6.255352],[101.059929,6.253921],[101.060919,6.257767],[101.063438,6.259466],[101.066677,6.258035],[101.067037,6.255889],[101.072885,6.258035],[101.074865,6.255621],[101.081703,6.259645],[101.087101,6.259019],[101.088541,6.260092],[101.095648,6.26045],[101.098348,6.257588],[101.100417,6.257141],[101.102036,6.254279],[101.111933,6.251596],[101.111573,6.248287],[101.104556,6.239343],[101.110044,6.232366],[101.110314,6.228699],[101.113103,6.227268],[101.112653,6.222707],[101.115712,6.221455],[101.115082,6.218056],[101.118591,6.212689],[101.118052,6.209201],[101.115712,6.207949],[101.115082,6.204102],[101.12219,6.201687],[101.12291,6.198736],[101.126149,6.195068],[101.126419,6.192653],[101.12363,6.191759],[101.12192,6.188896],[101.116702,6.184513],[101.111573,6.182903],[101.109144,6.180041],[101.103656,6.178252],[101.096368,6.179504],[101.092949,6.176016],[101.085751,6.178968],[101.084852,6.174853],[101.074955,6.171185],[101.075764,6.160719],[101.070276,6.159288],[101.067037,6.155889],[101.05885,6.14587],[101.05876,6.141576],[101.070456,6.140324],[101.073785,6.138087],[101.073695,6.136119],[101.08872,6.134599],[101.095828,6.1278],[101.099427,6.127352],[101.102036,6.123685],[101.104736,6.124221],[101.107525,6.118406],[101.105815,6.113665],[101.118141,6.114739],[101.12327,6.110981],[101.126239,6.107134],[101.127229,6.098725],[101.126059,6.095146],[101.120481,6.095325],[101.114453,6.092462],[101.116792,6.087184],[101.115442,6.080564],[101.109954,6.074122],[101.111214,6.066696],[101.104826,6.063296],[101.102508,6.054884],[101.10033,6.051847]],[[100.692752,5.68663],[100.683846,5.676206],[100.688115,5.669278],[100.694983,5.664999],[100.698412,5.663601],[100.740426,5.664888],[100.704947,5.630664],[100.709266,5.623169],[100.71399,5.616604]],[[100.71399,5.616604],[100.709156,5.613708],[100.708712,5.609898],[100.704139,5.607484],[100.701408,5.610025],[100.698168,5.609262],[100.698422,5.604817],[100.69531,5.604054],[100.696327,5.593765],[100.69277,5.593575],[100.69096,5.593257],[100.690964,5.55999],[100.69223,5.552354],[100.683338,5.552481],[100.675208,5.551973],[100.674954,5.561754],[100.674478,5.571154],[100.657456,5.571535],[100.656313,5.591479],[100.649072,5.592114],[100.648056,5.585254],[100.643737,5.580173],[100.633194,5.577125],[100.631288,5.578776],[100.632432,5.586779],[100.611959,5.586926]],[[100.611959,5.586926],[100.613103,5.590864],[100.612851,5.593724],[100.61615,5.597773],[100.619385,5.598807],[100.623346,5.597388],[100.625689,5.600884],[100.630606,5.59983],[100.632191,5.602173],[100.625656,5.606992],[100.622015,5.61193],[100.624937,5.615106],[100.627097,5.620568],[100.625191,5.624506],[100.626461,5.626538],[100.623159,5.630476],[100.62138,5.634223],[100.622206,5.637844],[100.620364,5.639495],[100.620745,5.6414],[100.618332,5.64248],[100.616744,5.641782],[100.60574,5.638352],[100.597245,5.635557],[100.586924,5.63181],[100.581398,5.63435],[100.576317,5.627872],[100.568758,5.619698],[100.563042,5.622556],[100.556425,5.62452],[100.549979,5.625441],[100.548758,5.630655],[100.548186,5.635927]],[[101.10033,6.051847],[101.102376,6.048679],[101.105455,6.048802],[101.106265,6.045939],[101.113733,6.039586],[101.111663,6.031713],[101.108424,6.030192],[101.107705,6.028044],[101.110224,6.024286],[101.110944,6.02026],[101.108694,6.018112],[101.108424,6.015786],[101.112563,6.009523],[101.110944,6.007196],[101.108604,6.006212],[101.108874,6.003975],[101.106265,6.000485],[101.107075,5.991],[101.109594,5.989121],[101.112743,5.989479],[101.114543,5.988316],[101.113823,5.986974],[101.116972,5.9842],[101.12237,5.982768],[101.12426,5.97722],[101.119401,5.974088],[101.118861,5.971046],[101.114633,5.967377],[101.113553,5.959949],[101.111034,5.957712],[101.109144,5.959502],[101.105455,5.954938],[101.102666,5.953775],[101.101227,5.952164],[101.095019,5.950732],[101.099607,5.943394],[101.096098,5.937219],[101.092769,5.933729],[101.09151,5.929613],[101.09178,5.926033],[101.088001,5.926212],[101.087281,5.923527],[101.08899,5.921648],[101.086651,5.911267],[101.084852,5.909477],[101.083052,5.910103],[101.080353,5.914936],[101.075135,5.918426],[101.070636,5.917352],[101.061909,5.919948],[101.059479,5.916189],[101.05642,5.916815],[101.054891,5.911983],[101.051292,5.910193],[101.046343,5.913057],[101.044994,5.915831],[101.037436,5.917979],[101.031858,5.914846],[101.028079,5.915204],[101.02565,5.911446],[101.026549,5.906792],[101.028889,5.90536],[101.028889,5.900706],[101.02439,5.898111],[101.02295,5.892562],[101.018992,5.889788],[101.018812,5.886834],[101.014043,5.882807],[101.014133,5.879227],[101.012244,5.874036],[101.009005,5.874394],[101.009904,5.857836],[101.006126,5.851392],[101.011794,5.838324],[101.001717,5.829015],[100.999108,5.819259],[100.993439,5.813172],[100.987051,5.810935],[100.983363,5.808339],[100.988311,5.796971],[100.989301,5.78981],[100.988401,5.785155],[100.991325,5.783454],[100.983947,5.774592],[100.980708,5.775219],[100.979899,5.772802],[100.978189,5.772623],[100.972611,5.775846],[100.971531,5.774145],[100.966043,5.774055],[100.964333,5.775666],[100.962444,5.775935],[100.961814,5.774324],[100.960285,5.772891],[100.957495,5.771996],[100.955156,5.77316],[100.951647,5.769937],[100.944629,5.767431],[100.944,5.765014],[100.94103,5.763492],[100.945979,5.760717],[100.950298,5.754272],[100.947688,5.74532],[100.948498,5.74344],[100.953447,5.742008],[100.960734,5.736547],[100.961364,5.730996],[100.964873,5.728132],[100.967392,5.728669],[100.97585,5.725893],[100.978189,5.722133],[100.983587,5.722313],[100.981518,5.718194],[100.978459,5.718194],[100.978459,5.711569],[100.981518,5.708794],[100.978909,5.704497],[100.979179,5.701184],[100.97369,5.692769],[100.97558,5.684263],[100.973241,5.684263],[100.970991,5.682741],[100.970811,5.67728],[100.967932,5.676474],[100.967212,5.674415],[100.969912,5.671371],[100.969912,5.667073],[100.968202,5.663134],[100.965143,5.661433],[100.966403,5.64854],[100.964693,5.645943],[100.960375,5.647913],[100.957585,5.642093],[100.952817,5.642362],[100.948948,5.648271],[100.946609,5.647555],[100.94346,5.648987],[100.938511,5.647197],[100.938151,5.645764],[100.94202,5.641914],[100.94157,5.638422],[100.94364,5.63699],[100.944179,5.63305],[100.947149,5.629737],[100.947239,5.628036],[100.944809,5.627946],[100.94382,5.624812],[100.9413,5.624633],[100.938781,5.623022],[100.936802,5.623022],[100.933383,5.620783],[100.930504,5.621141],[100.923936,5.617112],[100.925105,5.612903],[100.922676,5.609322],[100.922316,5.602337]],[[100.922316,5.602337],[100.9223,5.605366],[100.918216,5.605746],[100.912507,5.610202],[100.904885,5.61922],[100.899931,5.624937],[100.896203,5.629047],[100.887577,5.637071],[100.879701,5.64139],[100.875609,5.641489],[100.871681,5.637627],[100.86748,5.635494],[100.859816,5.644714],[100.851813,5.647001],[100.843694,5.641786],[100.836433,5.639872],[100.831285,5.64502],[100.828783,5.649866],[100.827918,5.653535],[100.828172,5.663824],[100.830889,5.669575],[100.834486,5.674426],[100.836549,5.679064],[100.84379,5.682367],[100.850268,5.691513],[100.852396,5.697451]],[[100.922316,5.602337],[100.926275,5.601532],[100.929694,5.598487],[100.929604,5.593562],[100.931223,5.592219],[100.933923,5.593383],[100.934372,5.589712],[100.94085,5.590249],[100.944809,5.580041],[100.934192,5.571803],[100.933833,5.56249],[100.94139,5.553535],[100.940491,5.540818],[100.935452,5.536341],[100.934835,5.532682],[100.932393,5.52237],[100.934192,5.519146],[100.929334,5.514131],[100.928389,5.506877],[100.917413,5.495055],[100.910395,5.491652],[100.907875,5.493981],[100.903377,5.490757],[100.895639,5.491831],[100.89276,5.497921],[100.885444,5.494738]],[[100.885444,5.494738],[100.883265,5.496438],[100.872242,5.501026],[100.839767,5.518254],[100.830827,5.524605],[100.814174,5.540164],[100.806565,5.551785],[100.805411,5.570329],[100.798552,5.583095],[100.793598,5.592177],[100.790359,5.585381],[100.788644,5.579221],[100.784544,5.578646],[100.781483,5.576108],[100.777799,5.57795],[100.777561,5.570329],[100.770888,5.570333],[100.768083,5.573931],[100.764144,5.57461],[100.763302,5.577786],[100.763255,5.586043],[100.763429,5.593601],[100.759873,5.597602],[100.760129,5.600333],[100.762934,5.604954],[100.761984,5.611676],[100.76069,5.614228],[100.759931,5.617363],[100.754617,5.616406],[100.752604,5.614624],[100.750551,5.61555],[100.749218,5.612692],[100.743594,5.612347],[100.742241,5.610003],[100.73805,5.608782],[100.735435,5.609072],[100.732175,5.607693],[100.730954,5.609376],[100.732307,5.611126],[100.730735,5.613073],[100.72663,5.612776],[100.725463,5.614661],[100.72324,5.613708],[100.720492,5.615812],[100.715809,5.612565],[100.71399,5.616604]],[[100.424835,5.56249],[100.40981,5.56634],[100.404186,5.573907],[100.39357,5.579459],[100.387406,5.577534],[100.385697,5.583847],[100.383673,5.584921],[100.381603,5.583757],[100.379264,5.579593],[100.3749,5.580354],[100.372516,5.58519],[100.370177,5.58519],[100.368377,5.583085],[100.368332,5.579101],[100.366398,5.575474],[100.361179,5.573504],[100.344579,5.577399],[100.338911,5.577444],[100.341048,5.615679],[100.340148,5.632692],[100.338259,5.65033],[100.33547,5.652479],[100.331871,5.6523],[100.330431,5.656687],[100.337172,5.673527]],[[100.491542,5.643592],[100.495717,5.64066],[100.500671,5.638246],[100.501434,5.635833],[100.498385,5.635452],[100.494665,5.636794],[100.49314,5.636159],[100.492993,5.633679],[100.496931,5.626311],[100.498361,5.614286],[100.495623,5.607548],[100.491939,5.607548],[100.48381,5.608945],[100.484064,5.605261],[100.483556,5.602721],[100.480507,5.602339],[100.479681,5.599545],[100.476633,5.598973],[100.4793,5.596623],[100.475743,5.58951],[100.470281,5.587985],[100.464247,5.59421],[100.463104,5.598021],[100.458531,5.600053],[100.453768,5.604499],[100.451037,5.603102],[100.444368,5.604118],[100.438715,5.602276],[100.437635,5.604817],[100.431982,5.603864],[100.431284,5.600942],[100.421439,5.602022],[100.422963,5.599291],[100.422297,5.595035],[100.417724,5.58373],[100.413659,5.581443],[100.414103,5.576934],[100.417215,5.573504],[100.424075,5.574203],[100.425663,5.571789],[100.424964,5.567915],[100.42579,5.564231],[100.424835,5.56249]],[[100.611959,5.586926],[100.609832,5.58483],[100.609472,5.579348],[100.610996,5.574648],[100.613409,5.57325],[100.613155,5.568931],[100.609318,5.566035],[100.609616,5.56346],[100.609318,5.561716],[100.606778,5.561843],[100.606016,5.565908],[100.603221,5.5654],[100.602713,5.562859],[100.603729,5.557905],[100.603247,5.554577],[100.600281,5.553031]],[[100.600281,5.553031],[100.597706,5.556671],[100.593741,5.555044],[100.593675,5.549665],[100.593021,5.546447],[100.588131,5.54632],[100.5818,5.541817],[100.577227,5.542897],[100.575226,5.53841],[100.570685,5.540611],[100.570749,5.537689],[100.573378,5.531744],[100.565985,5.531084],[100.56643,5.53464],[100.564035,5.536905],[100.558015,5.536292],[100.555799,5.53682],[100.555589,5.539632],[100.558142,5.542707],[100.558396,5.545311],[100.554797,5.548213],[100.553175,5.553004],[100.550975,5.55337],[100.548164,5.551904],[100.544987,5.551659],[100.543276,5.554959],[100.54362,5.560789],[100.540342,5.565209],[100.535676,5.564578],[100.533354,5.559689],[100.529203,5.556221]],[[100.529203,5.556221],[100.527539,5.554296],[100.526999,5.550982],[100.525694,5.549444],[100.523715,5.550669],[100.522995,5.553938],[100.523895,5.557967],[100.52232,5.559042],[100.519036,5.558818],[100.514448,5.561281],[100.508959,5.559042],[100.50689,5.560161],[100.506755,5.564594],[100.504776,5.567057],[100.49164,5.566743],[100.487096,5.570101],[100.487096,5.56137],[100.485342,5.560878],[100.481878,5.564281],[100.478504,5.565176],[100.474275,5.561773],[100.471801,5.562042],[100.469326,5.565445],[100.462983,5.565579],[100.459699,5.563519],[100.456415,5.56531],[100.453941,5.567683],[100.451782,5.567639],[100.450297,5.565758],[100.449892,5.561594],[100.447913,5.560788],[100.446204,5.562176],[100.445844,5.565579],[100.444539,5.567057],[100.443009,5.567191],[100.44004,5.56531],[100.435992,5.564684],[100.4356,5.561366],[100.43479,5.56094],[100.433427,5.560699],[100.432123,5.5624],[100.431673,5.5654],[100.424835,5.56249]],[[100.600281,5.553031],[100.603565,5.551973],[100.605978,5.550131],[100.608519,5.548099],[100.611313,5.547908],[100.612012,5.543653],[100.610615,5.540287],[100.612589,5.535929],[100.612266,5.532347],[100.61595,5.530442],[100.617871,5.524373],[100.617442,5.516532],[100.617697,5.511197],[100.61668,5.506751],[100.618459,5.498749],[100.615156,5.488332],[100.616934,5.481473],[100.616934,5.477027],[100.61884,5.458481],[100.622143,5.456321],[100.628113,5.461657],[100.632559,5.464451],[100.632718,5.459497],[100.634877,5.454289],[100.640212,5.451875],[100.645801,5.447175],[100.646055,5.441713],[100.643388,5.435362],[100.639704,5.430027],[100.638688,5.423675],[100.636147,5.421135],[100.629034,5.4205],[100.62789,5.417832],[100.628145,5.399794]],[[100.628145,5.399794],[100.626828,5.376173],[100.613282,5.377818],[100.60521,5.368054],[100.598874,5.366668],[100.593131,5.36746],[100.585971,5.362956],[100.581976,5.36185],[100.578939,5.36449],[100.57654,5.374579],[100.569233,5.379302],[100.560661,5.38525],[100.552341,5.383217],[100.546275,5.384487],[100.539225,5.379851],[100.537066,5.374135],[100.526396,5.368545],[100.524547,5.363792]],[[100.524547,5.363792],[100.524277,5.375348],[100.524369,5.379266],[100.525537,5.428733],[100.526675,5.470584],[100.527029,5.483587],[100.527359,5.495727],[100.527429,5.498843],[100.528749,5.541313],[100.528929,5.547136],[100.529203,5.556221]],[[100.885444,5.494738],[100.882503,5.492369],[100.884843,5.48395],[100.874766,5.479472],[100.867208,5.468187],[100.865768,5.460305],[100.868827,5.458335],[100.867388,5.440064],[100.867208,5.428778]],[[100.867208,5.428778],[100.843901,5.418912],[100.826466,5.40767],[100.816876,5.403542],[100.81135,5.400302],[100.806935,5.399869],[100.805951,5.402906],[100.801862,5.404417],[100.799238,5.411589],[100.789279,5.414339],[100.782439,5.410497],[100.776301,5.409771],[100.772956,5.407606],[100.768017,5.410563],[100.762637,5.407064],[100.757268,5.407352],[100.757077,5.40424],[100.753552,5.403669],[100.750789,5.407262],[100.745013,5.408979],[100.742183,5.412751],[100.739008,5.413704],[100.737324,5.416338],[100.734181,5.417388],[100.730129,5.415381],[100.728449,5.422659],[100.72663,5.426702],[100.725972,5.430598],[100.724542,5.433393],[100.724551,5.438187],[100.720931,5.443458],[100.716531,5.444325],[100.713363,5.442972],[100.710327,5.443368],[100.708728,5.441459],[100.706524,5.437619],[100.705079,5.422177],[100.708214,5.415777],[100.708077,5.411163],[100.702538,5.409639],[100.702601,5.401636],[100.697584,5.401827],[100.687895,5.413298],[100.686498,5.419078],[100.682989,5.423294],[100.681306,5.43244],[100.686831,5.435489],[100.682766,5.440951],[100.680924,5.438474],[100.669301,5.453781],[100.663839,5.446159],[100.664983,5.441586],[100.656091,5.43714],[100.652407,5.430281],[100.645801,5.422532],[100.639323,5.41834],[100.638434,5.411227],[100.640466,5.408178],[100.638053,5.40551],[100.638561,5.400937],[100.636655,5.39954],[100.632336,5.400429],[100.628145,5.399794]],[[100.739807,5.312685],[100.738101,5.313411],[100.733644,5.313631],[100.727337,5.313987],[100.7247,5.312245],[100.722159,5.313325],[100.721828,5.318648],[100.720376,5.32241],[100.72251,5.325547],[100.720277,5.329176],[100.720418,5.334104],[100.716059,5.333644],[100.711168,5.333961],[100.709834,5.337899],[100.702059,5.331651],[100.696112,5.330602],[100.688498,5.329993],[100.689188,5.325447],[100.688562,5.321228],[100.684672,5.314747],[100.682219,5.311136],[100.68668,5.306965],[100.691234,5.30604],[100.690589,5.303273],[100.68767,5.29746],[100.687775,5.292904],[100.68734,5.291057],[100.685183,5.290003],[100.680856,5.292551],[100.676324,5.295952],[100.676514,5.287822],[100.6748,5.28452],[100.673366,5.284453],[100.669353,5.285281],[100.665986,5.286535],[100.662251,5.286359],[100.660706,5.282113],[100.663313,5.281156],[100.664996,5.283367],[100.666943,5.281354],[100.667009,5.277789],[100.66168,5.27391],[100.66066,5.272498],[100.655293,5.269704],[100.652689,5.27072],[100.651468,5.275233],[100.646547,5.279308],[100.64196,5.282047],[100.63998,5.280727],[100.638659,5.278119],[100.640673,5.275083],[100.63709,5.272116],[100.63748,5.270062],[100.639319,5.267591],[100.635755,5.261819],[100.636781,5.257574],[100.632103,5.258898],[100.6313,5.251486],[100.631999,5.245188],[100.631531,5.241254],[100.624138,5.242146],[100.604835,5.248822],[100.589973,5.253586],[100.585971,5.254665],[100.583685,5.257396],[100.585029,5.260496],[100.580573,5.261842],[100.574962,5.258086],[100.571959,5.262212],[100.568609,5.262047],[100.566811,5.263301],[100.564186,5.263684],[100.559913,5.265364],[100.557273,5.262624],[100.553389,5.263875],[100.550738,5.260776],[100.549517,5.255297],[100.54648,5.252525],[100.5428,5.25203],[100.540243,5.250627],[100.538064,5.250198]],[[100.538064,5.250198],[100.534031,5.285001],[100.524547,5.363792]],[[100.867208,5.428778],[100.865049,5.419284],[100.86073,5.418209],[100.853172,5.406923],[100.854792,5.402265],[100.86091,5.398861],[100.85875,5.392949],[100.847954,5.378975],[100.850293,5.370555],[100.848674,5.351564],[100.839496,5.34601],[100.822042,5.332215],[100.818083,5.326302],[100.818623,5.320927],[100.814844,5.323794],[100.812684,5.32039],[100.808726,5.322898],[100.808186,5.318777],[100.802787,5.318419],[100.802248,5.321106],[100.799369,5.322719],[100.79613,5.319673],[100.792711,5.320927],[100.791991,5.323794],[100.786233,5.323256],[100.786952,5.31824],[100.782994,5.314477],[100.772017,5.319315],[100.76158,5.315015],[100.759241,5.319136],[100.751143,5.319673],[100.746825,5.317523],[100.739807,5.312685]],[[100.739807,5.312685],[100.734768,5.311969],[100.737647,5.306593],[100.736208,5.302114],[100.733509,5.302293],[100.72829,5.275237],[100.73045,5.267711],[100.723792,5.261261],[100.719293,5.260902],[100.715514,5.256602],[100.709936,5.258573],[100.698959,5.248538],[100.69446,5.248897],[100.691041,5.245492],[100.686723,5.221838],[100.678985,5.21933],[100.670168,5.197825],[100.665849,5.198005],[100.660991,5.181697],[100.655952,5.180621],[100.653793,5.183489],[100.651454,5.183489],[100.651633,5.179725],[100.646595,5.172378],[100.642996,5.172557],[100.638677,5.167897],[100.62878,5.164313],[100.627161,5.147467],[100.624102,5.141015],[100.622965,5.139147],[100.618973,5.132591],[100.606197,5.133129],[100.604758,5.127035],[100.59648,5.126498],[100.589282,5.121121],[100.591262,5.114131],[100.588023,5.109292],[100.588923,5.106603],[100.582624,5.104811],[100.584964,5.097283],[100.578306,5.096387],[100.56409,5.086888],[100.56571,5.08151],[100.555093,5.080077],[100.551494,5.076492],[100.549335,5.079718],[100.553653,5.085095],[100.554373,5.090472],[100.545196,5.088142],[100.542857,5.096029],[100.535839,5.093878],[100.535839,5.087246],[100.528821,5.087605],[100.522523,5.096029],[100.512086,5.095491],[100.511546,5.111263],[100.517484,5.112159],[100.519284,5.116102],[100.509297,5.126318],[100.505428,5.126139],[100.503179,5.122734],[100.503359,5.118701],[100.4994,5.118164],[100.49787,5.120673],[100.49868,5.126139],[100.491482,5.133308],[100.495396,5.13985],[100.498365,5.142493],[100.501514,5.142986],[100.503134,5.142404],[100.507812,5.145002],[100.514335,5.144017],[100.539078,5.137744],[100.543711,5.138461],[100.550684,5.142762],[100.543434,5.204686],[100.538373,5.247922],[100.538064,5.250198]]],"bbox":[99.639166,5.076492,101.127229,6.545225]}
