{"type":"Topology","objects":{"KTN_SE-10":{"type":"GeometryCollection","geometries":[{"type":"Polygon","arcs":[[0,1,2]],"properties":{"state":"Kelantan","parlimen":"P.019 Tumpat","code_parlimen":"P.019","dun":"N.01 Pengkalan Kubor","code_dun":"N.01"}},{"type":"Polygon","arcs":[[-3,3,4,5,6,7]],"properties":{"state":"Kelantan","parlimen":"P.019 Tumpat","code_parlimen":"P.019","dun":"N.02 Kelaboran","code_dun":"N.02"}},{"type":"Polygon","arcs":[[8,9,10,11,-5]],"properties":{"state":"Kelantan","parlimen":"P.019 Tumpat","code_parlimen":"P.019","dun":"N.03 Pasir Pekan","code_dun":"N.03"}},{"type":"Polygon","arcs":[[12,13,-10,14,15]],"properties":{"state":"Kelantan","parlimen":"P.020 Pengkalan Chepa","code_parlimen":"P.020","dun":"N.04 Kijang","code_dun":"N.04"}},{"type":"Polygon","arcs":[[16,17,18,-16]],"properties":{"state":"Kelantan","parlimen":"P.020 Pengkalan Chepa","code_parlimen":"P.020","dun":"N.05 Chempaka","code_dun":"N.05"}},{"type":"Polygon","arcs":[[19,-18,20,21]],"properties":{"state":"Kelantan","parlimen":"P.020 Pengkalan Chepa","code_parlimen":"P.020","dun":"N.06 Panchor","code_dun":"N.06"}},{"type":"Polygon","arcs":[[-13,-19,-20,22,23,24]],"properties":{"state":"Kelantan","parlimen":"P.021 Kota Bharu","code_parlimen":"P.021","dun":"N.07 Tanjong Mas","code_dun":"N.07"}},{"type":"Polygon","arcs":[[25,-11,-14,-25]],"properties":{"state":"Kelantan","parlimen":"P.021 Kota Bharu","code_parlimen":"P.021","dun":"N.08 Kota Lama","code_dun":"N.08"}},{"type":"Polygon","arcs":[[26,27,-26,-24,28,29]],"properties":{"state":"Kelantan","parlimen":"P.021 Kota Bharu","code_parlimen":"P.021","dun":"N.09 Bunut Payong","code_dun":"N.09"}},{"type":"Polygon","arcs":[[-6,-12,-28,30]],"properties":{"state":"Kelantan","parlimen":"P.022 Pasir Mas","code_parlimen":"P.022","dun":"N.10 Wakaf Bharu","code_dun":"N.10"}},{"type":"Polygon","arcs":[[-27,31,32,33,-7,-31]],"properties":{"state":"Kelantan","parlimen":"P.022 Pasir Mas","code_parlimen":"P.022","dun":"N.11 Tendong","code_dun":"N.11"}},{"type":"Polygon","arcs":[[-33,34,35,36]],"properties":{"state":"Kelantan","parlimen":"P.022 Pasir Mas","code_parlimen":"P.022","dun":"N.12 Pengkalan Pasir","code_dun":"N.12"}},{"type":"Polygon","arcs":[[37,38,39,-1,-8,-34,-37]],"properties":{"state":"Kelantan","parlimen":"P.023 Rantau Panjang","code_parlimen":"P.023","dun":"N.13 Meranti","code_dun":"N.13"}},{"type":"Polygon","arcs":[[40,41,42,-39]],"properties":{"state":"Kelantan","parlimen":"P.023 Rantau Panjang","code_parlimen":"P.023","dun":"N.14 Gual Periok","code_dun":"N.14"}},{"type":"Polygon","arcs":[[-38,-36,43,44,45,46,-41]],"properties":{"state":"Kelantan","parlimen":"P.023 Rantau Panjang","code_parlimen":"P.023","dun":"N.15 Bukit Tuku","code_dun":"N.15"}},{"type":"Polygon","arcs":[[47,48,-44,-35,-32,-30,49]],"properties":{"state":"Kelantan","parlimen":"P.024 Kubang Kerian","code_parlimen":"P.024","dun":"N.16 Salor","code_dun":"N.16"}},{"type":"Polygon","arcs":[[50,51,52,-50,-29]],"properties":{"state":"Kelantan","parlimen":"P.024 Kubang Kerian","code_parlimen":"P.024","dun":"N.17 Pasir Tumboh","code_dun":"N.17"}},{"type":"Polygon","arcs":[[-51,-23,53,54]],"properties":{"state":"Kelantan","parlimen":"P.024 Kubang Kerian","code_parlimen":"P.024","dun":"N.18 Kenali","code_dun":"N.18"}},{"type":"Polygon","arcs":[[55,-54,-22,56,57,58]],"properties":{"state":"Kelantan","parlimen":"P.025 Bachok","code_parlimen":"P.025","dun":"N.19 Tawang","code_dun":"N.19"}},{"type":"Polygon","arcs":[[-58,59,60]],"properties":{"state":"Kelantan","parlimen":"P.025 Bachok","code_parlimen":"P.025","dun":"N.20 Perupok","code_dun":"N.20"}},{"type":"Polygon","arcs":[[61,62,63,64,65,66,67,-59,-61]],"properties":{"state":"Kelantan","parlimen":"P.025 Bachok","code_parlimen":"P.025","dun":"N.21 Jelawat","code_dun":"N.21"}},{"type":"Polygon","arcs":[[-52,-55,-56,-68,68]],"properties":{"state":"Kelantan","parlimen":"P.026 Peringat","code_parlimen":"P.026","dun":"N.22 Melor","code_dun":"N.22"}},{"type":"Polygon","arcs":[[-53,-69,-67,69,70,-48]],"properties":{"state":"Kelantan","parlimen":"P.026 Peringat","code_parlimen":"P.026","dun":"N.23 Kadok","code_dun":"N.23"}},{"type":"Polygon","arcs":[[-66,71,72,73,-70]],"properties":{"state":"Kelantan","parlimen":"P.026 Peringat","code_parlimen":"P.026","dun":"N.24 Ketereh","code_dun":"N.24"}},{"type":"Polygon","arcs":[[-45,-49,-71,-74,74,75]],"properties":{"state":"Kelantan","parlimen":"P.027 Tanah Merah","code_parlimen":"P.027","dun":"N.25 Chetok","code_dun":"N.25"}},{"type":"Polygon","arcs":[[76,-46,-76,77,78,79]],"properties":{"state":"Kelantan","parlimen":"P.027 Tanah Merah","code_parlimen":"P.027","dun":"N.26 Bukit Panau","code_dun":"N.26"}},{"type":"Polygon","arcs":[[-80,80,81,82,83,84,85,86]],"properties":{"state":"Kelantan","parlimen":"P.027 Tanah Merah","code_parlimen":"P.027","dun":"N.27 Gual Ipoh","code_dun":"N.27"}},{"type":"Polygon","arcs":[[-65,87,88,-72]],"properties":{"state":"Kelantan","parlimen":"P.028 Pasir Puteh","code_parlimen":"P.028","dun":"N.28 Selising","code_dun":"N.28"}},{"type":"Polygon","arcs":[[89,-88,-64,90,91]],"properties":{"state":"Kelantan","parlimen":"P.028 Pasir Puteh","code_parlimen":"P.028","dun":"N.29 Limbongan","code_dun":"N.29"}},{"type":"Polygon","arcs":[[-63,92,93,-91]],"properties":{"state":"Kelantan","parlimen":"P.028 Pasir Puteh","code_parlimen":"P.028","dun":"N.30 Semerak","code_dun":"N.30"}},{"type":"Polygon","arcs":[[94,-92,-94,95,96]],"properties":{"state":"Kelantan","parlimen":"P.028 Pasir Puteh","code_parlimen":"P.028","dun":"N.31 Gaal","code_dun":"N.31"}},{"type":"Polygon","arcs":[[-78,-75,-73,-89,-90,-95,97]],"properties":{"state":"Kelantan","parlimen":"P.029 Machang","code_parlimen":"P.029","dun":"N.32 Pulai Chondong","code_dun":"N.32"}},{"type":"Polygon","arcs":[[-79,-98,-97,98,99,100,-81]],"properties":{"state":"Kelantan","parlimen":"P.029 Machang","code_parlimen":"P.029","dun":"N.33 Banggol Judah","code_dun":"N.33"}},{"type":"Polygon","arcs":[[101,-82,-101]],"properties":{"state":"Kelantan","parlimen":"P.029 Machang","code_parlimen":"P.029","dun":"N.34 Kemuning","code_dun":"N.34"}},{"type":"Polygon","arcs":[[102,-42,-47,-77,-87,103]],"properties":{"state":"Kelantan","parlimen":"P.030 Jeli","code_parlimen":"P.030","dun":"N.35 Kemahang","code_dun":"N.35"}},{"type":"Polygon","arcs":[[104,-104,-86,105]],"properties":{"state":"Kelantan","parlimen":"P.030 Jeli","code_parlimen":"P.030","dun":"N.36 Air Lanas","code_dun":"N.36"}},{"type":"Polygon","arcs":[[-85,106,107,108,-106]],"properties":{"state":"Kelantan","parlimen":"P.030 Jeli","code_parlimen":"P.030","dun":"N.37 Pergau","code_dun":"N.37"}},{"type":"Polygon","arcs":[[109,110,111]],"properties":{"state":"Kelantan","parlimen":"P.031 Kuala Krai","code_parlimen":"P.031","dun":"N.38 Guchil","code_dun":"N.38"}},{"type":"Polygon","arcs":[[112,-83,-102,-100,113,114,-112]],"properties":{"state":"Kelantan","parlimen":"P.031 Kuala Krai","code_parlimen":"P.031","dun":"N.39 Mengkebang","code_dun":"N.39"}},{"type":"Polygon","arcs":[[-115,115,116,117,-110]],"properties":{"state":"Kelantan","parlimen":"P.031 Kuala Krai","code_parlimen":"P.031","dun":"N.40 Manek Urai","code_dun":"N.40"}},{"type":"Polygon","arcs":[[118,-107,-84,-113,-111,-118,119]],"properties":{"state":"Kelantan","parlimen":"P.032 Gua Musang","code_parlimen":"P.032","dun":"N.41 Dabong","code_dun":"N.41"}},{"type":"Polygon","arcs":[[-117,120,121,-120]],"properties":{"state":"Kelantan","parlimen":"P.032 Gua Musang","code_parlimen":"P.032","dun":"N.42 Paloh","code_dun":"N.42"}},{"type":"Polygon","arcs":[[-108,-119,-122,122]],"properties":{"state":"Kelantan","parlimen":"P.032 Gua Musang","code_parlimen":"P.032","dun":"N.43 Galas","code_dun":"N.43"}}]}},"arcs":[[[102.128627,6.16339],[102.110288,6.161403],[102.095617,6.160334],[102.089685,6.15913]],[[102.089685,6.15913],[102.085453,6.157137],[102.083226,6.161123],[102.085008,6.164666],[102.082113,6.171308],[102.07944,6.171973],[102.082113,6.182601],[102.078772,6.189243],[102.081444,6.225554],[102.093248,6.235074],[102.095698,6.245258],[102.120196,6.22489],[102.129009,6.221234]],[[102.129009,6.221234],[102.13474,6.213363],[102.141311,6.2045],[102.137643,6.196858],[102.137949,6.18937],[102.131836,6.181423],[102.126793,6.176227],[102.126335,6.169197],[102.128627,6.16339]],[[102.129009,6.221234],[102.142221,6.217363],[102.15583,6.212713],[102.166298,6.226661],[102.183872,6.22643]],[[102.183872,6.22643],[102.186547,6.21749],[102.197703,6.205569],[102.201829,6.192885],[102.211763,6.183257],[102.213444,6.173476],[102.214991,6.167858],[102.216347,6.162932],[102.21757,6.157583]],[[102.21757,6.157583],[102.212985,6.160181],[102.207032,6.164309],[102.200759,6.167516],[102.193806,6.174011],[102.186088,6.173324],[102.178982,6.170344],[102.171647,6.17042],[102.162783,6.166599],[102.15774,6.16148],[102.15453,6.15445],[102.154301,6.147038],[102.152238,6.14444],[102.148494,6.144287],[102.145437,6.142759],[102.144597,6.137563],[102.14485,6.133093],[102.142343,6.132023]],[[102.142343,6.132023],[102.136001,6.132558],[102.131187,6.129578]],[[102.131187,6.129578],[102.131148,6.134354],[102.126946,6.138633],[102.121979,6.14444],[102.123966,6.149942],[102.133059,6.150171],[102.137032,6.153533],[102.135045,6.161098],[102.128627,6.16339]],[[102.183872,6.22643],[102.206032,6.222915],[102.225746,6.226048]],[[102.225746,6.226048],[102.230191,6.21449],[102.236206,6.207021],[102.235869,6.199388],[102.240188,6.192656],[102.247659,6.186293],[102.248135,6.180277],[102.244543,6.175387],[102.236478,6.168531],[102.233835,6.15837],[102.234041,6.147113]],[[102.234041,6.147113],[102.233581,6.141857],[102.233136,6.137538],[102.233002,6.135102],[102.231612,6.126741]],[[102.231612,6.126741],[102.227962,6.127018],[102.220397,6.13038],[102.216806,6.140925],[102.21757,6.157583]],[[102.267802,6.160255],[102.264412,6.159698],[102.258607,6.156726],[102.254707,6.158955],[102.252849,6.163041],[102.249598,6.162577],[102.242632,6.154404],[102.239187,6.150391]],[[102.239187,6.150391],[102.234041,6.147113]],[[102.225746,6.226048],[102.269951,6.199108],[102.278112,6.195363]],[[102.278112,6.195363],[102.271425,6.195642],[102.269939,6.192948],[102.262601,6.192763],[102.259629,6.190255],[102.259629,6.186168],[102.264552,6.182174],[102.266502,6.177716],[102.265109,6.173722],[102.261672,6.170936],[102.261765,6.167592],[102.267152,6.165178],[102.267802,6.160255]],[[102.278112,6.195363],[102.282108,6.192454],[102.299151,6.185995],[102.304602,6.183929],[102.304936,6.18714],[102.325537,6.180608],[102.342709,6.16945]],[[102.342709,6.16945],[102.335929,6.162948],[102.329056,6.151989],[102.325852,6.148889],[102.322044,6.14601],[102.321765,6.150932],[102.326223,6.160685],[102.330031,6.162356],[102.332353,6.166815],[102.330867,6.169972],[102.325945,6.164678],[102.319907,6.164307],[102.313592,6.167836],[102.307183,6.167],[102.296316,6.169415],[102.291394,6.168022],[102.291858,6.162449],[102.293716,6.157805],[102.299753,6.151675],[102.30031,6.14601],[102.302353,6.143502],[102.301332,6.140936]],[[102.301332,6.140936],[102.292183,6.144559],[102.285449,6.146509],[102.276719,6.146045],[102.274583,6.150131],[102.275047,6.157097],[102.272075,6.160255],[102.267802,6.160255]],[[102.310294,6.119574],[102.310062,6.122825],[102.309226,6.129698],[102.306626,6.136571],[102.301332,6.140936]],[[102.342709,6.16945],[102.360867,6.144524]],[[102.360867,6.144524],[102.357523,6.142573],[102.352322,6.145174],[102.348793,6.14313],[102.351672,6.138115],[102.353437,6.131242],[102.346378,6.127527],[102.340062,6.120282],[102.335186,6.11911],[102.325898,6.118552],[102.319025,6.118831],[102.310294,6.119574]],[[102.310294,6.119574],[102.305892,6.123182],[102.297895,6.122012],[102.289703,6.115966],[102.284047,6.115186],[102.27605,6.118306],[102.270784,6.116551],[102.264299,6.110163]],[[102.264299,6.110163],[102.261714,6.112748],[102.258008,6.115673],[102.254985,6.120354]],[[102.254985,6.120354],[102.253327,6.125913],[102.253425,6.131569],[102.253327,6.136836],[102.255668,6.140737],[102.25518,6.144637],[102.251377,6.148441],[102.244063,6.148246],[102.239187,6.150391]],[[102.254985,6.120354],[102.249719,6.122305],[102.244453,6.12367],[102.237041,6.124255],[102.231612,6.126741]],[[102.222315,6.083491],[102.22056,6.095096]],[[102.22056,6.095096],[102.220618,6.103853],[102.221535,6.107579],[102.223313,6.1105],[102.224594,6.113625],[102.229929,6.120008],[102.231612,6.126741]],[[102.264299,6.110163],[102.260642,6.106067],[102.256399,6.100313],[102.252206,6.0969],[102.24603,6.094063],[102.244124,6.09076],[102.242941,6.088026],[102.240169,6.084841]],[[102.240169,6.084841],[102.235773,6.083101],[102.228557,6.084368],[102.222315,6.083491]],[[102.22056,6.095096],[102.21657,6.095176],[102.214174,6.095457],[102.209271,6.095754],[102.203025,6.100362],[102.199672,6.10154],[102.195631,6.101494],[102.192407,6.103378],[102.189099,6.107325],[102.187896,6.111472],[102.18892,6.115671],[102.186155,6.118487],[102.181944,6.119225],[102.177861,6.119767],[102.173867,6.121047],[102.169976,6.123146],[102.166392,6.123658],[102.161477,6.12417],[102.156459,6.124375],[102.151135,6.12545],[102.146066,6.129034],[102.142343,6.132023]],[[102.222315,6.083491],[102.221906,6.080383],[102.221216,6.07514],[102.21982,6.072709],[102.217393,6.068884],[102.213343,6.062133],[102.21032,6.05794],[102.207102,6.0548],[102.202303,6.051789],[102.193912,6.049342],[102.184423,6.049081],[102.178552,6.049035]],[[102.178552,6.049035],[102.177101,6.053287],[102.174046,6.061681],[102.174456,6.071204],[102.177118,6.080676],[102.176102,6.084487],[102.17312,6.084374],[102.168005,6.080164],[102.163909,6.080625],[102.159147,6.085898],[102.154994,6.082812],[102.15029,6.074634],[102.14604,6.071204],[102.142866,6.070129],[102.139999,6.070078],[102.137029,6.07274],[102.135596,6.076017],[102.133753,6.078343],[102.13406,6.081546]],[[102.13406,6.081546],[102.136364,6.086052],[102.140613,6.090506],[102.141023,6.095063],[102.139244,6.098874],[102.136159,6.105098],[102.13366,6.110178],[102.131881,6.112972],[102.129735,6.120409],[102.129658,6.125146],[102.131187,6.129578]],[[102.178552,6.049035],[102.176427,6.04906],[102.170026,6.0495],[102.163724,6.050281],[102.155598,6.0499],[102.149711,6.047095],[102.147209,6.045014],[102.146308,6.042585],[102.146424,6.036337]],[[102.146424,6.036337],[102.14348,6.033701],[102.140869,6.03324],[102.136056,6.040177],[102.129477,6.041739],[102.124035,6.040991],[102.108665,6.040228],[102.100783,6.044999],[102.094692,6.050397]],[[102.094692,6.050397],[102.089465,6.054897],[102.083833,6.060939],[102.082604,6.067902],[102.090386,6.065956],[102.097964,6.064727],[102.115167,6.065137],[102.120799,6.063499],[102.12213,6.066263],[102.115884,6.071486],[102.109535,6.075889],[102.105644,6.088382],[102.108101,6.088996],[102.114553,6.088074],[102.121311,6.09002],[102.129298,6.084593],[102.13406,6.081546]],[[102.094692,6.050397],[102.092103,6.047899],[102.087806,6.041939],[102.076232,6.04187],[102.065212,6.045127],[102.047954,6.045404],[102.043449,6.046721]],[[102.043449,6.046721],[102.052736,6.050117],[102.06133,6.056008],[102.0614,6.067721],[102.066619,6.075421],[102.067707,6.082969],[102.063756,6.088167],[102.058489,6.092256]],[[102.058489,6.092256],[102.06218,6.103992],[102.069084,6.108864],[102.092691,6.14828],[102.09013,6.150273],[102.091466,6.154259],[102.089685,6.15913]],[[102.043449,6.046721],[102.040815,6.04485],[102.039914,6.042008],[102.041231,6.038682],[102.044915,6.036141],[102.047494,6.032574],[102.05049,6.028666],[102.052459,6.025236],[102.053845,6.022602],[102.055751,6.020951],[102.054933,6.008859],[102.054933,5.992218],[102.055231,5.983513],[102.056479,5.978661],[102.05537,5.961542],[102.055849,5.954139],[102.054608,5.946572],[102.052079,5.944439],[102.051974,5.93375],[102.04837,5.930978],[102.037977,5.93128],[102.025083,5.931116],[102.016835,5.931532],[102.008553,5.926715],[102.004107,5.926461],[102.003043,5.922522]],[[102.003043,5.922522],[101.995112,5.925979],[101.980885,5.935761],[101.972374,5.938428],[101.940631,5.91327],[101.93481,5.906963],[101.933978,5.900725]],[[101.933978,5.900725],[101.931809,5.904689],[101.922316,5.911075],[101.923207,5.923702],[101.930111,5.925031],[101.929889,5.948955],[101.936793,5.948512],[101.943251,5.955157],[101.940579,5.971327],[101.946815,5.985503],[101.970868,6.00433],[101.972427,6.019391],[101.99158,6.040653],[101.998261,6.040211],[102.004275,6.044419],[102.003829,6.051063],[102.01786,6.051506],[102.024319,6.063022],[102.037459,6.072988],[102.054385,6.079189],[102.058489,6.092256]],[[102.146424,6.036337],[102.155907,6.029087],[102.161871,6.026129],[102.168669,6.022288],[102.178552,6.017624]],[[102.178552,6.017624],[102.173747,6.012241],[102.168251,6.008471],[102.159193,6.004859],[102.147445,6.002295],[102.141069,5.998067],[102.137638,5.995122],[102.130358,5.993195],[102.11539,5.985835],[102.109039,5.98177],[102.102892,5.979099],[102.09914,5.976927],[102.096539,5.974537],[102.095846,5.969894],[102.09536,5.961369],[102.094853,5.953972],[102.094597,5.945345],[102.096539,5.936903],[102.101366,5.937539],[102.103608,5.936626],[102.104509,5.92928],[102.109361,5.925537],[102.109846,5.917636],[102.11144,5.913131],[102.11241,5.909042]],[[102.11241,5.909042],[102.110054,5.90225],[102.10645,5.900101],[102.10044,5.901902],[102.095083,5.898923],[102.090209,5.897248],[102.084202,5.896636],[102.076735,5.897178],[102.074537,5.89659],[102.069632,5.89566],[102.063905,5.896162],[102.058697,5.895527]],[[102.058697,5.895527],[102.053901,5.896162],[102.049678,5.897686],[102.045667,5.898576],[102.041508,5.898299],[102.039304,5.89852],[102.035687,5.898299],[102.032802,5.898837],[102.028318,5.900996],[102.026723,5.902256],[102.02432,5.904606],[102.01635,5.910497],[102.014153,5.912336],[102.003043,5.922522]],[[102.239882,6.036205],[102.236563,6.036205],[102.233585,6.033226],[102.231202,6.031609],[102.223803,6.03236],[102.217451,6.026898],[102.217501,6.017568],[102.215033,6.016292],[102.210268,6.015271],[102.206183,6.012547],[102.202694,6.013228],[102.196312,6.016207],[102.191121,6.015185],[102.186181,6.011941]],[[102.186181,6.011941],[102.178552,6.017624]],[[102.240169,6.084841],[102.242356,6.081004],[102.241917,6.076615],[102.239235,6.070715],[102.239814,6.0661],[102.241814,6.057832],[102.240281,6.053898],[102.240222,6.04931],[102.240481,6.043363],[102.241414,6.037296],[102.239882,6.036205]],[[102.264299,6.110163],[102.267964,6.10624],[102.270006,6.100198],[102.269751,6.094837],[102.26839,6.090497],[102.270347,6.084285],[102.270262,6.079349],[102.2729,6.07552],[102.276219,6.072116],[102.279537,6.06718],[102.282771,6.063436],[102.285835,6.061819],[102.290855,6.059777],[102.296318,6.058252],[102.300764,6.055331],[102.305718,6.05152]],[[102.305718,6.05152],[102.301237,6.048118],[102.302939,6.044799],[102.302769,6.041396],[102.298004,6.037396],[102.288898,6.035183],[102.281069,6.029737],[102.269409,6.027779]],[[102.269409,6.027779],[102.261412,6.028716],[102.254348,6.030163],[102.25137,6.02761],[102.250859,6.024802],[102.247796,6.022929],[102.244477,6.025908],[102.242945,6.032035],[102.239882,6.036205]],[[102.310294,6.119574],[102.309737,6.114373],[102.305465,6.109357],[102.308054,6.105148],[102.313731,6.103042],[102.317818,6.10072],[102.321478,6.095054],[102.323576,6.093104],[102.326863,6.088872],[102.332579,6.085824],[102.336565,6.084599],[102.339458,6.079265],[102.34531,6.07202],[102.343545,6.067098],[102.344381,6.062918],[102.34412,6.05916],[102.341966,6.057531],[102.337044,6.056417],[102.334071,6.05298],[102.329414,6.052786],[102.324449,6.057203],[102.320511,6.056695],[102.318964,6.051592],[102.319675,6.046014]],[[102.319675,6.046014],[102.313747,6.04999],[102.309917,6.052884],[102.305718,6.05152]],[[102.343746,6.012501],[102.340804,6.019138],[102.333353,6.023442],[102.328208,6.02973],[102.322777,6.032194],[102.318856,6.035568],[102.320406,6.040673],[102.319675,6.046014]],[[102.360867,6.144524],[102.365791,6.138306],[102.368591,6.134106]],[[102.368591,6.134106],[102.363257,6.129438],[102.361857,6.126438],[102.361857,6.119437],[102.365391,6.113503],[102.368489,6.108393],[102.374459,6.098167],[102.374859,6.091966],[102.378126,6.086566],[102.378593,6.082898],[102.384327,6.079898],[102.38466,6.075497],[102.38266,6.073897],[102.38206,6.06863],[102.379027,6.066657],[102.377259,6.062695],[102.376726,6.058962],[102.380246,6.052343],[102.38266,6.046627],[102.382593,6.042159],[102.38366,6.036958],[102.382127,6.028424]],[[102.382127,6.028424],[102.375702,6.026154],[102.367862,6.021413],[102.362665,6.014302],[102.357012,6.010381],[102.350903,6.011749],[102.343746,6.012501]],[[102.368591,6.134106],[102.374459,6.125638],[102.43843,5.987302],[102.442763,5.978055],[102.453382,5.953033]],[[102.453382,5.953033],[102.443718,5.94966],[102.436697,5.944554],[102.429495,5.943187],[102.425209,5.948019],[102.421107,5.956316],[102.413083,5.947107],[102.409801,5.945466],[102.40547,5.94852],[102.403647,5.954674],[102.398177,5.967439],[102.39143,5.979838],[102.387145,5.986676],[102.387601,5.992694],[102.38678,5.997526],[102.38026,6.008488],[102.378326,6.012822],[102.380996,6.017009],[102.382393,6.019423],[102.382127,6.028424]],[[102.453382,5.953033],[102.463776,5.929807],[102.469526,5.917902]],[[102.469526,5.917902],[102.468653,5.917362],[102.465052,5.915379],[102.458578,5.912335],[102.447775,5.907584],[102.443579,5.905375],[102.432206,5.900351],[102.425346,5.896096],[102.421371,5.892506],[102.418174,5.890774],[102.415771,5.890184],[102.409573,5.88707],[102.404969,5.885907]],[[102.404969,5.885907],[102.403738,5.887526],[102.401185,5.889622],[102.396171,5.891172],[102.390974,5.891081],[102.388239,5.898649],[102.383954,5.900199],[102.379942,5.90266],[102.379395,5.908222],[102.374745,5.908222],[102.371691,5.910797]],[[102.371691,5.910797],[102.370232,5.915994],[102.366786,5.918281],[102.363303,5.923015],[102.358927,5.926662],[102.356083,5.931346],[102.352913,5.937504],[102.346983,5.943574],[102.342457,5.943339],[102.335533,5.937928],[102.329784,5.937584],[102.327381,5.937466],[102.318485,5.939054],[102.308382,5.941113],[102.303491,5.939589],[102.2993,5.937557],[102.294559,5.941842],[102.289088,5.943392],[102.28298,5.941751]],[[102.28298,5.941751],[102.282849,5.946385],[102.282137,5.949347],[102.280994,5.953856],[102.281331,5.957198]],[[102.281331,5.957198],[102.283162,5.963815]],[[102.283162,5.963815],[102.287538,5.964726],[102.295922,5.966505],[102.300749,5.966251],[102.307559,5.970419],[102.313657,5.972324],[102.318993,5.972841],[102.326104,5.969741],[102.331985,5.975052],[102.334173,5.993514],[102.332122,5.999281],[102.332806,6.004022],[102.338854,6.008705],[102.341285,6.00972],[102.343746,6.012501]],[[102.283162,5.963815],[102.28245,5.967609],[102.280491,5.972143],[102.278252,5.976397],[102.277189,5.978748],[102.27523,5.986472],[102.271256,5.993524],[102.269653,5.999079],[102.270272,6.002636],[102.268113,6.007717],[102.265826,6.012163],[102.268905,6.020559],[102.269409,6.027779]],[[102.281331,5.957198],[102.275705,5.959045],[102.27022,5.958038],[102.258242,5.958262],[102.248951,5.960948],[102.243801,5.963859],[102.235853,5.963187],[102.224771,5.959269],[102.215927,5.959269],[102.206356,5.960892]],[[102.206356,5.960892],[102.20658,5.965818],[102.206603,5.972656],[102.203053,5.983057],[102.197456,5.99067],[102.191597,5.999201],[102.186181,6.011941]],[[102.28298,5.941751],[102.280155,5.938503],[102.280189,5.936434],[102.279931,5.934082],[102.277189,5.93285],[102.272263,5.932962],[102.271144,5.928316],[102.273439,5.920312],[102.27377,5.914809],[102.272374,5.91147],[102.272598,5.904631],[102.271202,5.90278],[102.268709,5.900722],[102.265295,5.899491],[102.263643,5.89695],[102.264131,5.892502],[102.264343,5.889136]],[[102.264343,5.889136],[102.259165,5.890353],[102.257291,5.894845],[102.249224,5.894464],[102.244137,5.898035],[102.242486,5.89613],[102.240238,5.893528],[102.234395,5.897593],[102.22617,5.898539],[102.221412,5.901562],[102.216151,5.902289],[102.216684,5.906574],[102.212737,5.909286],[102.208763,5.909174],[102.197456,5.916842]],[[102.197456,5.916842],[102.197489,5.920117],[102.197546,5.923538],[102.198347,5.926418],[102.200535,5.932962],[102.200759,5.939175],[102.203277,5.94578],[102.205079,5.951443],[102.206356,5.960892]],[[102.197456,5.916842],[102.19217,5.90478],[102.187829,5.898676],[102.18593,5.894407],[102.181992,5.890342]],[[102.181992,5.890342],[102.176608,5.892434],[102.171575,5.888585],[102.163287,5.899933],[102.158847,5.901018],[102.1549,5.897959],[102.152137,5.903386],[102.147894,5.907925],[102.143158,5.908122],[102.139507,5.904176],[102.136349,5.902695],[102.132501,5.902301],[102.129048,5.902202],[102.128628,5.907517],[102.125791,5.908517],[102.11849,5.906938],[102.11241,5.909042]],[[102.102209,5.805306],[102.099065,5.807656],[102.092058,5.811902],[102.082277,5.817936],[102.076815,5.822191],[102.065128,5.830194],[102.059285,5.836291],[102.052044,5.840864],[102.053465,5.845564],[102.056386,5.849756],[102.059327,5.855614],[102.06047,5.861648],[102.061556,5.868851],[102.057609,5.877139],[102.059569,5.882054],[102.063888,5.888151],[102.060331,5.892216],[102.058697,5.895527]],[[102.181992,5.890342],[102.181595,5.887462],[102.179308,5.871542],[102.177022,5.862905],[102.179272,5.857208],[102.182627,5.851189],[102.181837,5.84665],[102.178285,5.840433],[102.171674,5.835105],[102.167241,5.830767],[102.164767,5.82731],[102.165951,5.820995],[102.170885,5.815074],[102.172703,5.807012]],[[102.172703,5.807012],[102.17049,5.800323],[102.166129,5.796395],[102.158912,5.792967],[102.155517,5.789557],[102.153617,5.787249]],[[102.153617,5.787249],[102.150459,5.792627],[102.146809,5.798942],[102.140198,5.801112],[102.132205,5.801014],[102.125397,5.797757],[102.118605,5.796691],[102.110892,5.800422],[102.102209,5.805306]],[[102.153617,5.787249],[102.152729,5.780391],[102.151051,5.768748],[102.148361,5.761632],[102.146266,5.755624],[102.147917,5.748612],[102.148806,5.744102],[102.148515,5.738879],[102.148316,5.735769]],[[102.148316,5.735769],[102.144926,5.726616],[102.144423,5.723165],[102.143423,5.720624],[102.142022,5.715472],[102.141476,5.707506],[102.142458,5.699322],[102.146278,5.692338],[102.143877,5.687754],[102.138312,5.688082],[102.127602,5.6924],[102.121201,5.69364],[102.111534,5.690765],[102.107429,5.687645],[102.106556,5.679352],[102.106556,5.677103],[102.106338,5.663529],[102.110278,5.653086],[102.113431,5.639849]],[[102.113431,5.639849],[102.108684,5.635756],[102.10877,5.632432],[102.104101,5.625717],[102.099081,5.620479],[102.094167,5.620591],[102.092588,5.61625],[102.095589,5.607166],[102.098473,5.601317],[102.097818,5.596515],[102.093511,5.592662],[102.086336,5.590863],[102.085681,5.584971],[102.081241,5.583491],[102.076011,5.579741],[102.066125,5.582067],[102.059141,5.58294],[102.049666,5.577373],[102.043336,5.56646],[102.043118,5.561004],[102.03788,5.553365],[102.034075,5.549547],[102.035753,5.54343],[102.033977,5.536029],[102.027614,5.531726],[102.027366,5.527741],[102.028051,5.523214],[102.030015,5.519504],[102.030714,5.51621]],[[102.030714,5.51621],[102.019373,5.514519],[102.015426,5.51146],[102.012368,5.515308],[102.002204,5.523301],[102.000922,5.528629],[101.997961,5.531194],[101.994409,5.529616]],[[101.994409,5.529616],[101.987009,5.530602],[101.976254,5.540766],[101.970983,5.53746],[101.963525,5.546686],[101.966828,5.55037],[101.969438,5.554352],[101.969445,5.562671],[101.964413,5.571255],[101.963327,5.582603],[101.959381,5.593161],[101.954052,5.598588],[101.94617,5.601925],[101.944086,5.606284],[101.94403,5.611246]],[[101.94403,5.611246],[101.9453,5.620646],[101.95,5.625092],[101.955631,5.623749],[101.961559,5.623567],[101.964808,5.632432],[101.96688,5.648022],[101.973787,5.651673],[101.973392,5.657495],[101.968064,5.667263],[101.959998,5.680387],[101.95548,5.694939],[101.955607,5.703196],[101.957004,5.708531],[101.963229,5.71285],[101.969741,5.716797],[101.967472,5.724099],[101.968853,5.729131]],[[101.968853,5.729131],[101.975365,5.729328],[101.982963,5.732288],[101.992633,5.73219],[102.003975,5.740956],[102.007237,5.746793],[102.010986,5.754391],[102.011381,5.76416],[102.013265,5.765999],[102.015821,5.765936],[102.027662,5.754194],[102.034668,5.753602],[102.039601,5.744425],[102.044453,5.745118],[102.048778,5.75074],[102.050652,5.755772],[102.050677,5.766713],[102.055123,5.77624],[102.059061,5.782591],[102.065965,5.798458],[102.070349,5.805523],[102.072508,5.806539],[102.081646,5.806794],[102.082869,5.806095],[102.082129,5.795241],[102.084497,5.786805],[102.084917,5.770962],[102.088738,5.769508],[102.107162,5.775657],[102.109412,5.78049],[102.108573,5.788532],[102.102554,5.798399],[102.102209,5.805306]],[[102.371691,5.910797],[102.369117,5.903337],[102.363888,5.899489],[102.362309,5.894456],[102.358066,5.887253],[102.361717,5.879853],[102.358411,5.876005],[102.357721,5.873784],[102.359546,5.868703],[102.356191,5.867223],[102.352392,5.866927],[102.340009,5.86145],[102.337049,5.8578],[102.337473,5.850583],[102.335667,5.846847],[102.332806,5.841913],[102.329599,5.837917],[102.326885,5.835006],[102.324221,5.833576],[102.322396,5.833576],[102.320077,5.835006],[102.316278,5.838361],[102.312134,5.840927],[102.309519,5.841617],[102.306016,5.840727],[102.300392,5.837325],[102.297974,5.833378],[102.297803,5.830147],[102.297909,5.82166],[102.298041,5.814943],[102.299603,5.808957]],[[102.299603,5.808957],[102.297284,5.807526],[102.295721,5.802911],[102.29388,5.802148],[102.292292,5.802911],[102.289735,5.806539],[102.283947,5.811077],[102.282631,5.813348],[102.280509,5.81537],[102.28125,5.822376],[102.279317,5.82558],[102.282976,5.831602],[102.280707,5.83619],[102.279177,5.841864],[102.273849,5.84808],[102.277599,5.853754],[102.274984,5.863177],[102.282701,5.86946],[102.283272,5.873192],[102.281595,5.875067],[102.281546,5.879606],[102.278006,5.882717],[102.268225,5.88602],[102.264343,5.889136]],[[102.301773,5.808661],[102.299603,5.808957]],[[102.404969,5.885907],[102.403603,5.883652],[102.401063,5.880794],[102.401444,5.877808],[102.405127,5.876411],[102.404683,5.873108],[102.408811,5.869742],[102.408748,5.866821],[102.404886,5.863227],[102.402123,5.856763],[102.402764,5.853902],[102.405231,5.851485],[102.412434,5.85183],[102.415556,5.855118],[102.418059,5.855777],[102.419489,5.852965],[102.417121,5.848919],[102.413766,5.845515],[102.414457,5.841864],[102.411546,5.83846],[102.412878,5.835401],[102.41648,5.834398],[102.423469,5.837009],[102.425755,5.835993],[102.4261,5.829333],[102.428715,5.829333],[102.430096,5.832359],[102.431938,5.835471],[102.433451,5.835204],[102.437084,5.830024],[102.437211,5.826023],[102.43577,5.817393],[102.433155,5.814877],[102.433057,5.813101]],[[102.433057,5.813101],[102.425456,5.807775],[102.422252,5.805849],[102.417023,5.803184],[102.411793,5.803036],[102.408931,5.805355],[102.403554,5.812312],[102.398005,5.815053],[102.393687,5.814926],[102.387843,5.81861],[102.384559,5.819268],[102.381257,5.818633],[102.373346,5.813198],[102.365598,5.807228],[102.35999,5.804122],[102.35555,5.80427],[102.353034,5.806737],[102.349432,5.807279],[102.347273,5.805501],[102.341881,5.79905],[102.338578,5.797017],[102.336038,5.798161],[102.331973,5.804512],[102.32732,5.808704],[102.31687,5.810832],[102.303303,5.810782],[102.301773,5.808661]],[[102.469526,5.917902],[102.479098,5.902435],[102.500255,5.879617],[102.536335,5.847271],[102.488451,5.791658],[102.476744,5.782019]],[[102.476744,5.782019],[102.474104,5.784141],[102.468073,5.78853],[102.464287,5.789765],[102.457873,5.789074],[102.452068,5.790181],[102.447414,5.795291],[102.442332,5.80215],[102.436461,5.809845],[102.433057,5.813101]],[[102.310407,5.774742],[102.310699,5.78055],[102.30794,5.782932],[102.303056,5.782932],[102.300858,5.784529],[102.302573,5.790245],[102.301112,5.793675],[102.305079,5.796401],[102.304733,5.804615],[102.301773,5.808661]],[[102.476744,5.782019],[102.474269,5.780214],[102.463116,5.771215],[102.457908,5.766584],[102.456173,5.765613],[102.434093,5.747262],[102.431725,5.745782]],[[102.431725,5.745782],[102.428419,5.744104],[102.422501,5.745151],[102.418191,5.748188],[102.413618,5.746029],[102.410066,5.741194],[102.406958,5.741342],[102.406179,5.743626],[102.408974,5.74858],[102.406942,5.75328],[102.404738,5.755205],[102.401479,5.754423],[102.39862,5.748298],[102.396153,5.746325],[102.394711,5.747849],[102.3964,5.752738],[102.394723,5.756044],[102.396398,5.75798],[102.4001,5.758659],[102.401098,5.763696],[102.402337,5.768015],[102.401129,5.773309],[102.396683,5.773944],[102.393855,5.77122],[102.389789,5.771042],[102.386902,5.773055],[102.382964,5.77369],[102.37928,5.770895],[102.374347,5.767243],[102.373558,5.762972],[102.375679,5.758955],[102.373705,5.753429],[102.377406,5.749778],[102.379352,5.745816],[102.377849,5.742935],[102.374248,5.742575],[102.371952,5.744066],[102.368636,5.748586],[102.366354,5.75111],[102.362753,5.751258],[102.359793,5.750173],[102.357227,5.747114],[102.352984,5.747015],[102.349383,5.749729],[102.343758,5.747903],[102.340256,5.7519],[102.334779,5.752245],[102.330535,5.750358],[102.324567,5.751357],[102.321598,5.754986],[102.315407,5.755625],[102.311838,5.760632],[102.311397,5.765534],[102.313663,5.769414],[102.310407,5.774742]],[[102.310407,5.774742],[102.304289,5.773657],[102.290489,5.77551],[102.282613,5.776653],[102.2614,5.785799],[102.256446,5.782877],[102.248934,5.783623],[102.243606,5.787076],[102.225352,5.786287],[102.22476,5.791319],[102.221898,5.795562],[102.216965,5.797634],[102.213116,5.793885],[102.206604,5.79201],[102.193678,5.793885],[102.188744,5.800594],[102.184008,5.806317],[102.179173,5.808685],[102.172703,5.807012]],[[102.431725,5.745782],[102.417629,5.726954],[102.41607,5.72075],[102.411393,5.72075],[102.403598,5.712329],[102.396471,5.696151],[102.392017,5.699697],[102.380213,5.69327],[102.378975,5.684026]],[[102.378975,5.684026],[102.376235,5.679218],[102.368729,5.678709],[102.364257,5.670918],[102.355308,5.666117],[102.344178,5.664589],[102.335915,5.670049],[102.328531,5.662172],[102.319079,5.66699],[102.306421,5.665898],[102.301344,5.660855],[102.293039,5.665352],[102.285338,5.661925],[102.282283,5.65756],[102.280318,5.652758],[102.270715,5.653413],[102.256603,5.656108],[102.248473,5.659437],[102.243017,5.66151],[102.242526,5.668767]],[[102.242526,5.668767],[102.242077,5.670988],[102.242274,5.676119],[102.236847,5.67681],[102.234676,5.682237],[102.235071,5.687072],[102.239314,5.691611],[102.239906,5.694966],[102.235663,5.702169],[102.237636,5.70503],[102.244938,5.70878],[102.255595,5.720818],[102.256483,5.725357],[102.253325,5.731178],[102.250266,5.740059],[102.244839,5.741144],[102.236452,5.738875],[102.230137,5.74519],[102.229052,5.749038],[102.225894,5.755254],[102.223047,5.75503],[102.212135,5.750556],[102.208035,5.750765],[102.207344,5.746177],[102.212968,5.734287],[102.21335,5.732159],[102.208331,5.730586],[102.200832,5.731968],[102.193086,5.730537],[102.182824,5.732362],[102.177594,5.726837],[102.172562,5.726837],[102.170934,5.730685],[102.166247,5.73626],[102.160721,5.736507],[102.158205,5.734681],[102.153765,5.734435],[102.150607,5.736309],[102.148316,5.735769]],[[102.242526,5.668767],[102.239198,5.669258],[102.231272,5.664081],[102.224684,5.661728],[102.217557,5.663391],[102.210995,5.664476],[102.203249,5.66788],[102.198609,5.667778],[102.194171,5.667831],[102.192109,5.665168],[102.194073,5.657322],[102.195059,5.651698],[102.199993,5.649922],[102.200388,5.64558],[102.197033,5.643311],[102.191803,5.645778],[102.190224,5.643113],[102.193875,5.63591],[102.189632,5.633542],[102.178581,5.634233],[102.171674,5.629694],[102.166247,5.633246],[102.163089,5.641633],[102.161708,5.649428],[102.158452,5.648935],[102.158748,5.645185],[102.156972,5.642423],[102.148683,5.64114],[102.137829,5.636404],[102.122535,5.627819],[102.116911,5.633937],[102.113431,5.639849]],[[101.939338,5.864868],[101.942329,5.869491],[101.944225,5.87247],[101.940266,5.878914],[101.941346,5.885357],[101.933978,5.900725]],[[101.968853,5.729131],[101.968362,5.731387],[101.966827,5.738462],[101.968873,5.750821],[101.970237,5.766164],[101.967765,5.773068],[101.961457,5.774602],[101.959753,5.778864],[101.962565,5.795741],[101.9641,5.798042],[101.964696,5.80972],[101.960179,5.823699],[101.951399,5.835035],[101.945603,5.843985],[101.939338,5.864868]],[[101.780713,5.762115],[101.792351,5.751631],[101.798649,5.751273],[101.802428,5.745902],[101.809266,5.744648],[101.814485,5.738382],[101.815744,5.733906],[101.825461,5.733011],[101.827261,5.735875],[101.824921,5.745723],[101.817904,5.75557],[101.835898,5.789586],[101.839857,5.790839],[101.857312,5.793167],[101.866489,5.791018],[101.86091,5.801402],[101.870448,5.805519],[101.872607,5.802655],[101.880524,5.811248],[101.876926,5.820199],[101.880524,5.832372],[101.887542,5.839174],[101.892401,5.8381],[101.896,5.84544],[101.905537,5.841323],[101.916873,5.842039],[101.930189,5.853316],[101.92749,5.855285],[101.930369,5.860476],[101.935948,5.86334],[101.937387,5.861729],[101.939338,5.864868]],[[101.94403,5.611246],[101.941384,5.610266],[101.935247,5.619386],[101.931369,5.621901],[101.926041,5.619812],[101.917006,5.623137],[101.9072,5.619806],[101.900726,5.621602],[101.892898,5.629706],[101.888452,5.630723],[101.8824,5.626887],[101.876007,5.622114],[101.87149,5.621858],[101.867995,5.619812],[101.860068,5.620324],[101.855806,5.617085],[101.847368,5.617],[101.841146,5.613675],[101.834327,5.613846],[101.829586,5.618679],[101.825522,5.629604],[101.819581,5.635411],[101.814343,5.632763],[101.809097,5.631319],[101.802619,5.622881],[101.798271,5.622369],[101.792049,5.617085],[101.786935,5.616659],[101.783355,5.618917],[101.782076,5.623009],[101.773297,5.635965],[101.773553,5.641164],[101.780457,5.64858],[101.786338,5.657189],[101.786679,5.660513],[101.784293,5.664178],[101.78702,5.666565],[101.793072,5.666735],[101.796652,5.671338],[101.796567,5.680629],[101.794606,5.686169],[101.795544,5.69188],[101.79418,5.697079],[101.788384,5.701427],[101.775939,5.719497],[101.775258,5.723418],[101.7727,5.724781],[101.764006,5.735351],[101.763665,5.740465],[101.772104,5.748307],[101.772019,5.752398],[101.776877,5.760069],[101.780713,5.762115]],[[101.994409,5.529616],[101.993506,5.52375],[101.987881,5.515653],[101.990608,5.50926],[101.986176,5.505254],[101.985665,5.492895],[101.990097,5.488803],[101.992143,5.475421],[101.98575,5.472779],[101.986687,5.465789],[101.988051,5.458715],[101.977652,5.456754],[101.97518,5.4461],[101.972879,5.439622],[101.975521,5.431865],[101.970919,5.423086],[101.957963,5.405868],[101.901024,5.348077],[101.817151,5.355749],[101.789139,5.358961]],[[101.789139,5.358961],[101.746689,5.393335],[101.739807,5.396667]],[[101.739807,5.396667],[101.740887,5.402981],[101.744486,5.42],[101.739267,5.429136],[101.739987,5.452065],[101.734589,5.458335],[101.747185,5.471232],[101.749164,5.482696],[101.748265,5.499892],[101.740707,5.509564],[101.733329,5.504728],[101.72937,5.497026],[101.723072,5.500071],[101.720913,5.512788],[101.702739,5.508131],[101.69734,5.499892],[101.693201,5.498459],[101.690502,5.503295],[101.683125,5.505444],[101.680425,5.510638],[101.673767,5.511355],[101.66459,5.507414],[101.655953,5.520848],[101.671338,5.546371],[101.688613,5.586667],[101.654693,5.60583],[101.650554,5.613441],[101.656673,5.61362],[101.654693,5.620067],[101.663061,5.630901],[101.662881,5.633945],[101.661351,5.637527],[101.657662,5.63887],[101.656943,5.642809],[101.660541,5.65436],[101.659462,5.65624],[101.660451,5.66],[101.658382,5.661522],[101.659912,5.668327],[101.66414,5.667521],[101.685374,5.693127],[101.688073,5.692321],[101.695181,5.702796],[101.693741,5.707899],[101.691672,5.7096],[101.692842,5.711211],[101.691582,5.715598],[101.692212,5.720432],[101.690682,5.721238],[101.689063,5.724372],[101.689153,5.72661],[101.692302,5.727594],[101.693741,5.730728],[101.690682,5.746394],[101.691852,5.754719],[101.700219,5.751989],[101.707417,5.755212],[101.709576,5.762194],[101.715515,5.763985],[101.718034,5.776875],[101.717314,5.787617],[101.719473,5.789049],[101.722892,5.779918],[101.726311,5.784394],[101.732969,5.784752],[101.738728,5.781351],[101.744486,5.787975],[101.744486,5.794062],[101.748085,5.793346],[101.752403,5.796926],[101.759961,5.796389],[101.777416,5.783499],[101.774897,5.773831],[101.776516,5.765596],[101.780713,5.762115]],[[102.249502,5.457586],[102.249374,5.451862],[102.236145,5.451226],[102.222406,5.448173],[102.215282,5.449445],[102.211211,5.451735],[102.209176,5.450717],[102.209431,5.442321],[102.207395,5.434561],[102.205996,5.432017],[102.202688,5.439522],[102.196964,5.448936],[102.194293,5.452116],[102.181572,5.454915],[102.177501,5.457713],[102.176042,5.463284],[102.173207,5.461371],[102.168946,5.453229],[102.162267,5.453102],[102.128811,5.423971]],[[102.128811,5.423971],[102.127263,5.429128],[102.121815,5.435738],[102.11556,5.436594],[102.111486,5.43453],[102.107802,5.43514],[102.101182,5.446261],[102.104005,5.453484],[102.103751,5.459463],[102.097472,5.464812],[102.095616,5.473106],[102.094743,5.482927],[102.087595,5.487385]],[[102.087595,5.487385],[102.09033,5.498898],[102.11221,5.535025],[102.123786,5.550163],[102.142868,5.565937],[102.146858,5.572787],[102.150946,5.577323],[102.156284,5.574379],[102.163094,5.569499],[102.16796,5.561962],[102.169487,5.557891],[102.171172,5.555729],[102.174607,5.555252],[102.182685,5.555729],[102.188727,5.555983],[102.193752,5.555888],[102.200676,5.562697],[102.204851,5.554775],[102.209049,5.548033],[102.215282,5.545234],[102.223551,5.54676],[102.228894,5.544725],[102.230675,5.539382],[102.230929,5.530732],[102.229021,5.519283],[102.228894,5.511778],[102.235,5.507834],[102.249373,5.499732],[102.257885,5.493403],[102.259233,5.489325],[102.258979,5.480675],[102.262732,5.477177],[102.261523,5.467318],[102.255226,5.463947],[102.250074,5.461403],[102.249502,5.457586]],[[102.087595,5.487385],[102.080662,5.499852],[102.066923,5.503604],[102.055358,5.515775],[102.04358,5.519378],[102.03628,5.513373],[102.030714,5.51621]],[[102.378975,5.684026],[102.385803,5.677631],[102.387008,5.671036],[102.387611,5.663243],[102.386607,5.65365],[102.390623,5.64026],[102.387008,5.634065],[102.392631,5.629668],[102.402271,5.613879],[102.397049,5.605285],[102.396447,5.5821],[102.399861,5.577303],[102.402472,5.569108],[102.407693,5.544523],[102.402503,5.541854],[102.40207,5.539926],[102.398254,5.528932],[102.390623,5.522535],[102.382791,5.523735],[102.380783,5.518737],[102.386205,5.512541],[102.393033,5.499547],[102.390371,5.486069],[102.388414,5.476158]],[[102.388414,5.476158],[102.38727,5.470943],[102.371623,5.466109],[102.355213,5.463947],[102.31845,5.464074],[102.307637,5.460766],[102.296824,5.462293],[102.288174,5.461657],[102.262095,5.462039],[102.2537,5.461275],[102.249502,5.457586]],[[102.388414,5.476158],[102.39464,5.47156],[102.400463,5.462564],[102.39725,5.454768],[102.401869,5.443972],[102.401869,5.439574],[102.392832,5.426179],[102.385,5.426979],[102.385,5.410985],[102.389418,5.412184],[102.398054,5.402988],[102.398656,5.399989],[102.404279,5.39679],[102.408697,5.39719],[102.411509,5.391991],[102.415124,5.390392],[102.420144,5.392791],[102.419743,5.385193],[102.424562,5.379595],[102.428579,5.371397],[102.437616,5.372797],[102.441231,5.365399],[102.442736,5.360107],[102.436377,5.35654],[102.428579,5.356801],[102.426571,5.351603],[102.429181,5.348004],[102.427575,5.337406],[102.429985,5.330408],[102.429583,5.32221],[102.422353,5.31961],[102.419101,5.300457],[102.415322,5.294723]],[[102.415322,5.294723],[102.381132,5.292754],[102.347294,5.290718],[102.293103,5.252555],[102.252647,5.252564],[102.190664,5.252564],[102.129892,5.254209]],[[102.129892,5.254209],[102.130291,5.318639],[102.129882,5.347285],[102.129445,5.39901],[102.128811,5.423971]],[[101.960279,5.033782],[101.935568,5.020953],[101.923342,5.05832],[101.920586,5.071063],[101.926312,5.081137],[101.922739,5.087939],[101.922524,5.094052],[101.922007,5.110756],[101.925107,5.123671],[101.920285,5.138652],[101.91443,5.146057],[101.907026,5.149673],[101.894799,5.162416],[101.8886,5.183769],[101.8972,5.20946],[101.913225,5.246795],[101.876374,5.270214],[101.820753,5.289673],[101.806517,5.316402],[101.789139,5.358961]],[[102.129892,5.254209],[102.136247,5.180799],[102.141069,5.145497],[102.143135,5.125178],[102.132631,5.114846],[102.114205,5.113985],[102.10284,5.120184],[102.071327,5.12225],[102.044636,5.118978],[102.022766,5.104686],[102.002791,5.094526],[101.993664,5.082299],[101.986949,5.064563],[101.97455,5.043038],[101.96904,5.037871],[101.960279,5.033782]],[[102.415322,5.294723],[102.418201,5.288631],[102.415682,5.283614],[102.42018,5.27358],[102.415502,5.26032],[102.417301,5.242043],[102.414422,5.230037],[102.4209,5.223048],[102.422879,5.204769],[102.41982,5.195809],[102.410463,5.183265],[102.414422,5.180756],[102.437815,5.179681],[102.444473,5.168211],[102.457429,5.170003],[102.474884,5.157816],[102.484241,5.147959],[102.48748,5.13631],[102.513932,5.128066],[102.529227,5.108172],[102.52095,5.098314],[102.51879,5.089352],[102.513752,5.084154],[102.505294,5.083437],[102.499176,5.076088],[102.502955,5.074296],[102.514112,5.054579],[102.508713,5.048306],[102.52023,5.026437],[102.512132,5.009229],[102.498816,5.008153],[102.501335,5.001521],[102.501695,5.001521],[102.499536,4.993812],[102.503315,4.981622],[102.507634,4.979113],[102.509973,4.970687],[102.522389,4.960648],[102.513932,4.952401],[102.514831,4.948637],[102.52077,4.94792],[102.521129,4.941645],[102.513392,4.938239],[102.513212,4.919952],[102.506014,4.903099],[102.513752,4.901486],[102.529587,4.896107],[102.535885,4.907402],[102.571514,4.895749],[102.58627,4.88284],[102.592748,4.873158],[102.606244,4.874054],[102.614881,4.862042],[102.620819,4.8624],[102.644032,4.847877],[102.647811,4.850208],[102.65087,4.845725],[102.652489,4.835326],[102.646191,4.826002],[102.644032,4.813271],[102.65231,4.812733],[102.659507,4.800898],[102.658968,4.791753],[102.666525,4.780097],[102.664186,4.770056],[102.658068,4.759475],[102.636834,4.765034],[102.630356,4.771849],[102.621899,4.774539],[102.612002,4.780456],[102.606603,4.774897],[102.598866,4.770773],[102.603184,4.766828],[102.604984,4.760013],[102.600845,4.754096],[102.595627,4.739032],[102.600845,4.733832],[102.606244,4.702089],[102.604084,4.687742],[102.597246,4.687742],[102.581231,4.69653],[102.572234,4.690432],[102.563237,4.698682],[102.557658,4.706214],[102.548841,4.711773],[102.545602,4.706931],[102.545242,4.701192],[102.535165,4.686845],[102.530667,4.686486],[102.529767,4.677519],[102.524009,4.678775],[102.516811,4.67447],[102.512312,4.668552],[102.506014,4.671601],[102.500256,4.66909],[102.481002,4.686128],[102.456709,4.70191],[102.458688,4.705855],[102.446272,4.713925],[102.429897,4.710159],[102.422519,4.713208],[102.408124,4.716436],[102.401826,4.711594],[102.379153,4.714463],[102.376094,4.711056],[102.370155,4.711773],[102.362418,4.705317],[102.362778,4.696888],[102.371415,4.692943],[102.371955,4.684334],[102.365657,4.678237],[102.364397,4.670345],[102.35504,4.665682],[102.346403,4.657253],[102.342984,4.648644],[102.344423,4.641649],[102.338485,4.641111],[102.335786,4.643801],[102.332727,4.6386],[102.328075,4.637456],[102.318871,4.635192],[102.294039,4.647926],[102.286481,4.65528],[102.272625,4.662095],[102.265967,4.65797],[102.258769,4.655459],[102.249952,4.656715],[102.246173,4.653307],[102.238076,4.649361],[102.233757,4.651334],[102.229618,4.645416],[102.234811,4.633529],[102.225287,4.630424],[102.216842,4.629273],[102.211084,4.633578],[102.198848,4.637524],[102.19129,4.649003],[102.183192,4.656356],[102.174555,4.658867],[102.174555,4.676084],[102.169516,4.682003],[102.162679,4.687024],[102.159799,4.692225],[102.154941,4.695992],[102.150982,4.701551],[102.131188,4.712491],[102.12453,4.722175],[102.127409,4.737239],[102.116073,4.761986],[102.094659,4.7584],[102.078464,4.745309],[102.062989,4.738853],[102.05795,4.743515],[102.051292,4.735984],[102.050573,4.725582],[102.043015,4.7263],[102.040676,4.730962],[102.034018,4.732397],[102.032743,4.734711],[102.028923,4.741513]],[[102.028923,4.741513],[102.029487,4.74557],[102.055076,4.817927],[102.061189,4.842466],[102.106306,4.900842],[102.111106,4.922496],[102.114378,4.944366],[102.102151,4.945916],[102.091303,4.944022],[102.079076,4.947121],[102.062373,4.948843],[102.035682,4.950737],[102.010712,4.960553],[102.002274,4.959692],[101.997625,4.964341],[101.985592,4.962662],[101.984043,4.969206],[101.986367,4.977127],[101.981546,4.984446],[101.981287,5.004421],[101.984043,5.014065],[101.981201,5.019145],[101.965445,5.030079],[101.960279,5.033782]],[[102.028923,4.741513],[102.025877,4.741599],[102.023401,4.741722],[102.019982,4.732038],[102.012784,4.73688],[102.004867,4.748178],[102.001268,4.753199],[102.001808,4.761448],[101.987412,4.760013],[101.988132,4.752482],[101.985433,4.749075],[101.987232,4.739929],[101.978055,4.745129],[101.975356,4.749613],[101.970317,4.750509],[101.968698,4.759655],[101.963659,4.764676],[101.950523,4.757862],[101.947824,4.748895],[101.953762,4.733473],[101.951423,4.729886],[101.953582,4.714105],[101.949264,4.703165],[101.949084,4.69653],[101.943685,4.681465],[101.945125,4.67734],[101.938467,4.657791],[101.92785,4.658508],[101.922452,4.642905],[101.915794,4.632143],[101.914534,4.620844],[101.912063,4.611478],[101.908336,4.609614],[101.901037,4.609822],[101.89384,4.616539],[101.893301,4.628018],[101.888082,4.635551],[101.889522,4.639497],[101.887902,4.643263],[101.892761,4.651334],[101.890241,4.654742],[101.893121,4.662275],[101.887182,4.666579],[101.889342,4.67178],[101.879085,4.678237],[101.870088,4.67716],[101.864509,4.682362],[101.864509,4.687204],[101.86235,4.693301],[101.859291,4.691508],[101.858571,4.687204],[101.850833,4.683976],[101.846875,4.687204],[101.847235,4.692225],[101.845615,4.694736],[101.845255,4.69922],[101.845975,4.705138],[101.841836,4.719485],[101.838417,4.721278],[101.835178,4.720023],[101.831759,4.714643],[101.823662,4.717154],[101.819163,4.725403],[101.821682,4.750868],[101.816464,4.759475],[101.811246,4.761269],[101.808726,4.760013],[101.802068,4.763241],[101.79667,4.761448],[101.79685,4.755889],[101.780655,4.758579],[101.775077,4.751226],[101.775256,4.747102],[101.773997,4.744412],[101.773457,4.724148],[101.775616,4.716974],[101.775077,4.70998],[101.777596,4.707111],[101.776156,4.703883],[101.773817,4.702448],[101.770938,4.697247],[101.772917,4.691149],[101.770038,4.678954],[101.774357,4.67178],[101.774357,4.659764],[101.768778,4.655101],[101.768239,4.641828],[101.768239,4.636448],[101.76284,4.622637],[101.758342,4.624431],[101.752763,4.62192],[101.755103,4.619409],[101.754563,4.611158],[101.749884,4.610082],[101.747545,4.612772],[101.741427,4.612414],[101.734409,4.618691],[101.73189,4.623175],[101.725592,4.621202],[101.724332,4.615463],[101.726311,4.610441],[101.716414,4.606136],[101.712815,4.610082],[101.711196,4.604701],[101.677906,4.59376],[101.674667,4.595195],[101.668729,4.582998],[101.668189,4.570621],[101.653074,4.556809],[101.643177,4.556271],[101.640837,4.558603],[101.635979,4.559141],[101.635259,4.555733],[101.626442,4.550531],[101.624462,4.546585],[101.619244,4.546585],[101.617085,4.551428],[101.613306,4.558962],[101.607548,4.560576],[101.593872,4.557885],[101.590993,4.551787],[101.585774,4.55645],[101.585234,4.562728],[101.578936,4.562728],[101.571558,4.574388],[101.563101,4.579051],[101.551225,4.575105],[101.547986,4.577796],[101.543667,4.593401],[101.53449,4.599858],[101.53341,4.603984],[101.523693,4.60506],[101.522253,4.611337],[101.516855,4.611337],[101.516315,4.607212],[101.507318,4.607033],[101.50138,4.61062],[101.495262,4.601652],[101.488604,4.598782],[101.484825,4.601652],[101.480686,4.600576],[101.477087,4.590172],[101.476986,4.579332],[101.473362,4.575813],[101.452075,4.573312],[101.446856,4.57672],[101.443437,4.586944],[101.437679,4.589455],[101.425263,4.605239],[101.40115,4.618153],[101.398631,4.613759],[101.386035,4.609723],[101.373844,4.610127],[101.370245,4.621247],[101.376723,4.629856],[101.370785,4.634699],[101.364487,4.634878],[101.363498,4.643257],[101.362687,4.650124],[101.357829,4.660167],[101.35189,4.664113],[101.349911,4.671287],[101.346222,4.672004],[101.343073,4.676667],[101.337855,4.679716],[101.334046,4.684163],[101.33413,4.688431],[101.333716,4.695319],[101.334975,4.698727],[101.340734,4.700341],[101.340374,4.707155],[101.343433,4.713432],[101.347572,4.713074],[101.350631,4.706438],[101.358368,4.707155],[101.365386,4.71397],[101.370785,4.712536],[101.372764,4.707514],[101.379242,4.708052],[101.38752,4.723116],[101.374563,4.761314],[101.38734,4.764183],[101.397956,4.762389],[101.395797,4.773149],[101.411092,4.798612],[101.415051,4.813316],[101.410373,4.81726],[101.407313,4.825867],[101.400116,4.833577],[101.403175,4.838957],[101.402095,4.843081],[101.412352,4.843977],[101.409833,4.85097],[101.410732,4.855632],[101.424228,4.850611],[101.428727,4.857245],[101.435745,4.859755],[101.441143,4.855632],[101.446542,4.858859],[101.438084,4.86872],[101.436465,4.877864],[101.444809,4.878389],[101.453514,4.891616],[101.451275,4.900744],[101.454655,4.905139],[101.453472,4.92086],[101.445527,4.940299],[101.449077,4.947061],[101.447218,4.955513],[101.440794,4.95957],[101.425668,4.973062],[101.42319,4.978512],[101.423287,4.984229],[101.426776,4.986943],[101.432686,4.992423],[101.441143,4.996367],[101.445642,4.994574],[101.448701,4.997442],[101.448341,5.002103],[101.45284,5.005151],[101.447216,5.0125],[101.449068,5.014851],[101.460172,5.030963],[101.458733,5.048171],[101.464491,5.059464],[101.460532,5.064483],[101.465571,5.074879],[101.475468,5.07918],[101.485185,5.089218],[101.479966,5.098717],[101.477267,5.108575],[101.480811,5.114638],[101.484285,5.120583],[101.486624,5.132591],[101.480506,5.143165],[101.481766,5.151947],[101.487164,5.156965],[101.489503,5.161983],[101.485365,5.16503],[101.497421,5.185998],[101.510197,5.198901],[101.508758,5.203022],[101.516135,5.215566],[101.511277,5.222914],[101.510017,5.231694],[101.521894,5.242087],[101.524053,5.250689],[101.519734,5.25266],[101.520994,5.267891],[101.528372,5.272191],[101.53449,5.261261],[101.547266,5.262873],[101.547446,5.278642],[101.558602,5.282763],[101.560222,5.289213],[101.56706,5.284913],[101.573358,5.291363],[101.569219,5.300143],[101.571918,5.301935],[101.575337,5.319494],[101.573718,5.323436],[101.575157,5.327915],[101.582715,5.33114],[101.588293,5.32899],[101.59963,5.330602],[101.605208,5.34601],[101.615285,5.347265],[101.619424,5.351206],[101.625542,5.347444],[101.627701,5.340994],[101.639398,5.338486],[101.646056,5.344756],[101.654333,5.340815],[101.654513,5.336694],[101.663331,5.334544],[101.66639,5.325586],[101.672688,5.324152],[101.677906,5.333827],[101.69932,5.330423],[101.702559,5.338844],[101.716774,5.344577],[101.723792,5.349952],[101.734949,5.351027],[101.752583,5.371272],[101.742866,5.380409],[101.739807,5.396667]]],"bbox":[101.333716,4.546585,102.666525,6.245258]}
