{"type":"Topology","objects":{"MLK_SE-04":{"type":"GeometryCollection","geometries":[{"type":"Polygon","arcs":[[0,1,2,3]],"properties":{"state":"Melaka","parlimen":"P.095 Alor Gajah","code_parlimen":"P.095","dun":"N.01 Taboh Naning","code_dun":"N.01"}},{"type":"Polygon","arcs":[[4,-3,5,6]],"properties":{"state":"Melaka","parlimen":"P.095 Alor Gajah","code_parlimen":"P.095","dun":"N.02 Sungai Bahru","code_dun":"N.02"}},{"type":"Polygon","arcs":[[7,8,9,-1,10]],"properties":{"state":"Melaka","parlimen":"P.095 Alor Gajah","code_parlimen":"P.095","dun":"N.03 Machap","code_dun":"N.03"}},{"type":"Polygon","arcs":[[-10,11,12,13,-6,-2]],"properties":{"state":"Melaka","parlimen":"P.095 Alor Gajah","code_parlimen":"P.095","dun":"N.04 Kelemak","code_dun":"N.04"}},{"type":"Polygon","arcs":[[-14,14,15,-7]],"properties":{"state":"Melaka","parlimen":"P.095 Alor Gajah","code_parlimen":"P.095","dun":"N.05 Masjid Tanah","code_dun":"N.05"}},{"type":"Polygon","arcs":[[16,17,18,-8]],"properties":{"state":"Melaka","parlimen":"P.096 Jasin","code_parlimen":"P.096","dun":"N.06 Batang Melaka","code_dun":"N.06"}},{"type":"Polygon","arcs":[[-18,19,20]],"properties":{"state":"Melaka","parlimen":"P.096 Jasin","code_parlimen":"P.096","dun":"N.07 Nyalas","code_dun":"N.07"}},{"type":"Polygon","arcs":[[-19,-21,21,22,23,24,25]],"properties":{"state":"Melaka","parlimen":"P.096 Jasin","code_parlimen":"P.096","dun":"N.08 Ayer Panas","code_dun":"N.08"}},{"type":"Polygon","arcs":[[26,27,-24,28]],"properties":{"state":"Melaka","parlimen":"P.096 Jasin","code_parlimen":"P.096","dun":"N.09 Serkam","code_dun":"N.09"}},{"type":"Polygon","arcs":[[-23,29,-29]],"properties":{"state":"Melaka","parlimen":"P.096 Jasin","code_parlimen":"P.096","dun":"N.10 Sungei Rambai","code_dun":"N.10"}},{"type":"Polygon","arcs":[[30,31,32,33,-12]],"properties":{"state":"Melaka","parlimen":"P.097 Batu Berendam","code_parlimen":"P.097","dun":"N.11 Tanjong Minyak","code_dun":"N.11"}},{"type":"Polygon","arcs":[[34,-31,-9,-26,35]],"properties":{"state":"Melaka","parlimen":"P.097 Batu Berendam","code_parlimen":"P.097","dun":"N.12 Ayer Keroh","code_dun":"N.12"}},{"type":"MultiPolygon","arcs":[[[36]],[[37]],[[38]],[[39]],[[40]],[[-25,-28,41,42,-36]]],"properties":{"state":"Melaka","parlimen":"P.097 Batu Berendam","code_parlimen":"P.097","dun":"N.13 Ayer Molek","code_dun":"N.13"}},{"type":"Polygon","arcs":[[43,44,-15,-13,-34]],"properties":{"state":"Melaka","parlimen":"P.097 Batu Berendam","code_parlimen":"P.097","dun":"N.14 Sungai Udang","code_dun":"N.14"}},{"type":"Polygon","arcs":[[45,46,47,48,-44,-33]],"properties":{"state":"Melaka","parlimen":"P.097 Batu Berendam","code_parlimen":"P.097","dun":"N.15 Bukit Rambai","code_dun":"N.15"}},{"type":"Polygon","arcs":[[49,-46,-32,-35,-43,50,51,52]],"properties":{"state":"Melaka","parlimen":"P.098 Kota Melaka","code_parlimen":"P.098","dun":"N.16 Pringgit","code_dun":"N.16"}},{"type":"Polygon","arcs":[[53,-48,54]],"properties":{"state":"Melaka","parlimen":"P.098 Kota Melaka","code_parlimen":"P.098","dun":"N.17 Tranquerah","code_dun":"N.17"}},{"type":"Polygon","arcs":[[-47,-50,55,56,-55]],"properties":{"state":"Melaka","parlimen":"P.098 Kota Melaka","code_parlimen":"P.098","dun":"N.18 Kubu","code_dun":"N.18"}},{"type":"Polygon","arcs":[[57,58,-56,-53]],"properties":{"state":"Melaka","parlimen":"P.098 Kota Melaka","code_parlimen":"P.098","dun":"N.19 Durian Daun","code_dun":"N.19"}},{"type":"Polygon","arcs":[[59,-58,-52]],"properties":{"state":"Melaka","parlimen":"P.098 Kota Melaka","code_parlimen":"P.098","dun":"N.20 Bandar Hilir","code_dun":"N.20"}}]}},"arcs":[[[102.271051,2.459676],[102.267738,2.451228],[102.267738,2.443398],[102.269363,2.437784],[102.261533,2.441773],[102.253556,2.437489],[102.253112,2.444728],[102.25001,2.443989],[102.24868,2.444875],[102.247499,2.444432],[102.246021,2.4465],[102.244839,2.444875],[102.239373,2.44458],[102.235384,2.441625],[102.231543,2.443103],[102.227555,2.443103],[102.224304,2.443103],[102.222679,2.444728],[102.221048,2.444728]],[[102.221048,2.444728],[102.220999,2.445728],[102.220407,2.44641],[102.217724,2.446046],[102.21595,2.445728],[102.213358,2.44641],[102.210538,2.447729],[102.209855,2.447274],[102.202714,2.44309],[102.199485,2.442317],[102.193072,2.440679],[102.192344,2.43986],[102.191571,2.438496],[102.19198,2.435312],[102.189934,2.431082],[102.189797,2.429672],[102.190388,2.427807],[102.192253,2.424805],[102.193519,2.424573],[102.194286,2.422526],[102.193527,2.417619],[102.195028,2.418392],[102.196574,2.418756],[102.198712,2.418802],[102.19903,2.417801],[102.19521,2.415345],[102.194664,2.413844],[102.193527,2.411206],[102.190434,2.407022],[102.187205,2.404338],[102.183293,2.406476],[102.179472,2.408159],[102.176834,2.408022],[102.17456,2.407567],[102.173332,2.409296],[102.171513,2.409887],[102.169739,2.410842],[102.16792,2.412298],[102.166919,2.411661],[102.166282,2.412343],[102.166191,2.414253],[102.166874,2.415527],[102.166828,2.416709],[102.166555,2.417437],[102.165873,2.417892],[102.165145,2.417301],[102.164781,2.415618],[102.164236,2.414754],[102.163053,2.414162],[102.16228,2.414572],[102.161006,2.416391],[102.159323,2.418665],[102.157913,2.419484],[102.156412,2.419393],[102.153774,2.41862],[102.152273,2.416346],[102.151409,2.416755],[102.150272,2.417073],[102.149453,2.416482],[102.148271,2.413935],[102.136354,2.405293],[102.111793,2.407749]],[[102.111793,2.407749],[102.103089,2.407794],[102.0991,2.410897],[102.090089,2.420647],[102.085213,2.42434],[102.080486,2.426113],[102.084475,2.432614],[102.088907,2.441034],[102.084918,2.447535],[102.087042,2.449186]],[[102.087042,2.449186],[102.088458,2.447148],[102.12161,2.46273],[102.141502,2.456945],[102.176241,2.499489],[102.19249,2.490533],[102.193611,2.486801],[102.20227,2.48368],[102.208366,2.481483],[102.231433,2.466462],[102.271051,2.459676]],[[102.065181,2.329641],[102.065112,2.329771],[102.060442,2.336395],[102.055119,2.341714],[102.050076,2.34442],[102.045034,2.34554],[102.041858,2.348059],[102.038963,2.348526],[102.022247,2.361775],[102.011414,2.366441],[102.002543,2.368307],[101.997687,2.367747],[101.996286,2.364854],[101.986947,2.36896],[101.976208,2.370453],[101.971258,2.375864],[101.972379,2.377077],[101.967336,2.386781],[101.971165,2.390793],[101.976675,2.389674],[101.984332,2.398164],[101.993951,2.399751],[102.000001,2.403505],[102.005531,2.407215],[102.011601,2.408708],[102.017671,2.417665],[102.02729,2.427648],[102.026917,2.433526],[102.030092,2.439778],[102.038216,2.43418],[102.035321,2.430914],[102.034574,2.426249],[102.040738,2.421024],[102.044193,2.42121],[102.047275,2.419624],[102.050076,2.420651],[102.051944,2.42345],[102.048769,2.427648],[102.050637,2.430261],[102.050917,2.43306],[102.056894,2.435579],[102.059602,2.434459],[102.062497,2.436699],[102.063244,2.440524],[102.064831,2.442483],[102.064364,2.444163],[102.062777,2.44267],[102.060722,2.44211],[102.059322,2.444256],[102.06259,2.448361],[102.060442,2.45088],[102.064364,2.457785],[102.069688,2.457505],[102.076691,2.454239],[102.083789,2.453866],[102.087042,2.449186]],[[102.111793,2.407749],[102.122391,2.3876],[102.121345,2.386599]],[[102.121345,2.386599],[102.11857,2.385599],[102.116705,2.388282],[102.115523,2.38851],[102.114659,2.387873],[102.114113,2.386418],[102.113112,2.385417],[102.111793,2.384143],[102.110793,2.382597],[102.110065,2.381551],[102.110065,2.379777],[102.109428,2.379277],[102.108518,2.378231],[102.108427,2.37673],[102.107836,2.375365],[102.106563,2.375001],[102.105062,2.374455],[102.104425,2.374683],[102.104243,2.375547],[102.104652,2.377503],[102.104379,2.378503],[102.103606,2.379322],[102.102924,2.379686],[102.102151,2.380232],[102.101241,2.380687],[102.099467,2.380823],[102.099058,2.381232],[102.09742,2.383143],[102.096465,2.384234],[102.09501,2.384598],[102.0936,2.384189],[102.091144,2.382415],[102.090052,2.379277],[102.088415,2.374683],[102.086691,2.37256],[102.085435,2.369753],[102.085657,2.367389],[102.086691,2.364804],[102.08381,2.363474],[102.084179,2.361849],[102.083884,2.360446],[102.083441,2.359042],[102.084179,2.358156],[102.083145,2.356531],[102.083441,2.355423],[102.082702,2.35365],[102.085583,2.350843],[102.085657,2.349661],[102.084918,2.34907],[102.083071,2.349809],[102.081815,2.349735],[102.07923,2.34811],[102.07598,2.347297],[102.075758,2.346485],[102.074872,2.346337],[102.074355,2.344638],[102.074798,2.343383],[102.072065,2.342644],[102.071991,2.340945],[102.067781,2.341831],[102.068519,2.339615],[102.068224,2.338729],[102.066747,2.338581],[102.067264,2.336144],[102.068519,2.333706],[102.068224,2.332155],[102.065181,2.329641]],[[102.31988,2.482026],[102.315354,2.465706],[102.309623,2.465433],[102.307713,2.454063],[102.304802,2.453517],[102.303255,2.45197],[102.302619,2.450242],[102.302437,2.447604],[102.304802,2.443238],[102.304802,2.435414],[102.30553,2.43214],[102.309805,2.429411],[102.315718,2.428865],[102.318538,2.427864],[102.322178,2.427738],[102.324985,2.426926],[102.326314,2.427443],[102.327348,2.425744],[102.332002,2.424931],[102.334883,2.425818],[102.337468,2.425153],[102.339832,2.424636],[102.341383,2.421016],[102.342639,2.420056],[102.343525,2.417619],[102.346332,2.41592],[102.347957,2.411044],[102.347071,2.408755],[102.348179,2.404618],[102.349582,2.400999],[102.349287,2.395606],[102.348327,2.393538],[102.349878,2.39339],[102.348991,2.386373],[102.351133,2.380537],[102.354679,2.380685],[102.356821,2.382089],[102.3566,2.378912],[102.359628,2.366724],[102.358372,2.365764],[102.351355,2.363917],[102.349952,2.357122],[102.351503,2.356974],[102.353202,2.352985],[102.350469,2.347224],[102.346849,2.336956],[102.345667,2.33703],[102.344412,2.33282],[102.346258,2.331342],[102.344781,2.326541],[102.344592,2.325597]],[[102.344592,2.325597],[102.342803,2.325879],[102.339574,2.327289],[102.337391,2.32738],[102.334571,2.326743],[102.332706,2.324788],[102.33125,2.323423],[102.325974,2.32356],[102.322836,2.326516],[102.319925,2.328927],[102.315013,2.330837],[102.308691,2.332383],[102.305734,2.334748],[102.303733,2.337386],[102.303187,2.345346],[102.301641,2.340616],[102.300686,2.339706],[102.298457,2.341525],[102.29732,2.341935],[102.296456,2.343299],[102.295182,2.343754],[102.293545,2.344664],[102.292362,2.344664],[102.291725,2.345255],[102.291498,2.346256],[102.287359,2.346483],[102.283993,2.346847],[102.281332,2.347086]],[[102.281332,2.347086],[102.285244,2.349269],[102.28961,2.358002],[102.296342,2.37192],[102.295259,2.374257],[102.296198,2.375622],[102.296433,2.377287],[102.295341,2.378105],[102.291703,2.37665],[102.288883,2.376741],[102.282697,2.378287],[102.27824,2.380653],[102.276875,2.380925],[102.273418,2.37947],[102.270985,2.379277],[102.269802,2.379049],[102.267255,2.37814],[102.265572,2.378322],[102.264071,2.379368],[102.263116,2.382279],[102.261433,2.384735],[102.260478,2.385235],[102.259432,2.385917],[102.258613,2.387145],[102.258659,2.38851],[102.257567,2.39042],[102.257113,2.393877],[102.256203,2.39656],[102.255111,2.397425],[102.253974,2.397334],[102.252246,2.396788],[102.249016,2.394877],[102.246788,2.390011],[102.245378,2.388055],[102.243316,2.38625],[102.241499,2.386914],[102.23811,2.384119],[102.238634,2.382686],[102.237873,2.38237],[102.236327,2.384052],[102.236223,2.385307],[102.236188,2.386005],[102.235908,2.386704],[102.23521,2.387368],[102.234871,2.388692],[102.234689,2.389738],[102.234462,2.390966],[102.233871,2.391011],[102.231551,2.390738],[102.22864,2.390011],[102.226548,2.389965],[102.22582,2.392694],[102.223864,2.394423],[102.220498,2.394559],[102.217678,2.393376],[102.216678,2.394423],[102.21645,2.395696],[102.218952,2.400927],[102.219998,2.403929],[102.223409,2.407249],[102.225547,2.41116],[102.22582,2.41298],[102.226047,2.42567],[102.225456,2.427171],[102.225956,2.428399],[102.226593,2.429308],[102.226457,2.434539],[102.221817,2.439224],[102.221135,2.442953],[102.221048,2.444728]],[[102.271051,2.459676],[102.277192,2.458624],[102.31988,2.482026]],[[102.281332,2.347086],[102.28048,2.348627],[102.278781,2.350843],[102.279224,2.353872],[102.277156,2.357269],[102.276122,2.357417],[102.275974,2.354389],[102.273093,2.353355],[102.27073,2.354315],[102.269769,2.358082],[102.266741,2.35919],[102.263712,2.358747],[102.261939,2.356088],[102.25736,2.358599],[102.252632,2.35919],[102.25049,2.355127],[102.251967,2.353281],[102.249382,2.35269],[102.247757,2.350769],[102.246797,2.351508],[102.246797,2.35365],[102.245984,2.354019],[102.242365,2.349809],[102.238856,2.349587],[102.235458,2.351582],[102.231839,2.351729],[102.228663,2.35461],[102.225338,2.356088],[102.222679,2.357565],[102.222532,2.360372],[102.220463,2.361332],[102.219134,2.360298],[102.217435,2.360815],[102.21544,2.360741],[102.213889,2.361849],[102.211525,2.360815],[102.210196,2.361628],[102.207758,2.360593],[102.204065,2.360815],[102.201184,2.36052],[102.200445,2.357417],[102.198968,2.357269],[102.197565,2.358008],[102.196383,2.36015],[102.193871,2.360298],[102.192763,2.359412],[102.190769,2.359264],[102.190917,2.356383],[102.18907,2.356235],[102.186485,2.358673],[102.184047,2.361111],[102.180428,2.360963],[102.178729,2.360446],[102.177517,2.360947],[102.175242,2.357399],[102.17497,2.355762],[102.17779,2.350395],[102.180564,2.34198],[102.181292,2.336795],[102.182611,2.33493],[102.183748,2.331883],[102.183975,2.327426],[102.183202,2.326016],[102.180337,2.324014],[102.179836,2.319784],[102.1802,2.316282],[102.181838,2.3156],[102.183975,2.315782],[102.186204,2.316373],[102.188524,2.316009],[102.190639,2.313292],[102.189138,2.312609],[102.184771,2.3117],[102.184134,2.309789],[102.183407,2.308834],[102.181906,2.309198],[102.180496,2.309062],[102.179131,2.308789],[102.176857,2.310017],[102.174401,2.308652],[102.172764,2.308107],[102.170717,2.308561],[102.169534,2.30697],[102.16626,2.306924]],[[102.16626,2.306924],[102.163803,2.306287],[102.160529,2.30556],[102.158618,2.306469],[102.157254,2.307743],[102.155616,2.306651],[102.155616,2.305923],[102.155798,2.304559],[102.154798,2.303831],[102.151432,2.303831],[102.149067,2.302921],[102.146884,2.302012]],[[102.146884,2.302012],[102.143974,2.302682],[102.144565,2.311251],[102.144935,2.3227],[102.144639,2.325359],[102.147742,2.332155],[102.146929,2.331859],[102.146781,2.344712],[102.145599,2.344491],[102.145008,2.345377],[102.147372,2.347815],[102.147077,2.350695],[102.146264,2.351139],[102.147298,2.352542],[102.146634,2.3569],[102.147742,2.357048],[102.148702,2.359929],[102.149145,2.361628],[102.147889,2.36244],[102.150696,2.37027],[102.145304,2.376105],[102.142423,2.377878],[102.14102,2.376549],[102.131491,2.381202],[102.122331,2.386668],[102.121345,2.386599]],[[102.146884,2.302012],[102.143609,2.301375],[102.144791,2.297282],[102.145519,2.294825],[102.14652,2.29246],[102.145246,2.290732],[102.135331,2.29428],[102.133693,2.294098],[102.131965,2.291915],[102.129964,2.290186],[102.125597,2.289458],[102.12396,2.28773],[102.122141,2.288003],[102.120867,2.286275],[102.119048,2.285547],[102.117956,2.286547],[102.114409,2.28864],[102.111679,2.288185],[102.109906,2.289413],[102.106995,2.289868],[102.105039,2.289777],[102.102947,2.288867],[102.101946,2.289322],[102.099035,2.290641],[102.095988,2.289959],[102.094305,2.290004],[102.091621,2.292187],[102.090575,2.292551],[102.088738,2.29114]],[[102.088738,2.29114],[102.084349,2.291327],[102.082668,2.293566],[102.08024,2.294966],[102.077999,2.295152],[102.071555,2.317454],[102.069221,2.322119],[102.065181,2.329641]],[[102.31988,2.482026],[102.331823,2.488573],[102.365068,2.495198],[102.414283,2.478497],[102.431559,2.471127],[102.429878,2.46105],[102.465777,2.450308]],[[102.465777,2.450308],[102.466109,2.449139],[102.464744,2.445682],[102.461196,2.442589],[102.450371,2.436586],[102.447369,2.435767],[102.444186,2.435949],[102.441911,2.436404],[102.439455,2.435676],[102.43709,2.434675],[102.43518,2.433402],[102.434726,2.431849],[102.43263,2.431779],[102.434361,2.427671],[102.428539,2.425488],[102.422535,2.420212],[102.422172,2.418938],[102.425992,2.41248],[102.428812,2.411843],[102.432269,2.413025],[102.433724,2.413025],[102.433997,2.412389],[102.433451,2.410478],[102.429813,2.402109],[102.428903,2.39938],[102.435726,2.398471],[102.434179,2.393558],[102.432542,2.390011],[102.431905,2.385371],[102.431359,2.382642],[102.429722,2.381642],[102.427448,2.380823],[102.426538,2.379095],[102.42581,2.374546],[102.425083,2.372818],[102.423627,2.371635],[102.424446,2.369543],[102.423991,2.36827],[102.424628,2.366359],[102.42581,2.366359],[102.459923,2.363176],[102.461879,2.344573],[102.450644,2.333066],[102.450599,2.331155],[102.4385,2.329018],[102.437318,2.321149],[102.435862,2.320376],[102.435498,2.317965],[102.435495,2.316227],[102.436788,2.315249],[102.436403,2.314724],[102.4327,2.316611],[102.432385,2.315458],[102.428716,2.317625],[102.427004,2.316192],[102.414803,2.320239],[102.412984,2.319102],[102.411665,2.317283],[102.410845,2.316032]],[[102.410845,2.316032],[102.409846,2.314508],[102.408981,2.313917],[102.408072,2.316146],[102.407344,2.316555],[102.406616,2.315327],[102.40598,2.316146],[102.404524,2.316783],[102.403205,2.315464],[102.401522,2.313189],[102.402432,2.302137],[102.388514,2.307186],[102.390561,2.311688],[102.392425,2.313098],[102.395609,2.314599],[102.397156,2.3161],[102.397065,2.316919],[102.395791,2.31751],[102.393608,2.31792],[102.38956,2.319921],[102.387149,2.320285],[102.383966,2.320649],[102.380054,2.321513],[102.378053,2.322195],[102.376097,2.320649],[102.374869,2.322786],[102.374823,2.324788],[102.374141,2.325333],[102.369183,2.325424],[102.365272,2.323969],[102.361997,2.321376],[102.361679,2.317192],[102.359086,2.316828],[102.356357,2.315782],[102.3529,2.315918],[102.350945,2.317556],[102.349626,2.321376],[102.34858,2.323514],[102.34626,2.325333],[102.344592,2.325597]],[[102.465777,2.450308],[102.525599,2.432407],[102.563047,2.419158],[102.585553,2.415706],[102.594057,2.410906],[102.563053,2.395978],[102.557637,2.397284],[102.537092,2.38982],[102.534471,2.374465],[102.53429,2.371718],[102.524204,2.365187],[102.525325,2.359402],[102.512998,2.35511],[102.511435,2.34995],[102.508702,2.340927],[102.514119,2.329543],[102.513932,2.321892],[102.51001,2.320212],[102.506461,2.310508],[102.509263,2.306029],[102.501979,2.294085],[102.495628,2.271424]],[[102.495628,2.271424],[102.495106,2.271945],[102.492961,2.274716],[102.493587,2.276772],[102.492693,2.278738],[102.491353,2.282134],[102.492693,2.285083],[102.492604,2.288301],[102.492961,2.289642],[102.4918,2.28991],[102.4918,2.291429],[102.490816,2.291608],[102.490727,2.293216],[102.492157,2.295183],[102.48961,2.294825],[102.488403,2.296255],[102.485633,2.296702],[102.48465,2.299383],[102.482415,2.300009],[102.480181,2.303495],[102.48027,2.305371],[102.477321,2.304925],[102.476159,2.303316],[102.475087,2.302511],[102.473567,2.299607],[102.469054,2.299383],[102.468786,2.303048],[102.462798,2.301484],[102.462351,2.296613],[102.460429,2.294825],[102.460831,2.293887],[102.460423,2.291949],[102.45874,2.290766],[102.456466,2.29022],[102.454283,2.29022],[102.45119,2.291357],[102.450417,2.293177],[102.45119,2.294132],[102.451099,2.295906],[102.449689,2.297361],[102.44887,2.299544],[102.448597,2.300181],[102.447006,2.301318],[102.446733,2.302319],[102.445914,2.304911],[102.443412,2.306549],[102.44132,2.306549],[102.4385,2.306549],[102.435726,2.308414],[102.43286,2.310278],[102.430222,2.31137],[102.429222,2.312871],[102.428812,2.313098],[102.426765,2.312689],[102.424446,2.314008],[102.423036,2.313508],[102.420762,2.312553],[102.419852,2.312007],[102.418624,2.312644],[102.417305,2.313144],[102.416168,2.313917],[102.415304,2.313917],[102.414394,2.315236],[102.413757,2.315373],[102.412893,2.314963],[102.412074,2.314827],[102.410845,2.316032]],[[102.495628,2.271424],[102.491519,2.25676],[102.493947,2.247429],[102.48741,2.245936],[102.489091,2.242203],[102.495442,2.236977],[102.495362,2.23524]],[[102.495362,2.23524],[102.487031,2.237323],[102.458285,2.239597],[102.449371,2.240371],[102.449189,2.239097],[102.448052,2.236277],[102.447961,2.232866]],[[102.447961,2.232866],[102.420443,2.232365],[102.417532,2.218675],[102.417441,2.213308],[102.415349,2.212899],[102.415577,2.21349],[102.415713,2.214809],[102.414849,2.216446],[102.412938,2.219084],[102.412074,2.218993],[102.410528,2.214945],[102.409072,2.208214],[102.410119,2.205439],[102.396154,2.206544]],[[102.396154,2.206544],[102.398679,2.211091],[102.399953,2.214638],[102.398498,2.215912],[102.396769,2.217549],[102.396496,2.21946],[102.395041,2.220915],[102.393221,2.224281],[102.393403,2.226919],[102.39495,2.231922],[102.396314,2.237835],[102.395132,2.24211],[102.39213,2.247568],[102.390038,2.247659],[102.385125,2.243384],[102.381396,2.238654],[102.37894,2.236379],[102.374573,2.235288],[102.369479,2.236834],[102.364203,2.237744],[102.362475,2.236834],[102.359655,2.235106],[102.354743,2.235743],[102.350296,2.23365],[102.348193,2.231831],[102.345464,2.229102],[102.342917,2.226737]],[[102.342917,2.226737],[102.341734,2.227556],[102.340461,2.23083],[102.337641,2.234378],[102.334184,2.235288],[102.326452,2.234378],[102.32345,2.231649],[102.318083,2.227283],[102.313737,2.229067],[102.312989,2.229375],[102.312807,2.231194],[102.312807,2.233105],[102.314262,2.236015],[102.316082,2.238654],[102.315809,2.240473],[102.317355,2.243566],[102.320357,2.246477],[102.324501,2.2571],[102.326401,2.260441],[102.329545,2.263942],[102.329545,2.267399],[102.330182,2.270401],[102.33,2.273312],[102.330182,2.275768],[102.330363,2.278861],[102.331728,2.282045],[102.333996,2.284437],[102.340423,2.304085],[102.340644,2.306154],[102.341974,2.311841],[102.343673,2.313023],[102.345372,2.322921],[102.344338,2.324325],[102.344592,2.325597]],[[102.419372,2.12438],[102.41559,2.126716],[102.406812,2.130729],[102.400462,2.132502],[102.394205,2.133155],[102.382812,2.131568],[102.371045,2.133715],[102.353769,2.144353],[102.347325,2.150419],[102.336492,2.154805],[102.335706,2.154927]],[[102.335706,2.154927],[102.336367,2.157511],[102.338369,2.159422],[102.338096,2.161514],[102.338096,2.165152],[102.338005,2.168609],[102.338641,2.170974],[102.339733,2.174613],[102.342007,2.179525],[102.347738,2.183437],[102.356201,2.182189],[102.357926,2.180708],[102.358108,2.182527],[102.359109,2.184892],[102.359746,2.1828],[102.360928,2.179525],[102.360837,2.176159],[102.36202,2.174613],[102.363202,2.175523],[102.364385,2.177524],[102.365659,2.177251],[102.371753,2.175159],[102.374118,2.176796],[102.373937,2.180526],[102.376575,2.182072],[102.379758,2.186712],[102.381851,2.192806],[102.38649,2.194171],[102.387309,2.198901],[102.390947,2.199902],[102.392585,2.202449],[102.393312,2.20445],[102.395496,2.20536],[102.396154,2.206544]],[[102.447961,2.232866],[102.445812,2.229102],[102.444584,2.226646],[102.443265,2.22237],[102.442309,2.218641],[102.4424,2.215912],[102.442355,2.212546],[102.442764,2.206588],[102.442537,2.204177],[102.442355,2.200584],[102.440808,2.196854],[102.440899,2.195399],[102.441536,2.193534],[102.442082,2.189941],[102.439353,2.186848],[102.438443,2.183164],[102.437579,2.179707],[102.435942,2.175068],[102.431712,2.168336],[102.429983,2.163288],[102.428028,2.160013],[102.427482,2.157966],[102.427709,2.15319],[102.425799,2.149097],[102.425253,2.145686],[102.42398,2.139227],[102.423525,2.135816],[102.422524,2.133678],[102.420295,2.126446],[102.419372,2.12438]],[[102.495362,2.23524],[102.495349,2.234968],[102.494918,2.225606],[102.494841,2.223937],[102.494694,2.220741],[102.46892,2.203944],[102.467799,2.196665],[102.472842,2.197598],[102.477325,2.187146],[102.474897,2.183974],[102.478258,2.180427],[102.485543,2.178188],[102.490399,2.180614],[102.495442,2.172962],[102.502539,2.172775],[102.504593,2.167923],[102.512251,2.167176],[102.51636,2.169976],[102.516547,2.16475],[102.524952,2.167923],[102.524765,2.16475],[102.530742,2.168296],[102.529247,2.16083],[102.534477,2.158591],[102.530928,2.154671],[102.537279,2.144593],[102.534477,2.134514],[102.52271,2.126115],[102.522337,2.121449],[102.516734,2.119769],[102.506835,2.122009],[102.504407,2.127421],[102.499177,2.126115],[102.502726,2.119396],[102.488718,2.121076],[102.481247,2.116783],[102.481434,2.11193],[102.48685,2.10745],[102.489278,2.098305],[102.475451,2.107678],[102.465645,2.111504],[102.446314,2.115424],[102.440525,2.114677],[102.423902,2.121583],[102.419372,2.12438]],[[102.281332,2.347086],[102.280059,2.346449],[102.280969,2.34281],[102.280423,2.341446],[102.279513,2.339718],[102.280423,2.337079],[102.278512,2.33617],[102.275147,2.336625],[102.275056,2.334532],[102.271144,2.331349],[102.2704,2.329826],[102.271417,2.328074],[102.275056,2.325072],[102.265413,2.316794],[102.263867,2.31361],[102.261138,2.310608],[102.260319,2.306242],[102.263139,2.303331],[102.262502,2.299783],[102.257135,2.290868],[102.255498,2.287866],[102.254042,2.284228],[102.245855,2.278224],[102.242944,2.276405],[102.240479,2.275342],[102.23963,2.273688],[102.239942,2.270426],[102.23811,2.263544],[102.236948,2.262114],[102.237038,2.258897],[102.235608,2.253445],[102.23811,2.247636],[102.240791,2.24558],[102.241685,2.24415],[102.24383,2.24415],[102.246064,2.245669],[102.248835,2.243882],[102.250444,2.241558],[102.250444,2.238072],[102.251338,2.237],[102.255181,2.235838],[102.256789,2.234319],[102.258136,2.233059]],[[102.258136,2.233059],[102.258363,2.231695],[102.260001,2.229102],[102.260274,2.227328],[102.261092,2.224963],[102.259955,2.224235],[102.255816,2.224326],[102.254588,2.223917],[102.252769,2.22228],[102.250995,2.222598],[102.248721,2.222962],[102.245219,2.22378],[102.243991,2.222689],[102.243762,2.221991]],[[102.243762,2.221991],[102.24158,2.22253],[102.233893,2.225304],[102.230664,2.228352],[102.229754,2.230171],[102.231119,2.2324],[102.230073,2.233673],[102.226252,2.237266],[102.224478,2.237585],[102.223569,2.237357],[102.221658,2.236629],[102.217792,2.234992],[102.212834,2.233628],[102.207331,2.246317],[102.20583,2.248728],[102.204193,2.249274],[102.202328,2.250184],[102.201373,2.251639],[102.200463,2.253276],[102.199508,2.253777],[102.197416,2.254504],[102.192594,2.256142],[102.186454,2.259235],[102.174628,2.268763],[102.174856,2.272539],[102.174651,2.273448],[102.173901,2.273539],[102.172832,2.272652],[102.172241,2.272561],[102.165054,2.278338],[102.163849,2.279038]],[[102.163849,2.279038],[102.163849,2.279998],[102.162939,2.284364],[102.163121,2.28582],[102.163667,2.289004],[102.163576,2.29246],[102.166487,2.295007],[102.167488,2.296372],[102.167488,2.298282],[102.16585,2.2981],[102.164486,2.299465],[102.165031,2.300465],[102.166851,2.302012],[102.165486,2.302649],[102.166214,2.304832],[102.16626,2.306924]],[[102.291748,2.189816],[102.291288,2.192402],[102.287802,2.193921],[102.289143,2.198748],[102.287802,2.203931],[102.286194,2.204646],[102.287177,2.209383],[102.286194,2.210188],[102.287355,2.213941],[102.289232,2.219214],[102.29236,2.221806],[102.292629,2.224398],[102.29102,2.226275],[102.288964,2.229582],[102.284942,2.231727],[102.280652,2.232621],[102.278686,2.230476],[102.274396,2.22985],[102.267961,2.226007],[102.265369,2.226096],[102.263548,2.225918],[102.262912,2.227601],[102.262548,2.230148],[102.262411,2.232286],[102.261537,2.232758],[102.260137,2.233514],[102.258136,2.233059]],[[102.342917,2.226737],[102.341785,2.225873],[102.339327,2.222566],[102.337584,2.221851],[102.335439,2.218097],[102.336199,2.216354],[102.33383,2.215908],[102.332132,2.214522],[102.331104,2.211841],[102.32601,2.207596],[102.322122,2.20706],[102.315821,2.20344],[102.314171,2.202733],[102.312488,2.200004],[102.311988,2.197639],[102.310578,2.194046],[102.309077,2.192863],[102.305984,2.192454],[102.30462,2.193091],[102.303756,2.194773],[102.302755,2.196274],[102.301891,2.196729],[102.301436,2.197457],[102.300526,2.198867],[102.299708,2.198867],[102.298207,2.19864],[102.297252,2.19823],[102.296342,2.197457],[102.295978,2.195956],[102.295842,2.193818],[102.294068,2.192636],[102.293204,2.191089],[102.29284,2.190816],[102.291748,2.189816]],[[102.33229,2.048837],[102.334718,2.04977],[102.335278,2.04865],[102.33285,2.047343],[102.33229,2.048837]],[[102.336586,2.074221],[102.334531,2.071981],[102.330982,2.073288],[102.33341,2.075901],[102.336586,2.074221]],[[102.306142,2.080941],[102.307262,2.079634],[102.305021,2.078141],[102.304461,2.078887],[102.306142,2.080941]],[[102.332103,2.083927],[102.333784,2.083927],[102.33341,2.080754],[102.330422,2.082061],[102.332103,2.083927]],[[102.330235,2.106885],[102.327807,2.102592],[102.325379,2.103712],[102.325379,2.109684],[102.320897,2.113791],[102.325379,2.11771],[102.330982,2.115844],[102.336025,2.116217],[102.334531,2.110431],[102.330235,2.106885]],[[102.335706,2.154927],[102.331076,2.155645],[102.318749,2.156952],[102.312959,2.163204],[102.306982,2.167124],[102.300538,2.16871],[102.296429,2.168617],[102.289425,2.16983],[102.287457,2.170953]],[[102.287457,2.170953],[102.288473,2.172214],[102.28861,2.174442],[102.288382,2.178127],[102.289292,2.180446],[102.289701,2.18172],[102.289656,2.184767],[102.289929,2.18595],[102.290656,2.187451],[102.291748,2.189816]],[[102.163849,2.279038],[102.163849,2.277906],[102.163394,2.266444],[102.162121,2.264079],[102.162484,2.263078],[102.161848,2.261623],[102.162121,2.26044],[102.162212,2.259076],[102.162666,2.258075],[102.162666,2.256528],[102.163485,2.255801],[102.16394,2.2548],[102.164122,2.253618],[102.162848,2.252708],[102.161302,2.251707],[102.161211,2.250707],[102.161848,2.24825],[102.163394,2.247341],[102.164941,2.24634],[102.166669,2.244157],[102.170671,2.23879],[102.174583,2.23033],[102.175038,2.225691],[102.175038,2.220214]],[[102.175038,2.220214],[102.169928,2.220287],[102.164895,2.218262],[102.164335,2.216209],[102.160833,2.216395],[102.159572,2.215416],[102.154155,2.216909],[102.141175,2.242571],[102.137028,2.249242],[102.121003,2.267252],[102.113766,2.272338],[102.10989,2.274017],[102.105454,2.274437],[102.101906,2.271451],[102.096163,2.280922],[102.09238,2.283069],[102.088738,2.29114]],[[102.243762,2.221991],[102.243217,2.220324],[102.243718,2.217549],[102.243601,2.216378]],[[102.243601,2.216378],[102.243445,2.214775]],[[102.243445,2.214775],[102.242353,2.214684],[102.241506,2.215481],[102.239215,2.21764],[102.234212,2.221188],[102.230891,2.214183],[102.229436,2.215412],[102.228117,2.216048],[102.223978,2.217185],[102.216155,2.218413],[102.211424,2.219732],[102.210606,2.219641],[102.209924,2.218141],[102.209287,2.216549],[102.208968,2.214684],[102.209021,2.211409]],[[102.209021,2.211409],[102.20595,2.213081],[102.205691,2.212909],[102.203145,2.214246],[102.203232,2.214893],[102.198788,2.216964],[102.195121,2.218431],[102.191152,2.219423],[102.189642,2.219639],[102.184982,2.220329],[102.184853,2.219337],[102.182911,2.219294],[102.183041,2.22007],[102.18015,2.220329],[102.178036,2.220459],[102.175691,2.220205],[102.175038,2.220214]],[[102.256408,2.211898],[102.251177,2.214081],[102.243601,2.216378]],[[102.287457,2.170953],[102.273269,2.179045]],[[102.273269,2.179045],[102.274328,2.188031],[102.274497,2.191196],[102.276374,2.195128],[102.272173,2.194502],[102.269045,2.195664],[102.266881,2.194943]],[[102.266881,2.194943],[102.265914,2.197673],[102.265595,2.200038],[102.265959,2.203222],[102.265231,2.204132],[102.263912,2.205314],[102.263639,2.207179],[102.262074,2.210322],[102.259571,2.211037],[102.256408,2.211898]],[[102.240433,2.198099],[102.236607,2.200552],[102.227848,2.202343],[102.216117,2.206691],[102.214622,2.207645],[102.21419,2.208594],[102.209021,2.211409]],[[102.243445,2.214775],[102.245495,2.212377],[102.246746,2.208981],[102.246299,2.20764],[102.244869,2.207462],[102.243172,2.20835],[102.243308,2.206213],[102.24208,2.201755],[102.240433,2.198099]],[[102.256408,2.211898],[102.254497,2.207986],[102.253769,2.205576],[102.253224,2.199435],[102.25222,2.198323],[102.251639,2.196938],[102.249628,2.195419],[102.247975,2.194167],[102.246902,2.193352]],[[102.246902,2.193352],[102.244079,2.195494],[102.241807,2.197218],[102.240433,2.198099]],[[102.266881,2.194943],[102.266364,2.194771],[102.264755,2.192715],[102.262789,2.19343],[102.259124,2.195128],[102.255907,2.194502],[102.256443,2.191821],[102.255371,2.191911],[102.25527,2.190657],[102.254543,2.188758]],[[102.254543,2.188758],[102.253406,2.188394],[102.249403,2.189759],[102.245537,2.189077],[102.247129,2.191624],[102.246902,2.193352]],[[102.273269,2.179045],[102.273158,2.179109],[102.264094,2.183573],[102.262138,2.184892],[102.260547,2.186166],[102.259182,2.186075],[102.258363,2.186939],[102.257545,2.186848],[102.256908,2.187803],[102.255816,2.18753],[102.254543,2.188758]]],"bbox":[101.967336,2.047343,102.594057,2.499489]}
