{"type":"Topology","objects":{"NSN_SE-02":{"type":"GeometryCollection","geometries":[{"type":"Polygon","arcs":[[0,1,2,3,4,5,6,7,8]],"properties":{"state":"Negeri Sembilan","parlimen":"P.079 Kuala Pilah","code_parlimen":"P.079","dun":"N.01 Sri Menanti","code_dun":"N.01"}},{"type":"Polygon","arcs":[[9,10,11,12,13,-9]],"properties":{"state":"Negeri Sembilan","parlimen":"P.079 Kuala Pilah","code_parlimen":"P.079","dun":"N.02 Johol","code_dun":"N.02"}},{"type":"Polygon","arcs":[[14,-7,15,16,-11]],"properties":{"state":"Negeri Sembilan","parlimen":"P.079 Kuala Pilah","code_parlimen":"P.079","dun":"N.03 Ulu Muar","code_dun":"N.03"}},{"type":"Polygon","arcs":[[-8,-15,-10]],"properties":{"state":"Negeri Sembilan","parlimen":"P.079 Kuala Pilah","code_parlimen":"P.079","dun":"N.04 Pilah","code_dun":"N.04"}},{"type":"Polygon","arcs":[[17,18,19,20,21,22]],"properties":{"state":"Negeri Sembilan","parlimen":"P.080 Seremban Timor","code_parlimen":"P.080","dun":"N.05 Rantau","code_dun":"N.05"}},{"type":"Polygon","arcs":[[23,24,25,-3,26,-23,27,28]],"properties":{"state":"Negeri Sembilan","parlimen":"P.080 Seremban Timor","code_parlimen":"P.080","dun":"N.06 Sungei Ujong","code_dun":"N.06"}},{"type":"Polygon","arcs":[[29,-29]],"properties":{"state":"Negeri Sembilan","parlimen":"P.080 Seremban Timor","code_parlimen":"P.080","dun":"N.07 Rahang","code_dun":"N.07"}},{"type":"Polygon","arcs":[[30,31,-18,-27,-2,32]],"properties":{"state":"Negeri Sembilan","parlimen":"P.081 Rembau-Tampin","code_parlimen":"P.081","dun":"N.08 Terentang","code_dun":"N.08"}},{"type":"Polygon","arcs":[[33,34,-33,-1,-14,35]],"properties":{"state":"Negeri Sembilan","parlimen":"P.081 Rembau-Tampin","code_parlimen":"P.081","dun":"N.09 Kota","code_dun":"N.09"}},{"type":"Polygon","arcs":[[36,-36,-13,37,38]],"properties":{"state":"Negeri Sembilan","parlimen":"P.081 Rembau-Tampin","code_parlimen":"P.081","dun":"N.10 Tampin","code_dun":"N.10"}},{"type":"Polygon","arcs":[[39,40,-39]],"properties":{"state":"Negeri Sembilan","parlimen":"P.081 Rembau-Tampin","code_parlimen":"P.081","dun":"N.11 Gemas","code_dun":"N.11"}},{"type":"Polygon","arcs":[[41,42,43,-21,44]],"properties":{"state":"Negeri Sembilan","parlimen":"P.082 Port Dickson","code_parlimen":"P.082","dun":"N.12 Jimah","code_dun":"N.12"}},{"type":"Polygon","arcs":[[45,46,-45,-20,47]],"properties":{"state":"Negeri Sembilan","parlimen":"P.082 Port Dickson","code_parlimen":"P.082","dun":"N.13 Lukut","code_dun":"N.13"}},{"type":"Polygon","arcs":[[48,49,-46,50]],"properties":{"state":"Negeri Sembilan","parlimen":"P.082 Port Dickson","code_parlimen":"P.082","dun":"N.14 Si Rusa","code_dun":"N.14"}},{"type":"Polygon","arcs":[[-31,-35,51,-49,52]],"properties":{"state":"Negeri Sembilan","parlimen":"P.082 Port Dickson","code_parlimen":"P.082","dun":"N.15 Pasir Panjang","code_dun":"N.15"}},{"type":"Polygon","arcs":[[-51,-48,-19,-32,-53]],"properties":{"state":"Negeri Sembilan","parlimen":"P.082 Port Dickson","code_parlimen":"P.082","dun":"N.16 Linggi","code_dun":"N.16"}},{"type":"Polygon","arcs":[[-4,-26,53,54,55]],"properties":{"state":"Negeri Sembilan","parlimen":"P.083 Jelebu-Jempol","code_parlimen":"P.083","dun":"N.17 Kuala Klawang","code_dun":"N.17"}},{"type":"Polygon","arcs":[[56,-5,-56,57,58]],"properties":{"state":"Negeri Sembilan","parlimen":"P.083 Jelebu-Jempol","code_parlimen":"P.083","dun":"N.18 Pertang","code_dun":"N.18"}},{"type":"Polygon","arcs":[[59,-59,60,61]],"properties":{"state":"Negeri Sembilan","parlimen":"P.083 Jelebu-Jempol","code_parlimen":"P.083","dun":"N.19 Bahau","code_dun":"N.19"}},{"type":"Polygon","arcs":[[62,-40,-38,-12,-17,63,-62]],"properties":{"state":"Negeri Sembilan","parlimen":"P.083 Jelebu-Jempol","code_parlimen":"P.083","dun":"N.20 Rompin","code_dun":"N.20"}},{"type":"Polygon","arcs":[[-64,-16,-6,-57,-60]],"properties":{"state":"Negeri Sembilan","parlimen":"P.083 Jelebu-Jempol","code_parlimen":"P.083","dun":"N.21 Jempol","code_dun":"N.21"}},{"type":"Polygon","arcs":[[64,65,-54,-25,66]],"properties":{"state":"Negeri Sembilan","parlimen":"P.084 Seremban Barat","code_parlimen":"P.084","dun":"N.22 Lenggeng","code_dun":"N.22"}},{"type":"Polygon","arcs":[[-43,67,-65,68]],"properties":{"state":"Negeri Sembilan","parlimen":"P.084 Seremban Barat","code_parlimen":"P.084","dun":"N.23 Labu","code_dun":"N.23"}},{"type":"Polygon","arcs":[[-67,-24,-30,-28,-22,-44,-69]],"properties":{"state":"Negeri Sembilan","parlimen":"P.084 Seremban Barat","code_parlimen":"P.084","dun":"N.24 Bukit Nanas","code_dun":"N.24"}}]}},"arcs":[[[102.162697,2.611221],[102.1549,2.614441],[102.151398,2.61432],[102.143501,2.61615],[102.141899,2.61799],[102.138802,2.61948],[102.1353,2.629139]],[[102.1353,2.629139],[102.127197,2.63259],[102.123703,2.634541],[102.121696,2.636489],[102.121002,2.63971],[102.114998,2.66308],[102.114998,2.66711],[102.115402,2.669521],[102.119499,2.676901],[102.124001,2.68496],[102.125702,2.689691],[102.123299,2.69809],[102.117897,2.705449],[102.113602,2.70936],[102.111198,2.709351],[102.109398,2.70843],[102.1054,2.708029],[102.1007,2.707489],[102.095497,2.71037],[102.091698,2.71117],[102.086098,2.709091],[102.081802,2.703211],[102.0784,2.69399],[102.074699,2.68973],[102.070999,2.687879],[102.062698,2.68741],[102.055801,2.688091],[102.052818,2.689281]],[[102.052818,2.689281],[102.049599,2.697411],[102.0504,2.707881],[102.055496,2.72781],[102.056198,2.74347],[102.055,2.753361],[102.056099,2.764759],[102.056297,2.77259],[102.054901,2.77961],[102.053101,2.78583],[102.053299,2.79101],[102.058701,2.804601],[102.0644,2.81163],[102.066696,2.813941],[102.069496,2.841231]],[[102.069496,2.841231],[102.086601,2.843091],[102.089302,2.844591],[102.091698,2.846551],[102.098155,2.846464],[102.100771,2.85669],[102.102699,2.869941],[102.105103,2.87236],[102.111298,2.87721],[102.121498,2.88528],[102.129196,2.894159]],[[102.129196,2.894159],[102.131401,2.896231],[102.135498,2.89681],[102.146797,2.895561]],[[102.146797,2.895561],[102.150398,2.89384],[102.152975,2.884516],[102.154758,2.880354],[102.159158,2.874527],[102.162488,2.866798],[102.162726,2.860258],[102.163915,2.852528],[102.169623,2.848366],[102.175331,2.844918],[102.184249,2.840756],[102.193553,2.835397],[102.199114,2.832194]],[[102.199114,2.832194],[102.197458,2.824333],[102.198677,2.814177],[102.189738,2.810926],[102.18852,2.799957],[102.18852,2.795894],[102.181613,2.795082],[102.189738,2.786956],[102.197864,2.788581],[102.198677,2.784925],[102.197864,2.775986],[102.204771,2.767455],[102.199489,2.758517],[102.190551,2.754047],[102.190957,2.743078],[102.203146,2.741453],[102.210052,2.733734],[102.210459,2.723577],[102.206396,2.713013],[102.208427,2.702857]],[[102.208427,2.702857],[102.195426,2.694731],[102.187301,2.687418],[102.17755,2.678074],[102.173081,2.677667],[102.180394,2.666292]],[[102.180394,2.666292],[102.175112,2.661823],[102.165362,2.653291],[102.164549,2.642321],[102.164143,2.630539],[102.162924,2.622007],[102.162697,2.611221]],[[102.180394,2.666292],[102.183238,2.666698],[102.192989,2.671573],[102.200302,2.680105],[102.205583,2.688231],[102.210459,2.688637],[102.213709,2.680105],[102.221022,2.683762],[102.230366,2.689856],[102.239304,2.697575],[102.247836,2.70245],[102.255149,2.693918],[102.262868,2.691075],[102.273025,2.694731],[102.277901,2.697575],[102.283589,2.707326],[102.28562,2.717076]],[[102.28562,2.717076],[102.297808,2.718701],[102.309184,2.719514],[102.319341,2.71342],[102.319341,2.723577],[102.325029,2.71667],[102.337623,2.713826],[102.346568,2.718868]],[[102.346568,2.718868],[102.350024,2.717652],[102.372254,2.70983],[102.353109,2.698652],[102.351563,2.692944],[102.354417,2.682361],[102.35299,2.673799],[102.344547,2.663929],[102.34419,2.659172],[102.340623,2.64954],[102.339302,2.64693],[102.336698,2.643594],[102.341574,2.640384],[102.345379,2.591747]],[[102.345379,2.591747],[102.327599,2.571511],[102.332694,2.554228],[102.330511,2.550954],[102.3283,2.5448],[102.325897,2.54065],[102.320141,2.538582],[102.237543,2.546405],[102.221897,2.542403],[102.205299,2.540141]],[[102.205299,2.540141],[102.188599,2.562449],[102.184502,2.56394],[102.181702,2.565891],[102.179398,2.569],[102.1791,2.57429],[102.178299,2.57625],[102.177902,2.582],[102.1772,2.585229],[102.176903,2.58845],[102.175697,2.59167],[102.171898,2.595921],[102.166298,2.601329],[102.165802,2.604901],[102.1651,2.60731],[102.162697,2.611221]],[[102.28562,2.717076],[102.278713,2.715857],[102.26815,2.715857],[102.260837,2.715857],[102.260431,2.71992],[102.258806,2.73089],[102.258399,2.738609],[102.252711,2.749172],[102.245805,2.754454],[102.240523,2.744703],[102.240523,2.737796],[102.242148,2.722764],[102.242148,2.719108],[102.232398,2.719108],[102.225085,2.711795],[102.222241,2.708544],[102.217772,2.713826],[102.213709,2.707326],[102.208427,2.702857]],[[102.199114,2.832194],[102.210886,2.832669],[102.220756,2.833977],[102.223967,2.834572],[102.230032,2.837307],[102.234431,2.839448],[102.243826,2.837783],[102.254171,2.829221],[102.259641,2.826961],[102.265587,2.82827],[102.269868,2.828745],[102.279619,2.823989],[102.290678,2.824226],[102.302689,2.824821],[102.308991,2.821729],[102.329088,2.800324],[102.336223,2.792595],[102.348061,2.765703]],[[102.348061,2.765703],[102.355487,2.748834],[102.372135,2.74824],[102.346568,2.718868]],[[102.030296,2.65478],[102.029006,2.64834],[102.027298,2.63981],[102.027199,2.626461],[102.034142,2.620816],[102.032898,2.602751],[102.031595,2.573331]],[[102.031595,2.573331],[102.011309,2.575333],[102.011497,2.56956],[101.966644,2.571694],[101.976287,2.553683],[101.9681,2.552773],[101.967918,2.543312],[101.945722,2.542039],[101.930076,2.541129],[101.926903,2.561841],[101.926598,2.56495],[101.925598,2.56817],[101.925629,2.575834]],[[101.925629,2.575834],[101.925697,2.592919],[101.921997,2.596721],[101.9114,2.601311],[101.909302,2.603841],[101.908401,2.606371]],[[101.908401,2.606371],[101.908798,2.613969],[101.908244,2.624637],[101.890414,2.623545],[101.890414,2.66357]],[[101.890414,2.66357],[101.899602,2.661387],[101.90506,2.663752],[101.910518,2.663752],[101.916886,2.660114],[101.917795,2.654838],[101.922889,2.651745],[101.923799,2.647196],[101.933078,2.644103],[101.941629,2.640647],[101.945813,2.64283],[101.94454,2.649743],[101.9389,2.652836],[101.931986,2.653746],[101.930895,2.659386],[101.928347,2.665754],[101.93326,2.667573],[101.941265,2.667391],[101.94363,2.669392],[101.950907,2.667937],[101.960368,2.666299],[101.967281,2.670666],[101.968737,2.677943],[101.97092,2.688313]],[[101.97092,2.688313],[101.984335,2.682945],[101.991862,2.680436],[102.000393,2.673912],[102.009928,2.669395],[102.020968,2.669395],[102.02699,2.660864],[102.030296,2.65478]],[[101.944085,2.723063],[101.938445,2.732523],[101.932259,2.741074],[101.925891,2.749989],[101.925891,2.756538],[101.922435,2.759267],[101.916977,2.763088],[101.915703,2.773094]],[[101.915703,2.773094],[101.924436,2.777461],[101.935352,2.78583],[101.94645,2.789832],[101.950634,2.791833],[101.95682,2.801658],[101.969373,2.810027],[101.990296,2.825127],[101.999938,2.832223],[102.002303,2.838408],[102.004303,2.847929]],[[102.004303,2.847929],[102.019501,2.8438],[102.021698,2.84173],[102.0233,2.8392],[102.0261,2.836671],[102.0289,2.835071],[102.032501,2.833341],[102.036499,2.83335],[102.043503,2.83428],[102.047501,2.835041],[102.049301,2.834061],[102.051498,2.83314],[102.054298,2.833261],[102.058296,2.8343],[102.063301,2.83719],[102.069496,2.841231]],[[102.052818,2.689281],[102.053703,2.681981],[102.053101,2.679451],[102.048698,2.67495],[102.037102,2.666879],[102.030296,2.65478]],[[101.97092,2.688313],[101.972557,2.693771],[101.963461,2.701049],[101.958366,2.702322]],[[101.958366,2.702322],[101.959745,2.711549],[101.962756,2.723091],[101.967774,2.72811],[101.963258,2.730117],[101.951716,2.726102],[101.944085,2.723063]],[[101.958366,2.702322],[101.948542,2.697228],[101.943448,2.695954],[101.934715,2.701594],[101.937626,2.706143],[101.941629,2.711419],[101.942993,2.714148],[101.944085,2.723063]],[[102.095999,2.52712],[102.094726,2.53458],[102.091087,2.540401],[102.084901,2.551136],[102.078715,2.550954],[102.067254,2.546223],[102.064525,2.543858],[102.057065,2.541493]],[[102.057065,2.541493],[102.049424,2.545496],[102.042511,2.556412],[102.039236,2.560596],[102.037598,2.563143],[102.031595,2.573331]],[[102.1353,2.629139],[102.124362,2.622978],[102.125249,2.611445],[102.126136,2.607009],[102.119039,2.596363],[102.119039,2.585717],[102.114603,2.576845],[102.114603,2.567086],[102.118152,2.557327],[102.112829,2.549343],[102.106618,2.542245],[102.095999,2.52712]],[[102.208366,2.481483],[102.20227,2.48368],[102.193611,2.486801],[102.19249,2.490533],[102.176241,2.499489],[102.141502,2.456945]],[[102.141502,2.456945],[102.127474,2.471267],[102.118923,2.484002],[102.112737,2.486913],[102.107461,2.489824],[102.105824,2.498921],[102.099456,2.507653],[102.093452,2.519479],[102.095999,2.52712]],[[102.205299,2.540141],[102.208586,2.525901],[102.210115,2.514432],[102.216232,2.502964],[102.213173,2.488438],[102.208366,2.481483]],[[102.431559,2.471127],[102.414283,2.478497],[102.365068,2.495198],[102.331823,2.488573],[102.31988,2.482026],[102.277192,2.458624],[102.231433,2.466462],[102.208366,2.481483]],[[102.345379,2.591747],[102.353897,2.60189],[102.424009,2.682973],[102.428001,2.68759]],[[102.428001,2.68759],[102.440243,2.678045],[102.443302,2.668106],[102.450947,2.659696],[102.458593,2.645934],[102.460122,2.642111],[102.467003,2.632172],[102.472354,2.621469],[102.479235,2.613059],[102.482293,2.605413],[102.489174,2.593945],[102.489174,2.584771],[102.486881,2.571773],[102.486881,2.564892],[102.486881,2.549602],[102.485352,2.54425],[102.476177,2.54425],[102.461651,2.542721],[102.455534,2.542721],[102.442537,2.541192],[102.444066,2.532017],[102.445595,2.522078],[102.445595,2.515962],[102.442537,2.515962],[102.430304,2.515962],[102.424188,2.514432],[102.424188,2.508316],[102.426482,2.497612],[102.428011,2.488438],[102.431559,2.471127]],[[102.428001,2.68759],[102.536201,2.68509],[102.542,2.68429],[102.544296,2.68349],[102.546799,2.68119],[102.550102,2.67544],[102.560097,2.66659],[102.567703,2.658431],[102.570396,2.657861],[102.572998,2.658091],[102.578903,2.65844],[102.5821,2.658221],[102.584099,2.656721],[102.585999,2.655121],[102.591599,2.64856],[102.5942,2.64776],[102.5979,2.647072],[102.602898,2.647201],[102.628496,2.639868]],[[102.628496,2.639868],[102.625435,2.631085],[102.627303,2.615599],[102.638509,2.610374],[102.638883,2.602538],[102.632719,2.589664],[102.625248,2.589291],[102.623568,2.584999],[102.616657,2.582014],[102.606945,2.567274],[102.612174,2.554026],[102.608439,2.545817],[102.611988,2.529023],[102.619085,2.520067],[102.612548,2.51279],[102.606384,2.510364],[102.60433,2.501781],[102.614976,2.481442],[102.615536,2.468007],[102.608812,2.467261],[102.594805,2.456251],[102.590696,2.420983],[102.594057,2.419863],[102.594057,2.410906],[102.585553,2.415706],[102.563047,2.419158],[102.525599,2.432407],[102.465777,2.450308],[102.429878,2.46105],[102.431559,2.471127]],[[101.780657,2.588212],[101.761233,2.6009],[101.746664,2.602579],[101.731909,2.596049],[101.729294,2.59325],[101.7151,2.594183],[101.710057,2.600713],[101.702399,2.604072],[101.702399,2.608549],[101.72145,2.621423],[101.725372,2.620304],[101.728361,2.616572],[101.730042,2.623849],[101.724252,2.635976],[101.731349,2.647917],[101.740501,2.651648],[101.746851,2.655753],[101.744049,2.665268],[101.739754,2.668067],[101.73882,2.67385],[101.74573,2.682433],[101.75152,2.682433],[101.751894,2.685977],[101.750213,2.688403],[101.754322,2.698291],[101.760485,2.700903],[101.760114,2.718337]],[[101.760114,2.718337],[101.761497,2.71847],[101.772499,2.71785],[101.777199,2.716701],[101.782097,2.7121],[101.791801,2.676889],[101.7938,2.67252],[101.794998,2.66814],[101.830194,2.667573],[101.845295,2.673941],[101.85239,2.672667],[101.872949,2.664662],[101.879388,2.664259]],[[101.879388,2.664259],[101.890414,2.66357]],[[101.908401,2.606371],[101.901632,2.603652],[101.887534,2.60196],[101.875128,2.596321],[101.867797,2.591245],[101.870617,2.59914],[101.859902,2.599704],[101.850316,2.600832],[101.83509,2.600268],[101.824939,2.600268],[101.824939,2.604779],[101.826067,2.61493],[101.828887,2.619441],[101.827759,2.628464],[101.815353,2.632975],[101.812533,2.622261],[101.810841,2.612674],[101.806894,2.602524],[101.792232,2.603088],[101.782645,2.601396],[101.795616,2.591245],[101.787721,2.588426],[101.780657,2.588212]],[[101.872872,2.538801],[101.868925,2.545004],[101.855955,2.54444],[101.849752,2.54444],[101.832834,2.542184],[101.832834,2.552899],[101.827759,2.552899],[101.808586,2.553463],[101.79728,2.559665]],[[101.79728,2.559665],[101.795225,2.572539],[101.79149,2.577017],[101.788128,2.578323],[101.783085,2.576457],[101.780657,2.588212]],[[101.925629,2.575834],[101.912911,2.564741],[101.90558,2.569252],[101.894865,2.568689],[101.889226,2.568689],[101.888662,2.562485],[101.887534,2.550643],[101.883023,2.54162],[101.872872,2.538801]],[[101.887429,2.484255],[101.881092,2.479381],[101.875243,2.47207],[101.870369,2.463784],[101.873781,2.453548],[101.874756,2.445262],[101.884017,2.437464],[101.89084,2.437951],[101.893277,2.427228],[101.895335,2.416919]],[[101.895335,2.416919],[101.878713,2.419531],[101.871428,2.414679],[101.864564,2.417665],[101.860742,2.414811],[101.858927,2.409489],[101.855968,2.406817],[101.857874,2.404406],[101.854744,2.403887],[101.853404,2.402702],[101.850903,2.406006],[101.847662,2.411694],[101.855179,2.418598],[101.857234,2.42401],[101.8563,2.432593],[101.853498,2.446402],[101.854992,2.45368],[101.851817,2.46133],[101.848082,2.461517],[101.846588,2.48111],[101.839677,2.48876],[101.836502,2.500516],[101.829405,2.507046],[101.822307,2.516563],[101.817451,2.521601],[101.803817,2.52272],[101.795972,2.518615],[101.789248,2.521974],[101.789248,2.531863],[101.798027,2.541752],[101.798214,2.545857],[101.795972,2.551642],[101.791676,2.551642],[101.79261,2.556493],[101.79728,2.559665]],[[101.872872,2.538801],[101.878655,2.528122],[101.880605,2.517886],[101.88158,2.507163],[101.883042,2.49839],[101.886454,2.489129],[101.887429,2.484255]],[[102.141502,2.456945],[102.12161,2.46273],[102.088458,2.447148],[102.083789,2.453866],[102.076691,2.454239],[102.069688,2.457505],[102.064364,2.457785],[102.060442,2.45088],[102.06259,2.448361],[102.059322,2.444256],[102.060722,2.44211],[102.062777,2.44267],[102.064364,2.444163],[102.064831,2.442483],[102.063244,2.440524],[102.062497,2.436699],[102.059602,2.434459],[102.056894,2.435579],[102.050917,2.43306],[102.050637,2.430261],[102.048769,2.427648],[102.051944,2.42345],[102.050076,2.420651],[102.047275,2.419624],[102.044193,2.42121],[102.040738,2.421024],[102.034574,2.426249],[102.035321,2.430914],[102.038216,2.43418],[102.030092,2.439778],[102.026917,2.433526],[102.02729,2.427648],[102.017671,2.417665],[102.011601,2.408708],[102.005531,2.407215],[101.993951,2.399751],[101.984332,2.398164],[101.976675,2.389674],[101.969484,2.400124],[101.960892,2.403296],[101.955476,2.401803],[101.940161,2.413186],[101.940534,2.417292],[101.936425,2.42233],[101.930822,2.424569],[101.905941,2.419205],[101.895335,2.416919]],[[101.887429,2.484255],[101.89084,2.472557],[101.89084,2.462322],[101.899126,2.455498],[101.907412,2.455985],[101.907412,2.460372],[101.911312,2.464271],[101.915698,2.47012],[101.927396,2.47012],[101.937632,2.481818],[101.94738,2.476944],[101.960052,2.475969],[101.966389,2.477431],[101.966389,2.488154],[101.967851,2.50034],[101.968826,2.508626],[101.9737,2.506189],[101.981011,2.49839],[101.98881,2.490104],[101.997583,2.481818],[102.007331,2.480843],[102.022928,2.483768],[102.02634,2.483768],[102.026827,2.474994],[102.035113,2.464759],[102.0395,2.464271],[102.039987,2.473045],[102.039987,2.485717],[102.0395,2.492541],[102.043399,2.495953],[102.056072,2.497415],[102.066795,2.500827],[102.081905,2.505214],[102.085316,2.506676],[102.085316,2.513987],[102.075081,2.517399],[102.066795,2.516912],[102.062408,2.517886],[102.055097,2.530072],[102.056559,2.536408],[102.057065,2.541493]],[[102.004303,2.847929],[101.999802,2.850571],[101.996101,2.853901],[101.994598,2.855861],[101.993103,2.85816],[101.990196,2.866671],[101.983299,2.893489],[101.9823,2.899009],[101.9823,2.90223],[101.984802,2.90489],[101.9879,2.915941],[101.987801,2.919401],[101.985603,2.922391],[101.982803,2.924221],[101.981598,2.926181],[101.9785,2.93285],[101.974602,2.939409],[101.971497,2.94263],[101.968102,2.94446],[101.965797,2.944351],[101.954796,2.94456],[101.9496,2.946969],[101.947998,2.949041],[101.946999,2.95238],[101.945297,2.95537],[101.941299,2.95594],[101.938202,2.956391],[101.929596,2.959951],[101.9272,2.96167],[101.925797,2.963981],[101.925102,2.965929],[101.923351,2.967567]],[[101.923351,2.967567],[101.922417,2.975028],[101.928207,2.977826],[101.930822,2.99853],[101.93904,2.99853],[101.943336,3.006363],[101.939787,3.010094],[101.9396,3.015502],[101.944456,3.016062],[101.955103,3.026134],[101.960145,3.024455],[101.968177,3.025947],[101.96743,3.043852],[101.964068,3.05094],[101.965562,3.055789],[101.958838,3.061384],[101.9622,3.077983],[101.957904,3.08078],[101.955289,3.094954],[101.948752,3.102041],[101.948005,3.11118],[101.955992,3.116496],[101.959212,3.11864],[101.959972,3.121911],[101.964068,3.139527],[101.957157,3.145681],[101.95641,3.156311],[101.950433,3.160041],[101.93904,3.184471],[101.947258,3.191184],[101.945017,3.204051],[101.947632,3.207408],[101.947258,3.218783],[101.939227,3.236312],[101.934558,3.238177],[101.931382,3.243957],[101.933997,3.250298],[101.931569,3.254027],[101.927834,3.253841],[101.925779,3.259621],[101.909536,3.25944],[101.929334,3.272493],[101.932322,3.287784],[101.943528,3.284427],[101.948758,3.27212],[101.972291,3.273985],[101.977148,3.252355],[101.973039,3.243031],[102.008899,3.226248],[102.042891,3.224756],[102.05223,3.198276],[102.055218,3.166947],[102.075763,3.164709]],[[102.075763,3.164709],[102.088754,3.152264],[102.102047,3.145967],[102.108344,3.14107],[102.113942,3.129175],[102.108344,3.122179],[102.111843,3.109585],[102.120938,3.106786],[102.131433,3.100489],[102.139829,3.089994],[102.139829,3.075301],[102.140529,3.067604],[102.146126,3.05641],[102.157321,3.052911],[102.167117,3.05501],[102.174113,3.05501],[102.176212,3.051512],[102.169216,3.039618],[102.163618,3.029822],[102.152424,3.023525],[102.149625,3.020726],[102.141928,3.021426],[102.134232,3.020726],[102.119539,3.018627],[102.114641,3.008132],[102.114641,2.998337],[102.11674,2.984344],[102.109044,2.978746],[102.098549,2.968951],[102.097849,2.963354],[102.087354,2.952858],[102.087354,2.946561],[102.089453,2.940264],[102.094351,2.931169],[102.106945,2.92907],[102.11674,2.926271],[102.120938,2.914377],[102.121638,2.904581],[102.129196,2.894159]],[[102.253836,2.895467],[102.246889,2.896162],[102.237163,2.897551],[102.223268,2.90033],[102.212153,2.899636],[102.198953,2.895467],[102.184364,2.896162],[102.172554,2.896162],[102.166301,2.894772],[102.146797,2.895561]],[[102.075763,3.164709],[102.07539,3.176644],[102.096308,3.191936],[102.113865,3.188206],[102.115359,3.197903],[102.12171,3.198276],[102.126939,3.192682],[102.14076,3.196411],[102.154581,3.178136],[102.247109,3.149003],[102.286069,3.136736],[102.287357,3.1365]],[[102.287357,3.1365],[102.29274,3.118472],[102.297603,3.108746],[102.303161,3.10041],[102.310803,3.096241],[102.313582,3.083042],[102.312192,3.074705],[102.31914,3.060116],[102.320529,3.052474],[102.327476,3.042053],[102.334423,3.034411],[102.339286,3.023296],[102.340676,3.01357],[102.336508,3.002454],[102.335118,2.992033],[102.342065,2.979528],[102.345539,2.965634],[102.347623,2.955908],[102.351791,2.946876],[102.337897,2.946876],[102.324697,2.946182],[102.314277,2.945487],[102.302466,2.942708],[102.292046,2.942708],[102.283014,2.940624],[102.273288,2.936456],[102.267036,2.923951],[102.263562,2.916309],[102.250362,2.91214],[102.253836,2.90033],[102.253836,2.895467]],[[102.39139,2.777365],[102.390696,2.785007],[102.387222,2.794733],[102.386527,2.80168],[102.38097,2.80168],[102.370549,2.807932],[102.361518,2.810711],[102.348318,2.816964],[102.339981,2.821827],[102.333729,2.831553],[102.327476,2.837111],[102.316361,2.846837],[102.310108,2.848921],[102.299687,2.855868],[102.290656,2.856563],[102.28093,2.862121],[102.272593,2.870457],[102.266341,2.878099],[102.260783,2.886436],[102.253836,2.895467]],[[102.287357,3.1365],[102.324275,3.129749],[102.388047,3.118086],[102.467612,3.018119],[102.473041,3.014522]],[[102.473041,3.014522],[102.468443,3.005615],[102.466271,2.997467],[102.471703,2.981715],[102.474962,2.970308],[102.482023,2.962704],[102.482023,2.95347],[102.482566,2.942063],[102.478221,2.92957],[102.465184,2.92957],[102.454864,2.929026],[102.451062,2.918163],[102.454864,2.908386],[102.460296,2.896979],[102.45758,2.885029],[102.453234,2.870906],[102.451605,2.863845],[102.450518,2.849722],[102.452691,2.841574],[102.453234,2.829624],[102.439112,2.829624],[102.428248,2.829624],[102.418471,2.829624],[102.407607,2.823106],[102.406521,2.811699],[102.413582,2.800293],[102.417384,2.795947],[102.413039,2.791602],[102.402175,2.793774],[102.3962,2.793774],[102.3962,2.789972],[102.39139,2.777365]],[[102.473041,3.014522],[102.550939,2.962903],[102.667459,2.885687],[102.679039,2.896506],[102.69174,2.880091],[102.69809,2.833456],[102.70258,2.831474],[102.631593,2.648757],[102.628496,2.639868]],[[102.348061,2.765703],[102.360823,2.766944],[102.367075,2.773196],[102.367075,2.777365],[102.376801,2.777365],[102.385833,2.777365],[102.39139,2.777365]],[[101.904077,2.774488],[101.890277,2.776288],[101.881278,2.777488],[101.869278,2.782887],[101.860278,2.783487],[101.846479,2.791287],[101.836879,2.796087],[101.829079,2.804487],[101.820679,2.809287],[101.80868,2.811687],[101.812879,2.818286],[101.823079,2.826086],[101.814679,2.826086],[101.80748,2.824886],[101.79548,2.822486],[101.78408,2.821886],[101.765481,2.819486],[101.753979,2.818368]],[[101.753979,2.818368],[101.750867,2.870945],[101.789819,2.869666],[101.881607,2.866654],[101.923351,2.967567]],[[101.915703,2.773094],[101.904077,2.774488]],[[101.760114,2.718337],[101.760019,2.722824],[101.758734,2.742817],[101.755162,2.798379],[101.753979,2.818368]],[[101.904077,2.774488],[101.902424,2.767048],[101.89862,2.756725],[101.89862,2.750748],[101.906771,2.749118],[101.917637,2.749118],[101.916007,2.744772],[101.911661,2.733362],[101.917094,2.727928],[101.923614,2.718692],[101.925244,2.711628],[101.916551,2.709455],[101.904054,2.708368],[101.898077,2.715975],[101.88721,2.718148],[101.87254,2.711085],[101.870367,2.697501],[101.87091,2.689895],[101.870367,2.686091],[101.87417,2.678485],[101.879604,2.673595],[101.879388,2.664259]]],"bbox":[101.702399,2.389674,102.70258,3.287784]}
