{"type":"Topology","objects":{"NSN_SE-04":{"type":"GeometryCollection","geometries":[{"type":"Polygon","arcs":[[0,1,2,3,4]],"properties":{"state":"Negeri Sembilan","parlimen":"P.089 Jelebu","code_parlimen":"P.089","dun":"N.01 Kuala Klawang","code_dun":"N.01"}},{"type":"Polygon","arcs":[[5,6,-5,7,8]],"properties":{"state":"Negeri Sembilan","parlimen":"P.089 Jelebu","code_parlimen":"P.089","dun":"N.02 Pertang","code_dun":"N.02"}},{"type":"Polygon","arcs":[[9,10,-9,11,12]],"properties":{"state":"Negeri Sembilan","parlimen":"P.089 Jelebu","code_parlimen":"P.089","dun":"N.03 Bahau","code_dun":"N.03"}},{"type":"Polygon","arcs":[[13,-6,-11,14]],"properties":{"state":"Negeri Sembilan","parlimen":"P.089 Jelebu","code_parlimen":"P.089","dun":"N.04 Jempol","code_dun":"N.04"}},{"type":"Polygon","arcs":[[15,16,-3,17,18]],"properties":{"state":"Negeri Sembilan","parlimen":"P.090 Mantin","code_parlimen":"P.090","dun":"N.05 Lenggeng","code_dun":"N.05"}},{"type":"Polygon","arcs":[[19,20,-18,-2,21,22]],"properties":{"state":"Negeri Sembilan","parlimen":"P.090 Mantin","code_parlimen":"P.090","dun":"N.06 Pantai","code_dun":"N.06"}},{"type":"Polygon","arcs":[[23,-16,24,25,26]],"properties":{"state":"Negeri Sembilan","parlimen":"P.090 Mantin","code_parlimen":"P.090","dun":"N.07 Labu","code_dun":"N.07"}},{"type":"Polygon","arcs":[[27,28,29,30,-26,31,32]],"properties":{"state":"Negeri Sembilan","parlimen":"P.090 Mantin","code_parlimen":"P.090","dun":"N.08 Rantau","code_dun":"N.08"}},{"type":"Polygon","arcs":[[-19,-21,33,34,-32,-25]],"properties":{"state":"Negeri Sembilan","parlimen":"P.091 Seremban","code_parlimen":"P.091","dun":"N.09 Rasah","code_dun":"N.09"}},{"type":"Polygon","arcs":[[-34,-20,35]],"properties":{"state":"Negeri Sembilan","parlimen":"P.091 Seremban","code_parlimen":"P.091","dun":"N.10 Rahang","code_dun":"N.10"}},{"type":"Polygon","arcs":[[-33,-35,-36,-23,36,37]],"properties":{"state":"Negeri Sembilan","parlimen":"P.091 Seremban","code_parlimen":"P.091","dun":"N.11 Sungai Ujong","code_dun":"N.11"}},{"type":"Polygon","arcs":[[38,-28,-38,39,40,41]],"properties":{"state":"Negeri Sembilan","parlimen":"P.091 Seremban","code_parlimen":"P.091","dun":"N.12 Terentang","code_dun":"N.12"}},{"type":"Polygon","arcs":[[-40,-37,-22,-1,-7,-14,42,43]],"properties":{"state":"Negeri Sembilan","parlimen":"P.092 Kuala Pilah","code_parlimen":"P.092","dun":"N.13 Seri Menanti","code_dun":"N.13"}},{"type":"Polygon","arcs":[[-43,-15,-10,44,45,46,47,48]],"properties":{"state":"Negeri Sembilan","parlimen":"P.092 Kuala Pilah","code_parlimen":"P.092","dun":"N.14 Ulu Muar","code_dun":"N.14"}},{"type":"Polygon","arcs":[[49,50,-41,-44,-49]],"properties":{"state":"Negeri Sembilan","parlimen":"P.092 Kuala Pilah","code_parlimen":"P.092","dun":"N.15 Pilah","code_dun":"N.15"}},{"type":"Polygon","arcs":[[-48,51,52,-50]],"properties":{"state":"Negeri Sembilan","parlimen":"P.092 Kuala Pilah","code_parlimen":"P.092","dun":"N.16 Johol","code_dun":"N.16"}},{"type":"Polygon","arcs":[[53,-27,-31,54]],"properties":{"state":"Negeri Sembilan","parlimen":"P.093 Telok Kemang","code_parlimen":"P.093","dun":"N.17 Jimah","code_dun":"N.17"}},{"type":"Polygon","arcs":[[55,56,-55,-30,57]],"properties":{"state":"Negeri Sembilan","parlimen":"P.093 Telok Kemang","code_parlimen":"P.093","dun":"N.18 Si Rusa","code_dun":"N.18"}},{"type":"Polygon","arcs":[[58,59,-56]],"properties":{"state":"Negeri Sembilan","parlimen":"P.093 Telok Kemang","code_parlimen":"P.093","dun":"N.19 Pasir Panjang","code_dun":"N.19"}},{"type":"Polygon","arcs":[[60,61,-59,-58,-29,-39]],"properties":{"state":"Negeri Sembilan","parlimen":"P.093 Telok Kemang","code_parlimen":"P.093","dun":"N.20 Linggi","code_dun":"N.20"}},{"type":"Polygon","arcs":[[-51,-53,62,63,-61,-42]],"properties":{"state":"Negeri Sembilan","parlimen":"P.094 Tampin","code_parlimen":"P.094","dun":"N.21 Kota","code_dun":"N.21"}},{"type":"Polygon","arcs":[[64,-63,-52,-47,65]],"properties":{"state":"Negeri Sembilan","parlimen":"P.094 Tampin","code_parlimen":"P.094","dun":"N.22 Gemencheh","code_dun":"N.22"}},{"type":"Polygon","arcs":[[-46,66,67,-66]],"properties":{"state":"Negeri Sembilan","parlimen":"P.094 Tampin","code_parlimen":"P.094","dun":"N.23 Gemas","code_dun":"N.23"}},{"type":"Polygon","arcs":[[-13,68,-67,-45]],"properties":{"state":"Negeri Sembilan","parlimen":"P.094 Tampin","code_parlimen":"P.094","dun":"N.24 Rompin","code_dun":"N.24"}}]}},"arcs":[[[102.129196,2.894159],[102.122423,2.887593],[102.112222,2.879523],[102.105103,2.87236],[102.10118,2.864738],[102.099439,2.85641],[102.099568,2.85254],[102.093539,2.849034],[102.085768,2.84796],[102.083513,2.841463],[102.077926,2.838143],[102.069317,2.837572]],[[102.069317,2.837572],[102.069282,2.844162],[102.061991,2.841918],[102.056032,2.838028],[102.053232,2.837906],[102.051194,2.840621],[102.047724,2.842725],[102.043726,2.841964],[102.038261,2.836074],[102.034263,2.836065],[102.030662,2.837795],[102.028791,2.841388],[102.026902,2.844477],[102.024389,2.846447],[102.014353,2.845809],[102.010006,2.849245],[102.003837,2.849034]],[[102.003837,2.849034],[101.999802,2.850571],[101.996101,2.853901],[101.994598,2.855861],[101.990171,2.861496],[101.987395,2.867797],[101.983862,2.878132],[101.982348,2.886197],[101.983862,2.891238],[101.980076,2.894515],[101.979319,2.897792],[101.9823,2.90223],[101.984802,2.90489],[101.9879,2.915941],[101.987801,2.919401],[101.985603,2.922391],[101.982803,2.924221],[101.981598,2.926181],[101.9785,2.93285],[101.974602,2.939409],[101.971497,2.94263],[101.968102,2.94446],[101.965797,2.944351],[101.961309,2.944321],[101.954796,2.94456],[101.9496,2.946969],[101.947998,2.949041],[101.946999,2.95238],[101.945297,2.95537],[101.938202,2.956391],[101.929596,2.959951],[101.9272,2.96167],[101.925797,2.963981],[101.925102,2.965929],[101.923351,2.967567]],[[101.923351,2.967567],[101.922417,2.975028],[101.928207,2.977826],[101.930822,2.99853],[101.93904,2.99853],[101.943336,3.006363],[101.939787,3.010094],[101.9396,3.015502],[101.944456,3.016062],[101.955103,3.026134],[101.960145,3.024455],[101.968177,3.025947],[101.96743,3.043852],[101.964068,3.05094],[101.965562,3.055789],[101.958838,3.061384],[101.9622,3.077983],[101.957904,3.08078],[101.955289,3.094954],[101.948752,3.102041],[101.948005,3.11118],[101.955992,3.116496],[101.959212,3.11864],[101.959972,3.121911],[101.964068,3.139527],[101.957157,3.145681],[101.95641,3.156311],[101.950433,3.160041],[101.93904,3.184471],[101.947258,3.191184],[101.945017,3.204051],[101.947632,3.207408],[101.947258,3.218783],[101.939227,3.236312],[101.934558,3.238177],[101.931382,3.243957],[101.933997,3.250298],[101.931569,3.254027],[101.927834,3.253841],[101.925779,3.259621],[101.909536,3.25944],[101.929334,3.272493],[101.932322,3.287784],[101.943528,3.284427],[101.948758,3.27212],[101.972291,3.273985],[101.977148,3.252355],[101.973039,3.243031],[102.008899,3.226248],[102.042891,3.224756],[102.05223,3.198276],[102.055218,3.166947],[102.075763,3.164709]],[[102.075763,3.164709],[102.082695,3.156087],[102.089973,3.154086],[102.095976,3.151175],[102.105619,3.14226],[102.11235,3.138803],[102.117808,3.135528],[102.110167,3.126614],[102.107984,3.118609],[102.112532,3.112241],[102.127815,3.106055],[102.133273,3.101325],[102.139277,3.084587],[102.13964,3.075126],[102.144189,3.063119],[102.149647,3.058752],[102.153831,3.056387],[102.163656,3.056933],[102.169659,3.05566],[102.171661,3.052749],[102.169114,3.046199],[102.164201,3.03874],[102.160381,3.034919],[102.154195,3.0331],[102.15183,3.031281],[102.150374,3.023821],[102.148373,3.02273],[102.144189,3.025822],[102.141096,3.023821],[102.127269,3.024185],[102.122215,3.017225],[102.120395,3.012495],[102.120395,3.005945],[102.125629,2.998524],[102.123628,2.991974],[102.105562,2.976559],[102.105842,2.969688],[102.101215,2.964641],[102.096523,2.955302],[102.092521,2.949844],[102.090702,2.946933],[102.091429,2.943112],[102.09098,2.939402],[102.09098,2.933944],[102.093163,2.931579],[102.098257,2.931215],[102.108663,2.932259],[102.114667,2.932805],[102.119215,2.930804],[102.124491,2.929166],[102.125219,2.924618],[102.124127,2.920798],[102.123369,2.91164],[102.124912,2.907574],[102.125916,2.90418],[102.129196,2.894159]],[[102.246582,2.902351],[102.237793,2.903836],[102.235442,2.904891],[102.225981,2.904527],[102.216634,2.908007],[102.212736,2.909388],[102.207136,2.909037],[102.204931,2.907998],[102.203138,2.904996],[102.190236,2.901407],[102.186338,2.904518],[102.183637,2.904857],[102.172536,2.903348],[102.168134,2.900686],[102.161237,2.898257],[102.157636,2.896757],[102.155864,2.896006]],[[102.155864,2.896006],[102.150398,2.89384],[102.146797,2.895561],[102.135498,2.89681],[102.131401,2.896231],[102.129196,2.894159]],[[102.075763,3.164709],[102.07539,3.176644],[102.096308,3.191936],[102.113865,3.188206],[102.115359,3.197903],[102.12171,3.198276],[102.126939,3.192682],[102.14076,3.196411],[102.154581,3.178136],[102.247109,3.149003],[102.286069,3.136736],[102.287357,3.1365]],[[102.287357,3.1365],[102.298996,3.11406],[102.306503,3.111541],[102.315796,3.10361],[102.3181,3.098081],[102.3153,3.08],[102.317101,3.075631],[102.322502,3.065391],[102.326401,3.054351],[102.330902,3.04814],[102.337196,3.04285],[102.338699,3.036061],[102.344101,3.02317],[102.344803,3.01845],[102.3414,3.01626],[102.337502,3.010149],[102.337502,3.003941],[102.344679,2.970697],[102.35323,2.963328],[102.271087,2.954687],[102.260399,2.93809],[102.255997,2.931521],[102.240613,2.923212],[102.238899,2.918141],[102.239098,2.91319],[102.240601,2.910551],[102.245617,2.90702],[102.246582,2.902351]],[[102.413577,2.804481],[102.413887,2.793742],[102.414979,2.79074],[102.411522,2.785646],[102.407246,2.782917],[102.400957,2.782748],[102.396858,2.78573],[102.391703,2.790881],[102.387742,2.786674],[102.384132,2.785132],[102.378733,2.784922],[102.372548,2.783284],[102.36948,2.781508],[102.368778,2.778332],[102.367687,2.775239],[102.349919,2.769849],[102.345573,2.780575],[102.348097,2.785903]],[[102.348097,2.785903],[102.347851,2.789198],[102.342804,2.795508],[102.350936,2.811632],[102.345225,2.818236],[102.333409,2.830421],[102.335363,2.833357],[102.334181,2.83645],[102.329553,2.839044],[102.327006,2.840045],[102.322473,2.844512],[102.321071,2.848999],[102.31797,2.851725],[102.313569,2.854538],[102.309433,2.85636],[102.30074,2.860146],[102.296009,2.863876],[102.2951,2.864331],[102.289172,2.866947],[102.283779,2.869999],[102.279958,2.872182],[102.276866,2.873365],[102.2735,2.878823],[102.270033,2.880968],[102.265302,2.882787],[102.262321,2.890432],[102.2551,2.898354],[102.249187,2.899992],[102.246582,2.902351]],[[102.287357,3.1365],[102.324275,3.129749],[102.388047,3.118086],[102.467612,3.018119],[102.473041,3.014522]],[[102.473041,3.014522],[102.469213,3.009858],[102.471214,3.002217],[102.471578,2.999124],[102.473761,2.992574],[102.475398,2.983296],[102.476126,2.97529],[102.480493,2.974199],[102.484677,2.972016],[102.48686,2.966558],[102.485868,2.963116],[102.485951,2.959098],[102.484677,2.954914],[102.484495,2.950184],[102.482676,2.944362],[102.477582,2.937812],[102.472851,2.934355],[102.467575,2.934537],[102.462845,2.933446],[102.457933,2.931808],[102.45484,2.92817],[102.45393,2.923076],[102.452293,2.917618],[102.458479,2.909613],[102.461208,2.902153],[102.454476,2.883596],[102.456295,2.876319],[102.453021,2.870133],[102.451929,2.8614],[102.449382,2.856124],[102.4492,2.850302],[102.456295,2.839932],[102.455568,2.833928],[102.453748,2.831199],[102.449018,2.830108],[102.420455,2.830653],[102.413541,2.827924],[102.412875,2.816049],[102.413603,2.811956],[102.413577,2.804481]],[[102.19475,2.843726],[102.190096,2.846331],[102.182995,2.851488],[102.17332,2.856396],[102.169419,2.861896],[102.16823,2.869625],[102.164627,2.875044],[102.164663,2.883895],[102.160263,2.889722],[102.155864,2.896006]],[[102.348097,2.785903],[102.337686,2.787936],[102.300669,2.777],[102.28791,2.779804],[102.297725,2.791021],[102.297725,2.799013],[102.290294,2.799574],[102.292011,2.830736],[102.275676,2.8334],[102.268105,2.836485],[102.263824,2.83601],[102.254925,2.838729],[102.249455,2.840988],[102.243052,2.840138],[102.235715,2.842514],[102.230615,2.841496],[102.226321,2.837046],[102.22311,2.836451],[102.213001,2.837607],[102.204961,2.837769],[102.1994,2.840972],[102.19475,2.843726]],[[101.899939,2.774546],[101.888709,2.771889],[101.87943,2.773526],[101.873426,2.777893],[101.865603,2.778802],[101.858872,2.782077],[101.852868,2.782441],[101.851594,2.783897],[101.846682,2.786989],[101.839587,2.787717],[101.838131,2.790628],[101.835766,2.796814],[101.832855,2.799725],[101.827215,2.801544],[101.824122,2.806274],[101.822121,2.807366],[101.819756,2.804637],[101.81448,2.804273],[101.811933,2.80682],[101.812661,2.812096],[101.820484,2.817554],[101.823213,2.823376],[101.78246,2.82283],[101.780276,2.818646],[101.753979,2.818368]],[[101.753979,2.818368],[101.750867,2.870945],[101.789819,2.869666],[101.794091,2.869526],[101.881607,2.866654],[101.923351,2.967567]],[[102.003837,2.849034],[102.004188,2.841778],[101.994092,2.834627],[101.99262,2.830561],[101.988624,2.830982],[101.987783,2.827056],[101.981894,2.827196],[101.969835,2.814296],[101.955954,2.802939],[101.947944,2.792442],[101.943534,2.79234],[101.937791,2.789673],[101.93656,2.785776],[101.920151,2.781161],[101.913713,2.775528]],[[101.913713,2.775528],[101.908961,2.774017],[101.904049,2.774597],[101.899939,2.774546]],[[101.943509,2.750573],[101.934637,2.744881],[101.929202,2.747393]],[[101.929202,2.747393],[101.921484,2.754495],[101.917587,2.760034],[101.912049,2.764546],[101.913713,2.775528]],[[102.069317,2.837572],[102.066696,2.813941],[102.0644,2.81163],[102.058701,2.804601],[102.053299,2.79101],[102.053101,2.78583],[102.054901,2.77961],[102.056297,2.77259]],[[102.056297,2.77259],[102.051093,2.772469],[102.038375,2.761598],[102.015915,2.749701],[101.992839,2.74847],[101.990378,2.741906],[101.992634,2.725907],[101.987917,2.723856],[101.980122,2.728369],[101.969251,2.73042],[101.968636,2.736368],[101.958585,2.735138],[101.952175,2.734932],[101.943509,2.750573]],[[101.760114,2.718337],[101.760019,2.722824],[101.758734,2.742817],[101.755162,2.798379],[101.754386,2.811492],[101.753979,2.818368]],[[101.899939,2.774546],[101.894751,2.752953],[101.911436,2.749167],[101.902883,2.735286],[101.917185,2.726172],[101.917606,2.707524],[101.89635,2.707485],[101.894349,2.714034],[101.883069,2.715126],[101.872517,2.715126],[101.871789,2.694749],[101.869788,2.686744],[101.87046,2.683005],[101.874139,2.679481],[101.878197,2.671577],[101.881762,2.667551],[101.891304,2.66708],[101.890414,2.66357]],[[101.890414,2.66357],[101.890414,2.623545]],[[101.890414,2.623545],[101.87459,2.632374],[101.880333,2.653296],[101.879717,2.658219],[101.87582,2.65986],[101.872949,2.664662],[101.857739,2.670358],[101.856129,2.666218],[101.852847,2.654937],[101.848129,2.645707],[101.837463,2.655142],[101.832951,2.663962],[101.830194,2.667573],[101.794998,2.66814],[101.7938,2.67252],[101.791801,2.676889],[101.782097,2.7121],[101.777199,2.716701],[101.772499,2.71785],[101.760114,2.718337]],[[101.986378,2.627246],[101.983301,2.623554],[101.982481,2.615349],[101.991301,2.614529],[101.993352,2.606324],[101.992942,2.598325],[101.984942,2.59853],[101.983917,2.587453],[101.98443,2.570838]],[[101.98443,2.570838],[101.966644,2.571694],[101.976287,2.553683],[101.9681,2.552773],[101.967918,2.543312],[101.952631,2.5426]],[[101.952631,2.5426],[101.936984,2.54134],[101.94024,2.558733],[101.939935,2.561842],[101.928577,2.572918],[101.929559,2.583715],[101.931016,2.599964],[101.932083,2.603345],[101.926474,2.603415]],[[101.926474,2.603415],[101.926614,2.610215],[101.908623,2.608529],[101.908798,2.613969],[101.908244,2.624637],[101.890414,2.623545]],[[101.890414,2.66357],[101.904972,2.661577],[101.905976,2.6665],[101.916869,2.665885],[101.916886,2.660114],[101.917795,2.654838],[101.922889,2.651745],[101.923799,2.647196],[101.933078,2.644103],[101.941629,2.640647],[101.945813,2.64283],[101.94454,2.649743],[101.9389,2.652836],[101.931986,2.653746],[101.930895,2.659386],[101.928347,2.665754],[101.935586,2.665577],[101.935586,2.671115],[101.944304,2.671013],[101.945227,2.667628],[101.960368,2.666299]],[[101.960368,2.666299],[101.963815,2.664372],[101.96361,2.657398],[101.970584,2.655757],[101.973251,2.64222],[101.979404,2.64263],[101.984942,2.637912],[101.986378,2.627246]],[[101.929202,2.747393],[101.927561,2.74083],[101.93474,2.737855],[101.937509,2.734881],[101.932945,2.73001],[101.935714,2.722625],[101.934022,2.719036],[101.934689,2.714882],[101.937176,2.714805],[101.937381,2.711113],[101.933996,2.710395],[101.935125,2.705267],[101.930356,2.705062],[101.931176,2.700242],[101.934458,2.699986],[101.93492,2.696806],[101.941586,2.697986],[101.946791,2.705806],[101.950124,2.705601],[101.951765,2.707703],[101.956894,2.706515]],[[101.956894,2.706515],[101.956123,2.703242],[101.960744,2.700648],[101.969841,2.693371],[101.97092,2.688313],[101.968737,2.677943],[101.963482,2.670603],[101.960368,2.666299]],[[101.943509,2.750573],[101.942381,2.743547],[101.94156,2.737291],[101.941765,2.732266],[101.946073,2.728471],[101.947314,2.725746],[101.947303,2.723343],[101.947816,2.718215],[101.952226,2.717497],[101.954585,2.714523],[101.957047,2.713703],[101.958277,2.710882],[101.956894,2.706515]],[[102.056297,2.77259],[102.056099,2.764759],[102.055,2.753361],[102.056198,2.74347],[102.055496,2.72781],[102.0504,2.707881],[102.049599,2.697411],[102.052818,2.689281]],[[102.052818,2.689281],[102.044803,2.685154],[102.040401,2.680653],[102.030145,2.667936],[102.026453,2.659526],[102.025676,2.649907],[102.025735,2.640963],[102.02594,2.627528],[102.010069,2.62622],[101.991198,2.6254],[101.987917,2.625195],[101.986378,2.627246]],[[102.088219,2.566121],[102.082561,2.56583],[102.075177,2.565009],[102.072715,2.558856],[102.066562,2.55824],[102.061024,2.551882],[102.057246,2.548789],[102.053438,2.550905],[102.046407,2.556606],[102.043132,2.56079],[102.043973,2.564716],[102.031595,2.573331],[102.011309,2.575333],[102.011497,2.56956],[101.98443,2.570838]],[[102.052818,2.689281],[102.055801,2.688091],[102.062698,2.68741],[102.070999,2.687879],[102.074699,2.68973],[102.0784,2.69399],[102.081802,2.703211],[102.086098,2.709091],[102.091698,2.71117],[102.095497,2.71037],[102.1007,2.707489],[102.109398,2.70843],[102.111198,2.709351],[102.113602,2.70936],[102.117897,2.705449],[102.123299,2.69809],[102.125702,2.689691],[102.124001,2.68496],[102.120458,2.67811]],[[102.120458,2.67811],[102.115402,2.669521],[102.114998,2.66308],[102.119328,2.646799],[102.121696,2.636489]],[[102.121696,2.636489],[102.118268,2.631964],[102.107602,2.629502],[102.104936,2.624169],[102.108634,2.620677],[102.108816,2.613581],[102.106997,2.609033],[102.101721,2.601938],[102.101962,2.597504],[102.100936,2.593915],[102.096321,2.591145],[102.096834,2.585607],[102.093842,2.579572],[102.097534,2.572598],[102.095483,2.56747],[102.088219,2.566121]],[[102.19475,2.843726],[102.193867,2.839693],[102.193553,2.835397],[102.19115,2.830949],[102.19115,2.826583],[102.191696,2.821307],[102.191696,2.816394],[102.182417,2.808389],[102.178779,2.803295],[102.178597,2.796018],[102.17514,2.791833],[102.174958,2.788741],[102.18078,2.78583],[102.188603,2.786193],[102.191696,2.780554],[102.188421,2.773094],[102.190423,2.769456],[102.196244,2.764361],[102.197518,2.760177],[102.191332,2.757812],[102.186966,2.755447],[102.181326,2.746532],[102.193301,2.747169],[102.193362,2.734704],[102.204845,2.733948],[102.205224,2.720839]],[[102.205224,2.720839],[102.202066,2.718696],[102.199546,2.710252],[102.210197,2.710293],[102.206621,2.705806],[102.19662,2.701773],[102.187342,2.697043],[102.186991,2.690593],[102.17339,2.683302],[102.176475,2.679516],[102.15989,2.677823],[102.13343,2.677618],[102.120458,2.67811]],[[102.413577,2.804481],[102.434029,2.791048],[102.461514,2.77669],[102.467668,2.764793],[102.47095,2.755358],[102.462335,2.736897],[102.454335,2.695669],[102.461161,2.68687]],[[102.461161,2.68687],[102.428001,2.68759],[102.424009,2.682973]],[[102.424009,2.682973],[102.345379,2.591747]],[[102.345379,2.591747],[102.341574,2.640384],[102.336698,2.643594],[102.339302,2.64693],[102.340623,2.64954],[102.34419,2.659172],[102.344547,2.663929],[102.35299,2.673799],[102.354417,2.682361],[102.351563,2.692944],[102.353109,2.698652],[102.372254,2.70983],[102.350024,2.717652],[102.349162,2.71659],[102.340547,2.716898],[102.33456,2.717024],[102.333675,2.720693],[102.326009,2.725757],[102.326086,2.717719],[102.317822,2.718662],[102.315639,2.723392],[102.308788,2.722866],[102.2986,2.721411],[102.288293,2.72018]],[[102.288293,2.72018],[102.282126,2.720213],[102.276122,2.720395],[102.267334,2.719372],[102.260667,2.719438],[102.257841,2.722615],[102.257659,2.72498],[102.257449,2.729046],[102.258851,2.739422],[102.258781,2.744049],[102.253593,2.748536],[102.246227,2.752133],[102.243885,2.756075],[102.239988,2.766331],[102.238142,2.769613],[102.23486,2.768588],[102.229937,2.77269],[102.225425,2.770844],[102.220912,2.776587],[102.217425,2.778228],[102.214143,2.77269],[102.210451,2.768382],[102.213528,2.764075],[102.215579,2.734538],[102.213938,2.728795],[102.208794,2.723894],[102.205224,2.720839]],[[102.288293,2.72018],[102.289137,2.708715],[102.287499,2.703621],[102.279576,2.695566],[102.276426,2.694808],[102.274243,2.692079],[102.266334,2.690087],[102.2605,2.691464],[102.257731,2.69454],[102.253218,2.693207],[102.250922,2.699672],[102.248193,2.701309],[102.24601,2.701127],[102.238135,2.698274],[102.234132,2.695181],[102.227582,2.689723],[102.220123,2.685903],[102.21272,2.680568],[102.204518,2.68905],[102.201152,2.687868],[102.19887,2.683763],[102.192776,2.676122],[102.188136,2.669755],[102.185316,2.668208],[102.180966,2.67008],[102.172248,2.663927],[102.16924,2.659142],[102.165138,2.658219],[102.163189,2.655347],[102.160933,2.620785]],[[102.160933,2.620785],[102.157431,2.620664],[102.15307,2.622903],[102.145686,2.622596],[102.140865,2.624749],[102.13478,2.638117],[102.121696,2.636489]],[[102.345379,2.591747],[102.327599,2.571511],[102.324218,2.566048],[102.328129,2.566552],[102.325897,2.54065],[102.320141,2.538582],[102.237543,2.546405],[102.221897,2.542403],[102.205299,2.540141]],[[102.205299,2.540141],[102.188599,2.562449],[102.184502,2.56394],[102.181702,2.565891],[102.179398,2.569],[102.1791,2.57429],[102.178299,2.57625],[102.177902,2.582],[102.1772,2.585229],[102.176903,2.58845],[102.175697,2.59167],[102.171898,2.595921],[102.166298,2.601329],[102.165802,2.604901],[102.1651,2.60731],[102.162762,2.613058],[102.167729,2.618274],[102.165325,2.622185],[102.160933,2.620785]],[[101.795225,2.572539],[101.79149,2.577017],[101.788128,2.578323],[101.783085,2.576457],[101.780657,2.588212],[101.761233,2.6009],[101.746664,2.602579],[101.731909,2.596049],[101.729294,2.59325],[101.7151,2.594183],[101.710057,2.600713],[101.702399,2.604072],[101.702399,2.608549],[101.72145,2.621423],[101.725372,2.620304],[101.728361,2.616572],[101.730042,2.623849],[101.724252,2.635976],[101.731349,2.647917],[101.740501,2.651648],[101.746851,2.655753],[101.744049,2.665268],[101.739754,2.668067],[101.73882,2.67385],[101.74573,2.682433],[101.75152,2.682433],[101.751894,2.685977],[101.750213,2.688403],[101.754322,2.698291],[101.760485,2.700903],[101.760114,2.718337]],[[101.926474,2.603415],[101.913014,2.599559],[101.897853,2.600905],[101.893941,2.599722],[101.887187,2.600084],[101.882546,2.595118],[101.87488,2.586854],[101.868932,2.586649],[101.861445,2.588392],[101.859804,2.581213],[101.859804,2.574444],[101.867598,2.573727],[101.868009,2.569009],[101.863188,2.565727],[101.862778,2.549523],[101.862778,2.546036],[101.851907,2.5446],[101.843292,2.545626],[101.840701,2.550908],[101.824236,2.552],[101.819142,2.553364],[101.813684,2.555274],[101.810409,2.559095],[101.802677,2.570102],[101.799857,2.571921],[101.795225,2.572539]],[[101.956259,2.484169],[101.93733,2.48166],[101.935329,2.475474],[101.922441,2.474462],[101.921236,2.466758],[101.914673,2.466655],[101.914262,2.462451],[101.905135,2.462553],[101.903532,2.476199],[101.901531,2.478382],[101.901895,2.483294],[101.894981,2.489116],[101.894618,2.498576],[101.885854,2.50132],[101.885443,2.509115],[101.884008,2.519576],[101.857419,2.519319],[101.856086,2.522909],[101.847676,2.517678],[101.839677,2.516755],[101.838651,2.519729],[101.831985,2.522499],[101.825421,2.522704],[101.824601,2.517781],[101.822307,2.516563]],[[101.822307,2.516563],[101.817451,2.521601],[101.803817,2.52272],[101.795972,2.518615],[101.789248,2.521974],[101.789248,2.531863],[101.798027,2.541752],[101.798214,2.545857],[101.795972,2.551642],[101.791676,2.551642],[101.79261,2.556493],[101.79728,2.559665],[101.795225,2.572539]],[[101.952631,2.5426],[101.95344,2.537831],[101.950202,2.527031],[101.952473,2.519972],[101.959539,2.516946],[101.963347,2.511133],[101.96171,2.484571],[101.956259,2.484169]],[[101.956259,2.484169],[101.959287,2.435758],[101.971387,2.427888],[101.979797,2.422966],[101.987592,2.420914],[101.997232,2.411889],[101.999694,2.406146],[102.000001,2.403505]],[[102.000001,2.403505],[101.993951,2.399751],[101.984332,2.398164],[101.976675,2.389674],[101.969484,2.400124],[101.960892,2.403296],[101.955476,2.401803],[101.940161,2.413186],[101.940534,2.417292],[101.936425,2.42233],[101.930822,2.424569],[101.905941,2.419205],[101.895335,2.416919],[101.878713,2.419531],[101.871428,2.414679],[101.864564,2.417665],[101.860742,2.414811],[101.858927,2.409489],[101.855968,2.406817],[101.857874,2.404406],[101.854744,2.403887],[101.853404,2.402702],[101.850903,2.406006],[101.847662,2.411694],[101.855179,2.418598],[101.857234,2.42401],[101.8563,2.432593],[101.853498,2.446402],[101.854992,2.45368],[101.851817,2.46133],[101.848082,2.461517],[101.846588,2.48111],[101.839677,2.48876],[101.836502,2.500516],[101.829405,2.507046],[101.822307,2.516563]],[[102.088219,2.566121],[102.091603,2.555968],[102.091087,2.540401],[102.094726,2.53458],[102.095999,2.52712],[102.093452,2.519479],[102.099456,2.507653],[102.105824,2.498921],[102.107461,2.489824],[102.112737,2.486913],[102.118923,2.484002],[102.127474,2.471267],[102.141502,2.456945]],[[102.141502,2.456945],[102.12161,2.46273],[102.088458,2.447148],[102.087042,2.449186],[102.083789,2.453866],[102.076691,2.454239],[102.069688,2.457505],[102.064364,2.457785],[102.060442,2.45088],[102.06259,2.448361],[102.059322,2.444256],[102.060722,2.44211],[102.062777,2.44267],[102.064364,2.444163],[102.064831,2.442483],[102.063244,2.440524],[102.062497,2.436699],[102.059602,2.434459],[102.056894,2.435579],[102.050917,2.43306],[102.050637,2.430261],[102.048769,2.427648],[102.051944,2.42345],[102.050076,2.420651],[102.047275,2.419624],[102.044193,2.42121],[102.040738,2.421024],[102.034574,2.426249],[102.035321,2.430914],[102.038216,2.43418],[102.030092,2.439778],[102.026917,2.433526],[102.02729,2.427648],[102.017671,2.417665],[102.011601,2.408708],[102.005531,2.407215],[102.000001,2.403505]],[[102.205299,2.540141],[102.199501,2.53644],[102.197502,2.532871],[102.196198,2.52942],[102.194698,2.523936],[102.19488,2.518297],[102.19961,2.512839],[102.203249,2.509928],[102.205614,2.505197],[102.20525,2.495009],[102.208366,2.481483]],[[102.208366,2.481483],[102.20227,2.48368],[102.193611,2.486801],[102.19249,2.490533],[102.176241,2.499489],[102.141502,2.456945]],[[102.414283,2.478497],[102.365068,2.495198],[102.331823,2.488573],[102.31988,2.482026],[102.277192,2.458624],[102.271051,2.459676],[102.231433,2.466462],[102.208366,2.481483]],[[102.424009,2.682973],[102.481971,2.587249],[102.498846,2.56824],[102.492436,2.563522],[102.487308,2.560548],[102.485354,2.554144],[102.485718,2.548686],[102.485357,2.541907],[102.431757,2.539219],[102.431939,2.534671],[102.43576,2.529394],[102.439567,2.517986],[102.446131,2.51614],[102.439875,2.509884],[102.427564,2.50913],[102.424547,2.491118],[102.424183,2.487116],[102.414235,2.480655],[102.414283,2.478497]],[[102.461161,2.68687],[102.536201,2.68509],[102.542,2.68429],[102.544296,2.68349],[102.546799,2.68119],[102.550102,2.67544],[102.560097,2.66659],[102.567703,2.658431],[102.570396,2.657861],[102.572998,2.658091],[102.577918,2.663465],[102.581115,2.663246],[102.583114,2.661746],[102.586584,2.656491],[102.593278,2.650694],[102.602898,2.647201],[102.628496,2.639868]],[[102.628496,2.639868],[102.625435,2.631085],[102.627303,2.615599],[102.638509,2.610374],[102.638883,2.602538],[102.632719,2.589664],[102.625248,2.589291],[102.623568,2.584999],[102.616657,2.582014],[102.606945,2.567274],[102.612174,2.554026],[102.608439,2.545817],[102.611988,2.529023],[102.619085,2.520067],[102.612548,2.51279],[102.606384,2.510364],[102.60433,2.501781],[102.614976,2.481442],[102.615536,2.468007],[102.608812,2.467261],[102.594805,2.456251],[102.590696,2.420983],[102.594057,2.419863],[102.594057,2.410906],[102.585553,2.415706],[102.563047,2.419158],[102.525599,2.432407],[102.465777,2.450308],[102.429878,2.46105],[102.431559,2.471127],[102.414283,2.478497]],[[102.473041,3.014522],[102.550939,2.962903],[102.667459,2.885687],[102.679039,2.896506],[102.69174,2.880091],[102.69809,2.833456],[102.70258,2.831474],[102.631593,2.648757],[102.628496,2.639868]]],"bbox":[101.702399,2.389674,102.70258,3.287784]}
