{"type":"Topology","objects":{"PLS_SE-09":{"type":"GeometryCollection","geometries":[{"type":"Polygon","arcs":[[0,1,2]],"properties":{"state":"Perlis","parlimen":"P.001 Padang Besar","code_parlimen":"P.001","dun":"N.01 Titi Tinggi","code_dun":"N.01"}},{"type":"Polygon","arcs":[[3,4,-3,5,6]],"properties":{"state":"Perlis","parlimen":"P.001 Padang Besar","code_parlimen":"P.001","dun":"N.02 Beseri","code_dun":"N.02"}},{"type":"Polygon","arcs":[[7,-6,-2,8,9,10]],"properties":{"state":"Perlis","parlimen":"P.001 Padang Besar","code_parlimen":"P.001","dun":"N.03 Chuping","code_dun":"N.03"}},{"type":"Polygon","arcs":[[-11,11,12,13,14]],"properties":{"state":"Perlis","parlimen":"P.001 Padang Besar","code_parlimen":"P.001","dun":"N.04 Mata Ayer","code_dun":"N.04"}},{"type":"Polygon","arcs":[[15,16,-7,-8,-15]],"properties":{"state":"Perlis","parlimen":"P.001 Padang Besar","code_parlimen":"P.001","dun":"N.05 Santan","code_dun":"N.05"}},{"type":"Polygon","arcs":[[17,18,19,-4,-17,20,21]],"properties":{"state":"Perlis","parlimen":"P.002 Kangar","code_parlimen":"P.002","dun":"N.06 Bintong","code_dun":"N.06"}},{"type":"Polygon","arcs":[[22,-21,-16,-14,23]],"properties":{"state":"Perlis","parlimen":"P.002 Kangar","code_parlimen":"P.002","dun":"N.07 Sena","code_dun":"N.07"}},{"type":"Polygon","arcs":[[24,25,-22,-23]],"properties":{"state":"Perlis","parlimen":"P.002 Kangar","code_parlimen":"P.002","dun":"N.08 Indera Kayangan","code_dun":"N.08"}},{"type":"Polygon","arcs":[[26,27,28,-19]],"properties":{"state":"Perlis","parlimen":"P.002 Kangar","code_parlimen":"P.002","dun":"N.09 Kuala Perlis","code_dun":"N.09"}},{"type":"Polygon","arcs":[[-27,-18,-26,29,30]],"properties":{"state":"Perlis","parlimen":"P.002 Kangar","code_parlimen":"P.002","dun":"N.10 Kayang","code_dun":"N.10"}},{"type":"Polygon","arcs":[[-12,-10,31,32,33]],"properties":{"state":"Perlis","parlimen":"P.003 Arau","code_parlimen":"P.003","dun":"N.11 Pauh","code_dun":"N.11"}},{"type":"Polygon","arcs":[[34,-30,-25,-24,-13,-34,35]],"properties":{"state":"Perlis","parlimen":"P.003 Arau","code_parlimen":"P.003","dun":"N.12 Tambun Tulang","code_dun":"N.12"}},{"type":"Polygon","arcs":[[-33,36,37,38,-36]],"properties":{"state":"Perlis","parlimen":"P.003 Arau","code_parlimen":"P.003","dun":"N.13 Guar Sanji","code_dun":"N.13"}},{"type":"Polygon","arcs":[[39,-28,-31,-35,-39,40]],"properties":{"state":"Perlis","parlimen":"P.003 Arau","code_parlimen":"P.003","dun":"N.14 Simpang Empat","code_dun":"N.14"}},{"type":"Polygon","arcs":[[-38,41,-41]],"properties":{"state":"Perlis","parlimen":"P.003 Arau","code_parlimen":"P.003","dun":"N.15 Sanglang","code_dun":"N.15"}}]}},"arcs":[[[100.228899,6.693361],[100.231191,6.695058],[100.240729,6.692378],[100.243428,6.69345],[100.244148,6.696488],[100.246667,6.695416],[100.249186,6.69756],[100.250985,6.703458],[100.253145,6.703994],[100.252785,6.707926],[100.257284,6.711321],[100.261602,6.70739],[100.264121,6.699169],[100.266641,6.699169],[100.26952,6.703101],[100.274918,6.70453],[100.274918,6.706318],[100.284275,6.708998],[100.285535,6.707747],[100.290213,6.710785],[100.295432,6.704888],[100.291113,6.698275],[100.290753,6.69059],[100.294352,6.680046],[100.298311,6.67808],[100.30047,6.680403],[100.30281,6.680046],[100.305689,6.668429],[100.311987,6.666463],[100.315836,6.667717],[100.317064,6.666611],[100.318969,6.664543],[100.321524,6.66539],[100.325521,6.665485],[100.327282,6.664318],[100.325843,6.660207],[100.323323,6.656096],[100.319725,6.654666],[100.322424,6.649662],[100.321704,6.641976],[100.317925,6.640189],[100.316845,6.635005],[100.320984,6.635899],[100.326023,6.622851],[100.317025,6.613914],[100.310367,6.610875],[100.305689,6.610696],[100.305509,6.606585],[100.312355,6.603405],[100.315938,6.604101],[100.317025,6.601937],[100.317638,6.600293],[100.317494,6.598716],[100.317832,6.59718]],[[100.317832,6.59718],[100.316842,6.597173],[100.276329,6.593587],[100.263185,6.592522],[100.262458,6.589216],[100.262192,6.583646],[100.261393,6.578671],[100.259735,6.574085]],[[100.259735,6.574085],[100.258895,6.575293],[100.25652,6.578241],[100.255189,6.580289],[100.254247,6.582418],[100.252609,6.587271],[100.254043,6.589052],[100.254187,6.590717],[100.253613,6.593397],[100.251094,6.596976],[100.246242,6.598573],[100.241676,6.595993],[100.236475,6.594785],[100.232728,6.59372],[100.230312,6.591918],[100.230353,6.593069],[100.232298,6.594754],[100.232319,6.596454],[100.233031,6.596713],[100.23317,6.597549],[100.233977,6.597498],[100.234714,6.599013],[100.234919,6.600589],[100.235554,6.60149],[100.235398,6.6027],[100.236577,6.604664],[100.236823,6.606077],[100.238402,6.608651],[100.23901,6.612158],[100.239567,6.613202],[100.239636,6.615012],[100.240877,6.616171],[100.241102,6.617133],[100.242945,6.617645],[100.245034,6.617891],[100.245934,6.618751],[100.246477,6.619721],[100.246825,6.620765],[100.246549,6.622231],[100.245433,6.623898],[100.245607,6.625364],[100.246651,6.627043],[100.246651,6.628435],[100.222941,6.628394],[100.208445,6.628394],[100.20865,6.630176],[100.209837,6.632633],[100.20996,6.633902],[100.212048,6.637792],[100.211721,6.639676],[100.212458,6.640905],[100.213932,6.641765],[100.212417,6.643525],[100.212376,6.645041],[100.212376,6.648562],[100.211803,6.649873],[100.210288,6.651019],[100.209346,6.654909],[100.20951,6.659373],[100.209387,6.659905],[100.20951,6.668873],[100.207994,6.672682],[100.20738,6.675794],[100.207585,6.678742],[100.209591,6.680872],[100.212048,6.681281],[100.214833,6.680176],[100.216307,6.680585],[100.218355,6.682305],[100.221262,6.683042],[100.224006,6.685376],[100.225111,6.68726],[100.228428,6.691519],[100.228899,6.693361]],[[100.185399,6.509829],[100.178105,6.563104],[100.177043,6.571121]],[[100.177043,6.571121],[100.178975,6.573295],[100.181776,6.572281],[100.183467,6.572715],[100.183177,6.575565],[100.185109,6.578173],[100.183506,6.57995],[100.181707,6.582453],[100.180807,6.587816],[100.178108,6.591748],[100.178108,6.596039],[100.180267,6.597469],[100.180447,6.60015],[100.178108,6.604797],[100.176128,6.604261],[100.16947,6.609266],[100.165511,6.631609],[100.16875,6.632861],[100.168314,6.638663],[100.169133,6.642799],[100.168355,6.647672],[100.171958,6.650374],[100.174825,6.650251],[100.181347,6.65556],[100.178647,6.667714],[100.180494,6.67522],[100.179187,6.682727],[100.175228,6.682905],[100.17109,6.693271],[100.178288,6.696131],[100.185665,6.717576],[100.20438,6.726869],[100.20474,6.723474],[100.206539,6.720793],[100.211218,6.721508],[100.214457,6.719721],[100.215176,6.71293],[100.218235,6.710785],[100.217876,6.703637],[100.221627,6.700099],[100.224211,6.697579],[100.226934,6.696371],[100.228899,6.693361]],[[100.259735,6.574085],[100.258477,6.56908],[100.25955,6.546792],[100.260001,6.541345],[100.256274,6.522263],[100.255291,6.516612],[100.250541,6.514687]],[[100.250541,6.514687],[100.243986,6.514393],[100.23877,6.514683],[100.230559,6.515021],[100.23109,6.518933],[100.230221,6.520527],[100.230173,6.525502],[100.229738,6.530429],[100.221913,6.530332],[100.202883,6.530091],[100.202787,6.529125],[100.204864,6.52584],[100.204236,6.525212],[100.203559,6.526178],[100.202932,6.526806],[100.201289,6.526517],[100.200855,6.527193],[100.201289,6.528593],[100.200468,6.528883],[100.199454,6.528304],[100.198536,6.528883],[100.197908,6.5284],[100.197957,6.526758],[100.196363,6.523957],[100.194527,6.522556],[100.193272,6.519416],[100.191098,6.51618],[100.19076,6.513572],[100.189746,6.511978],[100.186751,6.510529],[100.185399,6.509829]],[[100.248166,6.503446],[100.250202,6.506985],[100.250846,6.507734],[100.251142,6.50876],[100.251934,6.511616],[100.250541,6.514687]],[[100.317832,6.59718],[100.319545,6.593],[100.324943,6.588531],[100.325483,6.585492],[100.33394,6.585313],[100.341498,6.580487],[100.341318,6.575839],[100.345097,6.571906],[100.350855,6.573515],[100.353914,6.568152],[100.353014,6.562432],[100.359672,6.557247],[100.358233,6.554923],[100.360932,6.546342],[100.363271,6.545449],[100.366761,6.539764],[100.36714,6.539147],[100.370739,6.532175],[100.366609,6.488412]],[[100.366609,6.488412],[100.365516,6.48842],[100.36228,6.488941],[100.356028,6.487186],[100.349175,6.487667],[100.34736,6.485951],[100.346097,6.485815],[100.346024,6.487426],[100.343788,6.48745],[100.342321,6.48644],[100.340854,6.486537],[100.340542,6.48519],[100.339031,6.484538],[100.339964,6.483338],[100.337872,6.482761],[100.33691,6.481895],[100.335251,6.481198],[100.335107,6.479707],[100.334025,6.478433],[100.333135,6.476797],[100.331307,6.476773],[100.330249,6.475451],[100.330466,6.473984],[100.32734,6.474248],[100.325608,6.475234],[100.322242,6.474753],[100.32253,6.473431],[100.321761,6.471916],[100.320126,6.47093],[100.320174,6.4698],[100.318346,6.469896],[100.318516,6.46883],[100.316086,6.467756],[100.315124,6.466914],[100.313513,6.465856],[100.313392,6.463956],[100.310483,6.463091],[100.309761,6.463644],[100.30827,6.463403],[100.306876,6.462634],[100.306491,6.46398],[100.303269,6.462441],[100.302499,6.461239],[100.300479,6.460349],[100.297978,6.460325],[100.295381,6.458233],[100.294082,6.45691],[100.289562,6.457488],[100.287397,6.457536],[100.284933,6.458494],[100.281223,6.459445],[100.28111,6.460746],[100.279831,6.461554]],[[100.279831,6.461554],[100.280869,6.4632],[100.281648,6.464759],[100.283986,6.464035],[100.28716,6.463311],[100.288607,6.464258],[100.288886,6.465817],[100.287605,6.468099],[100.284877,6.469102],[100.28471,6.469825],[100.28716,6.473834],[100.288552,6.477843],[100.288774,6.479568],[100.288329,6.483243],[100.286937,6.483688],[100.285267,6.483076],[100.284487,6.482464],[100.28098,6.482965],[100.28098,6.484468],[100.280033,6.484357],[100.278753,6.483187],[100.276303,6.48419],[100.273575,6.484357],[100.271738,6.484858],[100.271682,6.486138],[100.270847,6.486584],[100.270736,6.488365],[100.268286,6.489534],[100.266003,6.489757],[100.266059,6.491706],[100.264939,6.49267],[100.261179,6.492531],[100.261168,6.494888],[100.25912,6.499003],[100.25912,6.502309],[100.259431,6.504043],[100.260272,6.505919],[100.260465,6.509333],[100.259647,6.50866],[100.258517,6.508636],[100.257843,6.509261],[100.256425,6.507578],[100.254693,6.506424],[100.255318,6.505534],[100.254549,6.505173],[100.254621,6.504596],[100.256136,6.504211],[100.25616,6.503562],[100.254862,6.502889],[100.255102,6.501903],[100.254357,6.501806],[100.253264,6.500969],[100.251586,6.502545],[100.249907,6.50232],[100.248166,6.503446]],[[100.279831,6.461554],[100.276413,6.460751],[100.273883,6.460349],[100.271622,6.46095],[100.269122,6.462537],[100.268187,6.46312],[100.267198,6.46297],[100.266765,6.46206],[100.266933,6.461022],[100.265899,6.459411],[100.264553,6.459339],[100.262893,6.460926],[100.26097,6.45893],[100.259238,6.45881]],[[100.259238,6.45881],[100.257927,6.459449],[100.25618,6.464901],[100.255365,6.464482],[100.254013,6.462478],[100.25194,6.460708],[100.249144,6.461733],[100.244507,6.464901]],[[100.244507,6.464901],[100.242597,6.465717],[100.242783,6.466812],[100.241851,6.468373],[100.240803,6.468163],[100.239871,6.469002],[100.239032,6.468815],[100.237355,6.469864]],[[100.237355,6.469864],[100.237298,6.471349],[100.236835,6.472293],[100.237216,6.473154],[100.238325,6.473501],[100.238093,6.474246],[100.237033,6.474313],[100.237166,6.47524],[100.236636,6.475704],[100.235245,6.474909],[100.234185,6.475969],[100.234119,6.477691],[100.235179,6.478684],[100.233457,6.479015],[100.233987,6.481068],[100.233921,6.483718],[100.235709,6.486963],[100.235659,6.487708],[100.234417,6.488553],[100.234997,6.490192],[100.23604,6.49352],[100.237762,6.493387],[100.240477,6.493056],[100.242729,6.494845],[100.242531,6.497494],[100.242663,6.499348],[100.244782,6.499282],[100.244915,6.501335],[100.247101,6.501203],[100.248166,6.503446]],[[100.237355,6.469864],[100.236563,6.469281],[100.237724,6.467634],[100.236819,6.46772],[100.236516,6.466858],[100.2357,6.467208],[100.235165,6.466439],[100.234396,6.466672],[100.234023,6.465577],[100.233068,6.465973],[100.232835,6.464459],[100.232159,6.46376],[100.23146,6.463969],[100.230934,6.465029],[100.230505,6.466812],[100.228711,6.46814],[100.226171,6.469491],[100.225286,6.468955],[100.223522,6.470358],[100.221558,6.470493],[100.220159,6.471486],[100.21736,6.471734],[100.215036,6.473382],[100.214033,6.473801],[100.212837,6.47432],[100.211629,6.47454]],[[100.211629,6.47454],[100.214293,6.483063],[100.213805,6.486266],[100.214554,6.489868],[100.214536,6.492844],[100.215007,6.497078],[100.215973,6.498406],[100.215828,6.500048],[100.215079,6.501352],[100.209476,6.503767],[100.207039,6.503748],[100.195735,6.507462],[100.185399,6.509829]],[[100.182095,6.434255],[100.179573,6.4335],[100.179593,6.435565],[100.178184,6.43489],[100.178243,6.433322],[100.177588,6.432905],[100.176933,6.434175],[100.174768,6.433699],[100.172564,6.432249],[100.17038,6.432865],[100.169387,6.432507],[100.168196,6.433778],[100.167044,6.433792],[100.167501,6.431098],[100.166349,6.4308],[100.165336,6.432329],[100.164482,6.43211],[100.165157,6.430383],[100.164304,6.42939],[100.162755,6.429807],[100.161504,6.42933],[100.163033,6.427901],[100.162576,6.427047],[100.161504,6.427702],[100.159002,6.429767],[100.158426,6.431932],[100.160154,6.433679],[100.159061,6.43489],[100.157791,6.434235],[100.156262,6.432607]],[[100.156262,6.432607],[100.154673,6.438623],[100.154197,6.440688],[100.153859,6.442337],[100.15372,6.444779],[100.152637,6.446539],[100.15237,6.451371],[100.149034,6.452404],[100.147427,6.4523]],[[100.147427,6.4523],[100.145836,6.456646],[100.144908,6.459184],[100.144278,6.464011],[100.145358,6.469018],[100.146977,6.468392],[100.151296,6.471878],[100.150576,6.47608],[100.152915,6.477153],[100.153815,6.478762],[100.155345,6.477421],[100.157684,6.478673],[100.158404,6.480461],[100.156244,6.483053],[100.154085,6.483053],[100.154355,6.486897],[100.159663,6.487702],[100.159843,6.49691],[100.159933,6.503435],[100.157594,6.507994],[100.158314,6.50871],[100.157036,6.514953],[100.154175,6.522565],[100.156334,6.522386],[100.157144,6.533381],[100.155704,6.537493],[100.156202,6.542395],[100.154018,6.548749],[100.153095,6.555549],[100.153995,6.559303],[100.157594,6.560465],[100.159573,6.563057],[100.158224,6.568867],[100.159213,6.570655],[100.156244,6.575035],[100.156874,6.580397],[100.162992,6.57566],[100.163082,6.571996],[100.165871,6.570119],[100.167941,6.57137],[100.169363,6.573633],[100.170039,6.574792],[100.172889,6.573158],[100.174048,6.571121],[100.174386,6.56832],[100.17627,6.566243],[100.177043,6.571121]],[[100.211629,6.47454],[100.209378,6.471387],[100.208664,6.467019],[100.200602,6.44734]],[[100.200602,6.44734],[100.19663,6.445613],[100.189502,6.442337],[100.188866,6.44321],[100.188787,6.444839],[100.187615,6.445057],[100.183068,6.444302],[100.183088,6.440252],[100.18422,6.439398],[100.183674,6.43772],[100.183575,6.435595],[100.182095,6.434255]],[[100.212635,6.409632],[100.209627,6.410764],[100.210163,6.413445],[100.208538,6.413941],[100.208852,6.415311],[100.208356,6.41692],[100.207045,6.417794],[100.206926,6.418608],[100.205616,6.418945],[100.205973,6.420276],[100.205099,6.420951],[100.20496,6.422242],[100.202935,6.42528],[100.204385,6.426173],[100.203956,6.427392],[100.203928,6.431276],[100.202319,6.431807],[100.200832,6.433016],[100.200652,6.434388],[100.198953,6.436234],[100.197891,6.436447],[100.197385,6.437133],[100.196025,6.437591],[100.19668,6.438445],[100.196899,6.439914],[100.197653,6.441522],[100.198348,6.443012],[100.200602,6.44734]],[[100.244507,6.464901],[100.244515,6.462356],[100.242979,6.460755],[100.24396,6.458664],[100.243469,6.456116],[100.244711,6.454613],[100.244319,6.453306],[100.245168,6.452228],[100.242587,6.448601],[100.240921,6.44468],[100.245136,6.444974],[100.245561,6.444223],[100.244678,6.442851],[100.245266,6.441086],[100.243567,6.441315],[100.243764,6.440139],[100.244548,6.439322],[100.243992,6.437394],[100.241967,6.43612],[100.242163,6.434519],[100.243666,6.43331],[100.242685,6.432461],[100.243012,6.430925],[100.241378,6.427821],[100.241378,6.42658],[100.239189,6.423672],[100.236608,6.422626],[100.234289,6.420895],[100.231773,6.420078],[100.230989,6.418869],[100.230564,6.415634],[100.228277,6.415602],[100.228081,6.414164],[100.227166,6.412792],[100.225728,6.412629],[100.225173,6.411681],[100.225728,6.41093],[100.225333,6.410268],[100.217828,6.409732],[100.217907,6.408878],[100.215067,6.408997],[100.212635,6.409632]],[[100.212635,6.409632],[100.21335,6.399108],[100.209527,6.402484],[100.20639,6.404688],[100.201304,6.406055]],[[100.201304,6.406055],[100.196184,6.406833],[100.193563,6.405343],[100.193268,6.407744],[100.193791,6.41173],[100.193595,6.413168],[100.194118,6.415095],[100.194085,6.418036],[100.194935,6.422349],[100.194706,6.424113],[100.19353,6.425518],[100.192615,6.42725],[100.192615,6.428622],[100.193399,6.429275],[100.191896,6.43215],[100.191439,6.434764],[100.190295,6.435777],[100.189936,6.432738],[100.189413,6.43215],[100.186799,6.432575],[100.185035,6.434078],[100.182095,6.434255]],[[100.156262,6.432607],[100.156706,6.430847],[100.156809,6.428647],[100.155574,6.426795],[100.155239,6.423512],[100.153388,6.421526],[100.151561,6.420775],[100.150593,6.418628],[100.149639,6.414219],[100.14813,6.407547],[100.148249,6.405204],[100.150831,6.397699],[100.151188,6.39333],[100.153293,6.389279],[100.154604,6.385467],[100.157106,6.382806],[100.155815,6.381198],[100.159488,6.377127],[100.158813,6.376353],[100.159746,6.37526],[100.158754,6.374089]],[[100.158754,6.374089],[100.152823,6.371688],[100.149889,6.371147],[100.147316,6.370018],[100.144021,6.370244],[100.142372,6.370733],[100.14118,6.37109],[100.140188,6.371269]],[[100.140188,6.371269],[100.127273,6.396241],[100.121065,6.410726],[100.118906,6.422528],[100.123584,6.422885],[100.124934,6.425478],[100.128443,6.426372],[100.129612,6.428428],[100.133571,6.429233],[100.134831,6.433256],[100.134021,6.439962],[100.13627,6.440498],[100.135101,6.444343],[100.139509,6.448098],[100.141579,6.447561],[100.144368,6.451048],[100.147427,6.4523]],[[100.201304,6.406055],[100.201845,6.394005],[100.202106,6.378845],[100.198643,6.378584],[100.199166,6.374663],[100.199198,6.372768]],[[100.199198,6.372768],[100.198839,6.371853],[100.192697,6.372572],[100.188514,6.372507],[100.185064,6.371329],[100.183058,6.372964],[100.179039,6.379695],[100.179235,6.382505],[100.168258,6.374925],[100.161919,6.370481],[100.16022,6.371723],[100.158754,6.374089]],[[100.366609,6.488412],[100.365959,6.481487],[100.363001,6.453328],[100.355804,6.447606],[100.311999,6.410377]],[[100.311999,6.410377],[100.307605,6.414687],[100.297032,6.424617],[100.289636,6.431366],[100.284555,6.429724],[100.279752,6.428287],[100.279491,6.42698],[100.276583,6.426947],[100.274574,6.426384],[100.273688,6.426243],[100.273103,6.425322],[100.272091,6.426596],[100.269999,6.428001]],[[100.269999,6.428001],[100.267255,6.435744],[100.265067,6.442312],[100.264412,6.444337],[100.263851,6.445929],[100.262452,6.44963],[100.26164,6.452248],[100.260851,6.4544],[100.259238,6.45881]],[[100.216498,6.358858],[100.21627,6.364608],[100.216172,6.37196],[100.206435,6.372384],[100.199198,6.372768]],[[100.269999,6.428001],[100.268987,6.427151],[100.268903,6.424979],[100.268136,6.424166],[100.26817,6.422071],[100.271274,6.416549],[100.271731,6.413707],[100.273528,6.411093],[100.2745,6.40742],[100.2759,6.404622],[100.275292,6.403872],[100.274525,6.40348],[100.27459,6.402435],[100.273316,6.402222],[100.273201,6.401291],[100.273593,6.400409],[100.271698,6.399037],[100.266046,6.397077],[100.264282,6.397077],[100.262354,6.395966],[100.257078,6.396105],[100.249498,6.387642],[100.242832,6.381239],[100.237177,6.376275],[100.235304,6.374469],[100.234627,6.373815],[100.233464,6.373093],[100.216498,6.358858]],[[100.311999,6.410377],[100.310709,6.409492],[100.309738,6.410592],[100.306315,6.408929],[100.304699,6.406479],[100.305239,6.404333],[100.302247,6.403709],[100.290367,6.386694],[100.279507,6.369461],[100.273569,6.366779],[100.266796,6.357634],[100.255929,6.349327],[100.254494,6.348358],[100.249636,6.335124],[100.243158,6.332083],[100.23722,6.324572]],[[100.23722,6.324572],[100.226976,6.338145],[100.219212,6.348436],[100.214337,6.354575],[100.213296,6.356342]],[[100.213296,6.356342],[100.216498,6.358858]],[[100.164615,6.302596],[100.162297,6.30902],[100.159663,6.318088],[100.153568,6.331609],[100.153455,6.33186],[100.147647,6.349512],[100.144728,6.358329],[100.140188,6.371269]],[[100.213296,6.356342],[100.203538,6.348471],[100.196487,6.343682],[100.196536,6.34244],[100.19433,6.341542],[100.191929,6.340512],[100.194183,6.335546],[100.190687,6.33419],[100.188155,6.341002],[100.184545,6.339957],[100.183287,6.340986],[100.182878,6.340104],[100.185884,6.33125],[100.187845,6.324356],[100.173959,6.314816],[100.170038,6.310241],[100.165595,6.303642],[100.164615,6.302596]],[[100.23722,6.324572],[100.231101,6.320458],[100.227514,6.317094],[100.220125,6.307223],[100.217965,6.299532],[100.20411,6.288979],[100.20429,6.285223],[100.201231,6.281646],[100.20393,6.275922],[100.20177,6.265906],[100.193133,6.248018],[100.16893,6.289561],[100.164615,6.302596]]],"bbox":[100.118906,6.248018,100.370739,6.726869]}
