{"type":"Topology","objects":{"PLS_SE-01":{"type":"GeometryCollection","geometries":[{"type":"Polygon","arcs":[[0,1,2,3]],"properties":{"state":"Perlis","parlimen":"P.001 Perlis Utara","code_parlimen":"P.001","dun":"N.01 Kaki Bukit","code_dun":"N.01"}},{"type":"Polygon","arcs":[[-4,4,5,6,7]],"properties":{"state":"Perlis","parlimen":"P.001 Perlis Utara","code_parlimen":"P.001","dun":"N.02 Paya","code_dun":"N.02"}},{"type":"Polygon","arcs":[[-5,-3,8,9,10,11]],"properties":{"state":"Perlis","parlimen":"P.001 Perlis Utara","code_parlimen":"P.001","dun":"N.03 Mata Ayer","code_dun":"N.03"}},{"type":"Polygon","arcs":[[-7,12,13,14,15]],"properties":{"state":"Perlis","parlimen":"P.001 Perlis Utara","code_parlimen":"P.001","dun":"N.04 Bandar Kangar","code_dun":"N.04"}},{"type":"Polygon","arcs":[[-6,-12,16,17,-13]],"properties":{"state":"Perlis","parlimen":"P.001 Perlis Utara","code_parlimen":"P.001","dun":"N.05 Sena","code_dun":"N.05"}},{"type":"Polygon","arcs":[[-16,18,19,20,-1,-8]],"properties":{"state":"Perlis","parlimen":"P.001 Perlis Utara","code_parlimen":"P.001","dun":"N.06 Bintong","code_dun":"N.06"}},{"type":"Polygon","arcs":[[21,-10,22,23]],"properties":{"state":"Perlis","parlimen":"P.002 Perlis Selatan","code_parlimen":"P.002","dun":"N.07 Kurong Anai","code_dun":"N.07"}},{"type":"Polygon","arcs":[[-17,-11,-22,24]],"properties":{"state":"Perlis","parlimen":"P.002 Perlis Selatan","code_parlimen":"P.002","dun":"N.08 Arau","code_dun":"N.08"}},{"type":"Polygon","arcs":[[-24,25,26,27,-14,-18,-25]],"properties":{"state":"Perlis","parlimen":"P.002 Perlis Selatan","code_parlimen":"P.002","dun":"N.09 Hutan Aji","code_dun":"N.09"}},{"type":"Polygon","arcs":[[28,29,30,-19,-15,-28]],"properties":{"state":"Perlis","parlimen":"P.002 Perlis Selatan","code_parlimen":"P.002","dun":"N.10 Kayang","code_dun":"N.10"}},{"type":"Polygon","arcs":[[31,-20,-31]],"properties":{"state":"Perlis","parlimen":"P.002 Perlis Selatan","code_parlimen":"P.002","dun":"N.11 Kuala Perlis","code_dun":"N.11"}},{"type":"Polygon","arcs":[[-27,32,-29]],"properties":{"state":"Perlis","parlimen":"P.002 Perlis Selatan","code_parlimen":"P.002","dun":"N.12 Sanglang","code_dun":"N.12"}}]}},"arcs":[[[100.199994,6.502963],[100.187637,6.512068],[100.183735,6.528326],[100.180483,6.541984],[100.176581,6.556942],[100.175139,6.567348]],[[100.175139,6.567348],[100.176488,6.571102],[100.178468,6.573873],[100.182966,6.574051],[100.183506,6.57995],[100.181707,6.582453],[100.180807,6.587816],[100.178108,6.591748],[100.178108,6.596039],[100.180267,6.597469],[100.180447,6.60015],[100.178108,6.604797],[100.176128,6.604261],[100.16947,6.609266],[100.165511,6.631609],[100.16875,6.632861],[100.166951,6.647875],[100.17091,6.651092],[100.174149,6.650913],[100.181347,6.65556],[100.178647,6.667714],[100.180494,6.67522],[100.179187,6.682727],[100.175228,6.682905],[100.17109,6.693271],[100.178288,6.696131],[100.185665,6.717576],[100.20438,6.726869],[100.20474,6.723474],[100.206539,6.720793],[100.211218,6.721508],[100.214457,6.719721],[100.215176,6.71293],[100.218235,6.710785],[100.217876,6.703637],[100.221627,6.700099],[100.226873,6.697203],[100.228492,6.693271],[100.231191,6.695058],[100.240729,6.692378],[100.243428,6.69345],[100.244148,6.696488],[100.246667,6.695416],[100.249186,6.69756],[100.250985,6.703458],[100.253145,6.703994],[100.252785,6.707926],[100.257284,6.711321],[100.261602,6.70739],[100.264121,6.699169],[100.266641,6.699169],[100.26952,6.703101],[100.274918,6.70453],[100.274918,6.706318],[100.284275,6.708998],[100.285535,6.707747],[100.290213,6.710785],[100.295432,6.704888],[100.291113,6.698275],[100.290753,6.69059],[100.294352,6.680046],[100.298311,6.67808],[100.30047,6.680403],[100.30281,6.680046],[100.305689,6.668429],[100.311987,6.666463],[100.315406,6.667714],[100.318285,6.664318],[100.321524,6.66539],[100.327282,6.664318],[100.325843,6.660207],[100.323323,6.656096],[100.319725,6.654666],[100.322424,6.649662],[100.321704,6.641976],[100.317925,6.640189],[100.316845,6.635005],[100.320984,6.635899],[100.326023,6.622851],[100.317025,6.613914],[100.310367,6.610875],[100.305689,6.610696],[100.305509,6.606585],[100.311447,6.603546]],[[100.311447,6.603546],[100.296034,6.599078],[100.280689,6.595132],[100.264467,6.592063],[100.259644,6.575402],[100.260521,6.558303],[100.260082,6.544711],[100.259205,6.529804],[100.255698,6.515774]],[[100.255698,6.515774],[100.239665,6.514669],[100.226658,6.514669],[100.213001,6.515319],[100.201945,6.514669],[100.199994,6.502963]],[[100.255698,6.515774],[100.250875,6.502621],[100.242106,6.489467],[100.238598,6.478945],[100.240352,6.469738],[100.247367,6.464038]],[[100.247367,6.464038],[100.233975,6.458149],[100.221401,6.445575]],[[100.221401,6.445575],[100.221042,6.450604],[100.207389,6.452401],[100.212419,6.471442],[100.214215,6.488328],[100.21673,6.503058],[100.210982,6.50198]],[[100.210982,6.50198],[100.199994,6.502963]],[[100.311447,6.603546],[100.315226,6.604261],[100.317025,6.601937],[100.317205,6.598005],[100.319545,6.593],[100.324943,6.588531],[100.325483,6.585492],[100.33394,6.585313],[100.341498,6.580487],[100.341318,6.575839],[100.345097,6.571906],[100.350855,6.573515],[100.353914,6.568152],[100.353014,6.562432],[100.359672,6.557247],[100.358233,6.554923]],[[100.358233,6.554923],[100.355123,6.552212],[100.34303,6.55191],[100.328519,6.550197],[100.321868,6.546166],[100.313101,6.533368],[100.301009,6.509385],[100.292242,6.489533],[100.292947,6.48137],[100.290428,6.476836],[100.291436,6.470084],[100.287808,6.464239]],[[100.287808,6.464239],[100.282467,6.463836],[100.271281,6.464138],[100.264054,6.456832]],[[100.264054,6.456832],[100.261397,6.463161],[100.253944,6.459215],[100.247367,6.464038]],[[100.221401,6.445575],[100.211701,6.439108],[100.200943,6.432396]],[[100.200943,6.432396],[100.198626,6.428063],[100.195401,6.426047],[100.194393,6.421915],[100.197316,6.409218],[100.196509,6.405591],[100.190262,6.404986],[100.188851,6.401459],[100.188246,6.3937],[100.183611,6.38715]],[[100.183611,6.38715],[100.179177,6.391483],[100.17565,6.400351],[100.173332,6.408311],[100.16648,6.416675],[100.162953,6.420807],[100.161139,6.425946]],[[100.161139,6.425946],[100.17254,6.434437],[100.180804,6.438389],[100.185474,6.445215],[100.186193,6.45276],[100.189426,6.468209],[100.199126,6.477909],[100.206671,6.488687],[100.210982,6.50198]],[[100.264054,6.456832],[100.262212,6.449426],[100.25929,6.442977],[100.248507,6.43169],[100.240244,6.425846],[100.230167,6.415869]],[[100.230167,6.415869],[100.221198,6.41073],[100.211827,6.411234],[100.207393,6.418792],[100.206385,6.427256],[100.200943,6.432396]],[[100.161139,6.425946],[100.157813,6.429574]],[[100.157813,6.429574],[100.156302,6.434109],[100.15207,6.440357],[100.151163,6.44731],[100.147427,6.4523]],[[100.147427,6.4523],[100.144908,6.459184],[100.144278,6.464011],[100.145358,6.469018],[100.146977,6.468392],[100.151296,6.471878],[100.150576,6.47608],[100.152915,6.477153],[100.153815,6.478762],[100.155345,6.477421],[100.157684,6.478673],[100.158404,6.480461],[100.156244,6.483053],[100.154085,6.483053],[100.154355,6.486897],[100.159663,6.487702],[100.159843,6.49691],[100.159933,6.503435],[100.157594,6.507994],[100.158314,6.50871],[100.154175,6.522565],[100.156334,6.522386],[100.157144,6.533381],[100.155704,6.537493],[100.153095,6.555549],[100.153995,6.559303],[100.157594,6.560465],[100.159573,6.563057],[100.158224,6.568867],[100.159213,6.570655],[100.156244,6.575035],[100.156874,6.580397],[100.162992,6.57566],[100.163082,6.571996],[100.165871,6.570119],[100.167941,6.57137],[100.16875,6.574409],[100.17073,6.574766],[100.172889,6.573158],[100.173069,6.571281],[100.175139,6.567348]],[[100.249291,6.358299],[100.25606,6.364585],[100.263312,6.371354],[100.272499,6.381024],[100.278301,6.390694],[100.28652,6.400364],[100.293773,6.415353],[100.294256,6.431308],[100.293773,6.444846],[100.287808,6.464239]],[[100.358233,6.554923],[100.360932,6.546342],[100.363271,6.545449],[100.36714,6.539147],[100.370739,6.532175],[100.365701,6.484841],[100.363001,6.453328],[100.355804,6.447606],[100.310277,6.408446],[100.309738,6.410592],[100.306315,6.408929],[100.304699,6.406479],[100.305239,6.404333],[100.30092,6.403439],[100.290367,6.386694],[100.279507,6.369461],[100.273569,6.366779],[100.264031,6.354797],[100.255929,6.349327]],[[100.255929,6.349327],[100.249291,6.358299]],[[100.249291,6.358299],[100.243701,6.369698],[100.237837,6.37947],[100.238489,6.394455],[100.238489,6.406182],[100.230167,6.415869]],[[100.255929,6.349327],[100.254494,6.348358],[100.249636,6.335124],[100.243158,6.332083],[100.23722,6.324572],[100.231101,6.320458]],[[100.231101,6.320458],[100.225707,6.326446],[100.221104,6.332891],[100.210976,6.344861]],[[100.210976,6.344861],[100.218802,6.349925],[100.216919,6.358324],[100.216041,6.371316],[100.184398,6.373014],[100.183611,6.38715]],[[100.210976,6.344861],[100.197625,6.335653],[100.186577,6.333812],[100.174607,6.332891],[100.166321,6.33105],[100.154779,6.328924]],[[100.154779,6.328924],[100.153455,6.33186],[100.148352,6.347338],[100.147607,6.349597]],[[100.147607,6.349597],[100.163406,6.353411],[100.163869,6.362209],[100.158158,6.376718],[100.148279,6.396167],[100.148588,6.417623],[100.157813,6.429574]],[[100.147607,6.349597],[100.144728,6.358329],[100.139779,6.372546],[100.127273,6.396241],[100.121065,6.410726],[100.118906,6.422528],[100.123584,6.422885],[100.124934,6.425478],[100.128443,6.426372],[100.129612,6.428428],[100.133571,6.429233],[100.134831,6.433256],[100.134021,6.439962],[100.13627,6.440498],[100.135101,6.444343],[100.139509,6.448098],[100.141579,6.447561],[100.144368,6.451048],[100.147427,6.4523]],[[100.231101,6.320458],[100.227514,6.317094],[100.220125,6.307223],[100.217965,6.299532],[100.20411,6.288979],[100.20429,6.285223],[100.201231,6.281646],[100.20393,6.275922],[100.20177,6.265906],[100.193133,6.248018],[100.16893,6.289561],[100.162297,6.30902],[100.159663,6.318088],[100.154779,6.328924]]],"bbox":[100.118906,6.248018,100.370739,6.726869]}
