{"type":"Topology","objects":{"PNG_SE-05":{"type":"GeometryCollection","geometries":[{"type":"Polygon","arcs":[[0,1,2]],"properties":{"state":"Pulau Pinang","parlimen":"P.035 Kepala Batas","code_parlimen":"P.035","dun":"N.01 Penaga","code_dun":"N.01"}},{"type":"Polygon","arcs":[[3,4,5,6,-3]],"properties":{"state":"Pulau Pinang","parlimen":"P.035 Kepala Batas","code_parlimen":"P.035","dun":"N.02 Bertam","code_dun":"N.02"}},{"type":"Polygon","arcs":[[7,-5,8,9]],"properties":{"state":"Pulau Pinang","parlimen":"P.035 Kepala Batas","code_parlimen":"P.035","dun":"N.03 Tasek Gelugor","code_dun":"N.03"}},{"type":"Polygon","arcs":[[10,-1,-7,11,12,13]],"properties":{"state":"Pulau Pinang","parlimen":"P.036 Mata Kuching","code_parlimen":"P.036","dun":"N.04 Bagan Ajam","code_dun":"N.04"}},{"type":"Polygon","arcs":[[14,-14,15,16,17]],"properties":{"state":"Pulau Pinang","parlimen":"P.036 Mata Kuching","code_parlimen":"P.036","dun":"N.05 Bagan Jermal","code_dun":"N.05"}},{"type":"Polygon","arcs":[[18,19,-18]],"properties":{"state":"Pulau Pinang","parlimen":"P.036 Mata Kuching","code_parlimen":"P.036","dun":"N.06 Bagan Dalam","code_dun":"N.06"}},{"type":"Polygon","arcs":[[-8,20,21,-12,-6]],"properties":{"state":"Pulau Pinang","parlimen":"P.037 Permatang Pauh","code_parlimen":"P.037","dun":"N.07 Sungai Dua","code_dun":"N.07"}},{"type":"Polygon","arcs":[[-16,-13,-22,22,23]],"properties":{"state":"Pulau Pinang","parlimen":"P.037 Permatang Pauh","code_parlimen":"P.037","dun":"N.08 Kubang Semang","code_dun":"N.08"}},{"type":"Polygon","arcs":[[24,-23,-21,-10,25,26,27]],"properties":{"state":"Pulau Pinang","parlimen":"P.037 Permatang Pauh","code_parlimen":"P.037","dun":"N.09 Penanti","code_dun":"N.09"}},{"type":"Polygon","arcs":[[-25,28,29,30,31,-19,-17,-24]],"properties":{"state":"Pulau Pinang","parlimen":"P.038 Bukit Mertajam","code_parlimen":"P.038","dun":"N.10 Bukit Tengah","code_dun":"N.10"}},{"type":"Polygon","arcs":[[32,-29,-28]],"properties":{"state":"Pulau Pinang","parlimen":"P.038 Bukit Mertajam","code_parlimen":"P.038","dun":"N.11 Pekan Bukit Mertajam","code_dun":"N.11"}},{"type":"Polygon","arcs":[[-27,33,34,35,-30,-33]],"properties":{"state":"Pulau Pinang","parlimen":"P.038 Bukit Mertajam","code_parlimen":"P.038","dun":"N.12 Machang Bubok","code_dun":"N.12"}},{"type":"MultiPolygon","arcs":[[[36,37,-31,-36,38]],[[39]],[[40]]],"properties":{"state":"Pulau Pinang","parlimen":"P.039 Nibong Tebal","code_parlimen":"P.039","dun":"N.13 Bukit Tambun","code_dun":"N.13"}},{"type":"Polygon","arcs":[[-39,-35,41,42]],"properties":{"state":"Pulau Pinang","parlimen":"P.039 Nibong Tebal","code_parlimen":"P.039","dun":"N.14 Sungai Bakap","code_dun":"N.14"}},{"type":"Polygon","arcs":[[43,-37,-43]],"properties":{"state":"Pulau Pinang","parlimen":"P.039 Nibong Tebal","code_parlimen":"P.039","dun":"N.15 Sungai Acheh","code_dun":"N.15"}},{"type":"Polygon","arcs":[[44,45,46,47,48,49]],"properties":{"state":"Pulau Pinang","parlimen":"P.040 Balik Pulau","code_parlimen":"P.040","dun":"N.16 Telok Bahang","code_dun":"N.16"}},{"type":"MultiPolygon","arcs":[[[50]],[[-49,51,52,53,54]]],"properties":{"state":"Pulau Pinang","parlimen":"P.040 Balik Pulau","code_parlimen":"P.040","dun":"N.17 Sungai Nibong","code_dun":"N.17"}},{"type":"MultiPolygon","arcs":[[[55]],[[56]],[[-55,57,-50]]],"properties":{"state":"Pulau Pinang","parlimen":"P.040 Balik Pulau","code_parlimen":"P.040","dun":"N.18 Bayan Lepas","code_dun":"N.18"}},{"type":"Polygon","arcs":[[-46,58,59,60]],"properties":{"state":"Pulau Pinang","parlimen":"P.041 Bukit Bendera","code_parlimen":"P.041","dun":"N.19 Tanjong Bunga","code_dun":"N.19"}},{"type":"Polygon","arcs":[[-47,-61,61,62]],"properties":{"state":"Pulau Pinang","parlimen":"P.041 Bukit Bendera","code_parlimen":"P.041","dun":"N.20 Ayer Itam","code_dun":"N.20"}},{"type":"Polygon","arcs":[[-52,-48,-63,63]],"properties":{"state":"Pulau Pinang","parlimen":"P.041 Bukit Bendera","code_parlimen":"P.041","dun":"N.21 Paya Terubong","code_dun":"N.21"}},{"type":"Polygon","arcs":[[64,65,66,67]],"properties":{"state":"Pulau Pinang","parlimen":"P.042 Tanjong","code_parlimen":"P.042","dun":"N.22 Padang Kota","code_dun":"N.22"}},{"type":"Polygon","arcs":[[-65,68,69,70]],"properties":{"state":"Pulau Pinang","parlimen":"P.042 Tanjong","code_parlimen":"P.042","dun":"N.23 Kampong Kolam","code_dun":"N.23"}},{"type":"Polygon","arcs":[[71,72,-69,-68]],"properties":{"state":"Pulau Pinang","parlimen":"P.042 Tanjong","code_parlimen":"P.042","dun":"N.24 Pengkalan Kota","code_dun":"N.24"}},{"type":"Polygon","arcs":[[73,-66,-71,74,75,-62,-60]],"properties":{"state":"Pulau Pinang","parlimen":"P.043 Jelutong","code_parlimen":"P.043","dun":"N.25 Datok Keramat","code_dun":"N.25"}},{"type":"Polygon","arcs":[[-75,-70,-73,76,77]],"properties":{"state":"Pulau Pinang","parlimen":"P.043 Jelutong","code_parlimen":"P.043","dun":"N.26 Sungei Pinang","code_dun":"N.26"}},{"type":"Polygon","arcs":[[78,-53,-64,-76,-78]],"properties":{"state":"Pulau Pinang","parlimen":"P.043 Jelutong","code_parlimen":"P.043","dun":"N.27 Bukit Gelugor","code_dun":"N.27"}}]}},"arcs":[[[100.398391,5.506013],[100.396871,5.504481],[100.391653,5.500351],[100.385894,5.496719],[100.380254,5.497176],[100.376792,5.496239]],[[100.376792,5.496239],[100.376278,5.501249],[100.376034,5.511862],[100.375357,5.519781],[100.374735,5.526946],[100.373301,5.534326],[100.370906,5.540763],[100.367334,5.548574],[100.361286,5.560142],[100.360501,5.559375],[100.355265,5.561583],[100.347606,5.568855],[100.342116,5.570155],[100.341869,5.56864],[100.340543,5.56969],[100.338933,5.572653],[100.338911,5.577444],[100.344579,5.577399],[100.361179,5.573504],[100.366398,5.575474],[100.368332,5.579101],[100.368377,5.583085],[100.370177,5.58519],[100.372516,5.58519],[100.3749,5.580354],[100.379264,5.579593],[100.381603,5.583757],[100.383673,5.584921],[100.385697,5.583847],[100.387406,5.577534],[100.39357,5.579459],[100.404186,5.573907],[100.40981,5.56634],[100.424835,5.56249],[100.431673,5.5654],[100.432123,5.5624],[100.433427,5.560699],[100.435587,5.561057]],[[100.435587,5.561057],[100.43572,5.557846],[100.435223,5.552083],[100.415083,5.550185],[100.408809,5.551835],[100.403692,5.550185],[100.401215,5.548203],[100.395396,5.547626],[100.378722,5.543746],[100.379795,5.53772],[100.381694,5.532355],[100.385078,5.535904],[100.39878,5.53772],[100.411044,5.538774],[100.412171,5.52008],[100.412006,5.515375],[100.410042,5.513892],[100.401598,5.509246],[100.398391,5.506013]],[[100.435587,5.561057],[100.435992,5.564684],[100.44004,5.56531],[100.443009,5.567191],[100.444539,5.567057],[100.445844,5.565579],[100.446204,5.562176],[100.447913,5.560788],[100.449892,5.561594],[100.450297,5.565758],[100.451782,5.567639],[100.453941,5.567683],[100.456415,5.56531],[100.459699,5.563519],[100.462983,5.565579],[100.469326,5.565445],[100.471801,5.562042],[100.474275,5.561773]],[[100.474275,5.561773],[100.473832,5.560362],[100.473006,5.558711],[100.472016,5.545834],[100.47152,5.539148],[100.473336,5.539148],[100.473244,5.53852],[100.471686,5.527922],[100.470778,5.519585],[100.469044,5.516944],[100.458644,5.516448],[100.449481,5.515953],[100.448656,5.506873],[100.4475,5.496473],[100.447082,5.494315]],[[100.447082,5.494315],[100.446835,5.49437],[100.442363,5.496026],[100.437266,5.495715],[100.432274,5.495198],[100.429258,5.496544],[100.428425,5.497683],[100.433938,5.499546],[100.434247,5.500603],[100.434666,5.50172],[100.433418,5.503273],[100.42957,5.503998],[100.426345,5.50493],[100.417495,5.506956],[100.409406,5.508937],[100.406682,5.505965],[100.402885,5.502086]],[[100.402885,5.502086],[100.401647,5.503819],[100.398391,5.506013]],[[100.48547,5.46783],[100.48448,5.469646],[100.482994,5.470471],[100.479527,5.470966],[100.479032,5.471957],[100.477051,5.472287],[100.475895,5.470471],[100.471438,5.470636],[100.470943,5.473113],[100.468136,5.472287],[100.468631,5.475094],[100.470778,5.475919],[100.47507,5.479551],[100.474409,5.481532],[100.470612,5.482688],[100.472428,5.486485],[100.470943,5.490117],[100.457356,5.490273],[100.457375,5.498539],[100.454173,5.498466],[100.451188,5.49832],[100.451043,5.494244],[100.447082,5.494315]],[[100.474275,5.561773],[100.478504,5.565176],[100.481878,5.564281],[100.485342,5.560878],[100.487096,5.56137],[100.487096,5.570101],[100.49164,5.566743],[100.504776,5.567057],[100.506755,5.564594],[100.50689,5.560161],[100.508959,5.559042],[100.514448,5.561281],[100.519036,5.558818],[100.52232,5.559042],[100.523895,5.557967],[100.522995,5.553938],[100.523715,5.550669],[100.526999,5.550982],[100.527539,5.554296],[100.529203,5.556221],[100.528929,5.547136],[100.528749,5.541313],[100.527359,5.495727],[100.527029,5.483587]],[[100.527029,5.483587],[100.525752,5.483348],[100.523111,5.481202],[100.517828,5.479881],[100.511554,5.480046],[100.510399,5.47724],[100.500163,5.472948],[100.493395,5.470306],[100.492899,5.46849],[100.489763,5.4675],[100.48547,5.46783]],[[100.378382,5.438273],[100.379891,5.446095],[100.380463,5.452774],[100.380827,5.460902],[100.380034,5.470608],[100.379046,5.480755],[100.37811,5.491574],[100.37733,5.493748],[100.376792,5.496239]],[[100.402885,5.502086],[100.404907,5.501178],[100.405568,5.498289],[100.407053,5.498206],[100.407796,5.496885],[100.408539,5.495482],[100.408787,5.493419],[100.414152,5.492676],[100.41506,5.490447],[100.414895,5.487063],[100.415968,5.486567],[100.416876,5.483926],[100.416946,5.480656],[100.418531,5.481609],[100.417712,5.467761],[100.418024,5.458339],[100.416828,5.451971],[100.411979,5.445888],[100.411628,5.441721],[100.411875,5.43921],[100.411147,5.436932],[100.409797,5.435146],[100.407832,5.434855],[100.406376,5.432308],[100.40856,5.429323],[100.407194,5.42725]],[[100.407194,5.42725],[100.405218,5.427302],[100.401422,5.428338],[100.399705,5.426111]],[[100.399705,5.426111],[100.399253,5.428374],[100.396612,5.431263],[100.396364,5.434152],[100.397272,5.43993],[100.397272,5.444635],[100.395786,5.447854],[100.391411,5.445378],[100.387532,5.444222],[100.387201,5.439187],[100.386211,5.434812],[100.382084,5.436628],[100.378382,5.438273]],[[100.37001,5.412236],[100.376875,5.43046],[100.378382,5.438273]],[[100.399705,5.426111],[100.40033,5.423264],[100.40215,5.419692],[100.398925,5.415498],[100.400564,5.411926],[100.403996,5.409958],[100.40449,5.408405],[100.40189,5.40592]],[[100.40189,5.40592],[100.399081,5.405506],[100.395857,5.410062],[100.392425,5.41234]],[[100.392425,5.41234],[100.392211,5.4139],[100.379726,5.414387],[100.377369,5.413324],[100.373937,5.412599],[100.37001,5.412236]],[[100.392425,5.41234],[100.387744,5.409751],[100.386912,5.406541],[100.391073,5.400018],[100.391697,5.397118],[100.391177,5.392459],[100.388992,5.388109],[100.378149,5.368849]],[[100.378149,5.368849],[100.377028,5.373592],[100.374379,5.377547],[100.372403,5.376512],[100.368762,5.382518],[100.370114,5.386453],[100.368762,5.389973],[100.363458,5.394737],[100.363562,5.399603],[100.37001,5.412236]],[[100.48547,5.46783],[100.485473,5.465746],[100.482416,5.464145],[100.480523,5.462179],[100.478339,5.460724],[100.474336,5.461743],[100.471424,5.461888],[100.470769,5.460432],[100.470287,5.459786],[100.469668,5.459386],[100.46854,5.458986],[100.465919,5.459677],[100.460533,5.460587],[100.459803,5.458572],[100.457184,5.457785],[100.455874,5.455783],[100.455932,5.454269],[100.4551,5.453233],[100.453436,5.455201],[100.452187,5.454372],[100.452499,5.45313],[100.453436,5.452198],[100.455292,5.452289],[100.455604,5.451357],[100.453644,5.450955],[100.452562,5.45076],[100.453139,5.448308],[100.453415,5.447594],[100.451689,5.446356]],[[100.451689,5.446356],[100.450453,5.447349],[100.448231,5.446793],[100.446151,5.448191],[100.445756,5.450287],[100.443229,5.449965],[100.441804,5.450651],[100.444352,5.451997],[100.442116,5.453602],[100.43884,5.452049],[100.440504,5.444646],[100.439412,5.44418],[100.437227,5.445836],[100.436135,5.44506],[100.437955,5.441384],[100.440036,5.441281],[100.442844,5.440038],[100.442896,5.442627],[100.44378,5.444076],[100.44612,5.442989],[100.445808,5.44009],[100.442168,5.436207],[100.440348,5.438485],[100.438788,5.43833],[100.439204,5.433981],[100.436369,5.431806],[100.435225,5.432997],[100.436993,5.436777],[100.435953,5.438019],[100.433561,5.436466],[100.432521,5.433153],[100.430389,5.431548],[100.428672,5.432479],[100.429245,5.436],[100.427892,5.437605],[100.426072,5.436466],[100.4255,5.43367],[100.425916,5.429943],[100.424252,5.42927],[100.421236,5.433256],[100.417751,5.434499],[100.414059,5.432842],[100.410419,5.427043],[100.407194,5.42725]],[[100.451689,5.446356],[100.452708,5.445592],[100.452125,5.444282],[100.455561,5.443572],[100.456914,5.446057],[100.458604,5.446575],[100.459794,5.446],[100.461178,5.445332],[100.461438,5.441812],[100.463373,5.439339],[100.468722,5.439951],[100.476315,5.435757],[100.482919,5.433324],[100.486483,5.430815],[100.486856,5.429278],[100.486783,5.427967],[100.488385,5.427458],[100.488676,5.426293],[100.487366,5.424837],[100.48722,5.423236],[100.486128,5.421926],[100.486128,5.420397],[100.485327,5.41683],[100.480814,5.416903],[100.475137,5.417558],[100.469968,5.418068],[100.468949,5.419305],[100.469968,5.420251],[100.473317,5.420834],[100.473754,5.421926],[100.47106,5.423236],[100.467057,5.424619],[100.465164,5.420179],[100.461779,5.414865],[100.461707,5.413045],[100.463454,5.409405],[100.463526,5.407294],[100.465055,5.405911],[100.463745,5.403655],[100.461779,5.404747],[100.458722,5.406639],[100.455592,5.407877],[100.45137,5.408095],[100.447876,5.409842],[100.442853,5.409988],[100.438486,5.410133],[100.436521,5.411953],[100.435356,5.412172],[100.435356,5.407586],[100.436011,5.401908],[100.436375,5.400234],[100.437831,5.399142],[100.437685,5.396812],[100.438668,5.394592],[100.439869,5.392299],[100.44107,5.392845],[100.443145,5.393282],[100.444528,5.392627],[100.444746,5.390625],[100.444164,5.388805],[100.443324,5.388454],[100.442401,5.387811],[100.44217,5.385743],[100.442678,5.3851],[100.444339,5.384595],[100.445631,5.383079],[100.447292,5.380598],[100.448769,5.377382],[100.449565,5.373661]],[[100.449565,5.373661],[100.435465,5.375375],[100.420324,5.377341],[100.409042,5.378724],[100.408823,5.381563],[100.407586,5.384183],[100.405839,5.38462],[100.406931,5.387604],[100.408023,5.388478],[100.410716,5.387968],[100.411007,5.39139],[100.410498,5.3927],[100.409406,5.392991],[100.410279,5.395393],[100.411662,5.396994],[100.408532,5.396631],[100.407222,5.397431],[100.409697,5.399178],[100.409697,5.400998],[100.40977,5.402527],[100.406931,5.401944],[100.40664,5.403327],[100.405038,5.404346],[100.402927,5.404565],[100.40189,5.40592]],[[100.449703,5.365668],[100.449842,5.367413],[100.449474,5.368761],[100.449657,5.370308],[100.449242,5.371226],[100.449565,5.373661]],[[100.527029,5.483587],[100.526675,5.470584],[100.525537,5.428733],[100.524369,5.379266]],[[100.524369,5.379266],[100.522517,5.378163],[100.520856,5.377382],[100.519748,5.377199],[100.517718,5.378209],[100.516472,5.378577],[100.513796,5.377382],[100.512688,5.377015],[100.508905,5.377612],[100.506505,5.377428],[100.504383,5.377566],[100.502491,5.378439],[100.501614,5.379174],[100.500876,5.380644],[100.499861,5.381333],[100.497577,5.38193],[100.496515,5.38239],[100.495039,5.384365],[100.492962,5.385514],[100.491809,5.385835]],[[100.491809,5.385835],[100.491059,5.386387],[100.490136,5.387351],[100.488706,5.3885],[100.487552,5.3885],[100.486214,5.387765],[100.484172,5.386387],[100.482465,5.386387],[100.481034,5.386065],[100.479512,5.385008],[100.477666,5.384825],[100.47642,5.38533],[100.474897,5.386157],[100.47259,5.386341],[100.46996,5.386019],[100.469968,5.382727],[100.468585,5.375812],[100.466183,5.376103],[100.464436,5.377705],[100.461816,5.373774],[100.458467,5.37159],[100.455119,5.370644],[100.451261,5.366859],[100.449703,5.365668]],[[100.449703,5.365668],[100.448365,5.363462],[100.44784,5.361854],[100.447913,5.361017],[100.446711,5.360216],[100.446821,5.359379],[100.448568,5.358506],[100.448167,5.35745],[100.445401,5.357414],[100.445365,5.356213],[100.44784,5.352646],[100.448094,5.349953],[100.449478,5.349516],[100.451443,5.350317],[100.452098,5.349916],[100.451843,5.347624]],[[100.451843,5.347624],[100.451043,5.344166],[100.449805,5.343001],[100.447913,5.342783],[100.446784,5.342128],[100.446602,5.34049],[100.445292,5.338306],[100.445146,5.33685],[100.447403,5.334667],[100.44784,5.332556],[100.448058,5.327242],[100.449368,5.324549],[100.455847,5.321346],[100.456502,5.320399],[100.454973,5.312975],[100.45541,5.311155],[100.457084,5.311009],[100.459923,5.308898],[100.460287,5.307224],[100.459923,5.300382],[100.45985,5.295286],[100.458031,5.292084],[100.456284,5.29172],[100.455774,5.289609],[100.456648,5.288153],[100.458103,5.288153],[100.459122,5.286624],[100.459947,5.285978]],[[100.459947,5.285978],[100.457547,5.284783],[100.455425,5.284232],[100.453948,5.284691],[100.452841,5.286529],[100.451733,5.287356],[100.450626,5.286162],[100.449519,5.285427],[100.447027,5.285243],[100.444904,5.285427],[100.443612,5.284324],[100.443151,5.281475],[100.443243,5.278902],[100.441305,5.276145],[100.437337,5.27541],[100.43503,5.276329],[100.433599,5.282302],[100.431938,5.284416],[100.4288,5.285059],[100.424647,5.284416],[100.420613,5.281998],[100.420056,5.281984]],[[100.420056,5.281984],[100.419779,5.283589],[100.418072,5.284921],[100.416642,5.288505],[100.413642,5.304173],[100.410551,5.312948],[100.407275,5.317589],[100.405636,5.317083],[100.404667,5.317313],[100.403422,5.320713],[100.403145,5.325169],[100.404298,5.325767],[100.405175,5.328431],[100.405683,5.336563],[100.406236,5.338631],[100.406006,5.339596],[100.405175,5.341066],[100.402037,5.342903],[100.397561,5.347544],[100.394516,5.348187],[100.391747,5.350346],[100.385864,5.358248],[100.383788,5.360499],[100.38125,5.362704],[100.378149,5.368849]],[[100.491809,5.385835],[100.491301,5.384365],[100.491578,5.383217],[100.493055,5.381563],[100.493378,5.379771],[100.495039,5.378071],[100.495777,5.376326],[100.495454,5.374902],[100.494162,5.373799],[100.492343,5.373383],[100.490305,5.37331],[100.488376,5.374584],[100.484299,5.372655],[100.483899,5.369816],[100.482672,5.369251],[100.48123,5.368102],[100.479754,5.365805],[100.478323,5.364887],[100.476109,5.364335],[100.474909,5.363738],[100.474724,5.362911],[100.475693,5.362727],[100.479292,5.363187],[100.480893,5.362463],[100.483062,5.360717],[100.486026,5.35865],[100.488157,5.357478],[100.490195,5.35675],[100.491021,5.356248],[100.490837,5.355559],[100.488899,5.353859],[100.488299,5.353308],[100.488114,5.352481],[100.487422,5.351516],[100.486638,5.3517],[100.485609,5.352018],[100.483935,5.354238],[100.482225,5.353875],[100.479641,5.35493],[100.477795,5.353965],[100.475501,5.355303],[100.474299,5.354866],[100.47339,5.352391],[100.471402,5.352482],[100.46793,5.351809],[100.465965,5.350754],[100.463563,5.35039],[100.460797,5.350317],[100.459778,5.349079],[100.458176,5.348788],[100.457739,5.347769],[100.456502,5.346968],[100.454609,5.34675],[100.453809,5.347478],[100.451843,5.347624]],[[100.524369,5.379266],[100.524277,5.375348],[100.524547,5.363792],[100.534031,5.285001]],[[100.534031,5.285001],[100.532253,5.285978],[100.531976,5.289746],[100.530592,5.290664],[100.52607,5.2948],[100.52284,5.297465],[100.51961,5.298108],[100.516288,5.297465],[100.511027,5.297281],[100.50789,5.298108],[100.505029,5.298935],[100.503183,5.298567],[100.501153,5.296086],[100.493862,5.2914],[100.492109,5.29094],[100.486664,5.292135],[100.481726,5.29241]],[[100.481726,5.29241],[100.479788,5.293146],[100.478681,5.29241],[100.478035,5.290205],[100.47702,5.289654],[100.474528,5.289562],[100.471944,5.287264],[100.470744,5.288643],[100.471944,5.290481],[100.472406,5.293697],[100.471021,5.294432],[100.470191,5.29241],[100.469268,5.290664],[100.466222,5.291767],[100.465761,5.290481],[100.467514,5.288367],[100.46936,5.286805],[100.469176,5.285702],[100.466776,5.285978],[100.461516,5.285978],[100.459947,5.285978]],[[100.479512,5.188115],[100.479512,5.182233],[100.480019,5.175799],[100.480204,5.172904],[100.47753,5.173642],[100.475346,5.170294],[100.461443,5.179684],[100.459914,5.178447],[100.457512,5.168329],[100.44834,5.170294],[100.447027,5.170147],[100.444581,5.171479],[100.44149,5.172628],[100.43886,5.172674],[100.436552,5.171479],[100.433184,5.168171],[100.431523,5.166976],[100.429585,5.166654],[100.427139,5.167573],[100.424925,5.168935]],[[100.424925,5.168935],[100.424947,5.16894],[100.425916,5.169997],[100.422502,5.173444],[100.421833,5.173122],[100.416757,5.17565],[100.416619,5.176477],[100.418372,5.180291],[100.420864,5.189482],[100.421602,5.197018],[100.421879,5.198167],[100.422156,5.20189],[100.423263,5.20699],[100.424371,5.208323],[100.42677,5.207404],[100.428477,5.207496],[100.429077,5.206944],[100.431015,5.208323],[100.431523,5.209242],[100.431154,5.210253],[100.429677,5.21131],[100.426574,5.214664],[100.424174,5.216548],[100.424128,5.218478],[100.424867,5.219949],[100.424867,5.222844],[100.421498,5.233183],[100.420898,5.238375],[100.417807,5.246554],[100.412362,5.258501],[100.41167,5.261074],[100.406732,5.262682],[100.406133,5.265807],[100.408947,5.26691],[100.409397,5.269896],[100.416088,5.27734],[100.420287,5.280648],[100.420056,5.281984]],[[100.481726,5.29241],[100.482115,5.291419],[100.477166,5.279008],[100.476729,5.269618],[100.475127,5.265469],[100.486046,5.257899],[100.492597,5.25324],[100.493617,5.253968],[100.500969,5.249382],[100.500969,5.248654],[100.489249,5.237008],[100.487065,5.239118],[100.491287,5.221212],[100.491624,5.21996],[100.491578,5.219363],[100.491901,5.217387],[100.492178,5.215365],[100.491763,5.214124],[100.488417,5.206634],[100.482972,5.197076],[100.480296,5.191791],[100.479835,5.190091],[100.479512,5.188115]],[[100.391413,5.262352],[100.390613,5.261862],[100.388152,5.259779],[100.387906,5.258308],[100.386737,5.257083],[100.386061,5.256348],[100.384523,5.257144],[100.3844,5.258369],[100.385076,5.260146],[100.384523,5.26131],[100.385384,5.262413],[100.386061,5.263332],[100.388399,5.264802],[100.389383,5.267375],[100.38926,5.269765],[100.390244,5.269397],[100.392213,5.268294],[100.392521,5.26615],[100.391413,5.262352]],[[100.388091,5.277729],[100.388583,5.276687],[100.388522,5.275401],[100.388214,5.273134],[100.388891,5.271603],[100.388029,5.270316],[100.387476,5.268784],[100.386122,5.267253],[100.385445,5.267804],[100.384707,5.269642],[100.38563,5.271664],[100.385199,5.27246],[100.385199,5.273195],[100.384646,5.273686],[100.384769,5.274543],[100.385999,5.275891],[100.38563,5.27681],[100.386368,5.277668],[100.38723,5.278219],[100.387353,5.279444],[100.386061,5.280425],[100.386799,5.281527],[100.386614,5.282385],[100.387168,5.28361],[100.386553,5.285142],[100.38766,5.286183],[100.388214,5.283978],[100.389137,5.282507],[100.388214,5.280179],[100.388091,5.277729]],[[100.534031,5.285001],[100.537909,5.251882],[100.538373,5.247922],[100.543434,5.204686],[100.550684,5.142762],[100.543711,5.138461],[100.539078,5.137744],[100.514335,5.144017],[100.507812,5.145002],[100.503134,5.142404]],[[100.503134,5.142404],[100.503371,5.143579],[100.503589,5.144962],[100.502352,5.148093],[100.502643,5.149767],[100.501915,5.151441],[100.501915,5.152897],[100.503735,5.15923],[100.501332,5.160103],[100.502279,5.162942],[100.504463,5.162214],[100.507884,5.173497],[100.506501,5.173861],[100.506064,5.176117],[100.504244,5.178374],[100.500823,5.180121],[100.498494,5.179757],[100.497183,5.180558],[100.497475,5.182377],[100.496892,5.182814],[100.497329,5.18871],[100.496237,5.191404],[100.49085,5.193806],[100.485901,5.185071],[100.480441,5.188346],[100.479512,5.188115]],[[100.503134,5.142404],[100.501514,5.142986],[100.498365,5.142493],[100.495396,5.13985],[100.491482,5.133308],[100.407898,5.122823],[100.400688,5.126016],[100.400411,5.127028],[100.403133,5.132359],[100.404564,5.136955],[100.406836,5.140447],[100.411785,5.150006],[100.412708,5.153729],[100.417657,5.162966],[100.422825,5.16724],[100.423148,5.168481],[100.424925,5.168935]],[[100.196213,5.326523],[100.195782,5.332465],[100.194675,5.339142],[100.193013,5.344717],[100.193075,5.348882],[100.192029,5.34925],[100.189814,5.355008],[100.189999,5.357519],[100.189753,5.360888],[100.189076,5.364196],[100.187907,5.365054],[100.188215,5.373017],[100.18926,5.376876],[100.190799,5.381837],[100.190799,5.384103],[100.19166,5.386737],[100.191291,5.389249],[100.192521,5.392005],[100.191721,5.39274],[100.191168,5.393904],[100.192152,5.395986],[100.192706,5.399723],[100.191475,5.403091],[100.192829,5.405542],[100.193506,5.404071],[100.193875,5.405113],[100.193383,5.40646],[100.194921,5.413565],[100.196459,5.417118],[100.196766,5.41969],[100.195967,5.42165],[100.194859,5.422201],[100.19246,5.421956],[100.191844,5.422998],[100.189876,5.423243],[100.188522,5.424468],[100.189322,5.426611],[100.189383,5.429061],[100.187968,5.431082],[100.185754,5.430531],[100.182677,5.431511],[100.179786,5.433042],[100.178309,5.432859],[100.177017,5.433716],[100.177632,5.434757],[100.179047,5.435431],[100.180832,5.43831],[100.180955,5.440943],[100.180709,5.442658],[100.178309,5.442964],[100.177694,5.444006],[100.178801,5.446945],[100.17997,5.448905],[100.18157,5.449028],[100.182985,5.450804],[100.183908,5.452948],[100.183539,5.45601],[100.182431,5.457357],[100.182354,5.459899],[100.181616,5.460756],[100.181616,5.462471],[100.181985,5.465105],[100.180816,5.466452],[100.178232,5.467861],[100.177555,5.468106],[100.177002,5.469514],[100.175894,5.47031],[100.175402,5.472209],[100.176079,5.475455],[100.177063,5.476741],[100.179032,5.476619],[100.18057,5.476619],[100.184139,5.478517],[100.185123,5.478517],[100.186415,5.477353],[100.18703,5.474659],[100.185677,5.472393],[100.186538,5.471168],[100.189491,5.470004],[100.192567,5.470555],[100.195767,5.472821],[100.197059,5.471168],[100.196628,5.470004],[100.197197,5.468412],[100.198797,5.467493],[100.200704,5.467554],[100.202796,5.468351],[100.204026,5.467371],[100.202427,5.465778],[100.203472,5.465043],[100.202734,5.463696],[100.202611,5.463022],[100.205318,5.461001],[100.205687,5.460021],[100.209133,5.458796],[100.209748,5.459409],[100.214178,5.45996],[100.217992,5.461246],[100.220638,5.463206],[100.22153,5.465105],[100.223252,5.465105],[100.228051,5.463451],[100.229528,5.464492],[100.23162,5.46339],[100.233158,5.463512],[100.235434,5.465411],[100.236726,5.464921],[100.23888,5.465778]],[[100.23888,5.465778],[100.238882,5.464372],[100.240192,5.463062],[100.242231,5.464154],[100.24325,5.462407],[100.242012,5.460733],[100.241867,5.457166],[100.239537,5.454837],[100.241794,5.452726],[100.241212,5.449741],[100.24191,5.448614]],[[100.24191,5.448614],[100.240318,5.447083],[100.238626,5.446073],[100.23798,5.444082],[100.238595,5.441632],[100.241025,5.433241],[100.243425,5.426443],[100.243671,5.424912],[100.242994,5.422768],[100.243056,5.420441],[100.242563,5.418358],[100.243179,5.417378],[100.245824,5.417256],[100.247608,5.416582],[100.24767,5.415724],[100.246562,5.414928],[100.243302,5.414438],[100.24201,5.413703],[100.241394,5.412294],[100.242071,5.410518],[100.241579,5.408313],[100.24201,5.406966],[100.242809,5.405434],[100.242502,5.404638],[100.240102,5.402739],[100.238995,5.401453],[100.238687,5.399615],[100.236842,5.397594],[100.23555,5.396308],[100.235427,5.395083],[100.235311,5.394118],[100.237403,5.393934],[100.238757,5.392342],[100.23931,5.389708],[100.24091,5.387197],[100.241279,5.383767],[100.241771,5.380704],[100.243063,5.380153],[100.244171,5.381868],[100.245032,5.384134],[100.246509,5.384195],[100.249031,5.382051],[100.249339,5.379846],[100.250938,5.378866],[100.25303,5.376967],[100.254015,5.377029],[100.254814,5.37807],[100.25463,5.37954]],[[100.25463,5.37954],[100.255299,5.380168],[100.256991,5.380597],[100.257483,5.379831],[100.257329,5.378545],[100.257791,5.377871],[100.258929,5.377595],[100.25939,5.376646],[100.259021,5.375329],[100.257452,5.372205],[100.256191,5.370857],[100.256314,5.369571],[100.258006,5.367458],[100.258806,5.365651],[100.258929,5.363139],[100.259052,5.358086],[100.259206,5.353262]],[[100.259206,5.353262],[100.256068,5.351792],[100.253238,5.349525],[100.252253,5.347994],[100.2517,5.345789],[100.250715,5.344319],[100.250223,5.34193],[100.249977,5.339847],[100.249546,5.33905],[100.247762,5.338377],[100.247331,5.337825],[100.246901,5.335988]],[[100.246901,5.335988],[100.244414,5.335822],[100.242886,5.33524],[100.240484,5.335094],[100.238955,5.335895],[100.236771,5.335458],[100.235024,5.335895],[100.233714,5.335531],[100.23335,5.336405],[100.229492,5.338515],[100.225707,5.340408],[100.22032,5.336041],[100.217045,5.332692],[100.217263,5.331382],[100.21588,5.331309],[100.211221,5.333566],[100.206854,5.334221],[100.206781,5.3316],[100.203651,5.331891],[100.20154,5.331236],[100.200958,5.328907],[100.198192,5.326942],[100.196213,5.326523]],[[100.324352,5.334916],[100.323921,5.333323],[100.32429,5.332036],[100.325644,5.330137],[100.326198,5.329954],[100.326628,5.329341],[100.327305,5.328974],[100.326936,5.327442],[100.327674,5.326891],[100.327674,5.324624],[100.326567,5.32248],[100.325706,5.32052],[100.326075,5.318008],[100.326013,5.317089],[100.324783,5.316906],[100.323921,5.316722],[100.322691,5.315925],[100.319738,5.315313],[100.315985,5.314088],[100.314877,5.313046],[100.313155,5.311208],[100.313155,5.309861],[100.313462,5.307655],[100.313585,5.305389],[100.313093,5.304654],[100.311493,5.301652],[100.310878,5.301039],[100.309217,5.301039],[100.308294,5.302203],[100.308233,5.304531],[100.307679,5.305389],[100.307802,5.306308],[100.307987,5.3079],[100.307371,5.308574],[100.307556,5.309493],[100.307002,5.31029],[100.307002,5.312066],[100.307556,5.313353],[100.308909,5.314333],[100.310201,5.315864],[100.310386,5.317641],[100.310324,5.318988],[100.311924,5.321378],[100.312601,5.322725],[100.312724,5.324869],[100.313585,5.325911],[100.315185,5.326217],[100.316538,5.328851],[100.317769,5.331669],[100.318446,5.332588],[100.320845,5.332894],[100.321399,5.335528],[100.321891,5.335957],[100.322691,5.336079],[100.324106,5.335896],[100.324352,5.334916]],[[100.259206,5.353262],[100.264286,5.354966],[100.274768,5.362537],[100.287361,5.373092]],[[100.287361,5.373092],[100.296169,5.37644],[100.303303,5.375057],[100.306142,5.372],[100.311201,5.371345],[100.313712,5.373019],[100.314877,5.372557]],[[100.314877,5.372557],[100.3142,5.363614],[100.314447,5.360735],[100.310755,5.354181],[100.309648,5.3483],[100.305895,5.334946],[100.303987,5.328085],[100.303657,5.323858],[100.302426,5.320122],[100.298735,5.316569],[100.29449,5.311055]],[[100.29449,5.311055],[100.29253,5.31151],[100.289327,5.312893],[100.28525,5.31464],[100.284159,5.316896],[100.281684,5.316605],[100.280446,5.31726],[100.280373,5.320827],[100.279573,5.320827],[100.276952,5.324103],[100.275642,5.32534],[100.272512,5.32534],[100.272512,5.322865],[100.271638,5.319808],[100.269455,5.318425],[100.267708,5.320245],[100.264942,5.320245],[100.26385,5.319298],[100.262394,5.319735],[100.260792,5.318425],[100.259191,5.31726],[100.256789,5.317551],[100.257007,5.318862],[100.256498,5.319808],[100.255697,5.319735],[100.25577,5.321992],[100.254605,5.321773],[100.253513,5.32352],[100.252276,5.323084],[100.250456,5.324467],[100.248418,5.32403],[100.248491,5.326505],[100.247617,5.327378],[100.24456,5.327597],[100.245215,5.329926],[100.244963,5.330903],[100.245209,5.332741],[100.245855,5.334334],[100.246901,5.335988]],[[100.181493,5.234445],[100.181185,5.232944],[100.180016,5.231596],[100.179832,5.23083],[100.179986,5.228992],[100.17977,5.228196],[100.17894,5.227736],[100.178325,5.227522],[100.177402,5.225622],[100.177002,5.225684],[100.176694,5.225959],[100.17774,5.228226],[100.178601,5.230401],[100.178632,5.231014],[100.178109,5.231964],[100.177309,5.231994],[100.176694,5.232576],[100.176756,5.233281],[100.178478,5.234721],[100.178694,5.235425],[100.179493,5.23616],[100.180539,5.236467],[100.181893,5.236712],[100.181954,5.236528],[100.181431,5.235823],[100.181493,5.234445]],[[100.276271,5.244462],[100.275163,5.243604],[100.273871,5.245687],[100.273318,5.245933],[100.270734,5.244768],[100.270057,5.244952],[100.268888,5.248567],[100.271287,5.24967],[100.272456,5.248138],[100.273564,5.248199],[100.274671,5.249547],[100.275225,5.24967],[100.276702,5.25016],[100.275902,5.248567],[100.276148,5.247342],[100.276517,5.245626],[100.276271,5.244462]],[[100.29449,5.311055],[100.289814,5.307441],[100.286245,5.302663],[100.284646,5.298803],[100.283846,5.294821],[100.2844,5.290165],[100.287291,5.287163],[100.287661,5.285571],[100.291044,5.285326],[100.290552,5.282201],[100.291475,5.28116],[100.291167,5.279383],[100.289937,5.279077],[100.285692,5.274359],[100.284,5.27148],[100.282646,5.26713],[100.282246,5.264435],[100.282646,5.263087],[100.283692,5.262505],[100.283969,5.261923],[100.283754,5.259227],[100.280824,5.257236],[100.279262,5.257236],[100.277909,5.257787],[100.275356,5.257665],[100.272956,5.263026],[100.273387,5.264986],[100.269819,5.268601],[100.26865,5.271296],[100.268896,5.272522],[100.262497,5.277484],[100.255545,5.280608],[100.253146,5.279015],[100.250254,5.279506],[100.247854,5.279199],[100.248285,5.276871],[100.247362,5.274727],[100.244778,5.273441],[100.244032,5.274084],[100.244678,5.275769],[100.241787,5.279261],[100.240764,5.279567],[100.240556,5.280149],[100.241294,5.28067],[100.240833,5.281558],[100.235142,5.285601],[100.230312,5.28698],[100.225298,5.287623],[100.223706,5.286398],[100.223029,5.284774],[100.224045,5.283733],[100.222845,5.281834],[100.222691,5.280516],[100.221576,5.280057],[100.220968,5.281007],[100.216416,5.282661],[100.213247,5.282109],[100.212201,5.282324],[100.211771,5.281895],[100.209679,5.28168],[100.209402,5.280302],[100.20811,5.279873],[100.20771,5.279046],[100.206779,5.278709],[100.204318,5.279138],[100.203534,5.278832],[100.202257,5.279414],[100.200981,5.279751],[100.200119,5.280761],[100.199135,5.280915],[100.198151,5.281895],[100.194182,5.282109],[100.191014,5.281711],[100.188245,5.280363],[100.188445,5.279444],[100.186138,5.276565],[100.1854,5.2739],[100.1858,5.273349],[100.185677,5.271327],[100.186569,5.268938],[100.185738,5.268141],[100.185861,5.266793],[100.184969,5.26664],[100.183662,5.268386],[100.181631,5.270714],[100.181585,5.27246],[100.182062,5.274145],[100.181324,5.277515],[100.179294,5.278556],[100.177878,5.280149],[100.177386,5.284437],[100.178986,5.285172],[100.180093,5.287378],[100.180339,5.28989],[100.182247,5.292156],[100.1844,5.295158],[100.185692,5.296751],[100.1844,5.297609],[100.184215,5.30061],[100.183477,5.302264],[100.1828,5.304592],[100.184462,5.305818],[100.186307,5.308023],[100.187845,5.307839],[100.188768,5.308819],[100.191906,5.308819],[100.192521,5.307717],[100.194551,5.306798],[100.19609,5.308145],[100.197382,5.311025],[100.196336,5.31519],[100.196643,5.317886],[100.19609,5.322051],[100.196213,5.326523]],[[100.23888,5.465778],[100.242325,5.469208],[100.247185,5.474353],[100.248816,5.475455],[100.251338,5.47864],[100.254168,5.480661],[100.254599,5.481824],[100.256506,5.482314],[100.257245,5.481824],[100.259644,5.481947],[100.261428,5.481151],[100.262797,5.479007],[100.26575,5.478395],[100.267411,5.478027],[100.271287,5.479252],[100.272826,5.478211],[100.275102,5.477537],[100.276455,5.475761],[100.277932,5.474965],[100.277994,5.471964],[100.277994,5.467861],[100.280762,5.46682],[100.284454,5.466697],[100.291344,5.468841],[100.292513,5.468412],[100.294559,5.467126],[100.295666,5.465595],[100.296958,5.46535],[100.300788,5.465778],[100.301403,5.464309],[100.302449,5.464186],[100.308233,5.464247],[100.309279,5.463267],[100.308971,5.461369],[100.307756,5.455305],[100.306402,5.452059],[100.30794,5.446486],[100.308556,5.445935],[100.308863,5.443852],[100.309294,5.440729],[100.31397,5.435339]],[[100.31397,5.435339],[100.313057,5.433509],[100.310436,5.427394],[100.30636,5.423172],[100.304368,5.422318]],[[100.304368,5.422318],[100.30328,5.424575],[100.301588,5.427668],[100.300696,5.429383],[100.299712,5.430363],[100.299127,5.432231],[100.298588,5.433229],[100.298404,5.435207],[100.297928,5.437019],[100.298697,5.438209],[100.298002,5.439527],[100.298807,5.441651],[100.300492,5.442017],[100.300052,5.443482],[100.299918,5.444828],[100.295842,5.443299],[100.293003,5.442935],[100.290892,5.441843],[100.289654,5.442717],[100.285287,5.442644],[100.282375,5.440897],[100.281065,5.439296],[100.279004,5.438346],[100.277647,5.436671],[100.276448,5.436763],[100.274694,5.438386],[100.273833,5.440009],[100.274202,5.441234],[100.275709,5.443653],[100.275709,5.445981],[100.276417,5.447389],[100.276171,5.4484],[100.275125,5.450023],[100.275833,5.451799],[100.275617,5.452412],[100.274848,5.452504],[100.273895,5.450391],[100.272172,5.449257],[100.272203,5.447236],[100.272326,5.445889],[100.271649,5.445399],[100.270449,5.445705],[100.269988,5.445093],[100.268357,5.445215],[100.26725,5.44494],[100.266512,5.443347],[100.265681,5.441847],[100.264451,5.441204],[100.263066,5.440407],[100.262328,5.438876],[100.260951,5.438172],[100.259659,5.438202],[100.258706,5.439366],[100.258367,5.44151],[100.258706,5.4435],[100.258152,5.445613],[100.256207,5.446538],[100.253732,5.446684],[100.250966,5.444719],[100.248345,5.444573],[100.245652,5.446757],[100.243978,5.447921],[100.24191,5.448614]],[[100.304368,5.422318],[100.302284,5.421425],[100.30272,5.419023],[100.302866,5.41087]],[[100.302866,5.41087],[100.302393,5.409415],[100.300791,5.408032],[100.299372,5.408723],[100.298244,5.408941],[100.297589,5.40996],[100.296835,5.409523],[100.297081,5.408818],[100.296712,5.408145],[100.29467,5.409196],[100.291892,5.409763],[100.290507,5.408875],[100.289975,5.405817],[100.288089,5.405484],[100.286342,5.405411],[100.284887,5.405557],[100.282921,5.406648],[100.278408,5.403955],[100.277389,5.403154],[100.274457,5.400768],[100.27175,5.398624],[100.268177,5.39859],[100.267188,5.397564],[100.266053,5.398699],[100.264552,5.396685],[100.262099,5.395916],[100.259121,5.392281],[100.258198,5.389647],[100.25602,5.388923],[100.254384,5.385237],[100.253768,5.383093],[100.254015,5.380765],[100.25463,5.37954]],[[100.302866,5.41087],[100.303885,5.40825],[100.304104,5.403591],[100.304141,5.396201],[100.301127,5.394731],[100.297828,5.392008],[100.294615,5.389282],[100.291969,5.386954],[100.287795,5.385929],[100.287798,5.382554],[100.287944,5.377677],[100.287361,5.373092]],[[100.336321,5.417667],[100.330902,5.421017],[100.330225,5.420139],[100.328998,5.420926],[100.328156,5.419901],[100.32713,5.420688],[100.325867,5.421475],[100.324613,5.422162]],[[100.324613,5.422162],[100.324813,5.422808],[100.319784,5.426213],[100.321845,5.429582]],[[100.321845,5.429582],[100.326582,5.426642],[100.332135,5.423947],[100.334227,5.423947],[100.339702,5.423273],[100.341917,5.422661],[100.343701,5.421558],[100.345178,5.42211],[100.346285,5.419843],[100.346593,5.416965],[100.345547,5.416781],[100.344686,5.414637]],[[100.344686,5.414637],[100.343684,5.415893],[100.340918,5.418404],[100.338683,5.418711],[100.336321,5.417667]],[[100.336321,5.417667],[100.335983,5.417146],[100.334765,5.416056],[100.333894,5.415323],[100.332147,5.414243],[100.331891,5.413236],[100.333209,5.411991],[100.330975,5.408989],[100.329602,5.406865],[100.328156,5.406389],[100.32649,5.406572]],[[100.32649,5.406572],[100.326966,5.407652],[100.328307,5.410579],[100.326123,5.410506],[100.324631,5.413264],[100.321237,5.413228]],[[100.321237,5.413228],[100.321318,5.415919],[100.321446,5.41991],[100.323771,5.420203],[100.324613,5.422162]],[[100.344686,5.414637],[100.344193,5.41378],[100.343086,5.414331],[100.336995,5.410778],[100.336503,5.410398],[100.334534,5.40888],[100.33152,5.407226],[100.329305,5.404225],[100.329612,5.403367]],[[100.329612,5.403367],[100.328528,5.403735],[100.327359,5.404684],[100.325832,5.404974],[100.32649,5.406572]],[[100.31397,5.435339],[100.321845,5.429582]],[[100.321237,5.413228],[100.319102,5.413502],[100.316466,5.413831],[100.316356,5.409694],[100.316167,5.405317],[100.315723,5.403857]],[[100.315723,5.403857],[100.314877,5.404392],[100.311101,5.403945],[100.310655,5.405229],[100.309417,5.404792],[100.30909,5.407631],[100.310182,5.411489],[100.309854,5.412545],[100.307343,5.412617],[100.30727,5.410798],[100.306433,5.410106],[100.303594,5.410324],[100.302866,5.41087]],[[100.329612,5.403367],[100.327505,5.401162],[100.326152,5.40153],[100.323629,5.399508],[100.322152,5.397548],[100.320122,5.395404],[100.319184,5.394792],[100.318446,5.390198],[100.316108,5.383032]],[[100.316108,5.383032],[100.315495,5.383974],[100.31404,5.385102],[100.311856,5.38401],[100.310546,5.383428],[100.308726,5.383828],[100.307476,5.383183],[100.306909,5.385087],[100.306305,5.386369],[100.306833,5.386922],[100.307124,5.387286],[100.308908,5.387322],[100.311892,5.386704],[100.313348,5.38765],[100.31393,5.393109],[100.314913,5.394601],[100.315386,5.400534],[100.315723,5.403857]],[[100.316108,5.383032],[100.3158,5.37905],[100.314939,5.377274],[100.315677,5.375865],[100.314877,5.372557]]],"bbox":[100.175402,5.122823,100.550684,5.58519]}
