{"type":"Topology","objects":{"PNG_SE-09":{"type":"GeometryCollection","geometries":[{"type":"Polygon","arcs":[[0,1,2]],"properties":{"state":"Pulau Pinang","parlimen":"P.041 Kepala Batas","code_parlimen":"P.041","dun":"N.01 Penaga","code_dun":"N.01"}},{"type":"Polygon","arcs":[[3,4,5,6,7,-3]],"properties":{"state":"Pulau Pinang","parlimen":"P.041 Kepala Batas","code_parlimen":"P.041","dun":"N.02 Bertam","code_dun":"N.02"}},{"type":"Polygon","arcs":[[-2,8,9,-4]],"properties":{"state":"Pulau Pinang","parlimen":"P.041 Kepala Batas","code_parlimen":"P.041","dun":"N.03 Pinang Tunggal","code_dun":"N.03"}},{"type":"Polygon","arcs":[[-5,-10,10,11,12]],"properties":{"state":"Pulau Pinang","parlimen":"P.042 Tasek Gelugor","code_parlimen":"P.042","dun":"N.04 Permatang Berangan","code_dun":"N.04"}},{"type":"Polygon","arcs":[[13,-6,-13,14,15,16]],"properties":{"state":"Pulau Pinang","parlimen":"P.042 Tasek Gelugor","code_parlimen":"P.042","dun":"N.05 Sungai Dua","code_dun":"N.05"}},{"type":"Polygon","arcs":[[17,-7,-14,18]],"properties":{"state":"Pulau Pinang","parlimen":"P.042 Tasek Gelugor","code_parlimen":"P.042","dun":"N.06 Telok Ayer Tawar","code_dun":"N.06"}},{"type":"Polygon","arcs":[[19,20,21,22,-19,-17]],"properties":{"state":"Pulau Pinang","parlimen":"P.043 Bagan","code_parlimen":"P.043","dun":"N.07 Sungai Puyu","code_dun":"N.07"}},{"type":"Polygon","arcs":[[23,24,25,-22]],"properties":{"state":"Pulau Pinang","parlimen":"P.043 Bagan","code_parlimen":"P.043","dun":"N.08 Bagan Jermal","code_dun":"N.08"}},{"type":"Polygon","arcs":[[26,27,-25,28]],"properties":{"state":"Pulau Pinang","parlimen":"P.043 Bagan","code_parlimen":"P.043","dun":"N.09 Perai","code_dun":"N.09"}},{"type":"Polygon","arcs":[[29,-29,-24,-21,30]],"properties":{"state":"Pulau Pinang","parlimen":"P.044 Permatang Pauh","code_parlimen":"P.044","dun":"N.10 Seberang Jaya","code_dun":"N.10"}},{"type":"Polygon","arcs":[[-20,-16,31,32,-31]],"properties":{"state":"Pulau Pinang","parlimen":"P.044 Permatang Pauh","code_parlimen":"P.044","dun":"N.11 Permatang Pasir","code_dun":"N.11"}},{"type":"Polygon","arcs":[[-15,-12,33,34,35,-32]],"properties":{"state":"Pulau Pinang","parlimen":"P.044 Permatang Pauh","code_parlimen":"P.044","dun":"N.12 Penanti","code_dun":"N.12"}},{"type":"Polygon","arcs":[[36,-33,-36,37]],"properties":{"state":"Pulau Pinang","parlimen":"P.045 Bukit Mertajam","code_parlimen":"P.045","dun":"N.13 Berapit","code_dun":"N.13"}},{"type":"Polygon","arcs":[[-38,-35,38,39,40]],"properties":{"state":"Pulau Pinang","parlimen":"P.045 Bukit Mertajam","code_parlimen":"P.045","dun":"N.14 Machang Bubuk","code_dun":"N.14"}},{"type":"Polygon","arcs":[[41,42,43,-27,-30,-37,-41]],"properties":{"state":"Pulau Pinang","parlimen":"P.045 Bukit Mertajam","code_parlimen":"P.045","dun":"N.15 Bukit Tengah","code_dun":"N.15"}},{"type":"Polygon","arcs":[[44,-42,-40,45,46]],"properties":{"state":"Pulau Pinang","parlimen":"P.046 Nibong Tebal","code_parlimen":"P.046","dun":"N.16 Sungai Bakap","code_dun":"N.16"}},{"type":"Polygon","arcs":[[47,-43,-45,48]],"properties":{"state":"Pulau Pinang","parlimen":"P.046 Nibong Tebal","code_parlimen":"P.046","dun":"N.17 Jawi","code_dun":"N.17"}},{"type":"Polygon","arcs":[[49,-49,-47]],"properties":{"state":"Pulau Pinang","parlimen":"P.046 Nibong Tebal","code_parlimen":"P.046","dun":"N.18 Sungai Acheh","code_dun":"N.18"}},{"type":"Polygon","arcs":[[50,51,52,53]],"properties":{"state":"Pulau Pinang","parlimen":"P.047 Bukit Bendera","code_parlimen":"P.047","dun":"N.19 Tanjong Bunga","code_dun":"N.19"}},{"type":"Polygon","arcs":[[54,55,56,57,-54,58]],"properties":{"state":"Pulau Pinang","parlimen":"P.047 Bukit Bendera","code_parlimen":"P.047","dun":"N.20 Air Itam","code_dun":"N.20"}},{"type":"Polygon","arcs":[[59,-59,-53,60,61,62,63]],"properties":{"state":"Pulau Pinang","parlimen":"P.047 Bukit Bendera","code_parlimen":"P.047","dun":"N.21 Kebun Bunga","code_dun":"N.21"}},{"type":"Polygon","arcs":[[64,65,66,-62]],"properties":{"state":"Pulau Pinang","parlimen":"P.048 Tanjong","code_parlimen":"P.048","dun":"N.22 Padang Kota","code_dun":"N.22"}},{"type":"Polygon","arcs":[[-66,67,68,69]],"properties":{"state":"Pulau Pinang","parlimen":"P.048 Tanjong","code_parlimen":"P.048","dun":"N.23 Pengkalan Kota","code_dun":"N.23"}},{"type":"Polygon","arcs":[[70,71,-63,-67,-70]],"properties":{"state":"Pulau Pinang","parlimen":"P.048 Tanjong","code_parlimen":"P.048","dun":"N.24 Kampong Kolam","code_dun":"N.24"}},{"type":"Polygon","arcs":[[72,73,-64,-72,74]],"properties":{"state":"Pulau Pinang","parlimen":"P.049 Jelutong","code_parlimen":"P.049","dun":"N.25 Datok Keramat","code_dun":"N.25"}},{"type":"Polygon","arcs":[[-71,-69,75,76,77,78,-75]],"properties":{"state":"Pulau Pinang","parlimen":"P.049 Jelutong","code_parlimen":"P.049","dun":"N.26 Sungai Pinang","code_dun":"N.26"}},{"type":"Polygon","arcs":[[-73,-79,79]],"properties":{"state":"Pulau Pinang","parlimen":"P.049 Jelutong","code_parlimen":"P.049","dun":"N.27 Batu Lanchang","code_dun":"N.27"}},{"type":"Polygon","arcs":[[-78,80,81,-55,-60,-74,-80]],"properties":{"state":"Pulau Pinang","parlimen":"P.050 Bayan Baru","code_parlimen":"P.050","dun":"N.28 Bukit Gelugor","code_dun":"N.28"}},{"type":"Polygon","arcs":[[-82,82,83,84,-56]],"properties":{"state":"Pulau Pinang","parlimen":"P.050 Bayan Baru","code_parlimen":"P.050","dun":"N.29 Paya Terubong","code_dun":"N.29"}},{"type":"Polygon","arcs":[[-77,85,86,-83,-81]],"properties":{"state":"Pulau Pinang","parlimen":"P.050 Bayan Baru","code_parlimen":"P.050","dun":"N.30 Batu Uban","code_dun":"N.30"}},{"type":"MultiPolygon","arcs":[[[87,88,-84,-87]],[[89]]],"properties":{"state":"Pulau Pinang","parlimen":"P.051 Balik Pulau","code_parlimen":"P.051","dun":"N.31 Bayan Lepas","code_dun":"N.31"}},{"type":"Polygon","arcs":[[90,91,-57,-85,-89]],"properties":{"state":"Pulau Pinang","parlimen":"P.051 Balik Pulau","code_parlimen":"P.051","dun":"N.32 Telok Kumbar","code_dun":"N.32"}},{"type":"Polygon","arcs":[[92,-51,-58,-92]],"properties":{"state":"Pulau Pinang","parlimen":"P.051 Balik Pulau","code_parlimen":"P.051","dun":"N.33 Telok Bahang","code_dun":"N.33"}}]}},"arcs":[[[100.375061,5.523464],[100.374735,5.526946],[100.373301,5.534326],[100.370906,5.540763],[100.367334,5.548574],[100.361286,5.560142],[100.360501,5.559375],[100.355265,5.561583],[100.347606,5.568855],[100.342116,5.570155],[100.341869,5.56864],[100.340543,5.56969],[100.338933,5.572653],[100.338911,5.577444],[100.344579,5.577399],[100.361179,5.573504],[100.366398,5.575474],[100.368332,5.579101],[100.368377,5.583085],[100.370177,5.58519],[100.372516,5.58519],[100.3749,5.580354],[100.379264,5.579593],[100.381603,5.583757],[100.383673,5.584921],[100.385697,5.583847],[100.387406,5.577534],[100.39357,5.579459],[100.404186,5.573907],[100.40981,5.56634],[100.424835,5.56249],[100.431673,5.5654],[100.432123,5.5624],[100.433427,5.560699],[100.43479,5.56094]],[[100.43479,5.56094],[100.435683,5.558626],[100.435868,5.552018],[100.435091,5.544974],[100.43475,5.543268],[100.431834,5.539289],[100.431045,5.534535],[100.429979,5.53115]],[[100.429979,5.53115],[100.428356,5.532031],[100.423046,5.535138],[100.417203,5.523869],[100.406862,5.527904],[100.406305,5.532356],[100.405378,5.536251],[100.404868,5.538477],[100.385385,5.535846],[100.381369,5.532633],[100.383002,5.529956],[100.383953,5.528368],[100.383559,5.527139],[100.38284,5.526258],[100.381634,5.526536],[100.380933,5.526912],[100.380104,5.526721],[100.377067,5.52482],[100.375061,5.523464]],[[100.429979,5.53115],[100.431393,5.531034],[100.43355,5.528507],[100.435033,5.527371],[100.436031,5.525307],[100.43617,5.522455],[100.437143,5.521713],[100.437329,5.517169],[100.447995,5.517702],[100.448853,5.517029],[100.44825,5.509702],[100.447542,5.499238],[100.447021,5.49433]],[[100.447021,5.49433],[100.444531,5.495573],[100.441802,5.496852],[100.438348,5.496596],[100.436471,5.496416]],[[100.436471,5.496416],[100.433712,5.496161],[100.430981,5.496363],[100.42919,5.497344],[100.42977,5.498828],[100.433619,5.499523],[100.435362,5.500932],[100.435443,5.502575],[100.432344,5.504207],[100.428425,5.505111],[100.426345,5.50493],[100.41884,5.504611],[100.411606,5.505863],[100.406143,5.506665],[100.402108,5.502932]],[[100.402108,5.502932],[100.400416,5.504856],[100.398715,5.506604],[100.395338,5.503767],[100.391025,5.501077],[100.384417,5.497066],[100.380521,5.498063],[100.379014,5.496926],[100.376792,5.496239]],[[100.376792,5.496239],[100.376278,5.501249],[100.376034,5.511862],[100.375357,5.519781],[100.375096,5.52271],[100.375061,5.523464]],[[100.43479,5.56094],[100.4356,5.561366],[100.435992,5.564684],[100.44004,5.56531],[100.443009,5.567191],[100.444539,5.567057],[100.445844,5.565579],[100.446204,5.562176],[100.447913,5.560788],[100.449892,5.561594],[100.450297,5.565758],[100.451782,5.567639],[100.453941,5.567683],[100.456415,5.56531],[100.459699,5.563519],[100.462983,5.565579],[100.469326,5.565445],[100.471801,5.562042],[100.474275,5.561773],[100.478504,5.565176],[100.481878,5.564281],[100.485342,5.560878],[100.487096,5.56137],[100.487096,5.570101],[100.49164,5.566743],[100.504776,5.567057],[100.506755,5.564594],[100.50689,5.560161],[100.508959,5.559042],[100.514448,5.561281],[100.519036,5.558818],[100.52232,5.559042],[100.523895,5.557967],[100.522995,5.553938],[100.523715,5.550669],[100.525694,5.549444],[100.526999,5.550982],[100.527539,5.554296],[100.529203,5.556221],[100.528929,5.547136],[100.528749,5.541313],[100.527784,5.510696],[100.527525,5.498132]],[[100.527525,5.498132],[100.521961,5.499987],[100.520222,5.500126],[100.518459,5.498387],[100.515955,5.496903],[100.512037,5.496254],[100.507724,5.494051],[100.504316,5.48997],[100.503525,5.487482],[100.502928,5.48535],[100.499771,5.486121],[100.501904,5.49484],[100.504084,5.504207],[100.498241,5.506155],[100.492398,5.509308],[100.489893,5.5043],[100.48725,5.501517],[100.486925,5.500404],[100.489244,5.498225],[100.485071,5.496138],[100.481361,5.493634],[100.481082,5.490805],[100.478439,5.488069],[100.476472,5.487863],[100.47408,5.488788],[100.470903,5.487234],[100.465408,5.489252],[100.458614,5.488231],[100.457525,5.491709],[100.457919,5.495512],[100.457409,5.497182],[100.454858,5.498179],[100.452238,5.49797],[100.451009,5.496208],[100.451566,5.493286],[100.448969,5.493564],[100.447021,5.49433]],[[100.527525,5.498132],[100.527359,5.495727],[100.527029,5.483587],[100.526675,5.470584],[100.525537,5.428733]],[[100.525537,5.428733],[100.524913,5.427909],[100.524473,5.428674],[100.523685,5.429277],[100.522398,5.42974],[100.522085,5.431282],[100.520563,5.433239],[100.518259,5.433091],[100.516358,5.432384],[100.513807,5.432697],[100.513274,5.433903],[100.511257,5.435224],[100.509216,5.435213],[100.506318,5.433729],[100.503037,5.433323],[100.501622,5.434923],[100.500498,5.434888],[100.499153,5.436024],[100.497404,5.436109],[100.495571,5.43483],[100.495687,5.433068],[100.494875,5.432164],[100.493322,5.432419],[100.492603,5.430193],[100.491204,5.428847],[100.488442,5.429526],[100.486161,5.429761],[100.483815,5.432535],[100.482192,5.431769],[100.478088,5.432465],[100.477439,5.435085],[100.476001,5.43636],[100.473474,5.436291],[100.472384,5.437172],[100.470843,5.439358],[100.469978,5.439757],[100.468722,5.439951],[100.467539,5.438101],[100.465619,5.438088],[100.46383,5.439061],[100.462048,5.440905],[100.461475,5.442699],[100.46011,5.445406],[100.457491,5.446123],[100.456586,5.445771],[100.456505,5.443537],[100.455092,5.44225],[100.454202,5.443921],[100.453006,5.44378],[100.452582,5.444305],[100.452681,5.445809]],[[100.452681,5.445809],[100.453463,5.446493],[100.454205,5.447258],[100.452768,5.448858],[100.453116,5.449646],[100.455017,5.450574],[100.454669,5.451409],[100.452211,5.451942],[100.451678,5.453055],[100.452953,5.454075],[100.454785,5.452151],[100.455689,5.45324],[100.455527,5.454307],[100.456246,5.454307],[100.457173,5.456579],[100.458541,5.455791],[100.459214,5.456278],[100.459817,5.459083],[100.461811,5.459107],[100.462599,5.458086],[100.463573,5.458295],[100.466379,5.456834],[100.469184,5.456765],[100.470483,5.457924],[100.470691,5.459501],[100.458936,5.467732],[100.456965,5.469587],[100.455388,5.468451],[100.453046,5.468845],[100.452698,5.469564],[100.453463,5.472856],[100.450751,5.473621],[100.451701,5.475407],[100.451307,5.476288],[100.452351,5.478792],[100.451956,5.479511],[100.450426,5.478398],[100.448293,5.477517],[100.446948,5.475894],[100.445835,5.47594],[100.443841,5.478676],[100.441383,5.479975],[100.441476,5.475894],[100.441615,5.47121],[100.438972,5.47172],[100.436931,5.470932],[100.435679,5.472323],[100.436346,5.474516],[100.436723,5.476033],[100.435772,5.477007],[100.43612,5.479233],[100.438438,5.483986],[100.437325,5.485493],[100.437789,5.486907],[100.435842,5.489041],[100.436839,5.4918],[100.435795,5.493168],[100.436471,5.496416]],[[100.39832,5.45586],[100.39832,5.456834],[100.398946,5.458666],[100.398667,5.460034],[100.39716,5.460892],[100.396279,5.46488],[100.394981,5.466874],[100.394685,5.469143],[100.393752,5.471732],[100.401172,5.472659],[100.406829,5.473865],[100.418747,5.480033],[100.419443,5.483371],[100.416369,5.483698],[100.415779,5.486038],[100.416034,5.48787],[100.415026,5.490625],[100.414067,5.492331],[100.41236,5.49293],[100.410771,5.493087],[100.408939,5.493968],[100.408754,5.495116],[100.407745,5.495695],[100.408151,5.497295],[100.406991,5.497492],[100.406783,5.498675],[100.405357,5.498628],[100.404974,5.500124],[100.4024,5.502176],[100.402108,5.502932]],[[100.452681,5.445809],[100.452066,5.446702],[100.450907,5.44756],[100.449759,5.445658],[100.448426,5.445589],[100.448094,5.447545],[100.446305,5.447791],[100.447441,5.449785],[100.446594,5.450585],[100.443275,5.449464],[100.44255,5.450445],[100.445024,5.451809],[100.443744,5.453046],[100.442116,5.453602],[100.43884,5.452049],[100.440504,5.444646],[100.439412,5.44418],[100.437785,5.445285],[100.43689,5.444646],[100.438041,5.4423],[100.437828,5.440808],[100.438873,5.439862],[100.44038,5.440789],[100.441841,5.440766],[100.443696,5.439514],[100.444716,5.440951],[100.443937,5.442684],[100.444821,5.444134],[100.446697,5.443111],[100.447081,5.442172],[100.446989,5.439931],[100.444992,5.438761],[100.442168,5.436207],[100.440348,5.438485],[100.439128,5.438335],[100.439012,5.436615],[100.439453,5.435062],[100.439128,5.433303]],[[100.439128,5.433303],[100.435717,5.431896],[100.435225,5.432997],[100.436786,5.434876],[100.437828,5.437055],[100.436637,5.437632],[100.435024,5.437381],[100.433858,5.436446],[100.433216,5.433068],[100.431121,5.431545],[100.429405,5.432477],[100.42966,5.43575],[100.428308,5.437354],[100.426094,5.435149],[100.4255,5.43367],[100.425916,5.429943],[100.424252,5.42927],[100.421159,5.433369],[100.417421,5.4346],[100.415362,5.434552],[100.413852,5.43328],[100.412881,5.431862],[100.411848,5.428165],[100.410782,5.42744],[100.40887,5.427317]],[[100.40887,5.427317],[100.407786,5.429984],[100.407484,5.432233],[100.408365,5.433717],[100.407577,5.43483],[100.409154,5.437102],[100.407878,5.437334],[100.407554,5.438934],[100.405815,5.438215],[100.405977,5.439838],[100.404864,5.440673],[100.405652,5.441925],[100.404771,5.442853],[100.40505,5.444197],[100.404029,5.445171],[100.401247,5.44531],[100.400737,5.446702],[100.401664,5.447768],[100.400366,5.449391],[100.39832,5.45586]],[[100.379782,5.445712],[100.380463,5.452774],[100.380827,5.460902],[100.380034,5.470608],[100.379046,5.480755],[100.37811,5.491574],[100.37733,5.493748],[100.376792,5.496239]],[[100.39832,5.45586],[100.396146,5.45542],[100.395914,5.454121],[100.393595,5.453472],[100.394013,5.451895],[100.391555,5.451571],[100.391091,5.450504],[100.394615,5.447629],[100.394842,5.446632],[100.391156,5.445494],[100.387654,5.444638],[100.385799,5.444105],[100.383248,5.443571],[100.381718,5.444847],[100.379782,5.445712]],[[100.40887,5.427317],[100.405538,5.427782],[100.402126,5.428464],[100.400463,5.427994],[100.399866,5.425862],[100.400708,5.422263],[100.402748,5.418831],[100.402563,5.416883],[100.399397,5.415223],[100.398459,5.412617],[100.400708,5.410994],[100.404557,5.409829]],[[100.404557,5.409829],[100.405051,5.408276],[100.403429,5.406197],[100.40151,5.405216],[100.398861,5.404774],[100.397136,5.406351],[100.395879,5.411087],[100.394024,5.413027],[100.392257,5.412976]],[[100.392257,5.412976],[100.391815,5.414112],[100.390259,5.414617],[100.385784,5.414775],[100.379196,5.414711],[100.380454,5.418975],[100.380395,5.420211],[100.381573,5.422314],[100.38172,5.424564],[100.383424,5.427277],[100.384055,5.429927],[100.385527,5.43304],[100.386032,5.436258],[100.385211,5.436678],[100.383865,5.435753],[100.380437,5.436068],[100.37804,5.436657]],[[100.37804,5.436657],[100.378382,5.438273],[100.379782,5.445712]],[[100.392257,5.412976],[100.387744,5.409751],[100.386679,5.407441],[100.386831,5.404963],[100.3883,5.403091],[100.390645,5.40049],[100.39131,5.397708]],[[100.39131,5.397708],[100.390743,5.39693],[100.389502,5.396425],[100.388342,5.396567],[100.388274,5.397699],[100.387165,5.400556],[100.385102,5.402367],[100.382415,5.40258],[100.374675,5.399601],[100.374927,5.40225],[100.375789,5.405027],[100.372509,5.405952],[100.371457,5.401746],[100.371962,5.4],[100.371415,5.398381],[100.369333,5.397308],[100.367043,5.396098],[100.365294,5.395608],[100.363458,5.394737]],[[100.363458,5.394737],[100.363562,5.399603],[100.37001,5.412236],[100.372011,5.417632],[100.376875,5.43046],[100.37804,5.436657]],[[100.407862,5.367486],[100.40761,5.366729],[100.408282,5.363532],[100.406306,5.361555],[100.406474,5.360209],[100.409334,5.360335],[100.409923,5.358905],[100.41211,5.359578],[100.412068,5.358317],[100.412741,5.357265],[100.410638,5.356508],[100.412068,5.355414],[100.410974,5.354615],[100.412615,5.353269],[100.411059,5.352217],[100.412699,5.350998],[100.410596,5.350156],[100.412741,5.349189],[100.411353,5.348222],[100.412573,5.347002],[100.410091,5.346539],[100.410133,5.34574],[100.411605,5.344983],[100.412026,5.344373],[100.408661,5.341849],[100.405801,5.339998]],[[100.405801,5.339998],[100.405175,5.341066],[100.402037,5.342903],[100.397561,5.347544],[100.394516,5.348187],[100.391747,5.350346],[100.385864,5.358248],[100.383788,5.360499],[100.38125,5.362704],[100.378258,5.368552],[100.377028,5.373592],[100.374379,5.377547],[100.372403,5.376512],[100.368762,5.382518],[100.370114,5.386453],[100.368762,5.389973],[100.363458,5.394737]],[[100.39131,5.397708],[100.393624,5.395247],[100.393371,5.393691],[100.394696,5.392976],[100.393918,5.391777],[100.395727,5.391125],[100.394949,5.389779],[100.396942,5.389005],[100.39788,5.387811],[100.396021,5.383596],[100.394486,5.379894],[100.40273,5.37573],[100.408661,5.372618],[100.407357,5.371608],[100.407862,5.37043],[100.406642,5.369463],[100.40639,5.367949],[100.407862,5.367486]],[[100.449461,5.36492],[100.446454,5.365698],[100.442542,5.365888],[100.438126,5.364142],[100.432784,5.361787],[100.430512,5.360609],[100.427965,5.361019],[100.425449,5.361829],[100.419681,5.364226],[100.413793,5.365993],[100.408955,5.367886],[100.407862,5.367486]],[[100.404557,5.409829],[100.406726,5.409632],[100.406273,5.405629],[100.405801,5.400715],[100.404308,5.398423],[100.40435,5.39714],[100.405948,5.396572],[100.40885,5.398128],[100.411858,5.39836],[100.413014,5.397813],[100.416001,5.396824],[100.417116,5.396888],[100.419345,5.399012],[100.426622,5.399075],[100.429629,5.39897],[100.434172,5.400484],[100.435728,5.400715],[100.436906,5.397392],[100.437074,5.394869],[100.438904,5.393607],[100.438862,5.391419],[100.439703,5.390873],[100.443089,5.392156],[100.444098,5.391735],[100.444393,5.390137],[100.44393,5.38797],[100.442876,5.387856],[100.441953,5.387213],[100.441911,5.384963],[100.44238,5.384031],[100.443825,5.383259],[100.445565,5.382341],[100.44626,5.38046],[100.447737,5.377244],[100.448389,5.373837],[100.449188,5.372618],[100.448557,5.371461],[100.448578,5.368811],[100.448894,5.367044],[100.449461,5.36492]],[[100.439128,5.433303],[100.43975,5.43223],[100.44342,5.430148],[100.44485,5.430106],[100.445649,5.427362],[100.444261,5.427446],[100.444114,5.425574],[100.444808,5.424943],[100.444871,5.423681],[100.446301,5.423176],[100.444829,5.421389],[100.446049,5.420463],[100.451454,5.420022],[100.451727,5.418949],[100.45341,5.419853],[100.45566,5.419012],[100.457343,5.419853],[100.458079,5.421094],[100.459215,5.421241],[100.459993,5.420568],[100.461822,5.421157],[100.463337,5.422083],[100.464157,5.421115],[100.464935,5.421978],[100.465061,5.422903],[100.466349,5.422861],[100.465718,5.419496],[100.462227,5.414448],[100.461975,5.412135],[100.463454,5.409405],[100.463526,5.407294],[100.465172,5.405195],[100.464246,5.403134],[100.463573,5.401662],[100.464625,5.399895],[100.464288,5.392702],[100.462438,5.388664],[100.462017,5.385678],[100.462606,5.384795],[100.462564,5.382565],[100.464204,5.3792],[100.464436,5.377705],[100.464246,5.375289],[100.462984,5.370704],[100.461765,5.366918],[100.461964,5.365951]],[[100.461964,5.365951],[100.461428,5.364815],[100.460461,5.364773],[100.459956,5.366582],[100.458231,5.368222],[100.456801,5.368601],[100.455287,5.368222],[100.452637,5.366098],[100.449461,5.36492]],[[100.525537,5.428733],[100.524332,5.377686]],[[100.524332,5.377686],[100.522481,5.377371],[100.521072,5.377749],[100.519748,5.377199],[100.517013,5.37859],[100.515585,5.378178],[100.514176,5.376669],[100.512281,5.376025],[100.510557,5.376593],[100.508832,5.378296],[100.507549,5.378359],[100.505341,5.377644],[100.503593,5.37807],[100.501766,5.377434],[100.500567,5.377392],[100.499326,5.379852],[100.497577,5.38193],[100.496865,5.383533],[100.495015,5.385384],[100.492962,5.385514],[100.491587,5.386183]],[[100.491587,5.386183],[100.491082,5.386856],[100.490505,5.387841],[100.488958,5.389358],[100.487522,5.389326],[100.486183,5.388591],[100.484541,5.386877],[100.482834,5.386877],[100.481403,5.386555],[100.479536,5.385489],[100.477853,5.386162],[100.476361,5.386972],[100.474783,5.387825],[100.472779,5.388208],[100.471039,5.387634],[100.470408,5.383091],[100.469525,5.37573],[100.469041,5.370199],[100.468158,5.365446],[100.46555,5.366413],[100.46391,5.366161],[100.462564,5.36675],[100.461964,5.365951]],[[100.467869,5.342636],[100.466675,5.34673],[100.465694,5.350525],[100.464756,5.352486],[100.465246,5.354874],[100.463626,5.357603],[100.461281,5.36093],[100.457955,5.364042],[100.453776,5.365279],[100.449461,5.36492]],[[100.491587,5.386183],[100.49178,5.384159],[100.491578,5.383217],[100.492175,5.381504],[100.494463,5.379327],[100.494421,5.377623],[100.495851,5.376319],[100.495927,5.375023],[100.49482,5.371713],[100.494042,5.371356],[100.48971,5.372281],[100.487438,5.372912],[100.486113,5.372218],[100.485199,5.369895],[100.483926,5.368727],[100.482727,5.368685],[100.48176,5.369379],[100.481718,5.367844],[100.480834,5.368117],[100.480729,5.366308],[100.479741,5.365425],[100.478395,5.366477],[100.478058,5.364983],[100.476418,5.364752],[100.475718,5.363281],[100.475533,5.362454],[100.476502,5.36227],[100.478016,5.363532],[100.479194,5.363511],[100.480456,5.362312],[100.482832,5.361787],[100.483821,5.360525],[100.483842,5.359116],[100.485461,5.35859],[100.486716,5.35916],[100.489268,5.357622],[100.492023,5.357791],[100.491623,5.356403],[100.492601,5.355194],[100.491518,5.35289],[100.49053,5.350766],[100.489752,5.350556],[100.48849,5.351881],[100.48706,5.351313],[100.486324,5.352638],[100.48483,5.354068],[100.483611,5.353059],[100.481465,5.354636],[100.479641,5.35493],[100.478332,5.354089],[100.476397,5.35512],[100.475934,5.353774],[100.47463,5.353921],[100.474399,5.352722],[100.472948,5.352722],[100.473305,5.349652],[100.472233,5.345088],[100.470109,5.343195],[100.467869,5.342636]],[[100.524332,5.377686],[100.524277,5.375348],[100.524351,5.365315],[100.534031,5.285001]],[[100.534031,5.285001],[100.532865,5.286264],[100.53255,5.28822],[100.530846,5.289713],[100.529017,5.290955],[100.52607,5.2948],[100.524537,5.295707],[100.52284,5.297465],[100.520318,5.297351],[100.51793,5.29846],[100.516098,5.297212],[100.514116,5.29761],[100.511813,5.295539],[100.510593,5.297852],[100.508617,5.298904],[100.505988,5.298672],[100.503758,5.299724],[100.501066,5.298147],[100.500325,5.295978],[100.497449,5.293709],[100.4936,5.292531],[100.489836,5.290554],[100.485609,5.292384],[100.482433,5.291248],[100.480561,5.292657],[100.478681,5.293239]],[[100.478681,5.293239],[100.478658,5.294613],[100.47769,5.298525],[100.474452,5.302984],[100.472012,5.304077],[100.469404,5.306685],[100.465955,5.310765],[100.461244,5.316528],[100.459562,5.316065],[100.457374,5.317411],[100.454598,5.316528],[100.453967,5.317621],[100.454682,5.320187],[100.454525,5.321701],[100.451307,5.322332],[100.448741,5.323889],[100.447206,5.327085],[100.447206,5.33188],[100.446112,5.333416],[100.446617,5.336129],[100.444724,5.336739],[100.444673,5.337612],[100.446224,5.340385],[100.446365,5.342585],[100.446848,5.343342],[100.447913,5.342783],[100.447732,5.340798],[100.447732,5.338022],[100.448026,5.336844],[100.449414,5.336928],[100.450592,5.338106],[100.451223,5.337138],[100.452989,5.339283],[100.45585,5.33861],[100.459551,5.337769],[100.460308,5.336465],[100.463799,5.335834],[100.468258,5.335119],[100.468721,5.339115],[100.467869,5.342636]],[[100.478681,5.293239],[100.477574,5.292504],[100.477341,5.289017],[100.476326,5.288466],[100.475114,5.289849],[100.473877,5.289231],[100.473347,5.286306],[100.471917,5.285002],[100.471076,5.286138],[100.47176,5.28765],[100.473011,5.291417],[100.471602,5.292153],[100.470655,5.291711],[100.470403,5.289987],[100.469646,5.29005],[100.469415,5.291038],[100.468258,5.292279],[100.465607,5.293207],[100.46401,5.291417],[100.46544,5.289019],[100.469183,5.287379],[100.470046,5.286138],[100.468552,5.284645],[100.465061,5.285696],[100.462453,5.285444],[100.460371,5.285885],[100.458282,5.283813],[100.456159,5.283262],[100.454377,5.283362],[100.453137,5.285339],[100.45362,5.287757],[100.452905,5.288746],[100.451685,5.288157],[100.451328,5.286853],[100.450255,5.28517],[100.448888,5.28475]],[[100.448888,5.28475],[100.447101,5.285675],[100.445313,5.285633],[100.443525,5.284729],[100.442784,5.283371],[100.44344,5.281111],[100.444025,5.279231],[100.443193,5.277269],[100.441254,5.276001],[100.438928,5.275093],[100.436459,5.275186],[100.435084,5.27638],[100.434142,5.281789],[100.432821,5.284539],[100.429212,5.285578],[100.425768,5.284493],[100.42216,5.282258],[100.420097,5.281385]],[[100.420097,5.281385],[100.419779,5.283589],[100.418072,5.284921],[100.416642,5.288505],[100.413642,5.304173],[100.410551,5.312948],[100.407275,5.317589],[100.405636,5.317083],[100.404667,5.317313],[100.403422,5.320713],[100.403145,5.325169],[100.404298,5.325767],[100.405175,5.328431],[100.405683,5.336563],[100.406236,5.338631],[100.405801,5.339998]],[[100.497172,5.188985],[100.497257,5.190094],[100.496591,5.194592],[100.497273,5.195871],[100.499422,5.196935],[100.499925,5.197961],[100.498436,5.199088],[100.49747,5.201121],[100.496886,5.202449],[100.498013,5.204059],[100.498134,5.20614],[100.498006,5.210191],[100.497388,5.214072],[100.497551,5.216596],[100.495015,5.217361],[100.493224,5.218971],[100.491578,5.219363],[100.490709,5.221808],[100.489582,5.226034],[100.486784,5.239135],[100.489602,5.235532],[100.502161,5.247931],[100.502161,5.248659],[100.494701,5.253601],[100.492982,5.252688],[100.486458,5.257377],[100.485669,5.257356],[100.475664,5.264729],[100.475075,5.264558],[100.473324,5.261399],[100.472902,5.259286],[100.471634,5.258883],[100.467944,5.260722],[100.466963,5.262129],[100.464772,5.264719],[100.462598,5.26645],[100.461451,5.269046],[100.457899,5.273725],[100.45966,5.274369],[100.458957,5.277226],[100.457527,5.277317],[100.455716,5.278674],[100.453904,5.280785],[100.45157,5.281523],[100.449751,5.283299],[100.448888,5.28475]],[[100.534031,5.285001],[100.538064,5.250198],[100.538373,5.247922],[100.543434,5.204686],[100.550684,5.142762],[100.543711,5.138461],[100.539078,5.137744],[100.514335,5.144017],[100.507812,5.145002],[100.503134,5.142404]],[[100.503134,5.142404],[100.502974,5.143597],[100.502813,5.145529],[100.502352,5.148093],[100.501646,5.149292],[100.501915,5.151441],[100.502209,5.152653],[100.503437,5.157141],[100.500941,5.157784],[100.501243,5.160863],[100.50402,5.160441],[100.506194,5.170805],[100.505429,5.172495],[100.504342,5.174789],[100.502853,5.17652],[100.500076,5.178049],[100.497249,5.177979],[100.496786,5.178723],[100.497113,5.180237],[100.49653,5.180673],[100.497068,5.183664],[100.497172,5.188985]],[[100.424925,5.168935],[100.424947,5.16894],[100.425916,5.169997],[100.422502,5.173444],[100.421833,5.173122],[100.416757,5.17565],[100.416619,5.176477],[100.418372,5.180291],[100.420864,5.189482],[100.421602,5.197018],[100.421879,5.198167],[100.422156,5.20189],[100.423263,5.20699],[100.424371,5.208323],[100.42677,5.207404],[100.428477,5.207496],[100.429077,5.206944],[100.431015,5.208323],[100.431523,5.209242],[100.431154,5.210253],[100.429677,5.21131],[100.426574,5.214664],[100.424174,5.216548],[100.424128,5.218478],[100.424867,5.219949],[100.424867,5.222844],[100.421498,5.233183],[100.420898,5.238375],[100.417807,5.246554],[100.412362,5.258501],[100.41167,5.261074],[100.406732,5.262682],[100.406133,5.265807],[100.408947,5.26691],[100.409397,5.269896],[100.416088,5.27734],[100.420287,5.280648],[100.420097,5.281385]],[[100.497172,5.188985],[100.495874,5.189468],[100.490487,5.19187],[100.485607,5.182999],[100.479721,5.186275],[100.479291,5.185688],[100.479381,5.180953],[100.47939,5.174874],[100.479574,5.171979],[100.47957,5.163882],[100.477666,5.163989],[100.474863,5.161683],[100.47401,5.157461],[100.472944,5.155757],[100.470247,5.153796],[100.469428,5.15217],[100.469387,5.149997],[100.46822,5.14726],[100.466409,5.146374],[100.464448,5.147227],[100.463211,5.149402],[100.463069,5.151969],[100.463833,5.154102],[100.463753,5.156718],[100.461861,5.159133],[100.459768,5.159213],[100.457272,5.157764],[100.45303,5.15755],[100.44868,5.156484],[100.445695,5.156996],[100.444459,5.158233],[100.445013,5.160322],[100.448097,5.16356],[100.449304,5.166015],[100.449143,5.168591],[100.447412,5.170301],[100.444607,5.171475],[100.441681,5.172882],[100.438457,5.172901],[100.436633,5.171183],[100.433929,5.167866],[100.431756,5.166458],[100.429543,5.166257],[100.427087,5.167766],[100.424925,5.168935]],[[100.503134,5.142404],[100.501223,5.142209],[100.497883,5.141947],[100.495396,5.13985],[100.491482,5.133308],[100.407898,5.122823],[100.400688,5.126016],[100.400411,5.127028],[100.403133,5.132359],[100.404564,5.136955],[100.406836,5.140447],[100.411785,5.150006],[100.412708,5.153729],[100.417657,5.162966],[100.422825,5.16724],[100.423148,5.168481],[100.424925,5.168935]],[[100.242432,5.449216],[100.242479,5.450015],[100.24239,5.452734],[100.240561,5.45473],[100.241867,5.457166],[100.241829,5.459399],[100.242855,5.460968],[100.242915,5.46286],[100.242312,5.463363],[100.241285,5.462699],[100.239937,5.46292],[100.237864,5.465315]],[[100.237864,5.465315],[100.242325,5.469208],[100.247185,5.474353],[100.248816,5.475455],[100.251338,5.47864],[100.254168,5.480661],[100.254599,5.481824],[100.256506,5.482314],[100.257245,5.481824],[100.259644,5.481947],[100.261428,5.481151],[100.262797,5.479007],[100.26575,5.478395],[100.267411,5.478027],[100.271287,5.479252],[100.272826,5.478211],[100.275102,5.477537],[100.276455,5.475761],[100.277932,5.474965],[100.277994,5.471964],[100.277994,5.467861],[100.280762,5.46682],[100.284454,5.466697],[100.291344,5.468841],[100.292513,5.468412],[100.294559,5.467126],[100.295666,5.465595],[100.296958,5.46535],[100.300788,5.465778],[100.301403,5.464309],[100.302449,5.464186],[100.308233,5.464247],[100.309279,5.463267],[100.308971,5.461369],[100.307756,5.455305],[100.306402,5.452059],[100.30794,5.446486],[100.308556,5.445935],[100.308602,5.444337]],[[100.308602,5.444337],[100.307153,5.444486],[100.305882,5.444386],[100.303367,5.444668],[100.303047,5.445755],[100.300307,5.445841],[100.296571,5.445222],[100.293084,5.444608],[100.290126,5.443601],[100.289039,5.442837],[100.287915,5.443623],[100.287275,5.443197],[100.286121,5.443159],[100.285441,5.44309],[100.284567,5.443218],[100.282726,5.441591],[100.281191,5.4401]],[[100.281191,5.4401],[100.279574,5.439902],[100.278393,5.439919],[100.277166,5.438872],[100.27634,5.437502],[100.275636,5.437182],[100.275073,5.438148],[100.273568,5.438163],[100.273,5.439416],[100.27292,5.440502],[100.273946,5.441187],[100.275999,5.44171],[100.276321,5.442635],[100.275355,5.443923],[100.275435,5.445292],[100.274952,5.447868],[100.275153,5.450162],[100.277729,5.454669],[100.277649,5.45632],[100.276924,5.456682],[100.275113,5.45475],[100.272095,5.451651],[100.270203,5.449203],[100.269798,5.448051],[100.268668,5.446068],[100.266919,5.444987],[100.266259,5.444064],[100.266088,5.442593],[100.265681,5.441847],[100.264226,5.440683],[100.26251,5.440444],[100.261771,5.438913],[100.260951,5.438172],[100.259659,5.438202],[100.258424,5.43907],[100.25829,5.441146],[100.258101,5.443236],[100.258411,5.446821],[100.259175,5.447948],[100.258411,5.448773],[100.255513,5.449095],[100.254305,5.450081],[100.252454,5.450967],[100.250884,5.450101],[100.248872,5.450041],[100.248409,5.449196],[100.246678,5.44829],[100.243278,5.448572],[100.242432,5.449216]],[[100.29823,5.407793],[100.296947,5.405356],[100.295008,5.40372],[100.292078,5.403545],[100.290085,5.403988],[100.288817,5.403827],[100.286604,5.402972]],[[100.286604,5.402972],[100.284813,5.403867],[100.283465,5.404682],[100.279722,5.403233],[100.278393,5.402106],[100.277568,5.400587],[100.276643,5.397971],[100.276562,5.393503],[100.275274,5.392739],[100.272859,5.393503],[100.272578,5.394711],[100.27459,5.396965],[100.274711,5.398253],[100.273966,5.399289],[100.272638,5.399732],[100.269499,5.398605],[100.266883,5.396955],[100.265665,5.396512],[100.26477,5.395395],[100.265172,5.393866],[100.264206,5.39294],[100.263321,5.393383],[100.262395,5.391531],[100.261027,5.392256],[100.259859,5.391894],[100.258411,5.38968],[100.257525,5.389559],[100.256175,5.388966],[100.25545,5.38773],[100.254587,5.38647],[100.253782,5.385082],[100.253722,5.382747],[100.254185,5.381238]],[[100.254185,5.381238],[100.25511,5.380051],[100.255493,5.378099],[100.253963,5.376831]],[[100.253963,5.376831],[100.252937,5.377294],[100.251468,5.376932],[100.250442,5.377555],[100.250217,5.379143],[100.249204,5.379719],[100.248703,5.380486],[100.248926,5.38171],[100.248702,5.382435],[100.247987,5.382603],[100.245663,5.383093],[100.244203,5.385565],[100.243257,5.38481],[100.243962,5.383301],[100.242895,5.381812],[100.242865,5.380654],[100.242291,5.380031],[100.241668,5.380574],[100.241819,5.382033],[100.242142,5.383378],[100.240581,5.385343],[100.240728,5.388305],[100.239459,5.39031],[100.238756,5.391013],[100.238671,5.391025],[100.23688,5.392219],[100.23561,5.393192],[100.235153,5.394372],[100.235494,5.39563],[100.237413,5.397741],[100.239011,5.398907],[100.239414,5.400134],[100.239543,5.401134],[100.240762,5.401965],[100.242211,5.403374],[100.242593,5.404883],[100.241849,5.406171],[100.241418,5.407519],[100.241788,5.409572],[100.241265,5.410719],[100.241394,5.412294],[100.242004,5.413059],[100.243582,5.414616],[100.24692,5.415227],[100.248027,5.416023],[100.247745,5.41728],[100.245652,5.41734],[100.244304,5.417722],[100.243382,5.416833],[100.242465,5.416662],[100.242131,5.417783],[100.242312,5.420841],[100.24362,5.421103],[100.244002,5.422451],[100.243237,5.423136],[100.243318,5.426683],[100.242513,5.429454],[100.24207,5.433721],[100.24048,5.43692],[100.24036,5.439235],[100.238891,5.442434],[100.238845,5.443821],[100.239491,5.445811],[100.240318,5.447083],[100.242432,5.449216]],[[100.281191,5.4401],[100.282257,5.43686],[100.281372,5.435816],[100.281895,5.433781],[100.280446,5.431004],[100.28105,5.427583],[100.280736,5.42647],[100.280567,5.425792],[100.281009,5.425289],[100.282921,5.42555],[100.283283,5.424303],[100.284659,5.424124],[100.285537,5.422914],[100.285437,5.421787],[100.284531,5.420801],[100.283855,5.419283],[100.283897,5.416938],[100.284129,5.414925],[100.285417,5.413879],[100.286785,5.413617],[100.28761,5.412229],[100.290025,5.411766],[100.291796,5.411061],[100.293949,5.411061],[100.295358,5.409653],[100.29735,5.408486],[100.29823,5.407793]],[[100.30259,5.407366],[100.301495,5.407681],[100.300067,5.408063],[100.29823,5.407793]],[[100.308602,5.444337],[100.308863,5.443852],[100.309294,5.440729],[100.31397,5.435339],[100.321288,5.429966]],[[100.321288,5.429966],[100.318198,5.425732],[100.317333,5.424263],[100.317365,5.419306]],[[100.317365,5.419306],[100.316709,5.416696],[100.316447,5.413114]],[[100.316447,5.413114],[100.314415,5.411866],[100.309545,5.415851],[100.30548,5.418105],[100.304796,5.419473],[100.303709,5.422331],[100.301053,5.420318],[100.301652,5.418197],[100.301415,5.41086],[100.30259,5.407366]],[[100.321288,5.429966],[100.326582,5.426642],[100.332135,5.423947],[100.334227,5.423947],[100.339702,5.423273],[100.341917,5.422661],[100.343701,5.421558],[100.345178,5.42211],[100.346285,5.419843],[100.346593,5.416965],[100.345547,5.416781],[100.344686,5.414637],[100.344193,5.41378],[100.343388,5.414528],[100.342945,5.41488]],[[100.342945,5.41488],[100.340415,5.417511],[100.339388,5.416585],[100.338362,5.414855],[100.336631,5.415237]],[[100.336631,5.415237],[100.336712,5.416948],[100.334176,5.417551],[100.33015,5.420183],[100.329005,5.418034],[100.326288,5.420268],[100.324255,5.421918],[100.323028,5.42061],[100.321015,5.417692],[100.318314,5.419146],[100.317365,5.419306]],[[100.342945,5.41488],[100.341924,5.413708],[100.336995,5.410778],[100.336503,5.410398],[100.334534,5.40888],[100.33152,5.407226],[100.329305,5.404225],[100.329612,5.403367]],[[100.329612,5.403367],[100.328447,5.403533],[100.326992,5.403596],[100.325282,5.403968],[100.325879,5.405204],[100.326751,5.406262],[100.326837,5.407235],[100.327168,5.409306]],[[100.327168,5.409306],[100.328215,5.408963],[100.329181,5.408138],[100.330368,5.410493],[100.331777,5.413028],[100.332432,5.413677],[100.334052,5.41453],[100.334594,5.414739],[100.335686,5.414694],[100.336631,5.415237]],[[100.327168,5.409306],[100.327576,5.413406],[100.324094,5.413466]],[[100.324094,5.413466],[100.321054,5.412974],[100.319808,5.412722],[100.318057,5.413124],[100.316447,5.413114]],[[100.3193,5.401115],[100.317046,5.402685],[100.315315,5.403188],[100.313383,5.403409],[100.310937,5.403187],[100.309445,5.402804],[100.307078,5.402398],[100.303945,5.401417]],[[100.303945,5.401417],[100.303845,5.405059],[100.30259,5.407366]],[[100.324094,5.413466],[100.32423,5.410624],[100.322681,5.410302],[100.322741,5.408591],[100.320548,5.409316],[100.320407,5.408148],[100.317469,5.408933],[100.317791,5.407806],[100.321835,5.403339],[100.3193,5.401115]],[[100.329612,5.403367],[100.327505,5.401162],[100.326152,5.40153],[100.323629,5.399508],[100.322152,5.397548],[100.320829,5.39542],[100.318446,5.390198],[100.316108,5.383032],[100.3158,5.37905]],[[100.3158,5.37905],[100.313887,5.379392],[100.31117,5.379593],[100.308185,5.379636]],[[100.308185,5.379636],[100.307729,5.381223],[100.308312,5.383135],[100.309902,5.384443],[100.311894,5.385298],[100.312599,5.386123]],[[100.312599,5.386123],[100.313087,5.387089],[100.313846,5.391235],[100.315859,5.393146],[100.320266,5.39703],[100.320606,5.398838],[100.3193,5.401115]],[[100.312599,5.386123],[100.311935,5.386988],[100.308908,5.387322],[100.307829,5.387491],[100.307185,5.388206],[100.307226,5.389534],[100.309057,5.391667],[100.308353,5.392492],[100.303161,5.392573],[100.302718,5.393448],[100.303176,5.396002],[100.303945,5.401417]],[[100.308185,5.379636],[100.308261,5.377965],[100.309404,5.374084],[100.31037,5.370623],[100.310249,5.368651],[100.3088,5.367484],[100.305701,5.367604],[100.303971,5.36857],[100.301757,5.371267],[100.299221,5.373641],[100.297451,5.373863],[100.294271,5.373038],[100.291534,5.374165],[100.287791,5.372434],[100.284934,5.372756]],[[100.284934,5.372756],[100.286061,5.375372],[100.28598,5.377022],[100.287509,5.380685],[100.288797,5.381812],[100.288797,5.384025],[100.289482,5.385514],[100.292127,5.386484],[100.293506,5.387668],[100.293828,5.389861],[100.293929,5.392115],[100.292639,5.392789],[100.291189,5.393685],[100.290166,5.395013],[100.290294,5.396633],[100.291615,5.398031],[100.291051,5.399178],[100.29085,5.400667],[100.288838,5.401955],[100.286604,5.402972]],[[100.284934,5.372756],[100.281331,5.367685],[100.274208,5.361084],[100.273886,5.359595],[100.276784,5.356496],[100.281492,5.353035],[100.285517,5.349815],[100.286081,5.348165],[100.282418,5.343939],[100.282136,5.342772],[100.283304,5.341081],[100.280688,5.338143],[100.280325,5.336372],[100.280084,5.332911],[100.279198,5.330536],[100.277991,5.328162]],[[100.277991,5.328162],[100.277744,5.329686],[100.276698,5.330873],[100.276155,5.332644],[100.275113,5.335259],[100.272853,5.337434],[100.269735,5.338339],[100.269186,5.341016],[100.266702,5.343524],[100.26457,5.345272],[100.263014,5.348099],[100.263034,5.350009],[100.261541,5.351544],[100.258813,5.35234]],[[100.258813,5.35234],[100.25827,5.358116],[100.258835,5.362914],[100.258729,5.365344],[100.257183,5.366427],[100.256197,5.366809],[100.255536,5.367577],[100.255579,5.369133],[100.256048,5.370114],[100.257678,5.371952],[100.258446,5.372952],[100.259117,5.373786],[100.258002,5.375285],[100.258531,5.37661],[100.25845,5.377545],[100.258048,5.377958],[100.257966,5.378967],[100.257746,5.381198],[100.257277,5.38188],[100.255942,5.381783],[100.254185,5.381238]],[[100.3158,5.37905],[100.314939,5.377274],[100.315677,5.375865],[100.314877,5.372557],[100.3142,5.363614],[100.314447,5.360735],[100.310755,5.354181],[100.309648,5.3483],[100.308192,5.342988]],[[100.308192,5.342988],[100.305535,5.343733],[100.30304,5.345745],[100.301571,5.342304],[100.299418,5.337877],[100.297969,5.335663],[100.295473,5.332161],[100.29298,5.327243],[100.291658,5.323448],[100.290704,5.321154],[100.290281,5.319504],[100.288913,5.316364],[100.285391,5.317954],[100.28348,5.318497],[100.281568,5.318316],[100.2812,5.319832],[100.280358,5.322978],[100.278567,5.324514],[100.277488,5.325264],[100.277991,5.328162]],[[100.308192,5.342988],[100.307115,5.339182],[100.305895,5.334946],[100.303987,5.328085],[100.303657,5.323858],[100.302426,5.320122],[100.298735,5.316569],[100.29449,5.311055],[100.289814,5.307441],[100.286245,5.302663],[100.284646,5.298803],[100.283846,5.294821],[100.2844,5.290165],[100.287291,5.287163],[100.287661,5.285571],[100.291044,5.285326],[100.290552,5.282201],[100.291475,5.28116],[100.291167,5.279383],[100.289937,5.279077],[100.285692,5.274359],[100.284,5.27148],[100.282646,5.26713],[100.282246,5.264435],[100.282646,5.263087],[100.283692,5.262505],[100.283969,5.261923],[100.283754,5.259227],[100.280824,5.257236],[100.279262,5.257236],[100.277909,5.257787],[100.275356,5.257665],[100.272956,5.263026],[100.273387,5.264986],[100.269819,5.268601],[100.26865,5.271296],[100.268896,5.272522]],[[100.268896,5.272522],[100.269252,5.272344],[100.270399,5.275805],[100.272009,5.276771],[100.275128,5.280977],[100.275209,5.281923],[100.273398,5.282305],[100.272915,5.283251],[100.273116,5.285988],[100.271244,5.284519],[100.268045,5.28321],[100.264825,5.284197],[100.262913,5.286611],[100.262531,5.290093],[100.264181,5.294097],[100.264282,5.296029],[100.265107,5.296593],[100.267642,5.295587],[100.270258,5.295989],[100.272009,5.297901],[100.27215,5.299128],[100.27044,5.300054],[100.270359,5.302087],[100.269574,5.303032],[100.269192,5.30432],[100.266455,5.305085],[100.26567,5.306413],[100.266676,5.307902],[100.266596,5.309049],[100.264664,5.30919],[100.264483,5.310438],[100.261706,5.313356],[100.260881,5.312772],[100.260337,5.313215],[100.258446,5.312772],[100.256313,5.311625],[100.255568,5.312672],[100.256192,5.31402],[100.25585,5.315268],[100.254864,5.31398],[100.254099,5.316555],[100.25428,5.317381],[100.255729,5.317481],[100.256514,5.318789],[100.255528,5.319212],[100.255991,5.320178],[100.254502,5.320359],[100.254884,5.322411],[100.253656,5.322492],[100.253073,5.323136],[100.25092,5.322894],[100.249692,5.324102],[100.247619,5.324323],[100.246653,5.326034],[100.243916,5.327563],[100.244037,5.328569],[100.243474,5.329696],[100.244057,5.330501],[100.243735,5.332393],[100.24454,5.333983],[100.24613,5.334375],[100.24619,5.336407],[100.246673,5.338178],[100.247362,5.338941],[100.250014,5.338802],[100.250163,5.339442],[100.248415,5.340487],[100.248433,5.341888],[100.249781,5.343081],[100.250215,5.344558],[100.249933,5.346489],[100.250839,5.347677],[100.250859,5.350192],[100.253415,5.349468],[100.254139,5.351963],[100.256494,5.350172],[100.258813,5.35234]],[[100.310201,5.315864],[100.310386,5.317641],[100.310324,5.318988],[100.311924,5.321378],[100.312601,5.322725],[100.312724,5.324869],[100.313585,5.325911],[100.315185,5.326217],[100.316538,5.328851],[100.317769,5.331669],[100.318446,5.332588],[100.320845,5.332894],[100.321399,5.335528],[100.321891,5.335957],[100.322691,5.336079],[100.324106,5.335896],[100.324352,5.334916],[100.323921,5.333323],[100.32429,5.332036],[100.325644,5.330137],[100.326198,5.329954],[100.326628,5.329341],[100.327305,5.328974],[100.326936,5.327442],[100.327674,5.326891],[100.327674,5.324624],[100.326567,5.32248],[100.325706,5.32052],[100.326075,5.318008],[100.326013,5.317089],[100.324783,5.316906],[100.323921,5.316722],[100.322691,5.315925],[100.319738,5.315313],[100.315985,5.314088],[100.314877,5.313046],[100.313155,5.311208],[100.313155,5.309861],[100.313462,5.307655],[100.313585,5.305389],[100.313093,5.304654],[100.311493,5.301652],[100.310878,5.301039],[100.309217,5.301039],[100.308294,5.302203],[100.308233,5.304531],[100.307679,5.305389],[100.307802,5.306308],[100.307987,5.3079],[100.307371,5.308574],[100.307556,5.309493],[100.307002,5.31029],[100.307002,5.312066],[100.307556,5.313353],[100.308909,5.314333],[100.310201,5.315864]],[[100.268896,5.272522],[100.262497,5.277484],[100.255545,5.280608],[100.253146,5.279015],[100.250254,5.279506],[100.247854,5.279199],[100.248285,5.276871],[100.247362,5.274727],[100.244778,5.273441],[100.244032,5.274084],[100.244678,5.275769],[100.241787,5.279261],[100.240764,5.279567],[100.240556,5.280149],[100.241294,5.28067],[100.240833,5.281558],[100.235142,5.285601],[100.230312,5.28698],[100.225298,5.287623],[100.223706,5.286398],[100.223029,5.284774],[100.224045,5.283733],[100.222845,5.281834],[100.222691,5.280516],[100.221576,5.280057],[100.220968,5.281007],[100.216416,5.282661],[100.213247,5.282109],[100.212201,5.282324],[100.211771,5.281895],[100.209679,5.28168],[100.209402,5.280302],[100.20811,5.279873],[100.20771,5.279046],[100.206779,5.278709],[100.204318,5.279138],[100.203534,5.278832],[100.202257,5.279414],[100.200981,5.279751],[100.200119,5.280761],[100.199135,5.280915],[100.198151,5.281895],[100.194182,5.282109],[100.191014,5.281711],[100.188245,5.280363],[100.188445,5.279444],[100.186138,5.276565],[100.1854,5.2739],[100.1858,5.273349],[100.185677,5.271327],[100.186569,5.268938],[100.185738,5.268141],[100.185861,5.266793],[100.184969,5.26664],[100.183662,5.268386],[100.181631,5.270714],[100.181585,5.27246],[100.182062,5.274145],[100.181324,5.277515],[100.179294,5.278556],[100.177878,5.280149],[100.177386,5.284437],[100.178986,5.285172],[100.180093,5.287378],[100.180339,5.28989],[100.182247,5.292156],[100.1844,5.295158],[100.185692,5.296751],[100.1844,5.297609],[100.184215,5.30061],[100.183477,5.302264],[100.1828,5.304592],[100.184462,5.305818]],[[100.184462,5.305818],[100.184552,5.305025],[100.186343,5.303998],[100.1892,5.302811],[100.189844,5.301221],[100.18916,5.299068],[100.191313,5.297518],[100.194634,5.296814],[100.196042,5.295003],[100.198014,5.29607],[100.198598,5.295506],[100.199182,5.292769],[100.200932,5.292347],[100.200952,5.290918],[100.202502,5.292508],[100.20377,5.292729],[100.204776,5.294017],[100.207251,5.295244],[100.208217,5.296995],[100.210632,5.29772],[100.212061,5.299309],[100.214174,5.298323],[100.214858,5.299551],[100.216186,5.300296],[100.215562,5.301825],[100.217192,5.303696],[100.216629,5.304723],[100.217836,5.305789],[100.219044,5.305548],[100.219064,5.306433],[100.220573,5.307399],[100.22001,5.308244],[100.219969,5.309251],[100.223914,5.312269],[100.225262,5.311545],[100.226208,5.312007],[100.226389,5.313899],[100.225383,5.315891],[100.225302,5.317501],[100.226791,5.320137],[100.224195,5.31885],[100.222585,5.318829],[100.220935,5.317743],[100.220251,5.317904],[100.217575,5.315127],[100.216005,5.315107],[100.213449,5.313577],[100.210793,5.314966],[100.209585,5.3141],[100.209042,5.314442],[100.207271,5.314261],[100.20701,5.31571],[100.205782,5.316737],[100.206627,5.320902],[100.20703,5.32549],[100.208257,5.327583],[100.207573,5.328046],[100.207996,5.329032],[100.207291,5.329636],[100.208096,5.331004],[100.208116,5.332332],[100.20862,5.332997],[100.209324,5.332997],[100.209928,5.33197],[100.210893,5.332534],[100.210712,5.331306],[100.210853,5.329274],[100.214435,5.329072],[100.215321,5.331286],[100.214395,5.332393],[100.218279,5.336156],[100.222887,5.34006],[100.220553,5.342123],[100.222766,5.345956],[100.222444,5.347626],[100.223471,5.348291],[100.223491,5.349578],[100.222948,5.350786],[100.224557,5.351128],[100.225121,5.352517],[100.227858,5.351913],[100.229206,5.353382],[100.230876,5.35316],[100.232023,5.350947],[100.233311,5.351088],[100.234901,5.354207],[100.236088,5.354287],[100.236913,5.355656],[100.237819,5.353986],[100.238523,5.353925],[100.238463,5.357346],[100.244842,5.365557],[100.245707,5.368132],[100.247297,5.370286],[100.250396,5.370467],[100.253515,5.374042],[100.253802,5.37506],[100.253963,5.376831]],[[100.184462,5.305818],[100.186307,5.308023],[100.187845,5.307839],[100.188768,5.308819],[100.191906,5.308819],[100.192521,5.307717],[100.194551,5.306798],[100.19609,5.308145],[100.197382,5.311025],[100.196336,5.31519],[100.196643,5.317886],[100.19609,5.322051],[100.196213,5.326523],[100.195782,5.332465],[100.194675,5.339142],[100.193013,5.344717],[100.193075,5.348882],[100.192029,5.34925],[100.189814,5.355008],[100.189999,5.357519],[100.189753,5.360888],[100.189076,5.364196],[100.187907,5.365054],[100.188215,5.373017],[100.18926,5.376876],[100.190799,5.381837],[100.190799,5.384103],[100.19166,5.386737],[100.191291,5.389249],[100.192521,5.392005],[100.191721,5.39274],[100.191168,5.393904],[100.192152,5.395986],[100.192706,5.399723],[100.191475,5.403091],[100.192829,5.405542],[100.193506,5.404071],[100.193875,5.405113],[100.193383,5.40646],[100.194921,5.413565],[100.196459,5.417118],[100.196766,5.41969],[100.195967,5.42165],[100.194859,5.422201],[100.19246,5.421956],[100.191844,5.422998],[100.189876,5.423243],[100.188522,5.424468],[100.189322,5.426611],[100.189383,5.429061],[100.187968,5.431082],[100.185754,5.430531],[100.182677,5.431511],[100.179786,5.433042],[100.178309,5.432859],[100.177017,5.433716],[100.177632,5.434757],[100.179047,5.435431],[100.180832,5.43831],[100.180955,5.440943],[100.180709,5.442658],[100.178309,5.442964],[100.177694,5.444006],[100.178801,5.446945],[100.17997,5.448905],[100.18157,5.449028],[100.182985,5.450804],[100.183908,5.452948],[100.183539,5.45601],[100.182431,5.457357],[100.182354,5.459899],[100.181616,5.460756],[100.181616,5.462471],[100.181985,5.465105],[100.180816,5.466452],[100.178232,5.467861],[100.177555,5.468106],[100.177002,5.469514],[100.175894,5.47031],[100.175402,5.472209],[100.176079,5.475455],[100.177063,5.476741],[100.179032,5.476619],[100.18057,5.476619],[100.184139,5.478517],[100.185123,5.478517],[100.186415,5.477353],[100.18703,5.474659],[100.185677,5.472393],[100.186538,5.471168],[100.189491,5.470004],[100.192567,5.470555],[100.195767,5.472821],[100.197059,5.471168],[100.196628,5.470004],[100.197197,5.468412],[100.198797,5.467493],[100.200704,5.467554],[100.202796,5.468351],[100.204026,5.467371],[100.202427,5.465778],[100.203472,5.465043],[100.202734,5.463696],[100.202611,5.463022],[100.205318,5.461001],[100.205687,5.460021],[100.209133,5.458796],[100.209748,5.459409],[100.214178,5.45996],[100.217992,5.461246],[100.220638,5.463206],[100.22153,5.465105],[100.223252,5.465105],[100.228051,5.463451],[100.229528,5.464492],[100.23162,5.46339],[100.233158,5.463512],[100.235434,5.465411],[100.236726,5.464921],[100.237864,5.465315]]],"bbox":[100.175402,5.122823,100.550684,5.58519]}
