{"type":"Topology","objects":{"PRK_SE-01":{"type":"GeometryCollection","geometries":[{"type":"Polygon","arcs":[[0,1,2]],"properties":{"state":"Perak","parlimen":"P.039 Ulu Perak","code_parlimen":"P.039","dun":"N.01 Grik","code_dun":"N.01"}},{"type":"Polygon","arcs":[[3,4,5,6,7,-3]],"properties":{"state":"Perak","parlimen":"P.039 Ulu Perak","code_parlimen":"P.039","dun":"N.02 Lenggong","code_dun":"N.02"}},{"type":"Polygon","arcs":[[8,9,-1,-8,10]],"properties":{"state":"Perak","parlimen":"P.040 Larut Utara","code_parlimen":"P.040","dun":"N.03 Selama","code_dun":"N.03"}},{"type":"Polygon","arcs":[[-7,11,12,13,14,-11]],"properties":{"state":"Perak","parlimen":"P.040 Larut Utara","code_parlimen":"P.040","dun":"N.04 Larut","code_dun":"N.04"}},{"type":"Polygon","arcs":[[15,16,17]],"properties":{"state":"Perak","parlimen":"P.041 Krian Laut","code_parlimen":"P.041","dun":"N.05 Parit Buntar","code_dun":"N.05"}},{"type":"Polygon","arcs":[[18,19,-18]],"properties":{"state":"Perak","parlimen":"P.041 Krian Laut","code_parlimen":"P.041","dun":"N.06 Kuala Kurau","code_dun":"N.06"}},{"type":"Polygon","arcs":[[20,-19,-17,21,22]],"properties":{"state":"Perak","parlimen":"P.042 Krian Darat","code_parlimen":"P.042","dun":"N.07 Bagan Serai","code_dun":"N.07"}},{"type":"Polygon","arcs":[[23,-9,-15,24,25,-23]],"properties":{"state":"Perak","parlimen":"P.042 Krian Darat","code_parlimen":"P.042","dun":"N.08 Gunong Semanggol","code_dun":"N.08"}},{"type":"Polygon","arcs":[[-13,26,27]],"properties":{"state":"Perak","parlimen":"P.043 Larut Selatan","code_parlimen":"P.043","dun":"N.09 Taiping","code_dun":"N.09"}},{"type":"Polygon","arcs":[[28,29,30,31,-25,-14,-28]],"properties":{"state":"Perak","parlimen":"P.043 Larut Selatan","code_parlimen":"P.043","dun":"N.10 Matang","code_dun":"N.10"}},{"type":"Polygon","arcs":[[32,33,34,35]],"properties":{"state":"Perak","parlimen":"P.044 Hilir Perak","code_parlimen":"P.044","dun":"N.11 Sungei Manik","code_dun":"N.11"}},{"type":"Polygon","arcs":[[36,37,38,39,40,41,42,43,-36]],"properties":{"state":"Perak","parlimen":"P.044 Hilir Perak","code_parlimen":"P.044","dun":"N.12 Bandar","code_dun":"N.12"}},{"type":"Polygon","arcs":[[44,45,46,47,48,49,-30,50]],"properties":{"state":"Perak","parlimen":"P.045 Kuala Kangsar","code_parlimen":"P.045","dun":"N.13 Senggang","code_dun":"N.13"}},{"type":"Polygon","arcs":[[-29,-27,-12,-6,51,-51]],"properties":{"state":"Perak","parlimen":"P.045 Kuala Kangsar","code_parlimen":"P.045","dun":"N.14 Padang Rengas","code_dun":"N.14"}},{"type":"Polygon","arcs":[[-45,-52,-5,52,53]],"properties":{"state":"Perak","parlimen":"P.046 Sungei Siput","code_parlimen":"P.046","dun":"N.15 Karai","code_dun":"N.15"}},{"type":"Polygon","arcs":[[54,55,-46,-54]],"properties":{"state":"Perak","parlimen":"P.046 Sungei Siput","code_parlimen":"P.046","dun":"N.16 Jalong","code_dun":"N.16"}},{"type":"Polygon","arcs":[[56,57,-49,58,59]],"properties":{"state":"Perak","parlimen":"P.047 Parit","code_parlimen":"P.047","dun":"N.17 Blanja","code_dun":"N.17"}},{"type":"Polygon","arcs":[[60,61,-42,62,63,-60]],"properties":{"state":"Perak","parlimen":"P.047 Parit","code_parlimen":"P.047","dun":"N.18 Kampong Gajah","code_dun":"N.18"}},{"type":"Polygon","arcs":[[64,-31,-50,-58,65]],"properties":{"state":"Perak","parlimen":"P.048 Bruas","code_parlimen":"P.048","dun":"N.19 Pengkalan Bharu","code_dun":"N.19"}},{"type":"Polygon","arcs":[[-57,-64,66,67,68,-66]],"properties":{"state":"Perak","parlimen":"P.048 Bruas","code_parlimen":"P.048","dun":"N.20 Ayer Tawar","code_dun":"N.20"}},{"type":"Polygon","arcs":[[-67,-63,-41,69,70,71]],"properties":{"state":"Perak","parlimen":"P.049 Sitiawan","code_parlimen":"P.049","dun":"N.21 Lekir","code_dun":"N.21"}},{"type":"MultiPolygon","arcs":[[[72,-68,-72]],[[73]],[[74]]],"properties":{"state":"Perak","parlimen":"P.049 Sitiawan","code_parlimen":"P.049","dun":"N.22 Lumut","code_dun":"N.22"}},{"type":"Polygon","arcs":[[75,76,77,78]],"properties":{"state":"Perak","parlimen":"P.050 Ipoh","code_parlimen":"P.050","dun":"N.23 Pekan Lama","code_dun":"N.23"}},{"type":"Polygon","arcs":[[79,80,-79]],"properties":{"state":"Perak","parlimen":"P.050 Ipoh","code_parlimen":"P.050","dun":"N.24 Pekan Bharu","code_dun":"N.24"}},{"type":"Polygon","arcs":[[-81,81,82,83]],"properties":{"state":"Perak","parlimen":"P.051 Menglembu","code_parlimen":"P.051","dun":"N.25 Pasir Puteh","code_dun":"N.25"}},{"type":"Polygon","arcs":[[84,85,-76,-84]],"properties":{"state":"Perak","parlimen":"P.051 Menglembu","code_parlimen":"P.051","dun":"N.26 Kuala Pari","code_dun":"N.26"}},{"type":"Polygon","arcs":[[-78,86,-56,87,88]],"properties":{"state":"Perak","parlimen":"P.052 Ulu Kinta","code_parlimen":"P.052","dun":"N.27 Chemor","code_dun":"N.27"}},{"type":"Polygon","arcs":[[89,90,91,92,-47,-87,-77,-86,93,-82,-80,-89]],"properties":{"state":"Perak","parlimen":"P.052 Ulu Kinta","code_parlimen":"P.052","dun":"N.28 Sungei Raia","code_dun":"N.28"}},{"type":"Polygon","arcs":[[-92,94,95,-43,-62,96]],"properties":{"state":"Perak","parlimen":"P.053 Batu Gajah","code_parlimen":"P.053","dun":"N.29 Tanjong Tualang","code_dun":"N.29"}},{"type":"Polygon","arcs":[[-61,-59,-48,-93,-97]],"properties":{"state":"Perak","parlimen":"P.053 Batu Gajah","code_parlimen":"P.053","dun":"N.30 Pusing","code_dun":"N.30"}},{"type":"Polygon","arcs":[[-95,-91,97,98,99]],"properties":{"state":"Perak","parlimen":"P.054 Kampar","code_parlimen":"P.054","dun":"N.31 Gopeng","code_dun":"N.31"}},{"type":"Polygon","arcs":[[100,101,102,-96,-100]],"properties":{"state":"Perak","parlimen":"P.054 Kampar","code_parlimen":"P.054","dun":"N.32 Kuala Dipang","code_dun":"N.32"}},{"type":"Polygon","arcs":[[103,104,105,106]],"properties":{"state":"Perak","parlimen":"P.055 Tanjong Malim","code_parlimen":"P.055","dun":"N.33 Bidor","code_dun":"N.33"}},{"type":"Polygon","arcs":[[107,108,109,-107]],"properties":{"state":"Perak","parlimen":"P.055 Tanjong Malim","code_parlimen":"P.055","dun":"N.34 Slim","code_dun":"N.34"}},{"type":"Polygon","arcs":[[-34,110,-104,-110,111,-38,112]],"properties":{"state":"Perak","parlimen":"P.056 Telok Anson","code_parlimen":"P.056","dun":"N.35 Batak Rabit","code_dun":"N.35"}},{"type":"Polygon","arcs":[[-37,-35,-113]],"properties":{"state":"Perak","parlimen":"P.056 Telok Anson","code_parlimen":"P.056","dun":"N.36 Pasir Bedamar","code_dun":"N.36"}},{"type":"Polygon","arcs":[[113,-70,-40,114]],"properties":{"state":"Perak","parlimen":"P.057 Bagan Datoh","code_parlimen":"P.057","dun":"N.37 Rungkup","code_dun":"N.37"}},{"type":"Polygon","arcs":[[-39,-112,-109,115,-115]],"properties":{"state":"Perak","parlimen":"P.057 Bagan Datoh","code_parlimen":"P.057","dun":"N.38 Hutan Melintang","code_dun":"N.38"}},{"type":"Polygon","arcs":[[-101,-99,116,-105,-111,-33,-44,-103,117]],"properties":{"state":"Perak","parlimen":"P.058 Batang Padang","code_parlimen":"P.058","dun":"N.39 Tapah Road","code_dun":"N.39"}},{"type":"Polygon","arcs":[[-102,-118]],"properties":{"state":"Perak","parlimen":"P.058 Batang Padang","code_parlimen":"P.058","dun":"N.40 Tapah","code_dun":"N.40"}}]}},"arcs":[[[100.954201,5.276601],[100.9524,5.28149],[100.950996,5.287131],[100.948799,5.292132],[100.945,5.297879],[100.937599,5.30874],[100.93,5.321781],[100.929398,5.326501],[100.930496,5.332671],[100.931999,5.33716],[100.933899,5.340971],[100.9347,5.345981],[100.932602,5.34759],[100.928101,5.34999],[100.925797,5.359719],[100.923897,5.369959],[100.919197,5.38071],[100.915544,5.388512],[100.915663,5.395885],[100.913998,5.399571],[100.911025,5.403733],[100.912201,5.414722],[100.910797,5.419321],[100.908401,5.42127],[100.906403,5.421721],[100.902496,5.42044],[100.899696,5.41825],[100.894302,5.413621],[100.890602,5.411431],[100.886597,5.41095],[100.881897,5.411861],[100.879501,5.412771],[100.876396,5.415531],[100.869797,5.42253],[100.867208,5.428778]],[[100.867208,5.428778],[100.867388,5.440064],[100.868827,5.458335],[100.865768,5.460305],[100.867208,5.468187],[100.874766,5.479472],[100.884843,5.48395],[100.882503,5.492369],[100.89276,5.497921],[100.895639,5.491831],[100.903377,5.490757],[100.907875,5.493981],[100.910395,5.491652],[100.917413,5.495055],[100.928389,5.506877],[100.929334,5.514131],[100.934192,5.519146],[100.932393,5.52237],[100.935452,5.536341],[100.940491,5.540818],[100.94139,5.553535],[100.933833,5.56249],[100.934192,5.571803],[100.944809,5.580041],[100.94085,5.590249],[100.934372,5.589712],[100.933923,5.593383],[100.931223,5.592219],[100.929604,5.593562],[100.929694,5.598487],[100.926275,5.601532],[100.922316,5.602337],[100.922676,5.609322],[100.925105,5.612903],[100.923936,5.617112],[100.930504,5.621141],[100.933383,5.620783],[100.936802,5.623022],[100.938781,5.623022],[100.9413,5.624633],[100.94382,5.624812],[100.944809,5.627946],[100.947239,5.628036],[100.947149,5.629737],[100.944179,5.63305],[100.94364,5.63699],[100.94157,5.638422],[100.94202,5.641914],[100.938151,5.645764],[100.938511,5.647197],[100.94346,5.648987],[100.946609,5.647555],[100.948948,5.648271],[100.952817,5.642362],[100.957585,5.642093],[100.960375,5.647913],[100.964693,5.645943],[100.966403,5.64854],[100.965143,5.661433],[100.968202,5.663134],[100.969912,5.667073],[100.969912,5.671371],[100.967212,5.674415],[100.967932,5.676474],[100.970811,5.67728],[100.970991,5.682741],[100.973241,5.684263],[100.97558,5.684263],[100.97369,5.692769],[100.979179,5.701184],[100.978909,5.704497],[100.981518,5.708794],[100.978459,5.711569],[100.978459,5.718194],[100.981518,5.718194],[100.983587,5.722313],[100.978189,5.722133],[100.97585,5.725893],[100.967392,5.728669],[100.964873,5.728132],[100.961364,5.730996],[100.960734,5.736547],[100.953447,5.742008],[100.948498,5.74344],[100.947688,5.74532],[100.950298,5.754272],[100.945979,5.760717],[100.94103,5.763492],[100.944,5.765014],[100.944629,5.767431],[100.951647,5.769937],[100.955156,5.77316],[100.957495,5.771996],[100.960285,5.772891],[100.961814,5.774324],[100.962444,5.775935],[100.964333,5.775666],[100.966043,5.774055],[100.971531,5.774145],[100.972611,5.775846],[100.978189,5.772623],[100.979899,5.772802],[100.980708,5.775219],[100.983947,5.774592],[100.991325,5.783454],[100.993304,5.783812],[100.993754,5.785603],[100.995644,5.784976],[100.997983,5.779695],[100.999423,5.778979],[101.001312,5.780232],[101.002842,5.780053],[101.004911,5.77504],[101.00698,5.774861],[101.00689,5.773787],[101.006261,5.771728],[101.00725,5.769848],[101.011479,5.769758],[101.015438,5.76752],[101.017507,5.76752],[101.019037,5.765014],[101.019397,5.762955],[101.018857,5.759285],[101.021646,5.754361],[101.026144,5.751228],[101.027494,5.749885],[101.027584,5.748363],[101.029563,5.746931],[101.033882,5.73789],[101.037301,5.736815],[101.04225,5.740754],[101.051067,5.740128],[101.054486,5.744246],[101.054846,5.742187],[101.057005,5.744425],[101.060964,5.744156],[101.061774,5.741918],[101.060244,5.740128],[101.061234,5.738248],[101.060334,5.734935],[101.059164,5.734398],[101.059884,5.732697],[101.063303,5.730996],[101.062044,5.729922],[101.062583,5.72661],[101.064203,5.725983],[101.066632,5.726073],[101.068072,5.728579],[101.082917,5.720074],[101.080218,5.716225],[101.081568,5.715419],[101.080398,5.711211],[101.081388,5.709689],[101.083007,5.709868],[101.084267,5.712196],[101.086696,5.711928],[101.085436,5.708526],[101.090115,5.703602],[101.095423,5.703333],[101.097313,5.700916],[101.096773,5.699215],[101.094344,5.698946],[101.094614,5.696529],[101.097763,5.694559],[101.097493,5.691605],[101.099742,5.689009],[101.103251,5.68874],[101.103881,5.684442],[101.111708,5.68104],[101.112068,5.678802],[101.114408,5.677907],[101.114318,5.675758],[101.118906,5.670565],[101.119266,5.663671],[101.123135,5.661612],[101.122685,5.65812],[101.125654,5.6523],[101.126014,5.649077],[101.125024,5.647018],[101.129433,5.640213],[101.129073,5.635199],[101.127904,5.634751],[101.128533,5.629737],[101.132762,5.618186],[101.132582,5.614515],[101.135101,5.612724],[101.1396,5.614605],[101.141309,5.613351],[101.144279,5.614963],[101.144279,5.62329],[101.149137,5.624186],[101.151566,5.622305],[101.154805,5.624096],[101.156065,5.626603],[101.161373,5.630006],[101.163443,5.630364],[101.168661,5.635646],[101.166142,5.639138],[101.167222,5.642541],[101.170191,5.644779],[101.17208,5.647913],[101.174419,5.647107],[101.188455,5.650778],[101.190345,5.649704],[101.194213,5.650062],[101.196463,5.649256],[101.203481,5.654807],[101.20474,5.660358],[101.20672,5.660448],[101.207619,5.659284],[101.209599,5.659373],[101.214547,5.66197],[101.214547,5.664208],[101.217966,5.666089],[101.219046,5.67352],[101.221655,5.67531],[101.221115,5.678354],[101.218686,5.68113],[101.218236,5.688113],[101.233261,5.688292],[101.235511,5.690441],[101.240099,5.690799],[101.243158,5.692321],[101.243968,5.695723],[101.246667,5.697335],[101.248737,5.69635],[101.250896,5.699662],[101.248557,5.704407],[101.250896,5.706287],[101.251526,5.708884],[101.259713,5.71148],[101.260973,5.718194],[101.257734,5.719806],[101.259533,5.732966],[101.253325,5.747021],[101.255665,5.753198],[101.249816,5.759732],[101.250716,5.764119],[101.259533,5.779068],[101.258004,5.784349],[101.258004,5.78784],[101.262593,5.794912],[101.263582,5.800999],[101.265922,5.803505],[101.26979,5.803774],[101.27222,5.808249],[101.276178,5.810308],[101.276718,5.812725],[101.279237,5.812277],[101.287605,5.814694],[101.290844,5.816753],[101.293453,5.814157],[101.294623,5.812188],[101.30326,5.813262],[101.30479,5.814246],[101.306319,5.805295],[101.309378,5.802521],[101.314777,5.802521],[101.320985,5.812546],[101.325843,5.814067],[101.328452,5.812367],[101.332231,5.811382],[101.33601,5.807354],[101.338349,5.807086],[101.341858,5.81004],[101.346087,5.809144],[101.346087,5.812456],[101.348156,5.81729],[101.346987,5.823913],[101.349686,5.827046],[101.353465,5.827762],[101.359133,5.833849],[101.361203,5.831253],[101.37011,5.832506],[101.371729,5.831701],[101.373889,5.832327],[101.374968,5.835281],[101.373619,5.836892],[101.377398,5.844948],[101.379557,5.845664],[101.380367,5.852018],[101.386845,5.853629],[101.390174,5.859447],[101.389094,5.86249],[101.391343,5.875915],[101.394222,5.874215],[101.398091,5.872693],[101.40313,5.874215],[101.406279,5.872156],[101.411497,5.873499],[101.413747,5.872693],[101.417435,5.876989],[101.424453,5.874304],[101.427152,5.875468],[101.429042,5.874931],[101.431291,5.871619],[101.43489,5.870903],[101.437049,5.873051],[101.439119,5.870635],[101.441908,5.871798],[101.447846,5.870635],[101.452075,5.867771],[101.456214,5.867771],[101.458913,5.873767],[101.462512,5.874573],[101.464581,5.8769],[101.46719,5.874752],[101.46944,5.874662],[101.471689,5.873051],[101.472229,5.871082],[101.474928,5.86974],[101.478527,5.872962],[101.485635,5.870008],[101.487704,5.87502],[101.486534,5.877258],[101.487884,5.880122],[101.487344,5.883881],[101.494362,5.881643],[101.5003,5.88943],[101.50228,5.888982],[101.507948,5.893905],[101.508218,5.897216],[101.513256,5.900706],[101.513166,5.903212],[101.515326,5.903839],[101.517935,5.899811],[101.520904,5.900527],[101.522074,5.898558],[101.523783,5.898737],[101.525672,5.90357],[101.524773,5.90545],[101.526572,5.910014],[101.539888,5.918963],[101.554824,5.9212],[101.559142,5.919142],[101.571918,5.925138],[101.575607,5.930866],[101.581455,5.934893],[101.582265,5.932834],[101.584515,5.932834],[101.587574,5.930239],[101.587934,5.927196],[101.589373,5.918337],[101.593242,5.916636],[101.594771,5.91413],[101.597291,5.913683],[101.597381,5.912162],[101.59936,5.911714],[101.601609,5.913862],[101.603949,5.913146],[101.608627,5.915115],[101.616095,5.910461],[101.614655,5.909656],[101.615555,5.906971],[101.614655,5.905897],[101.614745,5.901422],[101.618344,5.895515],[101.622033,5.895873],[101.622573,5.888803],[101.621763,5.88576],[101.623203,5.881375],[101.622393,5.877526],[101.63238,5.874841],[101.635529,5.871977],[101.642187,5.870187],[101.648125,5.875199],[101.654603,5.877705],[101.659102,5.874394],[101.659012,5.870993],[101.660631,5.870545],[101.662251,5.86795],[101.662251,5.865354],[101.658922,5.863385],[101.655593,5.857926],[101.657212,5.853987],[101.660811,5.851571],[101.661441,5.84817],[101.659822,5.841636],[101.656673,5.838414],[101.658472,5.835102],[101.658742,5.825167],[101.657302,5.823108],[101.657752,5.812277],[101.659822,5.812188],[101.662521,5.814963],[101.66414,5.813441],[101.66549,5.81004],[101.667739,5.807802],[101.6645,5.80073],[101.670438,5.794912],[101.669089,5.790615],[101.678806,5.780948],[101.682675,5.781933],[101.683844,5.783544],[101.687623,5.781127],[101.690322,5.771459],[101.689693,5.765909],[101.687443,5.764029],[101.689513,5.763492],[101.689423,5.760628],[101.690772,5.759195],[101.691042,5.757226],[101.689872,5.756241],[101.691852,5.754719],[101.690682,5.746394],[101.693741,5.730728],[101.692302,5.727594],[101.689153,5.72661],[101.689063,5.724372],[101.690682,5.721238],[101.692212,5.720432],[101.691582,5.715598],[101.692842,5.711211],[101.691672,5.7096],[101.693741,5.707899],[101.695181,5.702796],[101.688073,5.692321],[101.685374,5.693127],[101.66414,5.667521],[101.659912,5.668327],[101.658382,5.661522],[101.660451,5.66],[101.659462,5.65624],[101.660541,5.65436],[101.656943,5.642809],[101.657662,5.63887],[101.661351,5.637527],[101.662881,5.633945],[101.663061,5.630901],[101.654693,5.620067],[101.656673,5.61362],[101.650554,5.613441],[101.654693,5.60583],[101.688613,5.586667],[101.671338,5.546371],[101.655953,5.520848],[101.66459,5.507414],[101.673767,5.511355],[101.680425,5.510638],[101.683125,5.505444],[101.690502,5.503295],[101.693201,5.498459],[101.69734,5.499892],[101.702739,5.508131],[101.720913,5.512788],[101.723072,5.500071],[101.72937,5.497026],[101.733329,5.504728],[101.740707,5.509564],[101.748265,5.499892],[101.749164,5.482696],[101.747185,5.471232],[101.734589,5.458335],[101.739987,5.452065],[101.739267,5.429136],[101.744486,5.42],[101.740887,5.402981],[101.739807,5.396667],[101.742866,5.380409],[101.752583,5.371272],[101.734949,5.351027],[101.723792,5.349952],[101.716774,5.344577],[101.702559,5.338844],[101.69932,5.330423],[101.677906,5.333827],[101.672688,5.324152],[101.66639,5.325586],[101.663331,5.334544],[101.654513,5.336694],[101.654333,5.340815],[101.646056,5.344756],[101.639398,5.338486],[101.627701,5.340994],[101.625542,5.347444],[101.619424,5.351206],[101.615285,5.347265],[101.605208,5.34601],[101.59963,5.330602],[101.588293,5.32899],[101.582715,5.33114],[101.575157,5.327915],[101.573718,5.323436],[101.575337,5.319494],[101.571918,5.301935],[101.569219,5.300143],[101.573358,5.291363],[101.56706,5.284913],[101.560222,5.289213],[101.558602,5.282763],[101.547446,5.278642],[101.547266,5.262873],[101.53449,5.261261],[101.528372,5.272191],[101.520994,5.267891],[101.519734,5.25266],[101.524053,5.250689],[101.521894,5.242087],[101.510017,5.231694],[101.511277,5.222914],[101.516135,5.215566],[101.508758,5.203022],[101.510197,5.198901],[101.497421,5.185998],[101.485365,5.16503],[101.489503,5.161983],[101.487164,5.156965],[101.481766,5.151947],[101.480506,5.143165],[101.486624,5.132591],[101.484285,5.120583],[101.480811,5.114638],[101.477267,5.108575],[101.479966,5.098717],[101.485185,5.089218],[101.475468,5.07918],[101.465571,5.074879],[101.460532,5.064483],[101.464491,5.059464],[101.458733,5.048171],[101.460172,5.030963],[101.454431,5.022781],[101.447216,5.0125]],[[101.447216,5.0125],[101.433453,5.025933],[101.425558,5.042442],[101.42484,5.059668],[101.419098,5.073305],[101.40259,5.085507],[101.38967,5.099144],[101.379622,5.102733],[101.366702,5.098426],[101.36096,5.109193],[101.354501,5.126419],[101.345887,5.142927],[101.331532,5.157282],[101.319331,5.17092],[101.30354,5.16446],[101.300669,5.149387],[101.289903,5.134314],[101.273394,5.127137],[101.257604,5.124265],[101.238224,5.127137],[101.220281,5.137903],[101.20449,5.150822],[101.188699,5.166613],[101.174344,5.183839],[101.160707,5.201783],[101.149223,5.219727],[101.136303,5.2348],[101.119795,5.244848],[101.110464,5.233364],[101.114771,5.21542],[101.097545,5.222598],[101.078883,5.222598],[101.073141,5.203218],[101.065963,5.191734],[101.059504,5.178097],[101.059504,5.16446],[101.046584,5.161589],[101.027922,5.157282],[101.015003,5.168048],[101.014285,5.187428],[101.015721,5.206089],[100.997777,5.223316],[100.981268,5.239824],[100.969784,5.256332],[100.954201,5.276601]],[[101.447216,5.0125],[101.45284,5.005151],[101.448341,5.002103],[101.448701,4.997442],[101.445642,4.994574],[101.441143,4.996367],[101.432686,4.992423],[101.423688,4.983818],[101.424648,4.978606]],[[101.424648,4.978606],[101.416702,4.982231],[101.4132,4.982331],[101.409798,4.981401],[101.406502,4.980002],[101.402702,4.97734],[101.3965,4.97318],[101.3899,4.97011],[101.386101,4.969059],[101.3815,4.96812],[101.371498,4.968091],[101.367798,4.969461],[101.3657,4.971822],[101.364403,4.97481],[101.364098,4.980451],[101.364899,4.98845],[101.367401,4.996291],[101.3694,5.00303],[101.3731,5.0175],[101.373901,5.023829],[101.372101,5.029299],[101.368202,5.03205],[101.360497,5.03352],[101.355301,5.03742],[101.350899,5.04426],[101.346802,5.047241],[101.341499,5.04861],[101.333199,5.0472],[101.325302,5.04441],[101.318497,5.04565],[101.3116,5.049091],[101.302002,5.05568],[101.296799,5.058431],[101.2948,5.058541],[101.288498,5.055751],[101.286903,5.05413],[101.283897,5.05217],[101.279297,5.05158],[101.2724,5.05432],[101.269897,5.05788],[101.268898,5.062709],[101.267097,5.064491],[101.264801,5.06518],[101.2528,5.067441],[101.250801,5.066171],[101.2491,5.063919],[101.247398,5.06069],[101.243896,5.056651],[101.241997,5.055721],[101.238197,5.055589],[101.235199,5.055931],[101.231903,5.05672],[101.224602,5.05728],[101.222198,5.05715],[101.216499,5.0561],[101.208397,5.05354],[101.1959,5.050331],[101.192596,5.05032],[101.188797,5.051521],[101.185997,5.05635],[101.184303,5.06095],[101.181999,5.063361],[101.179298,5.063931],[101.175903,5.063001],[101.1698,5.06113],[101.167397,5.06113],[101.164597,5.06239],[101.162697,5.064512],[101.159103,5.06657],[101.154396,5.065519],[101.150497,5.063379],[101.147301,5.062101],[101.1418,5.060241],[101.138802,5.06069],[101.133202,5.063671],[101.1269,5.067509],[101.122597,5.068639],[101.119522,5.06696],[101.115601,5.06482],[101.109802,5.064799],[101.106201,5.069861],[101.104401,5.071931],[101.100998,5.07238],[101.098602,5.06995],[101.097496,5.06822],[101.094101,5.06556],[101.091599,5.064751],[101.089203,5.063931],[101.0868,5.0626],[101.085602,5.060521],[101.085098,5.058331],[101.084198,5.049641],[101.082199,5.044681],[101.080803,5.042949],[101.078102,5.041791],[101.075798,5.040971],[101.072601,5.039701],[101.070801,5.03796],[101.069397,5.03468],[101.069,5.0318],[101.068703,5.025461],[101.066399,5.023611],[101.064598,5.02217],[101.057098,5.02145],[101.054901,5.02018],[101.050102,5.016361],[101.048103,5.013819],[101.047096,5.010831],[101.0467,5.006971],[101.047096,5.003399],[101.0467,5.00017],[101.046402,4.996949],[101.044601,4.9932],[101.0429,4.99181],[101.0401,4.989041],[101.035202,4.978142],[101.033302,4.972841],[101.029602,4.967471],[101.025398,4.965272],[101.023003,4.96503],[101.016701,4.96663],[101.009102,4.96867],[101.006599,4.968781],[101.003998,4.970331],[101.002701,4.97194],[100.9981,4.977912],[100.994499,4.98043],[100.992302,4.98089],[100.989899,4.980991],[100.987701,4.98053],[100.983398,4.978671],[100.981598,4.977741],[100.971901,4.974491],[100.965591,4.97334],[100.962391,4.970708],[100.963664,4.969799],[100.973853,4.96998],[100.98113,4.964341],[100.980038,4.955244],[100.986588,4.935231],[100.986224,4.924315],[100.98768,4.915582],[101.000051,4.901755],[101.001506,4.883198],[100.992046,4.868644],[100.975308,4.859547],[100.961117,4.859183],[100.950565,4.861366]],[[100.950565,4.861366],[100.94347,4.879014],[100.930552,4.885927],[100.918363,4.889566],[100.909994,4.900664],[100.902535,4.906668],[100.862801,4.911561]],[[100.862801,4.911561],[100.867699,4.91681],[100.869499,4.91924],[100.868698,4.925799],[100.867096,4.929129],[100.8657,4.93575],[100.866203,4.93805],[100.870903,4.945151],[100.873398,4.948381],[100.875702,4.952301],[100.876801,4.95628],[100.8769,4.961351],[100.874397,4.966521],[100.873199,4.968941],[100.870598,4.974972],[100.869202,4.98015],[100.869896,4.983671],[100.873001,4.98771],[100.875397,4.98864],[100.877998,4.989339],[100.881897,4.99142],[100.8862,4.99305],[100.890198,4.996689],[100.893196,5.000149],[100.895302,5.003269],[100.895203,5.00741],[100.889801,5.0116],[100.887596,5.014929],[100.888,5.017231],[100.889,5.020579],[100.8881,5.022651],[100.885201,5.023731],[100.881599,5.025789],[100.881798,5.028791],[100.883102,5.036451],[100.883896,5.04152],[100.885902,5.046479],[100.888496,5.04856],[100.891701,5.049611],[100.896797,5.0506],[100.898796,5.051532],[100.904069,5.055847],[100.907993,5.059176],[100.910609,5.067976],[100.917397,5.075251],[100.918396,5.079461],[100.9188,5.08349],[100.918198,5.08729],[100.918297,5.09115],[100.919098,5.093571],[100.9217,5.097379],[100.922997,5.099681],[100.924202,5.102801],[100.923798,5.10723],[100.924202,5.111029]],[[100.924202,5.111029],[100.926201,5.116561],[100.928596,5.123421],[100.928703,5.125611],[100.926102,5.129401],[100.924896,5.132681],[100.9244,5.135901],[100.926003,5.144719],[100.928101,5.148409],[100.929497,5.152211],[100.931198,5.161371],[100.930603,5.165861],[100.924103,5.171891],[100.919197,5.17544],[100.913002,5.17969],[100.907501,5.18266],[100.903496,5.185119],[100.8965,5.189251],[100.893799,5.192811],[100.893402,5.197821],[100.894203,5.201741],[100.895996,5.205771],[100.898201,5.208891],[100.902603,5.21241],[100.906799,5.214269],[100.911903,5.216129],[100.917099,5.21764],[100.9188,5.220072],[100.919899,5.223931],[100.920403,5.22796],[100.921501,5.231759],[100.924599,5.236151],[100.926903,5.23898],[100.930099,5.24094],[100.938797,5.24316],[100.943802,5.244331],[100.948196,5.24607],[100.950897,5.24907],[100.954201,5.254669],[100.954697,5.262849],[100.954201,5.276601]],[[100.7229,5.0892],[100.722427,5.093199],[100.721603,5.100541],[100.720596,5.105671],[100.717598,5.11337],[100.714302,5.11837],[100.708702,5.12284],[100.7006,5.12616],[100.696297,5.126839],[100.688202,5.129],[100.683502,5.130541],[100.671898,5.132799],[100.664001,5.13243],[100.6577,5.130921],[100.649101,5.12928],[100.6418,5.12949],[100.638802,5.130172],[100.632401,5.133139],[100.6241,5.13818],[100.622965,5.139147]],[[100.622965,5.139147],[100.624102,5.141015],[100.627161,5.147467],[100.62878,5.164313],[100.638677,5.167897],[100.642996,5.172557],[100.646595,5.172378],[100.651633,5.179725],[100.651454,5.183489],[100.653793,5.183489],[100.655952,5.180621],[100.660991,5.181697],[100.665849,5.198005],[100.670168,5.197825],[100.678985,5.21933],[100.686723,5.221838],[100.691041,5.245492],[100.69446,5.248897],[100.698959,5.248538],[100.709936,5.258573],[100.715514,5.256602],[100.719293,5.260902],[100.723792,5.261261],[100.73045,5.267711],[100.72829,5.275237],[100.733509,5.302293],[100.736208,5.302114],[100.737647,5.306593],[100.734768,5.311969],[100.739807,5.312685],[100.746825,5.317523],[100.751143,5.319673],[100.759241,5.319136],[100.76158,5.315015],[100.772017,5.319315],[100.782994,5.314477],[100.786952,5.31824],[100.786233,5.323256],[100.791991,5.323794],[100.792711,5.320927],[100.79613,5.319673],[100.799369,5.322719],[100.802248,5.321106],[100.802787,5.318419],[100.808186,5.318777],[100.808726,5.322898],[100.812684,5.32039],[100.814844,5.323794],[100.818623,5.320927],[100.818083,5.326302],[100.822042,5.332215],[100.839496,5.34601],[100.848674,5.351564],[100.850293,5.370555],[100.847954,5.378975],[100.85875,5.392949],[100.86091,5.398861],[100.854792,5.402265],[100.853172,5.406923],[100.86073,5.418209],[100.865049,5.419284],[100.867208,5.428778]],[[100.924202,5.111029],[100.900712,5.112483],[100.877859,5.108874],[100.857413,5.105266],[100.838169,5.088428],[100.817722,5.088428],[100.800884,5.093239],[100.772018,5.107672],[100.745557,5.106469],[100.7229,5.0892]],[[100.862801,4.911561],[100.858398,4.904291],[100.857101,4.90077],[100.855499,4.891211],[100.853798,4.8832],[100.849403,4.87616],[100.8461,4.87321],[100.832298,4.870179],[100.830299,4.86994],[100.826202,4.868201],[100.820999,4.863],[100.817299,4.860399],[100.807899,4.85438]],[[100.807899,4.85438],[100.796377,4.866529],[100.777637,4.871805],[100.766358,4.867984],[100.750165,4.859251],[100.742706,4.85816],[100.730153,4.871077]],[[100.730153,4.871077],[100.729853,4.874979],[100.729425,4.880537],[100.732882,4.888906],[100.73743,4.901096],[100.7327,4.908737],[100.730335,4.918743],[100.729789,4.931297],[100.731608,4.944942],[100.731598,4.960661]],[[100.731598,4.960661],[100.735802,4.96459],[100.740501,4.97295],[100.742897,4.978142],[100.744202,4.983851],[100.745003,4.993519],[100.744301,4.998071],[100.742302,5.009521],[100.740601,5.01435],[100.735199,5.023141],[100.732498,5.027171],[100.731003,5.032109],[100.729897,5.036661],[100.729698,5.04345],[100.730202,5.04841],[100.727898,5.05571],[100.725502,5.060309],[100.723801,5.06358],[100.7239,5.0698],[100.724998,5.073031],[100.725197,5.08058],[100.7239,5.085981],[100.7229,5.0892]],[[100.360842,5.097014],[100.36651,5.104452],[100.384595,5.116282],[100.391703,5.129007],[100.407898,5.122823],[100.491482,5.133308],[100.49868,5.126139],[100.49787,5.120673],[100.4994,5.118164],[100.503359,5.118701],[100.503179,5.122734],[100.505428,5.126139],[100.509297,5.126318],[100.519284,5.116102],[100.517484,5.112159],[100.511546,5.111263],[100.512086,5.095491],[100.522523,5.096029],[100.528821,5.087605]],[[100.528821,5.087605],[100.527388,5.080414],[100.524113,5.075684],[100.521384,5.063494],[100.517564,5.057854],[100.510104,5.054216],[100.50501,5.062585],[100.49464,5.066041],[100.492093,5.053852],[100.488967,5.03733]],[[100.488967,5.03733],[100.463345,5.058657],[100.458289,5.082923],[100.439078,5.069779],[100.441101,5.102134],[100.413801,5.100112],[100.393579,5.096067],[100.360842,5.097014]],[[100.488967,5.03733],[100.484452,5.013463],[100.484452,5.001091],[100.481723,4.995087],[100.472444,4.993268],[100.458981,4.991449],[100.45234,4.988356],[100.448793,4.990175],[100.445245,4.994905],[100.43915,4.998726],[100.438059,5.000363],[100.434238,5.009005],[100.430145,5.01137],[100.423595,5.00664],[100.410867,4.992154]],[[100.410867,4.992154],[100.406548,4.997084],[100.404659,4.997711],[100.39872,5.007929],[100.395841,5.009722],[100.395391,5.014113],[100.396201,5.015548],[100.391883,5.025765],[100.391703,5.030067],[100.382435,5.0436],[100.381626,5.047185],[100.378027,5.05095],[100.377937,5.049605],[100.380726,5.046468],[100.382076,5.042615],[100.385315,5.031591],[100.382705,5.032487],[100.371459,5.06027],[100.369209,5.07461],[100.363451,5.078195],[100.360662,5.086798],[100.360842,5.097014]],[[100.469799,4.927168],[100.456732,4.918768],[100.445686,4.911929],[100.422653,4.945813],[100.420494,4.985432],[100.412756,4.992961],[100.410867,4.992154]],[[100.528821,5.087605],[100.535839,5.087246],[100.535839,5.093878],[100.542857,5.096029],[100.545196,5.088142],[100.554373,5.090472],[100.553653,5.085095],[100.549335,5.079718],[100.551494,5.076492],[100.555093,5.080077],[100.56571,5.08151]],[[100.56571,5.08151],[100.575306,5.083578],[100.581548,5.075385],[100.568674,5.066022],[100.577257,5.047686],[100.589741,5.042224],[100.579988,5.03052],[100.579988,5.014524],[100.604956,5.015304],[100.618221,5.000869],[100.617831,4.994627],[100.625634,4.989555],[100.618611,4.983703],[100.618611,4.976681],[100.596373,4.970049],[100.577647,4.970049],[100.574916,4.962246],[100.562432,4.952492],[100.545243,4.956537],[100.537154,4.948448],[100.516933,4.936315],[100.506822,4.929237],[100.500755,4.937326],[100.501766,4.948448],[100.478511,4.948448],[100.465367,4.938337],[100.469799,4.927168]],[[100.56571,5.08151],[100.56409,5.086888],[100.578306,5.096387],[100.584964,5.097283],[100.582624,5.104811],[100.588923,5.106603],[100.588023,5.109292],[100.591262,5.114131],[100.589282,5.121121],[100.59648,5.126498],[100.604758,5.127035],[100.606197,5.133129],[100.618973,5.132591],[100.622965,5.139147]],[[100.731598,4.960661],[100.720055,4.94451],[100.714302,4.934929],[100.700302,4.930161],[100.697998,4.92981],[100.691399,4.924429],[100.685097,4.92326],[100.681999,4.919801],[100.676399,4.915461],[100.669899,4.914059],[100.664597,4.90771],[100.661797,4.90655],[100.657303,4.905729],[100.651199,4.904209],[100.646103,4.90224],[100.6418,4.900551],[100.638901,4.894671],[100.638397,4.89202],[100.634598,4.885851],[100.635002,4.880834],[100.636548,4.878832],[100.636002,4.876285],[100.635093,4.871918],[100.633819,4.870099],[100.628361,4.871009],[100.626724,4.868462],[100.624722,4.864459],[100.624359,4.860638],[100.625996,4.85609],[100.627269,4.852088],[100.624359,4.84663],[100.622357,4.842627],[100.621448,4.840262],[100.614352,4.839898],[100.608712,4.84099],[100.601617,4.842263],[100.589245,4.84099],[100.581058,4.849904],[100.576692,4.859001],[100.569597,4.860638],[100.5605,4.857546],[100.549584,4.854271],[100.53332,4.843529]],[[100.53332,4.843529],[100.517754,4.860024],[100.485454,4.864507],[100.482665,4.884588],[100.479336,4.889518],[100.481585,4.902337],[100.488423,4.910226],[100.494991,4.915694],[100.494451,4.917487],[100.469799,4.927168]],[[100.807899,4.85438],[100.803497,4.850221],[100.801796,4.847051],[100.801796,4.84267],[100.8032,4.83749],[100.804298,4.83088],[100.803497,4.827651],[100.803398,4.8227],[100.804398,4.81827],[100.806099,4.81597],[100.809097,4.81022],[100.809097,4.80694],[100.810402,4.79076]],[[100.810402,4.79076],[100.802076,4.784237],[100.782552,4.780198],[100.765722,4.779525],[100.758989,4.78895],[100.761682,4.800395],[100.745525,4.806454],[100.733407,4.823957],[100.721289,4.835402],[100.728695,4.852906],[100.730153,4.871077]],[[100.810402,4.79076],[100.812302,4.769409],[100.805298,4.749],[100.800499,4.73891],[100.798599,4.73349],[100.795601,4.722719],[100.790802,4.715681],[100.787102,4.70997],[100.784599,4.706271],[100.783401,4.70235],[100.783302,4.697111],[100.784897,4.6924],[100.800903,4.68306]],[[100.800903,4.68306],[100.803497,4.68215],[100.804398,4.679621]],[[100.804398,4.679621],[100.785552,4.677795],[100.784096,4.674339],[100.772998,4.667425],[100.764265,4.669972],[100.759717,4.670882],[100.755351,4.66415],[100.754441,4.658147],[100.75062,4.652871],[100.742615,4.647231],[100.722421,4.649596],[100.715871,4.652325],[100.712596,4.661058],[100.717508,4.669245],[100.719328,4.680342],[100.718054,4.687074],[100.722057,4.709816],[100.721147,4.716911],[100.712414,4.737833],[100.707047,4.740108],[100.701225,4.738743],[100.696768,4.739926],[100.685579,4.739653],[100.679666,4.743655],[100.676755,4.743382],[100.67439,4.740926],[100.671934,4.736196],[100.668841,4.73465],[100.660927,4.746839],[100.655196,4.750842],[100.64901,4.756936],[100.645645,4.758119],[100.64146,4.757027],[100.636912,4.755117],[100.632546,4.756573],[100.630908,4.760757],[100.626997,4.766306],[100.623631,4.766579],[100.616899,4.76576],[100.605255,4.768762],[100.601339,4.769577]],[[100.601339,4.769577],[100.601339,4.773149],[100.59702,4.781756],[100.557612,4.78875],[100.53332,4.843529]],[[101.098602,4.184159],[101.099503,4.1818],[101.102402,4.17824],[101.106102,4.176991],[101.109001,4.17654],[101.112503,4.176549],[101.115997,4.17564],[101.120399,4.17035],[101.124199,4.162941],[101.125298,4.15995],[101.130699,4.15012],[101.134201,4.144831],[101.138702,4.142141],[101.143997,4.14043],[101.152693,4.139818],[101.155701,4.130331],[101.152603,4.126351],[101.150398,4.12082],[101.150803,4.116211]],[[101.150803,4.116211],[101.143778,4.117441],[101.137775,4.118714],[101.131771,4.111437],[101.130315,4.099065],[101.126495,4.090151],[101.126495,4.084511],[101.124857,4.07505],[101.121946,4.056857],[101.119217,4.04867]],[[101.119217,4.04867],[101.110339,4.038038],[101.104481,4.031022],[101.098295,4.028657],[101.098295,4.033387],[101.099205,4.041028],[101.096476,4.043212],[101.089562,4.037026],[101.076281,4.030476],[101.067002,4.03084],[101.062818,4.036844],[101.059361,4.04212],[101.051538,4.051035],[101.041896,4.0685],[101.029342,4.072867],[101.016243,4.069956]],[[101.016243,4.069956],[101.019238,4.098573],[101.019238,4.113012],[101.019238,4.125526],[101.03464,4.134189],[101.045228,4.149591],[101.06063,4.166918],[101.075069,4.180394],[101.098602,4.184159]],[[101.016243,4.069956],[101.007328,4.066317],[101.004599,4.064498],[100.999141,4.06377],[100.995139,4.062497],[100.990772,4.059404],[100.979674,4.057402],[100.975126,4.047032],[100.994486,4.038158],[100.996499,4.029374],[101.010223,4.028459],[101.022429,4.019196]],[[101.022429,4.019196],[101.008238,4.000275],[100.994047,4.001731],[100.98768,3.999184],[100.988225,3.989541],[100.982949,3.982446],[100.98204,3.975351],[100.979311,3.97062],[100.970578,3.966982],[100.950747,3.976442],[100.935465,3.980263],[100.922729,3.976988]],[[100.922729,3.976988],[100.913451,3.984993],[100.907629,3.992634],[100.904354,3.994817],[100.894712,3.992088],[100.881067,3.970074],[100.869059,3.962979]],[[100.869059,3.962979],[100.859053,3.975169],[100.857779,3.986448],[100.861782,4.005006],[100.862145,4.021198],[100.855414,4.037936],[100.846499,4.040847],[100.835947,4.042484],[100.825031,4.037572],[100.812842,4.018833]],[[100.812842,4.018833],[100.812406,4.026629],[100.803492,4.032724],[100.795103,4.034843],[100.793739,4.038572],[100.794739,4.042575],[100.798682,4.043648],[100.802562,4.041392],[100.806747,4.042848],[100.809931,4.045759],[100.812751,4.050762],[100.818845,4.053218],[100.835583,4.05431],[100.845044,4.058494],[100.863419,4.075778],[100.868513,4.087422],[100.873789,4.096336],[100.881248,4.101976],[100.86724,4.128175],[100.842133,4.173476],[100.839276,4.179628]],[[100.839276,4.179628],[100.892892,4.17948],[100.922365,4.183118],[100.930189,4.186757],[100.93692,4.195126],[100.952202,4.203131],[100.961663,4.212774],[100.967667,4.219141],[100.973125,4.220051],[100.982767,4.205132],[100.994957,4.191851],[101.00187,4.190214],[101.008784,4.192215],[101.017335,4.192761],[101.02443,4.196218],[101.031344,4.204041],[101.033527,4.2115],[101.039712,4.215866],[101.051902,4.223144],[101.054631,4.233878],[101.056996,4.240064],[101.0616,4.24692]],[[101.0616,4.24692],[101.065498,4.24578],[101.068703,4.244641]],[[101.068703,4.244641],[101.071999,4.239351],[101.079796,4.221179],[101.085999,4.209569],[101.088196,4.205029],[101.092102,4.196061],[101.094597,4.192209],[101.098602,4.184159]],[[100.950747,4.784408],[100.979129,4.792413],[101.008602,4.802784]],[[101.008602,4.802784],[101.018062,4.79587],[101.026613,4.788229],[101.032435,4.781316],[101.040804,4.779132],[101.045534,4.777677],[101.050447,4.771309],[101.054813,4.765123]],[[101.054813,4.765123],[101.054398,4.75601],[101.053299,4.7514],[101.054001,4.748749],[101.057098,4.74335],[101.058197,4.739031],[101.055298,4.737531],[101.050003,4.73682],[101.046626,4.738197],[101.038985,4.730192],[101.0348,4.716729],[101.036438,4.705813],[101.040001,4.69585],[101.034897,4.690419],[101.0326,4.687821],[101.030098,4.684252],[101.025398,4.675081],[101.024002,4.67104],[101.023201,4.66482],[101.023201,4.660959],[101.020096,4.65324],[101.017403,4.64937],[101.012497,4.64348],[101.011002,4.640021],[101.010201,4.63593],[101.010101,4.631561],[101.011299,4.625231],[101.012596,4.619992],[101.013199,4.616081],[101.0131,4.612851],[101.012001,4.60554],[101.013199,4.594661],[101.012398,4.59016]],[[101.012398,4.59016],[101.011002,4.588321],[101.009201,4.587161],[101.006699,4.58531],[101.002602,4.581091],[101.000298,4.575099],[100.998703,4.56617],[100.996803,4.55925]],[[100.996803,4.55925],[100.938467,4.557061],[100.932062,4.559623],[100.92715,4.56126],[100.922729,4.564563],[100.891701,4.55938],[100.888901,4.559032],[100.881897,4.557391],[100.874496,4.555351],[100.869896,4.554191],[100.861198,4.551861],[100.851997,4.548871]],[[100.851997,4.548871],[100.849304,4.548707],[100.845276,4.548096],[100.840881,4.547303],[100.830872,4.544311],[100.8255,4.543702],[100.819092,4.541687],[100.814407,4.539529],[100.806664,4.536808],[100.798889,4.534301],[100.782501,4.529439],[100.771202,4.527039],[100.760696,4.522641],[100.755333,4.520295],[100.751709,4.51947],[100.747925,4.518921],[100.741699,4.518677],[100.73761,4.519473],[100.740799,4.52954],[100.743698,4.53462],[100.747803,4.53947],[100.751801,4.543802],[100.762802,4.55667],[100.765297,4.563241],[100.767601,4.568549],[100.772697,4.5745],[100.776199,4.57589],[100.781998,4.576371],[100.789497,4.578001],[100.790901,4.58451],[100.790398,4.587051],[100.789703,4.59073],[100.789703,4.594411],[100.790802,4.59839],[100.792702,4.60162],[100.796898,4.60682],[100.7994,4.610339],[100.800903,4.617359],[100.801102,4.625601],[100.801498,4.628591],[100.802299,4.630439],[100.805901,4.635171],[100.8088,4.639041],[100.809196,4.641801],[100.806503,4.64594],[100.804199,4.650019],[100.803001,4.65958],[100.798996,4.66515],[100.7967,4.66952],[100.797997,4.672979],[100.803001,4.67697],[100.804398,4.679621]],[[100.800903,4.68306],[100.82924,4.67413],[100.841858,4.664035],[100.857001,4.651416],[100.873405,4.64006],[100.880976,4.629965],[100.89107,4.621132],[100.908736,4.64006],[100.918831,4.656464],[100.917569,4.67413],[100.932711,4.684224],[100.936497,4.700628],[100.931449,4.71577],[100.91126,4.727127],[100.889809,4.730913],[100.879714,4.738484],[100.884761,4.74984],[100.888547,4.766244],[100.896118,4.781386],[100.912522,4.787696],[100.950747,4.784408]],[[100.950565,4.861366],[100.956205,4.845356],[100.964392,4.828982],[100.9633,4.822432],[100.95293,4.808606],[100.948746,4.800419],[100.948746,4.79114],[100.950747,4.784408]],[[101.424648,4.978606],[101.425668,4.973062],[101.437724,4.956032],[101.437544,4.926451],[101.444562,4.919459],[101.447801,4.899379],[101.446362,4.878044],[101.436465,4.877864],[101.438084,4.86872],[101.446542,4.858859],[101.441143,4.855632],[101.435745,4.859755],[101.428727,4.857245],[101.424228,4.850611],[101.410732,4.855632]],[[101.410732,4.855632],[101.38257,4.851689],[101.359889,4.851689],[101.33872,4.850933],[101.318306,4.850177],[101.295625,4.852445],[101.279748,4.852445],[101.261603,4.852445],[101.246482,4.852445],[101.230605,4.853201],[101.21246,4.853201],[101.195827,4.851689],[101.17995,4.852445],[101.162561,4.852445],[101.14366,4.854713],[101.124759,4.855469],[101.106614,4.855469],[101.085445,4.856981],[101.069568,4.857737],[101.046887,4.858493],[101.052935,4.838836],[101.053691,4.819935],[101.037814,4.806326],[101.008602,4.802784]],[[101.410732,4.855632],[101.409833,4.85097],[101.412352,4.843977],[101.402095,4.843081],[101.403175,4.838957],[101.400116,4.833577],[101.407313,4.825867],[101.410373,4.81726],[101.415051,4.813316],[101.411092,4.798612],[101.395797,4.773149],[101.397956,4.762389],[101.38734,4.764183],[101.374563,4.761314],[101.38752,4.723116],[101.379242,4.708052],[101.372764,4.707514],[101.370785,4.712536],[101.365386,4.71397],[101.358368,4.707155],[101.350631,4.706438],[101.347572,4.713074],[101.343433,4.713432],[101.340374,4.707155],[101.340734,4.700341],[101.334975,4.698727],[101.333716,4.695319],[101.334436,4.684379],[101.337515,4.68018]],[[101.337515,4.68018],[101.328796,4.68035],[101.325798,4.67965],[101.322296,4.67929],[101.317101,4.67939],[101.311501,4.681681],[101.304517,4.686983],[101.29633,4.688075],[101.294692,4.694624],[101.294502,4.705001],[101.293198,4.707191],[101.286697,4.712691],[101.2761,4.71778],[101.2705,4.72433],[101.266403,4.729381],[101.262802,4.731961],[101.260201,4.732879],[101.252998,4.736079],[101.235497,4.75612],[101.231697,4.75743],[101.2286,4.756899],[101.226097,4.755739],[101.216896,4.752831],[101.213799,4.75375],[101.209,4.763001],[101.206545,4.764214],[101.198176,4.764396],[101.195084,4.767489],[101.192902,4.775331],[101.1856,4.776691],[101.18,4.775399],[101.1754,4.775041],[101.171501,4.778551],[101.167397,4.78452],[101.163788,4.783262],[101.159798,4.78225],[101.155899,4.78414],[101.152702,4.78493],[101.148903,4.785382],[101.145302,4.785721],[101.139198,4.78558],[101.133598,4.784301],[101.126801,4.78261],[101.1194,4.77959],[101.110001,4.775641],[101.1073,4.774371],[101.102997,4.77263],[101.096703,4.77134],[101.092499,4.77],[101.089897,4.768379],[101.084602,4.76411],[101.082199,4.763411],[101.074402,4.767641],[101.072197,4.76879],[101.070099,4.768671],[101.054813,4.765123]],[[100.821198,4.302991],[100.821289,4.309817],[100.820702,4.319171],[100.820503,4.326191],[100.820847,4.334578],[100.818481,4.33949],[100.818663,4.356046],[100.810658,4.368054],[100.803398,4.385391],[100.802803,4.392871],[100.802597,4.40111],[100.803497,4.4151],[100.803406,4.420916],[100.8041,4.428631],[100.804871,4.43689],[100.805725,4.443482]],[[100.805725,4.443482],[100.805481,4.450073],[100.805481,4.454148],[100.804901,4.459151],[100.804298,4.467041],[100.803001,4.47538],[100.82251,4.480529],[100.826294,4.477906],[100.830002,4.475757],[100.833389,4.477821],[100.834702,4.48124],[100.836502,4.484009],[100.838799,4.48563],[100.843498,4.486801],[100.850197,4.486819],[100.853813,4.487296],[100.856804,4.489281],[100.8591,4.49347],[100.858696,4.496111],[100.8564,4.500941],[100.855911,4.503662],[100.858154,4.505527],[100.859901,4.50642],[100.8629,4.509082],[100.864197,4.514151],[100.8629,4.518009],[100.861603,4.520311],[100.859299,4.524329],[100.858398,4.526401],[100.855797,4.531171],[100.855103,4.53462],[100.854187,4.539116],[100.853302,4.544001],[100.851997,4.548871]],[[100.996803,4.55925],[100.994896,4.550321],[100.991402,4.5407],[100.987,4.53147],[100.984299,4.5268],[100.980896,4.51976],[100.978699,4.51336],[100.973198,4.502751],[100.968597,4.495879],[100.960602,4.482099],[100.952202,4.464281],[100.949799,4.457539],[100.9487,4.451659],[100.947502,4.44123],[100.947502,4.4372],[100.947998,4.429431],[100.947701,4.42459],[100.944603,4.40604],[100.943398,4.401201],[100.944199,4.395909],[100.945503,4.393781],[100.947601,4.39229],[100.954697,4.390701],[100.959,4.390831],[100.961998,4.39015],[100.965996,4.38636],[100.968597,4.38032]],[[100.968597,4.38032],[100.948056,4.375503],[100.928826,4.377528],[100.904536,4.377528],[100.892391,4.367407],[100.874173,4.361334],[100.878222,4.350201],[100.886318,4.331984],[100.885306,4.314778],[100.903524,4.303645],[100.876197,4.303645],[100.854944,4.303645],[100.821198,4.302991]],[[100.968597,4.38032],[100.9711,4.37354],[100.974503,4.368081],[100.979401,4.36314],[100.9823,4.36177],[100.991501,4.35834]],[[100.991501,4.35834],[100.999154,4.354131],[101.004501,4.35119],[101.0093,4.348551],[101.012703,4.34534],[101.015297,4.34149],[101.014801,4.335161],[101.013298,4.325541],[101.013298,4.315109],[101.013702,4.30705],[101.013702,4.297781],[101.010399,4.294091],[101.001999,4.293141],[100.996399,4.29186],[100.994698,4.290351],[100.995201,4.282809],[100.998901,4.277531],[101.000999,4.26769],[101.001999,4.260841],[101.002701,4.258541],[101.005798,4.255551],[101.011299,4.255111],[101.019096,4.255371],[101.030098,4.25471],[101.033798,4.255182],[101.037102,4.255191],[101.042,4.253709],[101.048401,4.250279],[101.051598,4.24873],[101.0616,4.24692]],[[100.839276,4.179628],[100.837403,4.183664],[100.82867,4.22187],[100.825213,4.247887]],[[100.825213,4.247887],[100.821198,4.299481],[100.821198,4.302991]],[[100.61874,4.46583],[100.618434,4.515417],[100.626711,4.536943],[100.642186,4.541966],[100.656042,4.564567],[100.649744,4.565105],[100.636068,4.563132],[100.619693,4.552728],[100.592342,4.567616],[100.580645,4.564208],[100.579925,4.571025],[100.585504,4.595778],[100.582445,4.601338],[100.588563,4.619454],[100.599719,4.637569],[100.615375,4.648689],[100.620953,4.647971],[100.627611,4.653711],[100.633729,4.655145],[100.638228,4.663575],[100.647225,4.667879],[100.654063,4.67308],[100.651004,4.675771],[100.651723,4.679896],[100.656042,4.682944],[100.654962,4.6842],[100.648664,4.683662],[100.638947,4.674515],[100.624552,4.678281],[100.592521,4.667521],[100.578306,4.715046],[100.581545,4.723834],[100.575427,4.740512],[100.577586,4.755216],[100.584424,4.767231],[100.594861,4.765438],[100.601339,4.767411],[100.601339,4.769577]],[[100.805725,4.443482],[100.728009,4.447313],[100.728009,4.463221],[100.61874,4.46583]],[[100.825213,4.247887],[100.76099,4.246613],[100.738613,4.260258],[100.732791,4.259349],[100.7186,4.265716],[100.722421,4.271902],[100.694949,4.293916],[100.699861,4.3112],[100.683487,4.313201],[100.676755,4.337762],[100.659211,4.330267]],[[100.659211,4.330267],[100.620538,4.313747],[100.613806,4.312473],[100.582696,4.324481],[100.573963,4.321388],[100.563746,4.324953]],[[100.563746,4.324953],[100.563988,4.325523],[100.564883,4.328212],[100.583884,4.371535],[100.583344,4.378711],[100.588203,4.391629],[100.585144,4.396653],[100.586223,4.411903],[100.581185,4.416209],[100.584784,4.425539],[100.593421,4.430383],[100.593961,4.422847],[100.604758,4.423027],[100.610516,4.431997],[100.611236,4.443838],[100.615015,4.448861],[100.618793,4.457114],[100.61874,4.46583]],[[100.812842,4.018833],[100.803563,4.009554],[100.791555,4.001913],[100.770087,4.001913],[100.748894,4.005966]],[[100.748894,4.005966],[100.76005,4.066995],[100.749614,4.09715],[100.725141,4.117611],[100.703548,4.150634]],[[100.703548,4.150634],[100.720946,4.160619],[100.723115,4.1758],[100.718054,4.198934],[100.700704,4.201826],[100.681908,4.195319],[100.666004,4.197488],[100.668173,4.219899],[100.673233,4.242309],[100.668173,4.263997],[100.655883,4.277009],[100.661666,4.293636],[100.663835,4.315324],[100.659211,4.330267]],[[100.703548,4.150634],[100.65839,4.170374],[100.654905,4.169153],[100.648536,4.169969],[100.641025,4.170459],[100.636126,4.170622],[100.634901,4.168581],[100.635228,4.166621],[100.633595,4.163192],[100.629676,4.160743],[100.630165,4.158783],[100.627879,4.15862],[100.627471,4.156742],[100.626328,4.15666],[100.625675,4.158212],[100.62423,4.160555],[100.625082,4.161177],[100.624194,4.16267],[100.622631,4.164859],[100.620551,4.166403],[100.618581,4.166683],[100.617431,4.166766],[100.617475,4.165356],[100.616728,4.164964],[100.616685,4.164132],[100.616205,4.16437],[100.615796,4.166019],[100.615254,4.166422],[100.615001,4.167091],[100.61391,4.167188],[100.613454,4.168148],[100.613951,4.168202],[100.614177,4.168727],[100.613944,4.170397],[100.613092,4.17128],[100.613758,4.173839],[100.613426,4.174384],[100.613026,4.174564],[100.61326,4.175617],[100.612413,4.177144],[100.612247,4.179399],[100.611081,4.180868],[100.610355,4.182178],[100.610174,4.182926],[100.609743,4.183706],[100.609179,4.186047],[100.6052,4.188762],[100.604553,4.188629],[100.604201,4.188147],[100.603333,4.188964],[100.602673,4.190584],[100.603038,4.191351],[100.602587,4.192286],[100.602795,4.193643],[100.602592,4.194462],[100.603115,4.19453],[100.603085,4.195721],[100.602818,4.196406],[100.603262,4.196703],[100.602861,4.198233],[100.603981,4.198338],[100.605461,4.199192],[100.605889,4.200344],[100.608406,4.200327],[100.609621,4.202408],[100.609721,4.204226],[100.610812,4.205824],[100.610244,4.20843],[100.609948,4.210764],[100.609979,4.214176],[100.608539,4.216412],[100.59523,4.226991],[100.594291,4.228498],[100.592721,4.230845],[100.592513,4.233886],[100.592071,4.235252],[100.593141,4.236767],[100.59377,4.238878],[100.59042,4.239548],[100.590547,4.245049],[100.590386,4.256775],[100.590164,4.26332],[100.592396,4.269585],[100.591769,4.273466],[100.590415,4.274041],[100.588814,4.274601],[100.587339,4.275598],[100.586279,4.277692],[100.584762,4.278353],[100.584684,4.279656],[100.58695,4.279919],[100.586872,4.287298],[100.585929,4.294958],[100.583395,4.297308],[100.582358,4.298179],[100.58118,4.298212],[100.581305,4.296873],[100.580451,4.296873],[100.579192,4.296018],[100.578653,4.296536],[100.579546,4.297792],[100.57868,4.302628],[100.577226,4.308013],[100.574851,4.311196],[100.571444,4.312954],[100.570512,4.31106],[100.568967,4.310376],[100.565158,4.312711],[100.563193,4.312305],[100.561608,4.310173],[100.560575,4.308828],[100.558364,4.308466],[100.558117,4.311834],[100.558933,4.314255],[100.559412,4.316897],[100.559175,4.319638],[100.563183,4.323621],[100.563746,4.324953]],[[100.546695,4.199508],[100.546909,4.197985],[100.549797,4.195945],[100.54989,4.19532],[100.549295,4.193897],[100.548841,4.192851],[100.548538,4.190972],[100.548706,4.189773],[100.548596,4.188743],[100.548483,4.187789],[100.548031,4.187597],[100.547127,4.187916],[100.546751,4.188454],[100.546138,4.188395],[100.545964,4.188051],[100.545344,4.188288],[100.544825,4.187896],[100.544469,4.187635],[100.543784,4.187918],[100.543159,4.187879],[100.542291,4.187634],[100.540601,4.187517],[100.540211,4.187968],[100.54014,4.188528],[100.54036,4.189026],[100.540353,4.189394],[100.540189,4.189845],[100.539777,4.190409],[100.539722,4.190946],[100.540162,4.191917],[100.540101,4.192767],[100.539622,4.193409],[100.538959,4.194899],[100.539307,4.195222],[100.540511,4.195227],[100.542061,4.194779],[100.542738,4.194988],[100.543085,4.195639],[100.543163,4.19652],[100.542399,4.1971],[100.541386,4.197509],[100.540915,4.197827],[100.540198,4.197993],[100.539655,4.198467],[100.539254,4.199421],[100.539382,4.200098],[100.539984,4.200327],[100.540139,4.200705],[100.539933,4.20118],[100.54032,4.201686],[100.540786,4.201839],[100.541064,4.201723],[100.54138,4.201393],[100.541665,4.200741],[100.542209,4.200941],[100.542916,4.201204],[100.543034,4.202174],[100.543287,4.202861],[100.543989,4.203259],[100.544586,4.202489],[100.544723,4.20194],[100.545339,4.201366],[100.546646,4.201057],[100.547062,4.201028],[100.547424,4.200812],[100.547421,4.200098],[100.546695,4.199508]],[[100.569061,4.245269],[100.567946,4.244512],[100.56801,4.243535],[100.56886,4.241574],[100.571017,4.239983],[100.572412,4.23901],[100.573141,4.237306],[100.573122,4.23619],[100.57405,4.234558],[100.573985,4.233434],[100.573418,4.232971],[100.573771,4.231473],[100.57445,4.230708],[100.574848,4.229397],[100.575313,4.227674],[100.575279,4.226778],[100.574948,4.226069],[100.575171,4.224395],[100.574874,4.224009],[100.57486,4.223136],[100.574986,4.222583],[100.574984,4.220968],[100.575221,4.220525],[100.57604,4.219969],[100.576263,4.219449],[100.576178,4.218616],[100.576499,4.217938],[100.576844,4.216841],[100.577162,4.216448],[100.577357,4.215956],[100.577828,4.215507],[100.578661,4.214531],[100.57768,4.214557],[100.57639,4.214516],[100.576276,4.214132],[100.576694,4.213315],[100.57658,4.212621],[100.576724,4.211035],[100.576206,4.210586],[100.575719,4.210529],[100.57512,4.210329],[100.575173,4.209751],[100.575454,4.209259],[100.576062,4.208623],[100.57726,4.206379],[100.578467,4.205578],[100.579164,4.205222],[100.579691,4.204664],[100.579768,4.204126],[100.579352,4.202753],[100.579089,4.202226],[100.579241,4.201564],[100.579062,4.200981],[100.57861,4.200793],[100.578211,4.201228],[100.578211,4.2019],[100.577715,4.201729],[100.577214,4.201352],[100.576345,4.19975],[100.576298,4.198274],[100.578431,4.195695],[100.578748,4.19438],[100.579581,4.193708],[100.581716,4.19259],[100.582285,4.192619],[100.582185,4.191841],[100.581995,4.191228],[100.582354,4.190513],[100.582002,4.189108],[100.581425,4.188298],[100.580061,4.188257],[100.579486,4.188505],[100.578776,4.18928],[100.57808,4.190015],[100.577607,4.190251],[100.577279,4.190492],[100.576745,4.190278],[100.576369,4.189647],[100.575786,4.189554],[100.575295,4.189663],[100.574472,4.19024],[100.573538,4.190409],[100.572247,4.190194],[100.571785,4.190456],[100.571139,4.18995],[100.569609,4.189196],[100.569178,4.189366],[100.568368,4.189924],[100.567211,4.190464],[100.566293,4.190143],[100.565573,4.190999],[100.565179,4.190785],[100.564907,4.190354],[100.564175,4.190257],[100.5634,4.190869],[100.562898,4.191788],[100.562426,4.192164],[100.561255,4.192876],[100.560517,4.195508],[100.560832,4.197348],[100.561423,4.198146],[100.561049,4.200496],[100.560412,4.201999],[100.560354,4.203991],[100.559286,4.20631],[100.558403,4.206568],[100.558756,4.207102],[100.558492,4.208336],[100.557797,4.210161],[100.555547,4.211967],[100.552098,4.213483],[100.548412,4.214165],[100.546973,4.213906],[100.546101,4.213214],[100.54592,4.212109],[100.54525,4.211923],[100.544761,4.213015],[100.544408,4.213927],[100.543393,4.214648],[100.543184,4.215606],[100.543729,4.216725],[100.543248,4.217308],[100.543473,4.217801],[100.544264,4.217851],[100.544539,4.218507],[100.544514,4.21973],[100.54395,4.221976],[100.543166,4.222377],[100.542625,4.224027],[100.541282,4.224238],[100.539886,4.225524],[100.539443,4.225408],[100.538967,4.225803],[100.539462,4.226666],[100.540181,4.226741],[100.54087,4.226389],[100.541627,4.226409],[100.542804,4.226938],[100.544548,4.229153],[100.54566,4.2323],[100.545227,4.234208],[100.544669,4.234429],[100.544641,4.235572],[100.545342,4.235948],[100.545734,4.237495],[100.545261,4.239052],[100.54438,4.238923],[100.54304,4.238461],[100.542205,4.238702],[100.542313,4.239363],[100.543,4.240417],[100.541716,4.241921],[100.540688,4.242581],[100.538641,4.242448],[100.537244,4.24259],[100.536597,4.244109],[100.535463,4.245315],[100.536144,4.245752],[100.537184,4.245759],[100.537886,4.246536],[100.539156,4.246788],[100.540148,4.246451],[100.540913,4.24676],[100.54312,4.246763],[100.54428,4.247604],[100.544874,4.249997],[100.545213,4.253302],[100.54497,4.255217],[100.544075,4.255484],[100.542966,4.255555],[100.542255,4.256283],[100.541406,4.255875],[100.538791,4.256216],[100.537771,4.256916],[100.537234,4.257766],[100.537742,4.259586],[100.536975,4.260257],[100.535968,4.260292],[100.535839,4.260985],[100.536122,4.261381],[100.535934,4.262003],[100.53545,4.262425],[100.535736,4.263073],[100.536181,4.264041],[100.538135,4.264142],[100.539285,4.265704],[100.540973,4.266135],[100.543473,4.265846],[100.547043,4.265877],[100.548452,4.263345],[100.550504,4.263078],[100.551314,4.261764],[100.550416,4.260051],[100.551348,4.25899],[100.552051,4.257318],[100.55146,4.256055],[100.551929,4.255029],[100.553447,4.254031],[100.553463,4.253355],[100.551941,4.252984],[100.551328,4.251764],[100.553644,4.249731],[100.556174,4.248188],[100.558007,4.248158],[100.55951,4.248716],[100.559645,4.249625],[100.558979,4.250446],[100.559386,4.251285],[100.562678,4.252423],[100.563646,4.253517],[100.564344,4.253659],[100.564689,4.25299],[100.564151,4.252031],[100.568065,4.250004],[100.56894,4.249167],[100.56912,4.247288],[100.569238,4.245945],[100.569061,4.245269]],[[101.085673,4.597617],[101.079465,4.598018],[101.062545,4.595289],[101.050356,4.593833]],[[101.050356,4.593833],[101.055814,4.613482],[101.069277,4.61894],[101.074189,4.622942],[101.080738,4.630584],[101.088198,4.650414],[101.091836,4.654781]],[[101.091836,4.654781],[101.101297,4.654599],[101.114214,4.649141],[101.117671,4.649141],[101.12377,4.650157],[101.132953,4.651688],[101.135682,4.648777]],[[101.135682,4.648777],[101.124501,4.637039],[101.120143,4.637661],[101.111428,4.629569],[101.098356,4.61494],[101.087462,4.607159],[101.085673,4.597617]],[[101.135682,4.648777],[101.132408,4.638953],[101.128405,4.627673],[101.136592,4.614755],[101.128405,4.605841]],[[101.128405,4.605841],[101.123857,4.607114],[101.111121,4.602202],[101.090745,4.59729],[101.085673,4.597617]],[[101.128405,4.605841],[101.125858,4.599655],[101.130952,4.591468],[101.135137,4.582553],[101.133681,4.566179],[101.112395,4.568726],[101.09311,4.56527],[101.079829,4.555081]],[[101.079829,4.555081],[101.067176,4.552493]],[[101.067176,4.552493],[101.069409,4.558915],[101.074078,4.567007],[101.075946,4.574477],[101.076257,4.581325],[101.081548,4.588795],[101.085673,4.597617]],[[101.067176,4.552493],[101.055814,4.550169]],[[101.055814,4.550169],[101.052357,4.545439],[101.046353,4.544711],[101.040531,4.545803],[101.037256,4.548168],[101.038712,4.558902],[101.039622,4.567817],[101.046717,4.584918],[101.050356,4.593833]],[[101.091836,4.654781],[101.098987,4.666829],[101.104781,4.679244],[101.099814,4.696627],[101.103953,4.714836],[101.113058,4.730563],[101.099814,4.738012],[101.082432,4.7496],[101.054813,4.765123]],[[101.337515,4.68018],[101.337855,4.679716],[101.343073,4.676667],[101.346222,4.672004],[101.349911,4.671287],[101.35189,4.664113],[101.357829,4.660167],[101.362687,4.650124],[101.363498,4.643257],[101.364487,4.634878]],[[101.364487,4.634878],[101.350613,4.629581],[101.331575,4.62296],[101.307571,4.617166],[101.288534,4.613855],[101.270324,4.630409],[101.254598,4.640342],[101.233077,4.649447],[101.208245,4.646964],[101.185897,4.646136],[101.169343,4.653585],[101.153616,4.656068],[101.135682,4.648777]],[[101.364487,4.634878],[101.370785,4.634699],[101.376723,4.629856],[101.370245,4.621247],[101.373844,4.610127],[101.363947,4.607616],[101.365687,4.603111],[101.361967,4.598827],[101.357649,4.59793],[101.35405,4.593984],[101.348831,4.592011],[101.35153,4.589679],[101.356569,4.566361],[101.35387,4.555598],[101.35459,4.548423],[101.358008,4.545194],[101.359088,4.538916],[101.365206,4.528153]],[[101.365206,4.528153],[101.266856,4.537616],[101.237019,4.520514],[101.209547,4.506505],[101.194993,4.508506],[101.182985,4.502503],[101.171887,4.497772],[101.154785,4.491768],[101.130224,4.495953],[101.1204,4.491405],[101.120764,4.484309],[101.128041,4.473575],[101.123857,4.469391],[101.115852,4.467026],[101.112759,4.468117]],[[101.112759,4.468117],[101.108392,4.474121],[101.097294,4.493406],[101.09966,4.511053],[101.095657,4.520696],[101.088744,4.519968],[101.07619,4.513419],[101.06673,4.513782],[101.055268,4.52015],[101.046717,4.522697]],[[101.046717,4.522697],[101.03289,4.527246],[101.023975,4.533977],[101.021246,4.557265],[101.017971,4.563814],[101.016152,4.57946],[101.012398,4.59016]],[[101.055814,4.550169],[101.079829,4.555081]],[[101.112759,4.468117],[101.11103,4.458475],[101.107028,4.455564],[101.087015,4.456291],[101.081375,4.453381],[101.09029,4.444466],[101.085196,4.439736],[101.069731,4.44956],[101.061726,4.454108],[101.056814,4.44956],[101.061726,4.438098],[101.061181,4.434459],[101.058452,4.431185],[101.05081,4.419723],[101.051538,4.414265],[101.054267,4.404622],[101.068822,4.387339],[101.075735,4.380789],[101.071915,4.335306],[101.071187,4.325481],[101.074098,4.308743]],[[101.074098,4.308743],[101.079374,4.28018],[101.078282,4.26799],[101.068703,4.244641]],[[100.991501,4.35834],[101.018023,4.366134],[101.030623,4.36957],[101.028332,4.381024],[101.016878,4.397059],[101.014587,4.424548],[101.015733,4.44402],[101.013442,4.458909],[101.015733,4.471509],[101.026041,4.474945],[101.037495,4.4612],[101.050094,4.473799],[101.036349,4.487544],[101.029477,4.500143],[101.046717,4.522697]],[[101.365206,4.528153],[101.372584,4.528871],[101.382121,4.523489],[101.382661,4.516493],[101.3868,4.505371],[101.379782,4.503039],[101.379062,4.49981],[101.374384,4.496581],[101.360708,4.497119],[101.359448,4.494249],[101.368445,4.485817],[101.365746,4.482229],[101.359088,4.475592],[101.358188,4.459984],[101.345232,4.451373],[101.340914,4.452988],[101.337135,4.445632],[101.332816,4.445991],[101.332636,4.431818]],[[101.332636,4.431818],[101.33296,4.424277],[101.329201,4.422751],[101.324402,4.41363],[101.321137,4.408023],[101.319,4.404351]],[[101.319,4.404351],[101.28833,4.401753],[101.258746,4.405612],[101.234308,4.405612],[101.208584,4.410757],[101.188004,4.410757],[101.158421,4.412043],[101.136555,4.406898],[101.124979,4.386318],[101.126265,4.364453],[101.132697,4.342587],[101.117262,4.322007],[101.086392,4.320721],[101.074098,4.308743]],[[101.319,4.404351],[101.314598,4.392181],[101.312798,4.384919],[101.312897,4.38164],[101.318901,4.37498],[101.320702,4.36652],[101.312996,4.361321],[101.303802,4.355591],[101.302498,4.353862],[101.301399,4.35166],[101.297798,4.34578],[101.295303,4.342951],[101.292297,4.337411]],[[101.292297,4.337411],[101.286697,4.33486],[101.269501,4.33757],[101.261002,4.340419],[101.253998,4.345071],[101.250702,4.34655],[101.247398,4.348041],[101.245201,4.348841],[101.240196,4.34802],[101.238197,4.34732],[101.233002,4.343621],[101.230301,4.340791],[101.224403,4.33835],[101.2183,4.337411],[101.210602,4.3367],[101.205002,4.33587],[101.201897,4.334361],[101.1987,4.331362],[101.197296,4.32738],[101.196503,4.32013],[101.195801,4.309471],[101.196899,4.295251],[101.193802,4.286661],[101.187897,4.282499],[101.181999,4.282021],[101.179703,4.281551],[101.175697,4.280619]],[[101.175697,4.280619],[101.164703,4.278281],[101.162598,4.277239],[101.159897,4.272681],[101.158203,4.26588],[101.156403,4.25822],[101.155403,4.25603],[101.149902,4.256121],[101.148003,4.25773],[101.144501,4.255761],[101.142502,4.25414],[101.140503,4.25218],[101.134697,4.248071],[101.132401,4.24749],[101.128098,4.25007],[101.1259,4.248971],[101.123398,4.24712],[101.121399,4.245381],[101.1194,4.244449],[101.113899,4.244089],[101.111397,4.244201],[101.109001,4.24431],[101.106903,4.24395],[101.103699,4.243829],[101.100998,4.24509],[101.097298,4.24761],[101.093903,4.247481],[101.091698,4.246211],[101.088898,4.242982],[101.086998,4.241131],[101.083702,4.240892],[101.081596,4.241231],[101.072098,4.244189],[101.068703,4.244641]],[[101.240998,3.910574],[101.236298,4.020109],[101.235802,4.02361]],[[101.235802,4.02361],[101.252311,4.027285],[101.263981,4.032286],[101.276068,4.037913],[101.290031,4.043331],[101.243559,4.05646],[101.247935,4.07209],[101.256062,4.085427],[101.268149,4.095847],[101.268149,4.103141],[101.257313,4.110851],[101.248769,4.116478],[101.241683,4.119187],[101.232931,4.125022],[101.224803,4.128565],[101.221886,4.131274],[101.233556,4.137526],[101.249185,4.141902],[101.260647,4.140235],[101.270442,4.140026],[101.280861,4.143778],[101.293365,4.144403],[101.303993,4.151488],[101.315038,4.161074],[101.345047,4.170452],[101.384434,4.188999],[101.437366,4.215049],[101.442993,4.217549],[101.448619,4.219008],[101.464716,4.214524]],[[101.464716,4.214524],[101.471194,4.215601],[101.479472,4.211115],[101.482711,4.21273],[101.489189,4.210756],[101.492608,4.21255],[101.492428,4.20932],[101.498906,4.206808],[101.509522,4.207525],[101.511142,4.201244],[101.507903,4.198552],[101.504124,4.188861],[101.500525,4.190118],[101.498006,4.183298],[101.499086,4.173248],[101.497286,4.170017],[101.498726,4.165351],[101.495487,4.16248],[101.498366,4.156019],[101.503764,4.153147],[101.503764,4.144353],[101.506643,4.140584],[101.506643,4.133046],[101.514741,4.125508],[101.516,4.118508]],[[101.516,4.118508],[101.498666,4.096725],[101.492726,4.075935],[101.491241,4.062571],[101.485301,4.037327],[101.485301,4.029902],[101.471936,4.026932],[101.464512,4.015052],[101.464512,3.995748],[101.455602,3.979413],[101.445207,3.958624],[101.428873,3.951199],[101.414023,3.937835],[101.402144,3.920015],[101.384324,3.909621],[101.37393,3.896256],[101.354625,3.884376],[101.335321,3.885861],[101.323441,3.91259],[101.308592,3.91259],[101.295227,3.917045],[101.274438,3.91259],[101.240998,3.910574]],[[101.516,4.118508],[101.520139,4.119226],[101.527697,4.126046],[101.535255,4.126944],[101.542272,4.119046],[101.560627,4.109713],[101.560267,4.102893],[101.564226,4.101457],[101.569084,4.095714],[101.575922,4.09715],[101.579521,4.085662],[101.578621,4.07938],[101.58204,4.074893],[101.557568,4.028404],[101.558647,4.012787],[101.563146,4.009915],[101.565125,4.002376],[101.572863,3.998965],[101.573223,3.995195],[101.571424,3.992503],[101.575922,3.978501],[101.575562,3.967192],[101.578082,3.965038],[101.576642,3.961268],[101.579521,3.958395],[101.574123,3.952112],[101.577362,3.948343],[101.575922,3.944214],[101.571244,3.942598],[101.576642,3.936315],[101.575382,3.931109],[101.578441,3.926082],[101.576462,3.920517],[101.571963,3.916388],[101.576462,3.911002],[101.578621,3.907232],[101.576642,3.902385],[101.588158,3.889818],[101.593737,3.888381],[101.605613,3.874737],[101.598595,3.859297],[101.600035,3.851756],[101.603274,3.848524],[101.600575,3.843497],[101.589058,3.837573],[101.596796,3.826979],[101.597156,3.816745],[101.598055,3.813514],[101.591937,3.803279],[101.602194,3.79502],[101.61569,3.793404],[101.618929,3.784606],[101.624327,3.781554],[101.626487,3.771858],[101.606513,3.774012],[101.596256,3.752645],[101.590858,3.743487],[101.5815,3.739717],[101.58168,3.725352],[101.578801,3.720862],[101.570344,3.717451],[101.570164,3.710986],[101.547851,3.700033],[101.535794,3.678304],[101.51744,3.679741],[101.511862,3.687283],[101.499985,3.695364],[101.495667,3.699314],[101.478752,3.702008],[101.474793,3.7135],[101.469035,3.716732],[101.461837,3.714578],[101.456259,3.722479],[101.45176,3.735766],[101.440064,3.751029],[101.436285,3.752106],[101.420989,3.751568],[101.41865,3.758391],[101.405694,3.760905],[101.398676,3.769883],[101.391118,3.772755],[101.387699,3.771319],[101.3859,3.779938],[101.38572,3.78317],[101.380502,3.793045],[101.373124,3.801663],[101.354769,3.802202],[101.348831,3.794661],[101.337135,3.793943],[101.326698,3.784965],[101.329397,3.768805],[101.326158,3.755338],[101.337315,3.747438],[101.341094,3.721222],[101.347392,3.709729],[101.343182,3.701348],[101.34001,3.694864],[101.337315,3.689438],[101.32094,3.690695],[101.310323,3.682075],[101.310323,3.677047],[101.300606,3.670762],[101.296467,3.677586],[101.282971,3.673276],[101.282072,3.668069],[101.265157,3.668069],[101.250401,3.673635],[101.245903,3.68836],[101.247342,3.696621],[101.244463,3.70129],[101.246802,3.709011],[101.250041,3.716194]],[[101.250041,3.716194],[101.249252,3.71819],[101.243452,3.85338]],[[101.243452,3.85338],[101.240998,3.910574]],[[101.150803,4.116211],[101.154503,4.10972],[101.167603,4.09438],[101.189796,4.07603],[101.196999,4.069719],[101.215302,4.05003],[101.225403,4.039291],[101.230698,4.03269],[101.235001,4.0266],[101.235802,4.02361]],[[101.243452,3.85338],[101.22647,3.867446],[101.12519,3.879116],[101.107685,3.881408],[101.091639,3.891828],[101.006405,3.905999],[101.00057,3.914543],[100.964726,3.937675],[100.94347,3.906207],[100.917004,3.905999],[100.918879,3.930798],[100.921171,3.939967],[100.920129,3.946427],[100.913461,3.953096],[100.913252,3.9656],[100.922729,3.976988]],[[101.022429,4.019196],[101.04724,4.013567],[101.054665,4.003173],[101.066544,3.985353],[101.078424,3.983868],[101.096243,3.974958],[101.118518,3.974958],[101.133367,3.985353],[101.143762,3.998718],[101.145247,4.020992],[101.145247,4.035842],[101.119217,4.04867]],[[100.811344,3.861337],[100.775418,3.84762],[100.75321,3.84958],[100.729042,3.858071],[100.703568,3.901182],[100.698869,3.979758],[100.707866,4.002376],[100.731619,4.007043],[100.748894,4.005966]],[[100.869059,3.962979],[100.86623,3.942577],[100.86623,3.91959],[100.86623,3.90235],[100.86623,3.88511],[100.854737,3.88511],[100.82313,3.88511],[100.811344,3.861337]],[[101.250041,3.716194],[101.244463,3.719785],[101.227368,3.712782],[101.22089,3.712782],[101.216032,3.706318],[101.211713,3.708652],[101.212973,3.715835],[101.208834,3.714398],[101.202176,3.720683],[101.204335,3.725352],[101.197317,3.726609],[101.198037,3.716553],[101.18976,3.718887],[101.175544,3.70937],[101.169606,3.715296],[101.169966,3.720503],[101.175004,3.715475],[101.191559,3.731098],[101.170686,3.727866],[101.165647,3.749593],[101.163668,3.723197],[101.15557,3.743847],[101.150352,3.741692],[101.153951,3.728943],[101.132897,3.736485],[101.145133,3.744744],[101.143154,3.748515],[101.134696,3.751747],[101.132897,3.764675],[101.123,3.747258],[101.12318,3.735048],[101.118861,3.735766],[101.110404,3.747258],[101.106445,3.743487],[101.107345,3.733252],[101.102846,3.731816],[101.099247,3.735407],[101.097808,3.744385],[101.092049,3.740614],[101.083952,3.742231],[101.081433,3.729661],[101.074415,3.727866],[101.072615,3.736125],[101.079093,3.745104],[101.072615,3.759289],[101.092949,3.756775],[101.097808,3.749054],[101.101946,3.75049],[101.092409,3.762341],[101.087011,3.767548],[101.092049,3.779758],[101.088451,3.782272],[101.081973,3.775449],[101.077654,3.767369],[101.065238,3.763239],[101.063798,3.755159],[101.059659,3.752645],[101.05642,3.755698],[101.05768,3.769883],[101.053361,3.777963],[101.055521,3.784786],[101.062538,3.791609],[101.054801,3.796277],[101.044364,3.785145],[101.033645,3.784142],[101.032847,3.784067],[101.02493,3.784067],[101.031048,3.794481],[101.02565,3.807768],[101.004416,3.79915],[100.9929,3.802022],[100.985342,3.793763],[100.984622,3.774371],[100.977784,3.768985],[100.969147,3.770062],[100.965705,3.773604],[100.95763,3.781913],[100.95943,3.796995],[100.976345,3.806332],[100.978504,3.816745],[100.964108,3.828954],[100.941435,3.83075],[100.938196,3.841881],[100.946114,3.86953],[100.931718,3.870248],[100.879894,3.853013],[100.854342,3.855167],[100.828412,3.851325],[100.817993,3.849781],[100.811344,3.861337]],[[101.332636,4.431818],[101.341993,4.434509],[101.35279,4.428588],[101.35351,4.421053],[101.349011,4.41585],[101.349371,4.412262],[101.355129,4.409392],[101.358188,4.396833],[101.366826,4.398447],[101.368625,4.405265],[101.381581,4.409033],[101.392378,4.408674],[101.397416,4.402215],[101.399576,4.404009],[101.404974,4.39773],[101.407313,4.392706],[101.41757,4.395218],[101.437364,4.391629],[101.437904,4.384812],[101.443842,4.377455],[101.437004,4.373508],[101.433226,4.361307],[101.434125,4.356642],[101.427647,4.350721],[101.421529,4.348748],[101.421169,4.345877],[101.426208,4.339417],[101.431606,4.339417],[101.444562,4.332061],[101.445153,4.324701],[101.445642,4.318603],[101.45032,4.314835],[101.447621,4.309811],[101.45104,4.301736],[101.446901,4.293123],[101.448161,4.285587],[101.444562,4.274641],[101.45086,4.267283],[101.457878,4.261003],[101.464896,4.256696],[101.463097,4.249338],[101.45284,4.242878],[101.45194,4.224933],[101.464716,4.214524]],[[101.175697,4.280619],[101.177169,4.26385],[101.178276,4.254994],[101.184918,4.232856],[101.188238,4.212931],[101.191559,4.191899],[101.213698,4.19522],[101.239158,4.207396],[101.254655,4.212931],[101.254655,4.202968],[101.254655,4.186364],[101.276794,4.185257],[101.276794,4.200754],[101.276794,4.221786],[101.275687,4.239497],[101.286756,4.256101],[101.296718,4.274919],[101.30336,4.293737],[101.30336,4.315876],[101.292297,4.337411]]],"bbox":[100.360662,3.668069,101.752583,5.934893]}
