{"type":"Topology","objects":{"PRK_SE-08":{"type":"GeometryCollection","geometries":[{"type":"Polygon","arcs":[[0,1]],"properties":{"state":"Perak","parlimen":"P.049 Gerik","code_parlimen":"P.049","dun":"N.01 Temengor","code_dun":"N.01"}},{"type":"Polygon","arcs":[[2,3,4,5,6,7,-2]],"properties":{"state":"Perak","parlimen":"P.049 Gerik","code_parlimen":"P.049","dun":"N.02 Kenering","code_dun":"N.02"}},{"type":"Polygon","arcs":[[8,9,-7,10]],"properties":{"state":"Perak","parlimen":"P.050 Larut","code_parlimen":"P.050","dun":"N.03 Selama","code_dun":"N.03"}},{"type":"Polygon","arcs":[[11,12,13,-11,-6,14,15]],"properties":{"state":"Perak","parlimen":"P.050 Larut","code_parlimen":"P.050","dun":"N.04 Batu Kurau","code_dun":"N.04"}},{"type":"Polygon","arcs":[[16,17,18]],"properties":{"state":"Perak","parlimen":"P.051 Parit Buntar","code_parlimen":"P.051","dun":"N.05 Titi Serong","code_dun":"N.05"}},{"type":"Polygon","arcs":[[19,-19,20]],"properties":{"state":"Perak","parlimen":"P.051 Parit Buntar","code_parlimen":"P.051","dun":"N.06 Kuala Kurau","code_dun":"N.06"}},{"type":"Polygon","arcs":[[-18,21,-9,-14,22,23,24,-21]],"properties":{"state":"Perak","parlimen":"P.052 Bagan Serai","code_parlimen":"P.052","dun":"N.07 Alor Pongsu","code_dun":"N.07"}},{"type":"Polygon","arcs":[[-13,25,-23]],"properties":{"state":"Perak","parlimen":"P.052 Bagan Serai","code_parlimen":"P.052","dun":"N.08 Gunong Semanggol","code_dun":"N.08"}},{"type":"Polygon","arcs":[[26,27,-24,-26,-12,28,29]],"properties":{"state":"Perak","parlimen":"P.053 Bukit Gantang","code_parlimen":"P.053","dun":"N.09 Sapetang","code_dun":"N.09"}},{"type":"Polygon","arcs":[[30,-27,31,32,33,34]],"properties":{"state":"Perak","parlimen":"P.053 Bukit Gantang","code_parlimen":"P.053","dun":"N.10 Changkat Jering","code_dun":"N.10"}},{"type":"Polygon","arcs":[[-29,-16,35,36,-33,37]],"properties":{"state":"Perak","parlimen":"P.054 Taiping","code_parlimen":"P.054","dun":"N.11 Kamunting","code_dun":"N.11"}},{"type":"Polygon","arcs":[[-38,-32,-30]],"properties":{"state":"Perak","parlimen":"P.054 Taiping","code_parlimen":"P.054","dun":"N.12 Asam Kumbang","code_dun":"N.12"}},{"type":"Polygon","arcs":[[-36,-15,-5,38,39]],"properties":{"state":"Perak","parlimen":"P.055 Tasek Chenderoh","code_parlimen":"P.055","dun":"N.13 Lenggong","code_dun":"N.13"}},{"type":"Polygon","arcs":[[-34,-37,-40,40,41]],"properties":{"state":"Perak","parlimen":"P.055 Tasek Chenderoh","code_parlimen":"P.055","dun":"N.14 Lubok Merbau","code_dun":"N.14"}},{"type":"Polygon","arcs":[[-4,42,43,44,-41,-39]],"properties":{"state":"Perak","parlimen":"P.056 Sungai Siput","code_parlimen":"P.056","dun":"N.15 Lintang","code_dun":"N.15"}},{"type":"Polygon","arcs":[[45,46,47,48,-44]],"properties":{"state":"Perak","parlimen":"P.056 Sungai Siput","code_parlimen":"P.056","dun":"N.16 Jalong","code_dun":"N.16"}},{"type":"Polygon","arcs":[[49,50,51,-48,52,53]],"properties":{"state":"Perak","parlimen":"P.057 Tambun","code_parlimen":"P.057","dun":"N.17 Chemor","code_dun":"N.17"}},{"type":"Polygon","arcs":[[54,-53,-47,55,56,57,58]],"properties":{"state":"Perak","parlimen":"P.057 Tambun","code_parlimen":"P.057","dun":"N.18 Sungai Rokam","code_dun":"N.18"}},{"type":"Polygon","arcs":[[-59,59,60]],"properties":{"state":"Perak","parlimen":"P.058 Pasir Pinji","code_parlimen":"P.058","dun":"N.19 Dermawan","code_dun":"N.19"}},{"type":"Polygon","arcs":[[61,-60,-58,62,63,64]],"properties":{"state":"Perak","parlimen":"P.058 Pasir Pinji","code_parlimen":"P.058","dun":"N.20 Tebing Tinggi","code_dun":"N.20"}},{"type":"Polygon","arcs":[[-55,-61,-62,65,66,-54]],"properties":{"state":"Perak","parlimen":"P.059 Ipoh","code_parlimen":"P.059","dun":"N.21 Tasek","code_dun":"N.21"}},{"type":"Polygon","arcs":[[-67,67,68,-50]],"properties":{"state":"Perak","parlimen":"P.059 Ipoh","code_parlimen":"P.059","dun":"N.22 Sungai Pari","code_dun":"N.22"}},{"type":"Polygon","arcs":[[-68,-66,-65,69]],"properties":{"state":"Perak","parlimen":"P.060 Batu Gajah","code_parlimen":"P.060","dun":"N.23 Falim","code_dun":"N.23"}},{"type":"Polygon","arcs":[[70,71,72,-51,-69,-70,-64,73,74]],"properties":{"state":"Perak","parlimen":"P.060 Batu Gajah","code_parlimen":"P.060","dun":"N.24 Lahat","code_dun":"N.24"}},{"type":"Polygon","arcs":[[75,76,-45,-49,-52,-73,77]],"properties":{"state":"Perak","parlimen":"P.061 Kuala Kangsar","code_parlimen":"P.061","dun":"N.25 Bukit Chandan","code_dun":"N.25"}},{"type":"Polygon","arcs":[[-42,-77,78,79,-35]],"properties":{"state":"Perak","parlimen":"P.061 Kuala Kangsar","code_parlimen":"P.061","dun":"N.26 Batu Hampar","code_dun":"N.26"}},{"type":"Polygon","arcs":[[80,-79,-76,81,82,83]],"properties":{"state":"Perak","parlimen":"P.062 Beruas","code_parlimen":"P.062","dun":"N.27 Pengkalan Baharu","code_dun":"N.27"}},{"type":"Polygon","arcs":[[84,85,86,87,88,-84]],"properties":{"state":"Perak","parlimen":"P.062 Beruas","code_parlimen":"P.062","dun":"N.28 Pantai Remis","code_dun":"N.28"}},{"type":"Polygon","arcs":[[-72,89,-82,-78]],"properties":{"state":"Perak","parlimen":"P.063 Parit","code_parlimen":"P.063","dun":"N.29 Belanja","code_dun":"N.29"}},{"type":"Polygon","arcs":[[90,91,-85,-83,-90,-71,92]],"properties":{"state":"Perak","parlimen":"P.063 Parit","code_parlimen":"P.063","dun":"N.30 Bota","code_dun":"N.30"}},{"type":"Polygon","arcs":[[93,-74,-63,-57,94,95]],"properties":{"state":"Perak","parlimen":"P.064 Gopeng","code_parlimen":"P.064","dun":"N.31 Teja","code_dun":"N.31"}},{"type":"Polygon","arcs":[[-93,-75,-94,96,97,98]],"properties":{"state":"Perak","parlimen":"P.064 Gopeng","code_parlimen":"P.064","dun":"N.32 Chenderong","code_dun":"N.32"}},{"type":"Polygon","arcs":[[-98,99,100]],"properties":{"state":"Perak","parlimen":"P.065 Kampar","code_parlimen":"P.065","dun":"N.33 Malim Nawar","code_dun":"N.33"}},{"type":"Polygon","arcs":[[-101,101,102,103,-91,-99]],"properties":{"state":"Perak","parlimen":"P.065 Kampar","code_parlimen":"P.065","dun":"N.34 Tanjong Tualang","code_dun":"N.34"}},{"type":"Polygon","arcs":[[104,-102,-100,-97,-96,105,106]],"properties":{"state":"Perak","parlimen":"P.066 Tapah","code_parlimen":"P.066","dun":"N.35 Chenderiang","code_dun":"N.35"}},{"type":"Polygon","arcs":[[107,108,109,-103,-105]],"properties":{"state":"Perak","parlimen":"P.066 Tapah","code_parlimen":"P.066","dun":"N.36 Ayer Kuning","code_dun":"N.36"}},{"type":"Polygon","arcs":[[-109,110,111,112]],"properties":{"state":"Perak","parlimen":"P.067 Pasir Salak","code_parlimen":"P.067","dun":"N.37 Sungai Manik","code_dun":"N.37"}},{"type":"Polygon","arcs":[[113,114,-86,-92,-104,-110,-113,115,116,117]],"properties":{"state":"Perak","parlimen":"P.067 Pasir Salak","code_parlimen":"P.067","dun":"N.38 Kampong Gajah","code_dun":"N.38"}},{"type":"MultiPolygon","arcs":[[[118,-88,119]],[[120]],[[121]]],"properties":{"state":"Perak","parlimen":"P.068 Lumut","code_parlimen":"P.068","dun":"N.39 Pangkor","code_dun":"N.39"}},{"type":"Polygon","arcs":[[-87,-115,122,123,-120]],"properties":{"state":"Perak","parlimen":"P.068 Lumut","code_parlimen":"P.068","dun":"N.40 Sitiawan","code_dun":"N.40"}},{"type":"Polygon","arcs":[[124,-123,-114,125]],"properties":{"state":"Perak","parlimen":"P.069 Bagan Datok","code_parlimen":"P.069","dun":"N.41 Rungkup","code_dun":"N.41"}},{"type":"Polygon","arcs":[[126,-126,-118,127]],"properties":{"state":"Perak","parlimen":"P.069 Bagan Datok","code_parlimen":"P.069","dun":"N.42 Hutan Melintang","code_dun":"N.42"}},{"type":"Polygon","arcs":[[-116,-112,128]],"properties":{"state":"Perak","parlimen":"P.070 Telok Intan","code_parlimen":"P.070","dun":"N.43 Pasir Bedamar","code_dun":"N.43"}},{"type":"Polygon","arcs":[[-111,129,130,131,-128,-117,-129]],"properties":{"state":"Perak","parlimen":"P.070 Telok Intan","code_parlimen":"P.070","dun":"N.44 Changkat Jong","code_dun":"N.44"}},{"type":"Polygon","arcs":[[-130,-108,-107,132,133]],"properties":{"state":"Perak","parlimen":"P.071 Tanjong Malim","code_parlimen":"P.071","dun":"N.45 Sungkai","code_dun":"N.45"}},{"type":"Polygon","arcs":[[134,-131,-134]],"properties":{"state":"Perak","parlimen":"P.071 Tanjong Malim","code_parlimen":"P.071","dun":"N.46 Slim","code_dun":"N.46"}}]}},"arcs":[[[100.934835,5.532682],[100.935452,5.536341],[100.940491,5.540818],[100.94139,5.553535],[100.933833,5.56249],[100.934192,5.571803],[100.944809,5.580041],[100.94085,5.590249],[100.934372,5.589712],[100.933923,5.593383],[100.931223,5.592219],[100.929604,5.593562],[100.929694,5.598487],[100.926275,5.601532],[100.922316,5.602337],[100.922676,5.609322],[100.925105,5.612903],[100.923936,5.617112],[100.930504,5.621141],[100.933383,5.620783],[100.936802,5.623022],[100.938781,5.623022],[100.9413,5.624633],[100.94382,5.624812],[100.944809,5.627946],[100.947239,5.628036],[100.947149,5.629737],[100.944179,5.63305],[100.94364,5.63699],[100.94157,5.638422],[100.94202,5.641914],[100.938151,5.645764],[100.938511,5.647197],[100.94346,5.648987],[100.946609,5.647555],[100.948948,5.648271],[100.952817,5.642362],[100.957585,5.642093],[100.960375,5.647913],[100.964693,5.645943],[100.966403,5.64854],[100.965143,5.661433],[100.968202,5.663134],[100.969912,5.667073],[100.969912,5.671371],[100.967212,5.674415],[100.967932,5.676474],[100.970811,5.67728],[100.970991,5.682741],[100.973241,5.684263],[100.97558,5.684263],[100.97369,5.692769],[100.979179,5.701184],[100.978909,5.704497],[100.981518,5.708794],[100.978459,5.711569],[100.978459,5.718194],[100.981518,5.718194],[100.983587,5.722313],[100.978189,5.722133],[100.97585,5.725893],[100.967392,5.728669],[100.964873,5.728132],[100.961364,5.730996],[100.960734,5.736547],[100.953447,5.742008],[100.948498,5.74344],[100.947688,5.74532],[100.950298,5.754272],[100.945979,5.760717],[100.94103,5.763492],[100.944,5.765014],[100.944629,5.767431],[100.951647,5.769937],[100.955156,5.77316],[100.957495,5.771996],[100.960285,5.772891],[100.961814,5.774324],[100.962444,5.775935],[100.964333,5.775666],[100.966043,5.774055],[100.971531,5.774145],[100.972611,5.775846],[100.978189,5.772623],[100.979899,5.772802],[100.980708,5.775219],[100.983947,5.774592],[100.991325,5.783454],[100.993304,5.783812],[100.993754,5.785603],[100.995644,5.784976],[100.997983,5.779695],[100.999423,5.778979],[101.001312,5.780232],[101.002842,5.780053],[101.004911,5.77504],[101.00698,5.774861],[101.00689,5.773787],[101.006261,5.771728],[101.00725,5.769848],[101.011479,5.769758],[101.015438,5.76752],[101.017507,5.76752],[101.019037,5.765014],[101.019397,5.762955],[101.018857,5.759285],[101.021646,5.754361],[101.026144,5.751228],[101.027494,5.749885],[101.027584,5.748363],[101.029563,5.746931],[101.033882,5.73789],[101.037301,5.736815],[101.04225,5.740754],[101.051067,5.740128],[101.054486,5.744246],[101.054846,5.742187],[101.057005,5.744425],[101.060964,5.744156],[101.061774,5.741918],[101.060244,5.740128],[101.061234,5.738248],[101.060334,5.734935],[101.059164,5.734398],[101.059884,5.732697],[101.063303,5.730996],[101.062044,5.729922],[101.062583,5.72661],[101.064203,5.725983],[101.066632,5.726073],[101.068072,5.728579],[101.082917,5.720074],[101.080218,5.716225],[101.081568,5.715419],[101.080398,5.711211],[101.081388,5.709689],[101.083007,5.709868],[101.084267,5.712196],[101.086696,5.711928],[101.085436,5.708526],[101.090115,5.703602],[101.095423,5.703333],[101.097313,5.700916],[101.096773,5.699215],[101.094344,5.698946],[101.094614,5.696529],[101.097763,5.694559],[101.097493,5.691605],[101.099742,5.689009],[101.103251,5.68874],[101.103881,5.684442],[101.111708,5.68104],[101.112068,5.678802],[101.114408,5.677907],[101.114318,5.675758],[101.118906,5.670565],[101.119266,5.663671],[101.123135,5.661612],[101.122685,5.65812],[101.125654,5.6523],[101.126014,5.649077],[101.125024,5.647018],[101.129433,5.640213],[101.129073,5.635199],[101.127904,5.634751],[101.128533,5.629737],[101.132762,5.618186],[101.132582,5.614515],[101.135101,5.612724],[101.1396,5.614605],[101.141309,5.613351],[101.144279,5.614963],[101.144279,5.62329],[101.149137,5.624186],[101.151566,5.622305],[101.154805,5.624096],[101.156065,5.626603],[101.161373,5.630006],[101.163443,5.630364],[101.168661,5.635646],[101.166142,5.639138],[101.167222,5.642541],[101.170191,5.644779],[101.17208,5.647913],[101.174419,5.647107],[101.188455,5.650778],[101.190345,5.649704],[101.194213,5.650062],[101.196463,5.649256],[101.203481,5.654807],[101.20474,5.660358],[101.20672,5.660448],[101.207619,5.659284],[101.209599,5.659373],[101.214547,5.66197],[101.214547,5.664208],[101.217966,5.666089],[101.219046,5.67352],[101.221655,5.67531],[101.221115,5.678354],[101.218686,5.68113],[101.218236,5.688113],[101.233261,5.688292],[101.235511,5.690441],[101.240099,5.690799],[101.243158,5.692321],[101.243968,5.695723],[101.246667,5.697335],[101.248737,5.69635],[101.250896,5.699662],[101.248557,5.704407],[101.250896,5.706287],[101.251526,5.708884],[101.259713,5.71148],[101.260973,5.718194],[101.257734,5.719806],[101.259533,5.732966],[101.253325,5.747021],[101.255665,5.753198],[101.249816,5.759732],[101.250716,5.764119],[101.259533,5.779068],[101.258004,5.784349],[101.258004,5.78784],[101.262593,5.794912],[101.263582,5.800999],[101.265922,5.803505],[101.26979,5.803774],[101.27222,5.808249],[101.276178,5.810308],[101.276718,5.812725],[101.279237,5.812277],[101.287605,5.814694],[101.290844,5.816753],[101.293453,5.814157],[101.294623,5.812188],[101.30326,5.813262],[101.30479,5.814246],[101.306319,5.805295],[101.309378,5.802521],[101.314777,5.802521],[101.320985,5.812546],[101.325843,5.814067],[101.328452,5.812367],[101.332231,5.811382],[101.33601,5.807354],[101.338349,5.807086],[101.341858,5.81004],[101.346087,5.809144],[101.346087,5.812456],[101.348156,5.81729],[101.346987,5.823913],[101.349686,5.827046],[101.353465,5.827762],[101.359133,5.833849],[101.361203,5.831253],[101.37011,5.832506],[101.371729,5.831701],[101.373889,5.832327],[101.374968,5.835281],[101.373619,5.836892],[101.377398,5.844948],[101.379557,5.845664],[101.380367,5.852018],[101.386845,5.853629],[101.390174,5.859447],[101.389094,5.86249],[101.391343,5.875915],[101.394222,5.874215],[101.398091,5.872693],[101.40313,5.874215],[101.406279,5.872156],[101.411497,5.873499],[101.413747,5.872693],[101.417435,5.876989],[101.424453,5.874304],[101.427152,5.875468],[101.429042,5.874931],[101.431291,5.871619],[101.43489,5.870903],[101.437049,5.873051],[101.439119,5.870635],[101.441908,5.871798],[101.447846,5.870635],[101.452075,5.867771],[101.456214,5.867771],[101.458913,5.873767],[101.462512,5.874573],[101.464581,5.8769],[101.46719,5.874752],[101.46944,5.874662],[101.471689,5.873051],[101.472229,5.871082],[101.474928,5.86974],[101.478527,5.872962],[101.485635,5.870008],[101.487704,5.87502],[101.486534,5.877258],[101.487884,5.880122],[101.487344,5.883881],[101.494362,5.881643],[101.5003,5.88943],[101.50228,5.888982],[101.507948,5.893905],[101.508218,5.897216],[101.513256,5.900706],[101.513166,5.903212],[101.515326,5.903839],[101.517935,5.899811],[101.520904,5.900527],[101.522074,5.898558],[101.523783,5.898737],[101.525672,5.90357],[101.524773,5.90545],[101.526572,5.910014],[101.539888,5.918963],[101.554824,5.9212],[101.559142,5.919142],[101.571918,5.925138],[101.575607,5.930866],[101.581455,5.934893],[101.582265,5.932834],[101.584515,5.932834],[101.587574,5.930239],[101.587934,5.927196],[101.589373,5.918337],[101.593242,5.916636],[101.594771,5.91413],[101.597291,5.913683],[101.597381,5.912162],[101.59936,5.911714],[101.601609,5.913862],[101.603949,5.913146],[101.608627,5.915115],[101.616095,5.910461],[101.614655,5.909656],[101.615555,5.906971],[101.614655,5.905897],[101.614745,5.901422],[101.618344,5.895515],[101.622033,5.895873],[101.622573,5.888803],[101.621763,5.88576],[101.623203,5.881375],[101.622393,5.877526],[101.63238,5.874841],[101.635529,5.871977],[101.642187,5.870187],[101.648125,5.875199],[101.654603,5.877705],[101.659102,5.874394],[101.659012,5.870993],[101.660631,5.870545],[101.662251,5.86795],[101.662251,5.865354],[101.658922,5.863385],[101.655593,5.857926],[101.657212,5.853987],[101.660811,5.851571],[101.661441,5.84817],[101.659822,5.841636],[101.656673,5.838414],[101.658472,5.835102],[101.658742,5.825167],[101.657302,5.823108],[101.657752,5.812277],[101.659822,5.812188],[101.662521,5.814963],[101.66414,5.813441],[101.66549,5.81004],[101.667739,5.807802],[101.6645,5.80073],[101.670438,5.794912],[101.669089,5.790615],[101.678806,5.780948],[101.682675,5.781933],[101.683844,5.783544],[101.687623,5.781127],[101.690322,5.771459],[101.689693,5.765909],[101.687443,5.764029],[101.689513,5.763492],[101.689423,5.760628],[101.690772,5.759195],[101.691042,5.757226],[101.689872,5.756241],[101.691852,5.754719],[101.690682,5.746394],[101.693741,5.730728],[101.692302,5.727594],[101.689153,5.72661],[101.689063,5.724372],[101.690682,5.721238],[101.692212,5.720432],[101.691582,5.715598],[101.692842,5.711211],[101.691672,5.7096],[101.693741,5.707899],[101.695181,5.702796],[101.688073,5.692321],[101.685374,5.693127],[101.66414,5.667521],[101.659912,5.668327],[101.658382,5.661522],[101.660451,5.66],[101.659462,5.65624],[101.660541,5.65436],[101.656943,5.642809],[101.657662,5.63887],[101.661351,5.637527],[101.662881,5.633945],[101.663061,5.630901],[101.654693,5.620067],[101.656673,5.61362],[101.650554,5.613441],[101.654693,5.60583],[101.688613,5.586667],[101.671338,5.546371],[101.655953,5.520848],[101.66459,5.507414],[101.673767,5.511355],[101.680425,5.510638],[101.683125,5.505444],[101.690502,5.503295],[101.693201,5.498459],[101.69734,5.499892],[101.702739,5.508131],[101.720913,5.512788],[101.723072,5.500071],[101.72937,5.497026],[101.733329,5.504728],[101.740707,5.509564],[101.748265,5.499892],[101.749164,5.482696],[101.747185,5.471232],[101.734589,5.458335],[101.739987,5.452065],[101.739267,5.429136],[101.744486,5.42],[101.740887,5.402981],[101.739807,5.396667],[101.742866,5.380409],[101.752583,5.371272],[101.734949,5.351027],[101.723792,5.349952],[101.716774,5.344577],[101.702559,5.338844],[101.69932,5.330423],[101.677906,5.333827],[101.672688,5.324152],[101.66639,5.325586],[101.663331,5.334544],[101.654513,5.336694],[101.654333,5.340815],[101.646056,5.344756],[101.639398,5.338486],[101.627701,5.340994],[101.625542,5.347444],[101.619424,5.351206],[101.615285,5.347265],[101.605208,5.34601],[101.59963,5.330602],[101.588293,5.32899],[101.582715,5.33114],[101.575157,5.327915],[101.573718,5.323436],[101.575337,5.319494],[101.571918,5.301935],[101.569219,5.300143],[101.573358,5.291363],[101.56706,5.284913],[101.560222,5.289213],[101.558602,5.282763],[101.547446,5.278642],[101.547266,5.262873],[101.53449,5.261261],[101.528372,5.272191],[101.520994,5.267891],[101.519734,5.25266],[101.524053,5.250689],[101.521894,5.242087],[101.510017,5.231694],[101.511277,5.222914],[101.516135,5.215566],[101.508758,5.203022],[101.510197,5.198901],[101.497421,5.185998],[101.485365,5.16503],[101.489503,5.161983],[101.487164,5.156965],[101.481766,5.151947],[101.480506,5.143165],[101.486624,5.132591],[101.484285,5.120583],[101.480811,5.114638],[101.477267,5.108575],[101.479966,5.098717],[101.485185,5.089218],[101.475468,5.07918],[101.465571,5.074879],[101.460532,5.064483],[101.464491,5.059464],[101.458733,5.048171],[101.460172,5.030963],[101.449068,5.014851]],[[101.449068,5.014851],[101.439779,5.022048],[101.423503,5.029747],[101.419277,5.040393],[101.412766,5.056749],[101.411843,5.07603],[101.407023,5.082132],[101.400152,5.085055],[101.392819,5.092542],[101.382204,5.095413],[101.380225,5.103741],[101.37564,5.108951],[101.364666,5.114284],[101.357718,5.104284],[101.351154,5.110438],[101.351154,5.12213],[101.346818,5.127923],[101.339155,5.148385],[101.331053,5.153307],[101.323412,5.163666],[101.31972,5.17023],[101.315915,5.174286],[101.31008,5.177204],[101.304661,5.17512],[101.300439,5.17064],[101.296542,5.167563],[101.283312,5.175563],[101.272748,5.19228],[101.266903,5.214535],[101.259929,5.234841],[101.2588,5.247661],[101.253673,5.255866],[101.255519,5.264481],[101.253467,5.2813],[101.250186,5.291146],[101.254083,5.298735],[101.253878,5.308171],[101.235216,5.320796],[101.244923,5.327324],[101.250781,5.333684],[101.25212,5.349918],[101.24258,5.355609],[101.23061,5.362785],[101.228354,5.370169],[101.232036,5.376697],[101.238563,5.382387],[101.243082,5.392262],[101.238563,5.401969],[101.239567,5.412346],[101.250111,5.41653],[101.257365,5.419139],[101.258312,5.427409],[101.241408,5.431928],[101.234379,5.422388],[101.23053,5.425233],[101.222663,5.418873],[101.19873,5.420212],[101.181157,5.42289],[101.169274,5.424396],[101.158897,5.426907],[101.160236,5.437451],[101.160068,5.444313],[101.158897,5.453351],[101.146595,5.455526],[101.146602,5.47411],[101.144961,5.481905],[101.137987,5.487648],[101.125507,5.48582],[101.124336,5.478288],[101.111951,5.488497],[101.107599,5.503728],[101.093038,5.512431],[101.068144,5.509801],[101.055017,5.500776],[101.035736,5.480674],[101.016455,5.513493],[101.031676,5.513521],[101.038197,5.517595],[101.04271,5.545491],[101.031866,5.576365],[101.021322,5.590256],[101.01423,5.571427],[101.002514,5.552013],[100.993999,5.526155],[100.99015,5.528247],[100.989062,5.520548],[100.981614,5.525485],[100.979941,5.519962],[100.969647,5.529837],[100.960861,5.535109],[100.95266,5.535862],[100.943706,5.527828],[100.934835,5.532682]],[[101.449068,5.014851],[101.447216,5.0125],[101.45284,5.005151],[101.448341,5.002103],[101.448701,4.997442],[101.445642,4.994574],[101.441143,4.996367],[101.432686,4.992423],[101.426776,4.986943],[101.423287,4.984229]],[[101.423287,4.984229],[101.419701,4.983163],[101.416702,4.982231],[101.413111,4.979868],[101.405552,4.984035],[101.399011,4.98578],[101.394844,4.976961],[101.390483,4.976767],[101.388157,4.973182],[101.383408,4.970759],[101.379992,4.974078],[101.376213,4.969232],[101.369547,4.967238],[101.365847,4.968608],[101.363748,4.970969],[101.362451,4.973957],[101.360707,4.983914],[101.364899,4.98845],[101.361967,5.000292],[101.367975,5.006785],[101.367394,5.013908],[101.368195,5.020237],[101.369332,5.026797],[101.36439,5.025343],[101.360319,5.030867],[101.350604,5.036464],[101.346437,5.042472],[101.346802,5.047241],[101.341499,5.04861],[101.333199,5.0472],[101.325302,5.04441],[101.318497,5.04565],[101.310193,5.044798],[101.307092,5.050031],[101.301471,5.054586],[101.297352,5.056912],[101.295123,5.055264],[101.29241,5.060498],[101.287661,5.061951],[101.285238,5.058365],[101.283897,5.05217],[101.279297,5.05158],[101.276032,5.050322],[101.271574,5.051485],[101.265638,5.057178],[101.262981,5.061502],[101.258952,5.063671],[101.253428,5.062702],[101.250036,5.067838],[101.24897,5.070843],[101.246971,5.069573],[101.24645,5.065706],[101.246063,5.062896],[101.243058,5.061442],[101.239957,5.061345],[101.236953,5.06183],[101.234433,5.058729],[101.232011,5.058051],[101.226341,5.060304],[101.222198,5.05715],[101.216263,5.058075],[101.204343,5.056524],[101.1959,5.050331],[101.187747,5.048771],[101.181157,5.051679],[101.179413,5.055264],[101.1787,5.060617],[101.176396,5.063029],[101.173695,5.063599],[101.1698,5.06113],[101.167397,5.06113],[101.164597,5.06239],[101.162332,5.062799],[101.1602,5.064156],[101.156905,5.060958],[101.153417,5.063381],[101.146221,5.0659],[101.1418,5.060241],[101.137984,5.059601],[101.133202,5.063671],[101.127324,5.064156],[101.122597,5.068639],[101.119474,5.069486],[101.11521,5.070552],[101.111576,5.069122]],[[101.111576,5.069122],[101.105761,5.074937],[101.100431,5.07484],[101.097596,5.079734],[101.08839,5.082835],[101.032642,5.099407],[101.017064,5.104034],[101.009214,5.108201],[100.998361,5.108783],[100.984987,5.115276],[100.972582,5.114888],[100.959597,5.115179],[100.949712,5.119637],[100.938639,5.124591],[100.92466,5.136693]],[[100.92466,5.136693],[100.922165,5.140036],[100.926003,5.144719],[100.931371,5.148758],[100.92953,5.154379],[100.929143,5.159079],[100.925848,5.163634],[100.922262,5.169255],[100.916544,5.17255],[100.911893,5.17788],[100.907501,5.18266],[100.903496,5.185119],[100.902105,5.189703],[100.899004,5.193967],[100.895224,5.200702]],[[100.895224,5.200702],[100.896193,5.206032],[100.899294,5.212234],[100.903268,5.214366],[100.911989,5.213276],[100.913734,5.215505],[100.913443,5.220932],[100.919258,5.224905],[100.92139,5.228588],[100.922456,5.234112],[100.925945,5.24012],[100.928561,5.242446],[100.931686,5.242882],[100.93973,5.242204],[100.946514,5.244336],[100.948646,5.248794],[100.94913,5.256425],[100.951165,5.265147],[100.949033,5.271035],[100.947192,5.27714],[100.948646,5.283633],[100.944672,5.289835],[100.945,5.297879],[100.935272,5.306189],[100.934691,5.314135],[100.93,5.321781],[100.927907,5.329205],[100.925969,5.335698],[100.929845,5.33812],[100.934788,5.338605],[100.934303,5.343063],[100.932602,5.34759],[100.928101,5.34999],[100.925797,5.359719],[100.926446,5.364856],[100.923897,5.369959],[100.918413,5.3754],[100.919197,5.38071],[100.915544,5.388512],[100.911885,5.391802],[100.911718,5.397492],[100.911025,5.403733],[100.909877,5.411216],[100.907534,5.414396],[100.904019,5.41607],[100.899696,5.41825],[100.894981,5.418413],[100.89063,5.4154],[100.885943,5.413392],[100.881897,5.411861],[100.879501,5.412771],[100.876396,5.415531],[100.869797,5.42253],[100.867208,5.428778]],[[100.867208,5.428778],[100.867388,5.440064],[100.868827,5.458335],[100.865768,5.460305],[100.867208,5.468187],[100.874766,5.479472],[100.884843,5.48395],[100.882503,5.492369],[100.885444,5.494738],[100.89276,5.497921],[100.895639,5.491831],[100.903377,5.490757],[100.907875,5.493981],[100.910395,5.491652],[100.917413,5.495055],[100.928389,5.506877],[100.929334,5.514131],[100.934192,5.519146],[100.932393,5.52237],[100.934835,5.532682]],[[100.687546,5.128238],[100.682385,5.129909],[100.672576,5.129213],[100.66468,5.128844],[100.658449,5.128456],[100.649824,5.128262],[100.642362,5.128068],[100.638291,5.128843],[100.632401,5.133139],[100.626274,5.139116],[100.622965,5.139147]],[[100.622965,5.139147],[100.624102,5.141015],[100.627161,5.147467],[100.62878,5.164313],[100.638677,5.167897],[100.642996,5.172557],[100.646595,5.172378],[100.651633,5.179725],[100.651454,5.183489],[100.653793,5.183489],[100.655952,5.180621],[100.660991,5.181697],[100.665849,5.198005],[100.670168,5.197825],[100.678985,5.21933],[100.686723,5.221838],[100.691041,5.245492],[100.69446,5.248897],[100.698959,5.248538],[100.709936,5.258573],[100.715514,5.256602],[100.719293,5.260902],[100.723792,5.261261],[100.73045,5.267711],[100.72829,5.275237],[100.733509,5.302293],[100.736208,5.302114],[100.737647,5.306593],[100.734768,5.311969],[100.739807,5.312685],[100.746825,5.317523],[100.751143,5.319673],[100.759241,5.319136],[100.76158,5.315015],[100.772017,5.319315],[100.782994,5.314477],[100.786952,5.31824],[100.786233,5.323256],[100.791991,5.323794],[100.792711,5.320927],[100.79613,5.319673],[100.799369,5.322719],[100.802248,5.321106],[100.802787,5.318419],[100.808186,5.318777],[100.808726,5.322898],[100.812684,5.32039],[100.814844,5.323794],[100.818623,5.320927],[100.818083,5.326302],[100.822042,5.332215],[100.839496,5.34601],[100.848674,5.351564],[100.850293,5.370555],[100.847954,5.378975],[100.85875,5.392949],[100.86091,5.398861],[100.854792,5.402265],[100.853172,5.406923],[100.86073,5.418209],[100.865049,5.419284],[100.867208,5.428778]],[[100.895224,5.200702],[100.883692,5.199055],[100.854522,5.192489],[100.825255,5.18086],[100.799865,5.165548],[100.805388,5.15324],[100.814304,5.141611],[100.81663,5.13444],[100.806551,5.134246],[100.802869,5.138704],[100.798217,5.136572],[100.794922,5.129207],[100.781742,5.130176],[100.773408,5.139673],[100.761391,5.139092],[100.751506,5.132114],[100.748793,5.137929],[100.738714,5.135603],[100.726504,5.136184],[100.716619,5.144518],[100.708672,5.139867],[100.703633,5.131533],[100.692488,5.138801],[100.688515,5.133955],[100.687546,5.128238]],[[100.727739,4.918003],[100.723281,4.925562],[100.720108,4.932237]],[[100.720108,4.932237],[100.721561,4.939699],[100.722821,4.946483],[100.728054,4.951328],[100.728733,4.958112],[100.731446,4.962279],[100.732851,4.966834],[100.731785,4.973908],[100.732076,4.980014],[100.736049,4.987185],[100.737115,4.993387],[100.734402,5.000801],[100.731979,5.003321],[100.731979,5.006616],[100.73382,5.01117],[100.734886,5.016597],[100.73353,5.0228],[100.732498,5.027171],[100.731003,5.032109],[100.729897,5.036661],[100.72866,5.042521],[100.726616,5.047635],[100.724312,5.054935],[100.723801,5.06358],[100.7239,5.0698],[100.724998,5.073031],[100.724396,5.076948],[100.721973,5.079468]],[[100.721973,5.079468],[100.721585,5.085088],[100.724202,5.090128],[100.721004,5.094295],[100.721603,5.100541],[100.720596,5.105671],[100.718194,5.111496],[100.712767,5.116536],[100.70657,5.119836],[100.698468,5.123156],[100.693482,5.125548],[100.687546,5.128238]],[[100.92466,5.136693],[100.919233,5.131944],[100.922625,5.126517],[100.926986,5.123029],[100.926696,5.118862],[100.922238,5.112175],[100.927471,5.107814],[100.924202,5.102801],[100.922997,5.099681],[100.9217,5.097379],[100.920115,5.09299],[100.919314,5.090568],[100.919409,5.087726],[100.920012,5.083926],[100.91818,5.080497],[100.913903,5.078099],[100.911529,5.072623],[100.912886,5.067221],[100.9093,5.061018],[100.908476,5.056657],[100.902613,5.060534],[100.898796,5.051532],[100.896797,5.0506],[100.892716,5.052224],[100.888792,5.051109],[100.886611,5.047621],[100.889567,5.043562],[100.88351,5.038475],[100.885594,5.033738],[100.881798,5.028791],[100.8807,5.023381],[100.882347,5.018875],[100.886853,5.020958],[100.889,5.020579],[100.888,5.017231],[100.887596,5.014929],[100.882153,5.011086],[100.887338,5.010649],[100.892571,5.01094],[100.893443,5.004362],[100.893104,5.001261],[100.889809,5.001552],[100.886757,4.999808],[100.892038,4.993169],[100.892426,4.989353],[100.88461,4.987204],[100.880712,4.985123],[100.876463,4.984327],[100.874067,4.983398],[100.871626,4.980789],[100.868041,4.977349],[100.869155,4.973278],[100.872402,4.969378],[100.87497,4.965211],[100.874824,4.960365],[100.872256,4.955932],[100.874098,4.951425],[100.875772,4.94746],[100.873277,4.94423],[100.866284,4.943242]],[[100.866284,4.943242],[100.861669,4.942812],[100.851784,4.940777],[100.840785,4.937385],[100.834389,4.942231],[100.827508,4.939905],[100.818108,4.940099],[100.811809,4.943781],[100.806188,4.940971],[100.801246,4.940874],[100.795043,4.94727],[100.782057,4.947658],[100.774595,4.944751],[100.760689,4.937385],[100.752936,4.930408],[100.751967,4.922267],[100.748672,4.919748],[100.741501,4.923043],[100.735492,4.922655],[100.727739,4.918003]],[[100.369209,5.07461],[100.363451,5.078195],[100.360662,5.086798],[100.360842,5.097014],[100.36651,5.104452],[100.384595,5.116282],[100.391703,5.129007],[100.407898,5.122823],[100.491482,5.133308],[100.49868,5.126139],[100.49787,5.120673],[100.4994,5.118164],[100.503359,5.118701],[100.503179,5.122734],[100.505428,5.126139],[100.509297,5.126318],[100.519284,5.116102],[100.517484,5.112159],[100.511546,5.111263],[100.512086,5.095491]],[[100.512086,5.095491],[100.511132,5.092622],[100.50241,5.09175],[100.496983,5.091265],[100.491169,5.09708],[100.485063,5.100278],[100.476148,5.090878],[100.470818,5.082156],[100.477117,5.07169],[100.471302,5.065003]],[[100.471302,5.065003],[100.45916,5.06926],[100.433774,5.071835],[100.414925,5.074936],[100.397481,5.081526],[100.392866,5.083791],[100.385985,5.079043],[100.379492,5.078849],[100.37203,5.077977],[100.369209,5.07461]],[[100.412902,4.984059],[100.410939,4.992296],[100.406548,4.997084],[100.404659,4.997711],[100.39872,5.007929],[100.395841,5.009722],[100.395391,5.014113],[100.396201,5.015548],[100.391883,5.025765],[100.391703,5.030067],[100.382435,5.0436],[100.381626,5.047185],[100.378027,5.05095],[100.377937,5.049605],[100.380726,5.046468],[100.382076,5.042615],[100.385315,5.031591],[100.382705,5.032487],[100.371459,5.06027],[100.369209,5.07461]],[[100.471302,5.065003],[100.468104,5.058946],[100.465536,5.053567],[100.467862,5.050951],[100.471738,5.049303],[100.470413,5.042377],[100.469897,5.033628],[100.467644,5.026433],[100.458534,5.028177],[100.44894,5.030794],[100.445645,5.024882],[100.446421,5.01742],[100.433628,5.012478],[100.429243,5.008698],[100.417663,4.995494],[100.412902,4.984059]],[[100.512086,5.095491],[100.522523,5.096029],[100.528821,5.087605],[100.535839,5.087246],[100.535839,5.093878],[100.542857,5.096029],[100.545196,5.088142],[100.554373,5.090472],[100.553653,5.085095],[100.549335,5.079718],[100.551494,5.076492],[100.555093,5.080077],[100.56571,5.08151],[100.56409,5.086888],[100.578306,5.096387],[100.584964,5.097283],[100.582624,5.104811],[100.588923,5.106603],[100.588023,5.109292],[100.591262,5.114131],[100.589282,5.121121],[100.59648,5.126498],[100.604758,5.127035],[100.606197,5.133129],[100.618973,5.132591],[100.622965,5.139147]],[[100.721973,5.079468],[100.717211,5.077286],[100.712559,5.071568],[100.711784,5.067692],[100.705873,5.065948],[100.703062,5.060327],[100.698314,5.061199],[100.69279,5.061781],[100.689204,5.055869],[100.686024,5.059979],[100.679901,5.057226],[100.672897,5.049723],[100.661972,5.042689],[100.651118,5.027571],[100.641621,5.032465],[100.634838,5.033434],[100.633675,5.042544],[100.619332,5.043707],[100.599175,5.042738],[100.586383,5.04235],[100.585995,5.034597],[100.579211,5.025488],[100.573203,5.023356],[100.562155,5.024325],[100.549557,5.010757],[100.547231,5.020836],[100.543355,5.021611],[100.541029,5.025488],[100.533082,5.024906],[100.527849,5.019479],[100.537152,5.007656],[100.531532,5.006881],[100.528043,4.999904],[100.523779,4.999904],[100.520678,5.006493],[100.515832,5.004943],[100.517189,4.989437],[100.503815,4.991182],[100.499939,4.977808],[100.519515,4.973738],[100.520484,4.952612],[100.526686,4.952224],[100.535893,4.947621]],[[100.535893,4.947621],[100.53367,4.942384],[100.529919,4.938633],[100.525742,4.940785],[100.523585,4.943744],[100.52029,4.940352],[100.517867,4.931243],[100.514282,4.926979],[100.506335,4.92756],[100.50149,4.933569],[100.500327,4.939868],[100.498388,4.947136],[100.495772,4.951594],[100.492646,4.951594],[100.490562,4.949927],[100.486275,4.944423],[100.481914,4.940837],[100.475935,4.94266],[100.473095,4.943647],[100.471932,4.936088],[100.469897,4.930952],[100.471448,4.928723],[100.469799,4.927168]],[[100.469799,4.927168],[100.456732,4.918768],[100.445686,4.911929],[100.422653,4.945813],[100.420494,4.985432],[100.419637,4.992442],[100.412902,4.984059]],[[100.720108,4.932237],[100.711929,4.934489],[100.707859,4.940885],[100.703595,4.940304],[100.694486,4.944568],[100.686345,4.943599],[100.679901,4.950576],[100.675055,4.948057],[100.670597,4.936428],[100.66769,4.932164],[100.657224,4.939916],[100.652766,4.949801],[100.649083,4.943017],[100.645982,4.934102],[100.63978,4.941661],[100.633772,4.947282],[100.62001,4.947669],[100.604311,4.948444],[100.602179,4.945731],[100.596364,4.947475],[100.593263,4.944956],[100.587061,4.945537],[100.584348,4.943211],[100.576013,4.942048],[100.56412,4.945986],[100.553909,4.950362],[100.54665,4.953048],[100.535893,4.947621]],[[100.710137,4.81936],[100.698701,4.810154],[100.69405,4.804339],[100.693274,4.797168],[100.696375,4.773522],[100.698895,4.758792],[100.69812,4.749876],[100.694825,4.745612],[100.690948,4.742172],[100.684552,4.748955],[100.680652,4.748204],[100.67439,4.740926],[100.671934,4.736196],[100.668841,4.73465],[100.660927,4.746839],[100.655196,4.750842],[100.64901,4.756936],[100.645645,4.758119],[100.64146,4.757027],[100.636912,4.755117],[100.632546,4.756573],[100.630908,4.760757],[100.626997,4.766306],[100.623631,4.766579],[100.616899,4.76576],[100.605255,4.768762],[100.601339,4.769577]],[[100.601339,4.769577],[100.601339,4.773149],[100.59702,4.781756],[100.557612,4.78875],[100.53332,4.843529],[100.517754,4.860024],[100.485454,4.864507],[100.482665,4.884588],[100.479336,4.889518],[100.481585,4.902337],[100.488423,4.910226],[100.494991,4.915694],[100.494451,4.917487],[100.469799,4.927168]],[[100.727739,4.918003],[100.726964,4.9087],[100.729871,4.902304],[100.736074,4.897071],[100.735468,4.88927]],[[100.735468,4.88927],[100.729653,4.889463],[100.723063,4.88801],[100.723354,4.880935],[100.723742,4.873667],[100.724517,4.866011],[100.715951,4.86423],[100.699476,4.863551],[100.690561,4.859675],[100.700639,4.838549],[100.710137,4.81936]],[[100.595356,4.630483],[100.599719,4.637569],[100.615375,4.648689],[100.620953,4.647971],[100.627611,4.653711],[100.633729,4.655145],[100.638228,4.663575],[100.647225,4.667879],[100.654063,4.67308],[100.651004,4.675771],[100.651723,4.679896],[100.656042,4.682944],[100.654962,4.6842],[100.648664,4.683662],[100.638947,4.674515],[100.624552,4.678281],[100.592521,4.667521],[100.578306,4.715046],[100.581545,4.723834],[100.575427,4.740512],[100.577586,4.755216],[100.584424,4.767231],[100.594861,4.765438],[100.601339,4.767411],[100.601339,4.769577]],[[100.710137,4.81936],[100.718907,4.816695],[100.724528,4.819603],[100.731699,4.819409],[100.736738,4.816308],[100.740227,4.81844]],[[100.740227,4.81844],[100.746042,4.81844],[100.750112,4.81999],[100.756508,4.816889],[100.761353,4.813207],[100.76116,4.805066],[100.761547,4.798283],[100.761823,4.79525],[100.767168,4.796538],[100.778891,4.798301],[100.786685,4.79984],[100.79489,4.801275],[100.811577,4.805139]],[[100.811577,4.805139],[100.811577,4.801859],[100.813321,4.797919],[100.813128,4.787162],[100.815356,4.77437],[100.811383,4.767611],[100.812255,4.759179],[100.808088,4.749004],[100.804333,4.737908],[100.802976,4.731705],[100.797538,4.723583],[100.792739,4.716545],[100.789039,4.710834],[100.786536,4.707135],[100.785339,4.703214],[100.787907,4.698805],[100.79013,4.694144],[100.801498,4.693281],[100.804599,4.687272],[100.805569,4.682427]],[[100.805569,4.682427],[100.798179,4.677533],[100.781462,4.669247],[100.751808,4.654517],[100.729906,4.653741],[100.709167,4.659168],[100.69904,4.655292],[100.686248,4.660913],[100.674571,4.662657],[100.65577,4.653354],[100.640071,4.645213],[100.62631,4.633778],[100.614293,4.63058],[100.595356,4.630483]],[[100.866284,4.943242],[100.861858,4.938704],[100.861354,4.936404],[100.858931,4.928555],[100.861063,4.927488],[100.864552,4.929039],[100.868698,4.925799],[100.869785,4.922062],[100.872305,4.918767],[100.868525,4.915181],[100.862801,4.911561],[100.859354,4.908057],[100.863558,4.904407],[100.862261,4.900886],[100.85902,4.891283],[100.857318,4.883273],[100.853539,4.879227]],[[100.853539,4.879227],[100.837161,4.874381],[100.833672,4.870214],[100.829118,4.867597],[100.825021,4.865858],[100.820999,4.863],[100.815671,4.856428],[100.810584,4.855023],[100.810293,4.850154],[100.810487,4.846277],[100.806901,4.843854],[100.804188,4.841432],[100.803608,4.836248],[100.805859,4.830432],[100.804309,4.827234],[100.803398,4.8227],[100.805956,4.820233],[100.810608,4.817907],[100.812546,4.811801],[100.811577,4.805139]],[[100.740227,4.81844],[100.739718,4.821662],[100.740881,4.824763],[100.746308,4.827477],[100.751154,4.825538],[100.755999,4.826217],[100.760845,4.83271],[100.758713,4.8393],[100.755515,4.845986],[100.757356,4.85403],[100.762977,4.857906],[100.764081,4.862862],[100.757684,4.86635],[100.748478,4.862571],[100.741016,4.857822],[100.733919,4.86117],[100.73156,4.871323],[100.732851,4.876381],[100.737309,4.88142],[100.735468,4.88927]],[[101.111576,5.069122],[101.109056,5.06544],[101.10421,5.062726],[101.101885,5.068929],[101.098602,5.06995],[101.097496,5.06822],[101.094101,5.06556],[101.091599,5.064751],[101.089203,5.063931],[101.082779,5.063549],[101.081581,5.06147],[101.080453,5.057298],[101.081519,5.051871],[101.075996,5.049836],[101.075802,5.045475],[101.072991,5.0447],[101.072706,5.040706],[101.071309,5.038974],[101.068437,5.039079],[101.066305,5.036996],[101.064463,5.034282],[101.063397,5.030987],[101.061993,5.027707],[101.061597,5.024827],[101.063203,5.016742],[101.059521,5.017178],[101.054675,5.019164],[101.050635,5.017718],[101.047989,5.01553],[101.047096,5.010831],[101.0467,5.006971],[101.044064,5.004483],[101.045808,5.000122],[101.045517,4.997021],[101.044601,4.9932],[101.0429,4.99181],[101.041447,4.987741],[101.038055,4.985997],[101.037086,4.981636],[101.032241,4.976694],[101.033302,4.972841],[101.030399,4.969232],[101.021968,4.963998],[101.017317,4.962448],[101.010872,4.964313],[101.00622,4.965573],[101.003992,4.96819],[100.999631,4.967608],[100.997029,4.969159],[100.995732,4.970767],[100.993622,4.974392],[100.991587,4.977396],[100.989455,4.978753],[100.986935,4.976621],[100.983447,4.977106],[100.981598,4.977741],[100.971901,4.974491],[100.965591,4.97334],[100.962391,4.970708],[100.963664,4.969799],[100.973853,4.96998],[100.98113,4.964341],[100.980038,4.955244],[100.980816,4.950908],[100.984125,4.931631],[100.981218,4.923684],[100.981799,4.915156],[100.986257,4.913218],[100.99023,4.906531],[100.997886,4.901055],[100.999534,4.895919],[100.996239,4.88962],[100.987711,4.887391],[100.982381,4.888457],[100.975209,4.892818],[100.969395,4.899505],[100.963192,4.899989],[100.957378,4.89495],[100.952435,4.879348],[100.949431,4.866846],[100.948171,4.859578]],[[100.948171,4.859578],[100.940806,4.862437],[100.933054,4.869075],[100.924913,4.872564],[100.915028,4.871789],[100.906888,4.87896],[100.894871,4.879929],[100.889638,4.884581],[100.875877,4.88148],[100.871031,4.877797],[100.86793,4.884193],[100.862115,4.880704],[100.853539,4.879227]],[[100.948171,4.859578],[100.950497,4.852213],[100.956205,4.845356],[100.962611,4.839808],[100.966972,4.828664],[100.967263,4.81907],[100.962805,4.806084],[100.953114,4.798137],[100.948746,4.79114],[100.946427,4.78583],[100.948268,4.780306]],[[100.948268,4.780306],[100.944598,4.779397],[100.939752,4.780851],[100.931903,4.774261],[100.930352,4.77901],[100.924925,4.785309],[100.921049,4.793255],[100.916773,4.799009],[100.91504,4.800233],[100.910195,4.800136],[100.90283,4.794031],[100.901279,4.785018],[100.904913,4.777798],[100.90409,4.772565],[100.89372,4.762983],[100.894932,4.753631],[100.89177,4.751136],[100.887506,4.749052],[100.884695,4.750845],[100.881352,4.747696],[100.880964,4.742802],[100.882827,4.73687],[100.882382,4.734528],[100.877924,4.729682],[100.877924,4.718829],[100.880444,4.710688],[100.868621,4.70875],[100.853503,4.703129],[100.831989,4.696152],[100.818421,4.68743],[100.812219,4.690531],[100.805569,4.682427]],[[101.423287,4.984229],[101.42319,4.978512],[101.425668,4.973062],[101.437724,4.956032],[101.437544,4.926451],[101.444562,4.919459],[101.447801,4.899379],[101.446362,4.878044],[101.436465,4.877864],[101.438084,4.86872],[101.446542,4.858859],[101.441143,4.855632],[101.435745,4.859755],[101.428727,4.857245],[101.424228,4.850611],[101.410732,4.855632]],[[101.410732,4.855632],[101.056628,4.852946],[101.054397,4.844811],[101.058564,4.838803],[101.055754,4.829693],[101.060211,4.824557],[101.058467,4.811281],[101.045792,4.8096],[101.032834,4.808785],[101.024379,4.803455]],[[101.024379,4.803455],[100.988389,4.797556],[100.976566,4.784182],[100.963386,4.782438],[100.948268,4.780306]],[[101.410732,4.855632],[101.409833,4.85097],[101.412352,4.843977],[101.402095,4.843081],[101.403175,4.838957],[101.400116,4.833577],[101.407313,4.825867],[101.410373,4.81726],[101.415051,4.813316],[101.411092,4.798612],[101.395797,4.773149],[101.397956,4.762389],[101.38734,4.764183],[101.374563,4.761314],[101.38752,4.723116],[101.379242,4.708052],[101.372764,4.707514],[101.370785,4.712536],[101.365386,4.71397],[101.358368,4.707155],[101.350631,4.706438],[101.347572,4.713074],[101.343433,4.713432],[101.340374,4.707155],[101.340734,4.700341],[101.334975,4.698727],[101.333716,4.695319],[101.334436,4.684379],[101.337515,4.68018]],[[101.337515,4.68018],[101.328796,4.68035],[101.325798,4.67965],[101.322296,4.67929],[101.317101,4.67939],[101.311789,4.680258],[101.304517,4.686983],[101.296768,4.691888]],[[101.296768,4.691888],[101.296478,4.698865],[101.295605,4.704874],[101.292311,4.710107],[101.286697,4.712691],[101.278646,4.709525],[101.269827,4.720282],[101.270409,4.725418],[101.268083,4.729779],[101.259846,4.731039],[101.255485,4.729682],[101.249452,4.735667],[101.247998,4.741578],[101.243638,4.746424],[101.238598,4.747005],[101.236902,4.751221],[101.233683,4.754074],[101.230586,4.753543],[101.224789,4.749767],[101.221203,4.745018],[101.21597,4.747247],[101.213353,4.754322],[101.210834,4.76004],[101.206545,4.764214],[101.201143,4.763528],[101.19805,4.766621],[101.191452,4.772444],[101.185443,4.775157],[101.18,4.775399],[101.1754,4.775041],[101.171101,4.77758],[101.167612,4.77884],[101.163154,4.77884],[101.156952,4.779034],[101.150749,4.78136],[101.145322,4.781457],[101.136819,4.781747],[101.129405,4.784461],[101.123348,4.783686],[101.115692,4.778162],[101.110001,4.775641],[101.1073,4.774371],[101.102997,4.77263],[101.097704,4.769811],[101.0935,4.768471],[101.090898,4.76685],[101.084602,4.76411],[101.077897,4.764304],[101.071114,4.767017],[101.067722,4.768471],[101.065881,4.764788],[101.060647,4.761299],[101.055124,4.759458]],[[101.055124,4.759458],[101.052798,4.76881],[101.055317,4.775497],[101.051441,4.776175],[101.042525,4.783831],[101.035233,4.791269],[101.029128,4.796986],[101.024379,4.803455]],[[101.083082,4.629865],[101.074189,4.622942],[101.074821,4.616274],[101.073076,4.608327],[101.067746,4.608327],[101.064742,4.608109]],[[101.064742,4.608109],[101.06261,4.611501],[101.058879,4.615426],[101.059315,4.619641],[101.062804,4.627588],[101.06261,4.633596],[101.0692,4.646776],[101.064548,4.662088],[101.058734,4.670422],[101.048461,4.675655],[101.034894,4.679338],[101.030242,4.683505]],[[101.030242,4.683505],[101.029394,4.690531],[101.034627,4.695376],[101.042186,4.697121],[101.042961,4.704486],[101.03579,4.709913],[101.0348,4.716729],[101.038985,4.730192],[101.046626,4.738197],[101.049576,4.739495],[101.052192,4.740948],[101.055196,4.74182],[101.057038,4.746569],[101.054001,4.748749],[101.053299,4.7514],[101.054398,4.75601],[101.055124,4.759458]],[[101.296768,4.691888],[101.2903,4.697969],[101.277895,4.700682],[101.266072,4.69855],[101.262293,4.701457],[101.254152,4.699325],[101.245043,4.692348],[101.238259,4.694868],[101.232832,4.692348],[101.226242,4.695643],[101.222947,4.690604],[101.218489,4.689247],[101.213644,4.694868],[101.209768,4.688859],[101.201433,4.694286],[101.194456,4.685758],[101.190773,4.685564],[101.184183,4.683045],[101.174492,4.689247],[101.168872,4.686921],[101.165577,4.677811],[101.159956,4.676842]],[[101.159956,4.676842],[101.154335,4.683238],[101.153366,4.688859],[101.141349,4.699132],[101.134372,4.700101],[101.123324,4.715606],[101.106849,4.704559],[101.103167,4.698938],[101.10433,4.685758],[101.103554,4.672385],[101.097934,4.668702],[101.094251,4.6625],[101.095608,4.656491],[101.092967,4.652542],[101.089866,4.653608],[101.086668,4.650895],[101.084342,4.645952],[101.085214,4.641107],[101.082985,4.63723],[101.083082,4.629865]],[[101.120683,4.651573],[101.126619,4.656879],[101.13224,4.664438],[101.135922,4.669865],[101.144256,4.671028],[101.157049,4.672385],[101.159956,4.676842]],[[101.337515,4.68018],[101.337855,4.679716],[101.343073,4.676667],[101.346222,4.672004],[101.349911,4.671287],[101.35189,4.664113],[101.357829,4.660167],[101.362687,4.650124],[101.363498,4.643257],[101.364487,4.634878],[101.370785,4.634699],[101.376723,4.629856],[101.370245,4.621247],[101.373844,4.610127],[101.363947,4.607616],[101.365687,4.603111],[101.361967,4.598827],[101.357649,4.59793],[101.35405,4.593984],[101.348831,4.592011],[101.35153,4.589679],[101.356569,4.566361]],[[101.356569,4.566361],[101.35443,4.5645],[101.35036,4.566922],[101.34784,4.574772],[101.343382,4.580005],[101.337277,4.578648],[101.330687,4.578164],[101.32572,4.580732],[101.321359,4.588291],[101.316126,4.590617],[101.310675,4.589163],[101.308058,4.595656],[101.302341,4.602731],[101.296235,4.605929],[101.290227,4.600695],[101.285939,4.604475],[101.281287,4.6037],[101.278864,4.599048],[101.276538,4.597691],[101.271984,4.603312],[101.262462,4.604669],[101.25471,4.612809],[101.251899,4.613197],[101.248701,4.60903],[101.244049,4.606316],[101.241045,4.616686],[101.237048,4.622209],[101.234334,4.623372],[101.230845,4.61969],[101.230167,4.625504],[101.228326,4.62909],[101.227163,4.63316],[101.221348,4.63287],[101.215728,4.622694],[101.209525,4.615135],[101.19729,4.602101],[101.190701,4.601422],[101.180719,4.58989],[101.175461,4.584439],[101.167806,4.58754],[101.162379,4.586958],[101.159278,4.583179],[101.155401,4.573779],[101.14697,4.565444],[101.138539,4.564282],[101.130883,4.56244]],[[101.130883,4.56244],[101.129623,4.564185],[101.124196,4.566123]],[[101.124196,4.566123],[101.126328,4.569612],[101.130205,4.571937],[101.128848,4.577171],[101.135137,4.582553],[101.14416,4.585505],[101.148036,4.591126],[101.146292,4.597328],[101.140671,4.598103],[101.136407,4.602173],[101.13912,4.605081],[101.145322,4.606631],[101.151331,4.61012],[101.149974,4.617097],[101.146485,4.615159],[101.140671,4.615159],[101.135074,4.613439],[101.131004,4.620998],[101.131779,4.628557],[101.140695,4.633984],[101.13992,4.642706],[101.142876,4.648569],[101.140743,4.652155],[101.132603,4.650119],[101.125819,4.649538],[101.120683,4.651573]],[[101.124196,4.566123],[101.121604,4.565226],[101.119181,4.566292],[101.119956,4.571816],[101.121022,4.577243],[101.117824,4.57734],[101.112591,4.574821],[101.104838,4.572592],[101.101543,4.578891],[101.095632,4.57986],[101.090302,4.58112],[101.086232,4.588872]],[[101.086232,4.588872],[101.091174,4.58737],[101.093888,4.589115],[101.096116,4.598515],[101.105323,4.600841],[101.106098,4.603893],[101.103191,4.612034],[101.099993,4.619496],[101.10135,4.62502],[101.106026,4.631101],[101.111549,4.635365],[101.112325,4.639435],[101.111356,4.644765],[101.115426,4.648617],[101.120683,4.651573]],[[101.064475,4.572495],[101.06966,4.577001],[101.071986,4.582719],[101.077897,4.584851],[101.082549,4.585529],[101.086232,4.588872]],[[101.130883,4.56244],[101.128702,4.561302],[101.123372,4.558297],[101.115232,4.556262],[101.109514,4.558007]],[[101.109514,4.558007],[101.101374,4.557231],[101.092095,4.558007],[101.084439,4.558588],[101.07688,4.560139],[101.070775,4.556262],[101.066971,4.55287]],[[101.066971,4.55287],[101.066002,4.555293],[101.06668,4.559557],[101.065323,4.562949],[101.061277,4.564645],[101.064475,4.572495]],[[101.064475,4.572495],[101.060696,4.573464],[101.067867,4.590326]],[[101.067867,4.590326],[101.07046,4.594057],[101.071623,4.59774],[101.07608,4.598636],[101.078406,4.601883],[101.082961,4.608569],[101.081604,4.614287],[101.079278,4.619617],[101.079375,4.625238],[101.083082,4.629865]],[[101.067867,4.590326],[101.058176,4.594202]],[[101.058176,4.594202],[101.060478,4.598079],[101.062416,4.601616],[101.064742,4.608109]],[[101.066971,4.55287],[101.063191,4.550641],[101.057304,4.552289],[101.053888,4.549939],[101.050399,4.546256],[101.043422,4.541798],[101.037607,4.543543],[101.031986,4.54897],[101.033343,4.557886],[101.03877,4.562537],[101.036057,4.569321],[101.04129,4.575135],[101.046523,4.5794],[101.045941,4.58754],[101.050714,4.592555],[101.058176,4.594202]],[[100.998262,4.442708],[100.996687,4.447287]],[[100.996687,4.447287],[100.996324,4.450073],[100.995548,4.455888],[100.99768,4.460927],[101.001363,4.467711],[101.001557,4.471587],[101.003689,4.477208],[101.00272,4.481084],[100.998068,4.481084],[100.995354,4.486705],[100.993222,4.493101],[100.990097,4.501944],[100.98702,4.508219],[100.98043,4.512871],[100.973259,4.514349]],[[100.973259,4.514349],[100.978298,4.521423],[100.982078,4.525978],[100.982175,4.53218],[100.988207,4.542695],[100.993247,4.552774],[100.997705,4.559557],[100.996445,4.563337],[101.000224,4.567698],[100.997898,4.573318],[101.000127,4.576129],[100.999307,4.582932],[101.00255,4.588146],[101.008365,4.588921],[101.010787,4.590278],[101.012338,4.592119],[101.01447,4.595414],[101.016699,4.605008],[101.01602,4.609369],[101.01166,4.60995],[101.00914,4.612567],[101.011369,4.616734],[101.012596,4.619992],[101.014155,4.625698],[101.015318,4.629478],[101.013574,4.632191],[101.014736,4.635389],[101.013767,4.640816],[101.011635,4.64508],[101.011441,4.650119],[101.017062,4.653027],[101.024137,4.655789],[101.020163,4.661894],[101.018904,4.666449],[101.024002,4.67104],[101.027918,4.675856],[101.030242,4.683505]],[[101.109514,4.558007],[101.111549,4.55241],[101.11058,4.546789],[101.113197,4.541944],[101.112906,4.534288],[101.111525,4.528304],[101.106195,4.524621],[101.102222,4.517741],[101.102222,4.513864]],[[101.102222,4.513864],[101.09966,4.511053],[101.094566,4.506257],[101.086426,4.503253],[101.075959,4.503253],[101.067044,4.511296],[101.057353,4.520987],[101.054058,4.525929],[101.050472,4.525542],[101.04301,4.521375],[101.038067,4.517595],[101.039133,4.510908],[101.038067,4.5049],[101.031768,4.50083],[101.027044,4.498964],[101.026619,4.492475],[101.030436,4.489758],[101.033288,4.48664],[101.037607,4.485397],[101.04158,4.481908],[101.044003,4.469601],[101.045815,4.457992],[101.043906,4.453465],[101.039739,4.453368],[101.033537,4.453562],[101.027335,4.456276],[101.020745,4.460927],[101.016287,4.459183],[101.01493,4.454919],[101.012895,4.449976],[101.008922,4.445422],[101.004076,4.442708],[100.998262,4.442708]],[[100.855911,4.503662],[100.858154,4.505527],[100.859901,4.50642],[100.8629,4.509082],[100.864197,4.514151],[100.863048,4.522804],[100.861885,4.528037],[100.861508,4.532448],[100.860814,4.535897],[100.859899,4.540393],[100.859265,4.548509],[100.85796,4.553379]],[[100.85796,4.553379],[100.860262,4.556311],[100.861425,4.560187],[100.865689,4.56387],[100.873442,4.568328],[100.876349,4.57201],[100.875961,4.577243],[100.880613,4.581313],[100.881776,4.584415],[100.880807,4.597594],[100.886428,4.605929],[100.893405,4.612518],[100.900657,4.618675],[100.913369,4.631804],[100.924223,4.64823],[100.924848,4.659483],[100.924923,4.6681],[100.933258,4.67331],[100.940135,4.683104],[100.939719,4.691648],[100.936143,4.702209],[100.937209,4.706569],[100.94031,4.709864],[100.946318,4.716454],[100.951403,4.727817],[100.950305,4.733124],[100.953965,4.743189],[100.958357,4.747763],[100.96037,4.753619],[100.96571,4.760614],[100.962599,4.765006],[100.953083,4.767385],[100.9484,4.77172],[100.947966,4.774309],[100.948268,4.780306]],[[100.973259,4.514349],[100.971999,4.511732],[100.966911,4.511732],[100.96163,4.510957],[100.956203,4.507081],[100.949419,4.507856],[100.942248,4.508437],[100.932751,4.507274],[100.925386,4.510763],[100.919183,4.512895],[100.905228,4.510182],[100.902515,4.503398],[100.8967,4.50301],[100.887009,4.503398],[100.875186,4.50553],[100.866658,4.504173],[100.855911,4.503662]],[[100.85796,4.553379],[100.851239,4.552604],[100.846844,4.551811],[100.836835,4.548819],[100.831464,4.54821],[100.820747,4.545529],[100.813952,4.544749],[100.806208,4.542028],[100.795914,4.540199],[100.791747,4.537486],[100.781087,4.535935],[100.774351,4.535451],[100.764276,4.533116],[100.758361,4.531962],[100.754737,4.531137],[100.751504,4.529395],[100.745279,4.529152],[100.739997,4.529539],[100.684952,4.530121],[100.645103,4.530419],[100.628694,4.530008],[100.626711,4.536943]],[[100.626711,4.536943],[100.642186,4.541966],[100.656042,4.564567],[100.649744,4.565105],[100.636068,4.563132],[100.619693,4.552728],[100.592342,4.567616],[100.580645,4.564208],[100.579925,4.571025],[100.585504,4.595778],[100.582445,4.601338],[100.588563,4.619454],[100.595356,4.630483]],[[100.618666,4.46914],[100.618434,4.515417],[100.626711,4.536943]],[[100.855911,4.503662],[100.8564,4.500941],[100.858696,4.496111],[100.8591,4.49347],[100.856804,4.489281],[100.853813,4.487296],[100.850197,4.486819],[100.843498,4.486801],[100.838799,4.48563],[100.836502,4.484009],[100.834702,4.48124],[100.833389,4.477821],[100.830002,4.475757],[100.826294,4.477906],[100.82251,4.480529],[100.803001,4.47538],[100.804298,4.467041],[100.804901,4.459151],[100.805481,4.454148],[100.805481,4.450073],[100.805725,4.443482],[100.8041,4.428631],[100.803406,4.420916],[100.803497,4.4151],[100.802597,4.40111],[100.802803,4.392871],[100.803398,4.385391],[100.810658,4.368054],[100.818663,4.356046],[100.818481,4.33949],[100.820847,4.334578],[100.820503,4.326191]],[[100.820503,4.326191],[100.821289,4.309817],[100.821198,4.302991],[100.822197,4.284971]],[[100.822197,4.284971],[100.818171,4.288265],[100.776082,4.326694],[100.716243,4.383056],[100.711851,4.383239],[100.719171,4.410871],[100.704751,4.411023],[100.700094,4.402612],[100.693214,4.398057],[100.689725,4.401739],[100.686115,4.409177],[100.684177,4.413635],[100.67875,4.415089],[100.673129,4.421679],[100.66809,4.42226],[100.660918,4.419934],[100.655879,4.414507],[100.647448,4.414798],[100.639211,4.416736],[100.638823,4.42071],[100.640858,4.424683],[100.639114,4.429238],[100.634171,4.433599],[100.634171,4.442975],[100.642602,4.444719],[100.639501,4.453441],[100.645219,4.453538],[100.654038,4.452956],[100.654232,4.458965],[100.653263,4.465845],[100.646963,4.467202],[100.637369,4.467299],[100.623996,4.469237],[100.618666,4.46914]],[[100.822197,4.284971],[100.825108,4.265072]],[[100.825108,4.265072],[100.821014,4.265848],[100.804151,4.260808]],[[100.804151,4.260808],[100.79853,4.263716],[100.784333,4.259839],[100.762432,4.257513],[100.753128,4.264685],[100.74208,4.2736],[100.735103,4.26953],[100.724637,4.279027],[100.725218,4.283291],[100.713395,4.291626]],[[100.713395,4.291626],[100.705061,4.296471],[100.692753,4.300662],[100.69692,4.310741],[100.681221,4.309191],[100.672693,4.336107],[100.672402,4.33979],[100.669495,4.342891],[100.664262,4.340565],[100.656315,4.342697],[100.646624,4.347543],[100.636739,4.343666],[100.625498,4.33727],[100.614644,4.34134],[100.599526,4.345604],[100.588285,4.35045],[100.581113,4.351031],[100.573845,4.348706]],[[100.573845,4.348706],[100.583884,4.371535],[100.583344,4.378711],[100.588203,4.391629],[100.585144,4.396653],[100.586223,4.411903],[100.581185,4.416209],[100.584784,4.425539],[100.593421,4.430383],[100.593961,4.422847],[100.604758,4.423027],[100.610516,4.431997],[100.611236,4.443838],[100.615015,4.448861],[100.618793,4.457114],[100.61874,4.46583],[100.618666,4.46914]],[[100.996687,4.447287],[100.990775,4.443701],[100.980309,4.441666],[100.969988,4.435052],[100.959425,4.43292],[100.948668,4.429528],[100.933453,4.427881],[100.922309,4.428269],[100.914653,4.432629],[100.912133,4.429431],[100.906222,4.428172],[100.900988,4.430304],[100.900116,4.424489],[100.892073,4.413829],[100.888972,4.401715],[100.893817,4.396385],[100.897224,4.391291],[100.901982,4.385069],[100.903629,4.380662],[100.900916,4.371746],[100.890837,4.360165],[100.885798,4.360553],[100.880371,4.354544],[100.873975,4.354351],[100.872812,4.349699],[100.869323,4.350087],[100.868936,4.353575],[100.86002,4.354738],[100.859319,4.338029],[100.860982,4.326416],[100.820503,4.326191]],[[101.013298,4.325541],[101.015221,4.313018],[101.010375,4.306429],[101.011538,4.299063],[101.010399,4.294091],[101.00433,4.29157],[100.996399,4.29186],[100.994698,4.290351],[100.994901,4.287775]],[[100.994901,4.287775],[100.989443,4.282783],[100.951573,4.273443],[100.915743,4.262432],[100.912642,4.255066],[100.907603,4.246344],[100.87853,4.241887],[100.827077,4.235633],[100.825213,4.247887],[100.825108,4.265072]],[[100.998262,4.442708],[100.995839,4.436191],[100.996808,4.429117],[101.0002,4.42398],[101.001751,4.416324],[100.99894,4.409831],[101.000103,4.40266],[101.005918,4.399099],[101.015609,4.394932],[101.024524,4.388148],[101.031696,4.378578],[101.032762,4.371697],[101.027432,4.365011],[101.020357,4.35922],[101.012411,4.353212],[101.006887,4.350038],[101.003979,4.348294],[101.008631,4.342867],[101.010375,4.338409],[101.011538,4.334532],[101.013298,4.325541]],[[101.210442,4.396592],[101.210211,4.401697],[101.210211,4.411906],[101.203935,4.410065],[101.200588,4.419354],[101.200253,4.430232],[101.194646,4.432659],[101.194479,4.438266],[101.200086,4.443789],[101.206027,4.444291],[101.210211,4.448308],[101.211132,4.451488],[101.208036,4.455505],[101.202011,4.455337],[101.198914,4.451321],[101.193726,4.455505],[101.189019,4.45517],[101.185671,4.448894],[101.187931,4.445379],[101.186927,4.441362],[101.180901,4.435421],[101.177199,4.435672],[101.174688,4.445881],[101.171675,4.450484],[101.167491,4.450818],[101.158705,4.444542],[101.15837,4.457764],[101.149918,4.461111],[101.147993,4.46789],[101.141801,4.465212],[101.136529,4.460358],[101.13042,4.460609],[101.128913,4.463789],[101.128244,4.473999],[101.121863,4.475338],[101.121779,4.480526],[101.112072,4.482283],[101.10588,4.48153],[101.107637,4.487221],[101.106549,4.492158],[101.108892,4.495421],[101.110315,4.502367],[101.107135,4.510987],[101.102222,4.513864]],[[101.356569,4.566361],[101.35387,4.555598],[101.35459,4.548423],[101.358008,4.545194],[101.359088,4.538916],[101.365206,4.528153],[101.372584,4.528871],[101.382121,4.523489],[101.382661,4.516493],[101.3868,4.505371],[101.379782,4.503039],[101.379062,4.49981],[101.374384,4.496581],[101.360708,4.497119],[101.359448,4.494249],[101.368445,4.485817],[101.365746,4.482229],[101.359088,4.475592],[101.358188,4.459984],[101.345232,4.451373],[101.340914,4.452988],[101.337135,4.445632],[101.332816,4.445991],[101.332661,4.432115],[101.338309,4.432325]],[[101.338309,4.432325],[101.337556,4.426299],[101.332535,4.422032],[101.325924,4.4204],[101.320694,4.414835],[101.317514,4.407303],[101.318518,4.400274],[101.266091,4.3986],[101.226258,4.395922],[101.210442,4.396592]],[[101.210442,4.396592],[101.189102,4.395755],[101.173203,4.398098],[101.165587,4.39542],[101.162073,4.38973],[101.161487,4.384542],[101.151947,4.381362],[101.143495,4.378265],[101.139562,4.376759],[101.136026,4.379353]],[[101.136026,4.379353],[101.130859,4.385044],[101.134541,4.391069],[101.134541,4.395755],[101.131026,4.397596],[101.123662,4.388391],[101.114959,4.375336],[101.100733,4.363286],[101.111235,4.350566]],[[101.111235,4.350566],[101.103871,4.345545],[101.10588,4.332491],[101.098348,4.331487],[101.091654,4.328976],[101.093997,4.316758],[101.079603,4.304875],[101.073745,4.307386],[101.068222,4.308055],[101.071193,4.318767],[101.070356,4.323286],[101.062657,4.320942],[101.052783,4.322281],[101.053452,4.332323],[101.045921,4.331487],[101.041569,4.322616],[101.02864,4.322783],[101.016255,4.323453],[101.013298,4.325541]],[[101.136026,4.379353],[101.13519,4.369981],[101.1377,4.366215],[101.136026,4.355169],[101.142972,4.355587],[101.147993,4.361361],[101.1536,4.359269],[101.159186,4.359604],[101.162031,4.37065],[101.171236,4.360943],[101.18404,4.360608],[101.18655,4.357512],[101.214458,4.355587],[101.228936,4.347554],[101.237136,4.343788],[101.226156,4.338863],[101.2183,4.337411],[101.212596,4.335336],[101.208663,4.333913],[101.203893,4.332072],[101.199877,4.329813],[101.195776,4.327302],[101.19291,4.321194],[101.192492,4.310984],[101.197261,4.3027],[101.196899,4.295251],[101.193328,4.290231],[101.192324,4.285545],[101.189068,4.284005],[101.183705,4.284206],[101.180525,4.284122],[101.172659,4.283871]],[[101.172659,4.283871],[101.171864,4.291235],[101.162303,4.295084],[101.155525,4.292992],[101.147658,4.29952],[101.145399,4.305963],[101.136696,4.31316],[101.136278,4.320608],[101.140127,4.326633],[101.137756,4.330563],[101.132512,4.334834],[101.127826,4.332156],[101.122051,4.331152],[101.120545,4.339771],[101.116194,4.344039],[101.111235,4.350566]],[[101.172659,4.283871],[101.168977,4.281277],[101.167721,4.277929]],[[101.167721,4.277929],[101.163537,4.276088],[101.156905,4.275084],[101.15406,4.269226],[101.15314,4.263452],[101.152135,4.259687],[101.150964,4.254666],[101.14678,4.259435],[101.145022,4.264875],[101.142345,4.261444],[101.140922,4.257762],[101.138579,4.256088],[101.136152,4.259435],[101.130775,4.252155],[101.125587,4.25567],[101.122051,4.252322],[101.120127,4.249142],[101.115943,4.24705],[101.113265,4.24864],[101.113265,4.252322],[101.108244,4.252239],[101.106654,4.250314],[101.10498,4.248724],[101.101047,4.248222],[101.098034,4.248222],[101.095524,4.248891],[101.093599,4.250147],[101.088829,4.248222],[101.086905,4.24772],[101.083976,4.247134],[101.080545,4.246381],[101.074394,4.245377],[101.070545,4.244958]],[[101.070545,4.244958],[101.067867,4.248891],[101.063599,4.250732],[101.055461,4.254498],[101.050691,4.254749],[101.044666,4.255586],[101.037102,4.255191],[101.033798,4.255182],[101.030098,4.25471],[101.022071,4.253578],[101.013703,4.252741],[101.005167,4.254247],[100.999811,4.259268],[101.002489,4.265795],[101.002824,4.270816],[100.996129,4.273662],[100.998138,4.284373],[100.994901,4.287775]],[[101.252723,4.115019],[101.253217,4.120332],[101.244939,4.118973],[101.23839,4.128487],[101.227398,4.127453],[101.217631,4.133615],[101.228381,4.141894],[101.234312,4.142018],[101.238637,4.145632],[101.242962,4.153787],[101.246174,4.156259],[101.257295,4.158359],[101.261867,4.156382],[101.264709,4.152057],[101.272617,4.156506],[101.273729,4.160213],[101.272864,4.16948],[101.265203,4.177388],[101.267551,4.181219],[101.274347,4.183196],[101.276448,4.188385],[101.27237,4.19271],[101.268787,4.198394],[101.267365,4.198491],[101.254329,4.199383],[101.248893,4.196911],[101.247515,4.197785],[101.243826,4.200124],[101.238359,4.197529],[101.234528,4.199753],[101.228721,4.196788],[101.226249,4.192587],[101.22279,4.190362],[101.215623,4.191969],[101.221677,4.198765],[101.226644,4.206001],[101.231316,4.213716],[101.226867,4.21767],[101.227979,4.223231],[101.222913,4.225455],[101.223654,4.22842],[101.22835,4.234475],[101.214881,4.242136],[101.205985,4.245472],[101.198818,4.238182],[101.194493,4.236699],[101.190045,4.239047],[101.18918,4.246708],[101.194864,4.252021],[101.195482,4.256223],[101.191404,4.261042],[101.182013,4.260424],[101.176823,4.261783],[101.170522,4.27068],[101.167721,4.277929]],[[101.338309,4.432325],[101.341993,4.434509],[101.35279,4.428588],[101.35351,4.421053],[101.349011,4.41585],[101.349371,4.412262],[101.355129,4.409392],[101.358188,4.396833],[101.366826,4.398447],[101.368625,4.405265],[101.381581,4.409033],[101.392378,4.408674],[101.397416,4.402215],[101.399576,4.404009],[101.404974,4.39773],[101.407313,4.392706],[101.41757,4.395218],[101.437364,4.391629],[101.437904,4.384812],[101.443842,4.377455],[101.437004,4.373508],[101.433226,4.361307],[101.434125,4.356642],[101.427647,4.350721],[101.421529,4.348748],[101.421169,4.345877],[101.426208,4.339417],[101.431606,4.339417],[101.444562,4.332061],[101.445153,4.324701],[101.445642,4.318603],[101.45032,4.314835],[101.447621,4.309811],[101.45104,4.301736],[101.446901,4.293123],[101.448161,4.285587],[101.444562,4.274641],[101.45086,4.267283],[101.457878,4.261003],[101.464896,4.256696],[101.463097,4.249338],[101.45284,4.242878],[101.45194,4.224933]],[[101.45194,4.224933],[101.44542,4.22461],[101.442993,4.217549],[101.384434,4.188999],[101.350521,4.172901],[101.337418,4.172154],[101.332926,4.168234],[101.326562,4.172714],[101.317952,4.170474],[101.317952,4.162073],[101.315038,4.161074],[101.312711,4.163566],[101.30017,4.154792],[101.300852,4.144767],[101.304311,4.130681],[101.302087,4.120795],[101.295291,4.113382],[101.29455,4.122649],[101.290719,4.128704],[101.283553,4.128209],[101.278981,4.117459],[101.276386,4.110416],[101.272308,4.110663],[101.264029,4.115235],[101.260693,4.11993],[101.252723,4.115019]],[[101.252723,4.115019],[101.253959,4.104516],[101.259983,4.100438],[101.266284,4.100871],[101.267088,4.097781],[101.26196,4.095465],[101.25331,4.091263],[101.243919,4.08076],[101.239471,4.072111],[101.239347,4.065068],[101.234775,4.059384],[101.234528,4.049251],[101.233663,4.042671],[101.229267,4.034224]],[[101.229267,4.034224],[101.225403,4.039291],[101.215302,4.05003],[101.196999,4.069719],[101.167603,4.09438],[101.154503,4.10972],[101.148898,4.116069],[101.144202,4.121382],[101.138642,4.125336],[101.14309,4.131638],[101.140001,4.134851],[101.134441,4.138805],[101.126532,4.14696],[101.126409,4.150544],[101.129374,4.153509],[101.125298,4.15995],[101.124199,4.162941],[101.119057,4.169604],[101.115997,4.17564],[101.113558,4.179242],[101.11016,4.184617],[101.106206,4.182609],[101.102005,4.180508]],[[101.102005,4.180508],[101.099348,4.184678],[101.094597,4.192209],[101.092102,4.196061],[101.088196,4.205029],[101.085999,4.209569],[101.079796,4.221179],[101.075482,4.233159],[101.070545,4.244958]],[[101.229267,4.034224],[101.223594,4.032211],[101.211517,4.033126],[101.202001,4.026172],[101.191753,4.02727],[101.179859,4.011349],[101.165768,4.003664],[101.149848,4.003115],[101.140149,4.000187],[101.131928,4.000454],[101.133179,4.01782],[101.136855,4.036145],[101.133521,4.039618],[101.124797,4.039383],[101.113432,4.041706],[101.110339,4.038038],[101.104481,4.031022],[101.098295,4.028657],[101.098295,4.033387],[101.099205,4.041028],[101.096476,4.043212],[101.089562,4.037026],[101.076281,4.030476],[101.064935,4.029728]],[[101.064935,4.029728],[101.059746,4.039613],[101.067036,4.048139],[101.059004,4.051475],[101.054062,4.051846],[101.051961,4.059384],[101.044794,4.06828],[101.036145,4.086074]],[[101.036145,4.086074],[101.036021,4.093117],[101.038863,4.097936],[101.042817,4.103249],[101.041829,4.111404],[101.035403,4.12512],[101.038245,4.129692],[101.04257,4.129074],[101.04603,4.132287],[101.046401,4.139824],[101.050849,4.14452],[101.053845,4.144767],[101.05817,4.149462],[101.062984,4.152009],[101.069028,4.157323],[101.073122,4.159842],[101.077155,4.161908],[101.080412,4.164661],[101.085283,4.167535],[101.092017,4.173068],[101.094622,4.174423],[101.102005,4.180508]],[[100.86093,3.970973],[100.857346,3.978016],[100.857779,3.986448],[100.861782,4.005006],[100.862145,4.021198],[100.855414,4.037936],[100.846499,4.040847],[100.835947,4.042484],[100.825031,4.037572],[100.812842,4.018833]],[[100.812842,4.018833],[100.80999,4.02528],[100.803492,4.032724],[100.800908,4.039799],[100.798746,4.047707],[100.802267,4.061484],[100.812647,4.065438],[100.823026,4.072852],[100.838348,4.090646],[100.844032,4.107698],[100.839584,4.120301],[100.824262,4.136612],[100.808445,4.166762],[100.798684,4.192216],[100.796954,4.209268],[100.79819,4.22459],[100.801302,4.247413],[100.801897,4.251774],[100.804151,4.260808]],[[101.036145,4.086074],[101.034909,4.083788],[101.034631,4.077671],[101.027711,4.08249],[101.021533,4.078907],[101.013007,4.079278],[101.009053,4.071617],[101.004975,4.072358],[100.998674,4.066056],[100.995139,4.062497],[100.986688,4.067539],[100.982085,4.060743],[100.974671,4.062226],[100.970841,4.050611],[100.994486,4.038158],[100.997407,4.032076],[100.998643,4.025156],[101.010223,4.028459],[101.01656,4.02701],[101.017301,4.01836],[101.010752,4.009216],[101.01137,3.999578]],[[101.01137,3.999578],[100.994047,4.001731],[100.986763,4.008315],[100.980395,4.005768],[100.988225,3.989541],[100.986039,3.987098],[100.978625,3.989322],[100.975783,3.983638],[100.976895,3.97746],[100.976401,3.9719],[100.974301,3.968934],[100.967999,3.968069],[100.960214,3.974],[100.953294,3.976966],[100.949526,3.975112],[100.949155,3.969552],[100.952986,3.965474],[100.962376,3.960161],[100.96596,3.953859],[100.956901,3.943576]],[[100.956901,3.943576],[100.952738,3.942368],[100.945572,3.943356],[100.937664,3.950152],[100.937046,3.955589],[100.934698,3.961891],[100.930373,3.965474],[100.922836,3.96152],[100.91604,3.954477],[100.913461,3.953096],[100.906649,3.952871],[100.898246,3.960902],[100.895621,3.966586],[100.885118,3.965721],[100.875356,3.962262],[100.869059,3.962979],[100.86093,3.970973]],[[100.702427,4.152057],[100.658143,4.170868],[100.656977,4.15696],[100.655985,4.154568],[100.637955,4.154831],[100.625892,4.141347],[100.629661,4.135359],[100.627576,4.134106],[100.619021,4.148853],[100.620964,4.150058],[100.62402,4.154647],[100.62423,4.160555],[100.625082,4.161177],[100.624194,4.16267],[100.622631,4.164859],[100.620551,4.166403],[100.618581,4.166683],[100.617431,4.166766],[100.617475,4.165356],[100.616728,4.164964],[100.616685,4.164132],[100.616205,4.16437],[100.615796,4.166019],[100.615254,4.166422],[100.615001,4.167091],[100.61391,4.167188],[100.613454,4.168148],[100.613951,4.168202],[100.614177,4.168727],[100.613944,4.170397],[100.613092,4.17128],[100.613758,4.173839],[100.613426,4.174384],[100.613026,4.174564],[100.61326,4.175617],[100.612413,4.177144],[100.612247,4.179399],[100.611081,4.180868],[100.610355,4.182178],[100.610174,4.182926],[100.609743,4.183706],[100.609179,4.186047],[100.6052,4.188762],[100.604553,4.188629],[100.604201,4.188147],[100.603333,4.188964],[100.602673,4.190584],[100.603038,4.191351],[100.602587,4.192286],[100.602795,4.193643],[100.602592,4.194462],[100.603115,4.19453],[100.603085,4.195721],[100.602818,4.196406],[100.603262,4.196703],[100.602861,4.198233],[100.603981,4.198338],[100.605461,4.199192],[100.605889,4.200344],[100.608406,4.200327],[100.609621,4.202408],[100.609721,4.204226],[100.610812,4.205824],[100.610244,4.20843],[100.609948,4.210764],[100.609979,4.214176],[100.608539,4.216412],[100.59523,4.226991],[100.594291,4.228498],[100.592721,4.230845],[100.592513,4.233886],[100.592071,4.235252],[100.593141,4.236767],[100.59377,4.238878],[100.59042,4.239548],[100.590547,4.245049],[100.590386,4.256775],[100.590164,4.26332],[100.592396,4.269585],[100.591769,4.273466],[100.590415,4.274041],[100.588814,4.274601],[100.587339,4.275598],[100.586279,4.277692],[100.584762,4.278353],[100.584684,4.279656],[100.58695,4.279919],[100.586872,4.287298],[100.585929,4.294958],[100.583395,4.297308],[100.582358,4.298179],[100.58118,4.298212],[100.581305,4.296873],[100.580451,4.296873],[100.579192,4.296018],[100.578653,4.296536],[100.579546,4.297792],[100.57868,4.302628],[100.577226,4.308013],[100.574851,4.311196],[100.571444,4.312954],[100.570512,4.31106],[100.568967,4.310376],[100.565158,4.312711],[100.563193,4.312305],[100.561608,4.310173],[100.560575,4.308828],[100.558364,4.308466],[100.558117,4.311834],[100.558933,4.314255],[100.559412,4.316897],[100.559175,4.319638],[100.563183,4.323621],[100.563746,4.324953],[100.563988,4.325523],[100.564883,4.328212],[100.573845,4.348706]],[[100.713395,4.291626],[100.707903,4.283535],[100.705887,4.280565],[100.699955,4.280318],[100.696001,4.278341],[100.692294,4.269691],[100.700203,4.269691],[100.707369,4.262524],[100.703168,4.255852],[100.706875,4.252145],[100.705887,4.248685],[100.701191,4.247449],[100.69872,4.251404],[100.692294,4.245225],[100.703168,4.24053],[100.701685,4.235093],[100.695013,4.231633],[100.690812,4.232375],[100.688093,4.227679],[100.689576,4.221501],[100.695013,4.220389],[100.695136,4.213222],[100.684881,4.211739],[100.676849,4.207167],[100.673636,4.202595],[100.684881,4.200371],[100.696678,4.200513],[100.699708,4.192957],[100.693654,4.192216],[100.69007,4.188262],[100.700944,4.186532],[100.708976,4.175658],[100.712312,4.164785],[100.706504,4.158606],[100.702427,4.152057]],[[100.544586,4.202489],[100.544723,4.20194],[100.545339,4.201366],[100.546646,4.201057],[100.547062,4.201028],[100.547424,4.200812],[100.547421,4.200098],[100.546695,4.199508],[100.546909,4.197985],[100.549797,4.195945],[100.54989,4.19532],[100.549295,4.193897],[100.548841,4.192851],[100.548538,4.190972],[100.548706,4.189773],[100.548596,4.188743],[100.548483,4.187789],[100.548031,4.187597],[100.547127,4.187916],[100.546751,4.188454],[100.546138,4.188395],[100.545964,4.188051],[100.545344,4.188288],[100.544825,4.187896],[100.544469,4.187635],[100.543784,4.187918],[100.543159,4.187879],[100.542291,4.187634],[100.540601,4.187517],[100.540211,4.187968],[100.54014,4.188528],[100.54036,4.189026],[100.540353,4.189394],[100.540189,4.189845],[100.539777,4.190409],[100.539722,4.190946],[100.540162,4.191917],[100.540101,4.192767],[100.539622,4.193409],[100.538959,4.194899],[100.539307,4.195222],[100.540511,4.195227],[100.542061,4.194779],[100.542738,4.194988],[100.543085,4.195639],[100.543163,4.19652],[100.542399,4.1971],[100.541386,4.197509],[100.540915,4.197827],[100.540198,4.197993],[100.539655,4.198467],[100.539254,4.199421],[100.539382,4.200098],[100.539984,4.200327],[100.540139,4.200705],[100.539933,4.20118],[100.54032,4.201686],[100.540786,4.201839],[100.541064,4.201723],[100.54138,4.201393],[100.541665,4.200741],[100.542209,4.200941],[100.542916,4.201204],[100.543034,4.202174],[100.543287,4.202861],[100.543989,4.203259],[100.544586,4.202489]],[[100.56894,4.249167],[100.56912,4.247288],[100.569238,4.245945],[100.569061,4.245269],[100.567946,4.244512],[100.56801,4.243535],[100.56886,4.241574],[100.571017,4.239983],[100.572412,4.23901],[100.573141,4.237306],[100.573122,4.23619],[100.57405,4.234558],[100.573985,4.233434],[100.573418,4.232971],[100.573771,4.231473],[100.57445,4.230708],[100.574848,4.229397],[100.575313,4.227674],[100.575279,4.226778],[100.574948,4.226069],[100.575171,4.224395],[100.574874,4.224009],[100.57486,4.223136],[100.574986,4.222583],[100.574984,4.220968],[100.575221,4.220525],[100.57604,4.219969],[100.576263,4.219449],[100.576178,4.218616],[100.576499,4.217938],[100.576844,4.216841],[100.577162,4.216448],[100.577357,4.215956],[100.577828,4.215507],[100.578661,4.214531],[100.57768,4.214557],[100.57639,4.214516],[100.576276,4.214132],[100.576694,4.213315],[100.57658,4.212621],[100.576724,4.211035],[100.576206,4.210586],[100.575719,4.210529],[100.57512,4.210329],[100.575173,4.209751],[100.575454,4.209259],[100.576062,4.208623],[100.57726,4.206379],[100.578467,4.205578],[100.579164,4.205222],[100.579691,4.204664],[100.579768,4.204126],[100.579352,4.202753],[100.579089,4.202226],[100.579241,4.201564],[100.579062,4.200981],[100.57861,4.200793],[100.578211,4.201228],[100.578211,4.2019],[100.577715,4.201729],[100.577214,4.201352],[100.576345,4.19975],[100.576298,4.198274],[100.578431,4.195695],[100.578748,4.19438],[100.579581,4.193708],[100.581716,4.19259],[100.582285,4.192619],[100.582185,4.191841],[100.581995,4.191228],[100.582354,4.190513],[100.582002,4.189108],[100.581425,4.188298],[100.580061,4.188257],[100.579486,4.188505],[100.578776,4.18928],[100.57808,4.190015],[100.577607,4.190251],[100.577279,4.190492],[100.576745,4.190278],[100.576369,4.189647],[100.575786,4.189554],[100.575295,4.189663],[100.574472,4.19024],[100.573538,4.190409],[100.572247,4.190194],[100.571785,4.190456],[100.571139,4.18995],[100.569609,4.189196],[100.569178,4.189366],[100.568368,4.189924],[100.567211,4.190464],[100.566293,4.190143],[100.565573,4.190999],[100.565179,4.190785],[100.564907,4.190354],[100.564175,4.190257],[100.5634,4.190869],[100.562898,4.191788],[100.562426,4.192164],[100.561255,4.192876],[100.560517,4.195508],[100.560832,4.197348],[100.561423,4.198146],[100.561049,4.200496],[100.560412,4.201999],[100.560354,4.203991],[100.559286,4.20631],[100.558403,4.206568],[100.558756,4.207102],[100.558492,4.208336],[100.557797,4.210161],[100.555547,4.211967],[100.552098,4.213483],[100.548412,4.214165],[100.546973,4.213906],[100.546101,4.213214],[100.54592,4.212109],[100.54525,4.211923],[100.544761,4.213015],[100.544408,4.213927],[100.543393,4.214648],[100.543184,4.215606],[100.543729,4.216725],[100.543248,4.217308],[100.543473,4.217801],[100.544264,4.217851],[100.544539,4.218507],[100.544514,4.21973],[100.54395,4.221976],[100.543166,4.222377],[100.542625,4.224027],[100.541282,4.224238],[100.539886,4.225524],[100.539443,4.225408],[100.538967,4.225803],[100.539462,4.226666],[100.540181,4.226741],[100.54087,4.226389],[100.541627,4.226409],[100.542804,4.226938],[100.544548,4.229153],[100.54566,4.2323],[100.545227,4.234208],[100.544669,4.234429],[100.544641,4.235572],[100.545342,4.235948],[100.545734,4.237495],[100.545261,4.239052],[100.54438,4.238923],[100.54304,4.238461],[100.542205,4.238702],[100.542313,4.239363],[100.543,4.240417],[100.541716,4.241921],[100.540688,4.242581],[100.538641,4.242448],[100.537244,4.24259],[100.536597,4.244109],[100.535463,4.245315],[100.536144,4.245752],[100.537184,4.245759],[100.537886,4.246536],[100.539156,4.246788],[100.540148,4.246451],[100.540913,4.24676],[100.54312,4.246763],[100.54428,4.247604],[100.544874,4.249997],[100.545213,4.253302],[100.54497,4.255217],[100.544075,4.255484],[100.542966,4.255555],[100.542255,4.256283],[100.541406,4.255875],[100.538791,4.256216],[100.537771,4.256916],[100.537234,4.257766],[100.537742,4.259586],[100.536975,4.260257],[100.535968,4.260292],[100.535839,4.260985],[100.536122,4.261381],[100.535934,4.262003],[100.53545,4.262425],[100.535736,4.263073],[100.536181,4.264041],[100.538135,4.264142],[100.539285,4.265704],[100.540973,4.266135],[100.543473,4.265846],[100.547043,4.265877],[100.548452,4.263345],[100.550504,4.263078],[100.551314,4.261764],[100.550416,4.260051],[100.551348,4.25899],[100.552051,4.257318],[100.55146,4.256055],[100.551929,4.255029],[100.553447,4.254031],[100.553463,4.253355],[100.551941,4.252984],[100.551328,4.251764],[100.553644,4.249731],[100.556174,4.248188],[100.558007,4.248158],[100.55951,4.248716],[100.559645,4.249625],[100.558979,4.250446],[100.559386,4.251285],[100.562678,4.252423],[100.563646,4.253517],[100.564344,4.253659],[100.564689,4.25299],[100.564151,4.252031],[100.568065,4.250004],[100.56894,4.249167]],[[100.812842,4.018833],[100.803563,4.009554],[100.791555,4.001913],[100.775021,3.998837],[100.758958,3.99896],[100.748894,4.005966]],[[100.748894,4.005966],[100.76005,4.066995],[100.749614,4.09715],[100.725141,4.117611],[100.702427,4.152057]],[[100.817993,3.849781],[100.801078,3.853013],[100.780204,3.819259],[100.739177,3.813873],[100.706427,3.844754],[100.698869,3.979758],[100.707866,4.002376],[100.731619,4.007043],[100.748894,4.005966]],[[100.86093,3.970973],[100.849376,3.970232],[100.835784,3.971097],[100.838626,3.950955],[100.82698,3.94972],[100.819566,3.947001],[100.817219,3.941935],[100.811411,3.891397],[100.814531,3.889173],[100.815025,3.85717],[100.817993,3.849781]],[[101.059344,3.795387],[101.054801,3.796277],[101.044364,3.785145],[101.033645,3.784142],[101.032847,3.784067],[101.02493,3.784067],[101.031048,3.794481],[101.02565,3.807768],[101.004416,3.79915],[100.9929,3.802022],[100.985342,3.793763],[100.984622,3.774371],[100.977784,3.768985],[100.969147,3.770062],[100.965705,3.773604],[100.95763,3.781913],[100.95943,3.796995],[100.976345,3.806332],[100.978504,3.816745],[100.964108,3.828954],[100.941435,3.83075],[100.938196,3.841881],[100.946114,3.86953],[100.931718,3.870248],[100.91623,3.865098],[100.911329,3.863465],[100.879894,3.853013],[100.854342,3.855167],[100.817993,3.849781]],[[100.956901,3.943576],[100.964726,3.937675],[101.00057,3.914543],[101.006405,3.905999],[101.091639,3.891828],[101.107685,3.881408],[101.084181,3.840797],[101.068117,3.814354],[101.060209,3.799527],[101.059344,3.795387]],[[101.064935,4.029728],[101.063444,4.026555],[101.054154,4.025289],[101.041344,4.020221],[101.045989,4.011353],[101.039655,4.010368],[101.037133,4.006992],[101.031773,3.99967],[101.02389,3.995729],[101.016852,3.993618],[101.01137,3.999578]],[[101.229267,4.034224],[101.230698,4.03269],[101.235001,4.0266],[101.235802,4.02361],[101.236298,4.020109],[101.24103,3.922675]],[[101.24103,3.922675],[101.240998,3.910574],[101.243266,3.860562],[101.243452,3.85338],[101.249252,3.71819],[101.250041,3.716194]],[[101.250041,3.716194],[101.244463,3.719785],[101.227368,3.712782],[101.22089,3.712782],[101.216032,3.706318],[101.211713,3.708652],[101.212973,3.715835],[101.208834,3.714398],[101.202176,3.720683],[101.204335,3.725352],[101.197317,3.726609],[101.198037,3.716553],[101.18976,3.718887],[101.175544,3.70937],[101.169606,3.715296],[101.169966,3.720503],[101.175004,3.715475],[101.191559,3.731098],[101.170686,3.727866],[101.165647,3.749593],[101.163668,3.723197],[101.15557,3.743847],[101.150352,3.741692],[101.153951,3.728943],[101.132897,3.736485],[101.145133,3.744744],[101.143154,3.748515],[101.134696,3.751747],[101.132897,3.764675],[101.123,3.747258],[101.12318,3.735048],[101.118861,3.735766],[101.110404,3.747258],[101.106445,3.743487],[101.107345,3.733252],[101.102846,3.731816],[101.099247,3.735407],[101.097808,3.744385],[101.092049,3.740614],[101.083952,3.742231],[101.081433,3.729661],[101.074415,3.727866],[101.072615,3.736125],[101.079093,3.745104],[101.072615,3.759289],[101.092949,3.756775],[101.097808,3.749054],[101.101946,3.75049],[101.092409,3.762341],[101.087011,3.767548],[101.092049,3.779758],[101.088451,3.782272],[101.081973,3.775449],[101.077654,3.767369],[101.065238,3.763239],[101.063798,3.755159],[101.059659,3.752645],[101.05642,3.755698],[101.05768,3.769883],[101.053361,3.777963],[101.055521,3.784786],[101.062538,3.791609],[101.059344,3.795387]],[[101.45194,4.224933],[101.471194,4.215601],[101.479472,4.211115],[101.482711,4.21273],[101.489189,4.210756],[101.492608,4.21255],[101.492428,4.20932],[101.498906,4.206808],[101.509522,4.207525],[101.511142,4.201244],[101.507903,4.198552],[101.504124,4.188861],[101.500525,4.190118],[101.498006,4.183298],[101.499086,4.173248],[101.497286,4.170017],[101.498726,4.165351],[101.495487,4.16248],[101.498366,4.156019],[101.503764,4.153147],[101.503764,4.144353],[101.506643,4.140584],[101.506643,4.133046],[101.514741,4.125508],[101.516,4.118508]],[[101.516,4.118508],[101.510549,4.117275],[101.507593,4.111433],[101.50689,4.102988],[101.498888,4.099692],[101.493887,4.095246],[101.50046,4.08829],[101.496192,4.082507],[101.492761,4.070895],[101.486479,4.062519],[101.488802,4.057382],[101.485752,4.055427],[101.485752,4.049176],[101.487975,4.04598],[101.479934,4.038661],[101.474191,4.039602],[101.466562,4.039083],[101.464327,4.036268],[101.465578,4.0321],[101.470486,4.025852],[101.470063,4.019799],[101.472175,4.014098],[101.47221,4.008116],[101.461547,3.998333],[101.456973,3.991014],[101.457205,3.985887],[101.455143,3.974756],[101.451342,3.969829],[101.438533,3.962932],[101.438375,3.965606],[101.439079,3.969829],[101.436545,3.971941],[101.427783,3.970674],[101.419619,3.971378],[101.409484,3.968985],[101.406387,3.972504],[101.396956,3.972363],[101.395126,3.968844],[101.386962,3.971237],[101.374998,3.970674],[101.368347,3.96265],[101.359901,3.963636],[101.351139,3.953079],[101.331573,3.958568],[101.32721,3.941396],[101.319186,3.94407],[101.306905,3.944492],[101.302542,3.936751],[101.303105,3.931683],[101.2986,3.926757],[101.280583,3.926053],[101.264114,3.921549],[101.24103,3.922675]],[[101.516,4.118508],[101.520139,4.119226],[101.527697,4.126046],[101.535255,4.126944],[101.542272,4.119046],[101.560627,4.109713],[101.560267,4.102893],[101.564226,4.101457],[101.569084,4.095714],[101.575922,4.09715],[101.579521,4.085662],[101.580172,4.074135],[101.578785,4.070669],[101.567397,4.050269],[101.557568,4.028404],[101.558647,4.012787],[101.563146,4.009915],[101.565125,4.002376],[101.572863,3.998965],[101.573223,3.995195],[101.571424,3.992503],[101.575922,3.978501],[101.575562,3.967192],[101.578082,3.965038],[101.576642,3.961268],[101.579521,3.958395],[101.574123,3.952112],[101.577362,3.948343],[101.575922,3.944214],[101.571244,3.942598],[101.576642,3.936315],[101.575382,3.931109],[101.578441,3.926082],[101.576462,3.920517],[101.571963,3.916388],[101.576462,3.911002],[101.578621,3.907232],[101.576642,3.902385],[101.588158,3.889818],[101.593737,3.888381],[101.605613,3.874737],[101.598595,3.859297],[101.600035,3.851756],[101.603274,3.848524],[101.600575,3.843497],[101.589058,3.837573],[101.596796,3.826979],[101.597156,3.816745],[101.598055,3.813514],[101.591937,3.803279],[101.602194,3.79502],[101.61569,3.793404],[101.618929,3.784606],[101.624327,3.781554],[101.626487,3.771858],[101.606513,3.774012],[101.596256,3.752645],[101.590858,3.743487],[101.5815,3.739717],[101.58168,3.725352],[101.578801,3.720862],[101.570344,3.717451],[101.570164,3.710986],[101.547851,3.700033],[101.535794,3.678304],[101.51744,3.679741],[101.511862,3.687283],[101.499985,3.695364],[101.495667,3.699314],[101.478752,3.702008],[101.474793,3.7135],[101.469035,3.716732],[101.461837,3.714578],[101.456259,3.722479],[101.45176,3.735766],[101.440064,3.751029],[101.436285,3.752106],[101.420989,3.751568],[101.41865,3.758391],[101.405694,3.760905],[101.398676,3.769883],[101.391118,3.772755],[101.387699,3.771319],[101.3859,3.779938],[101.38572,3.78317],[101.380502,3.793045],[101.373124,3.801663],[101.354769,3.802202],[101.348831,3.794661],[101.337135,3.793943],[101.326698,3.784965],[101.329397,3.768805],[101.326158,3.755338],[101.337315,3.747438],[101.341094,3.721222],[101.347392,3.709729],[101.340713,3.696616],[101.34001,3.694864],[101.337315,3.689438],[101.32094,3.690695],[101.310323,3.682075],[101.310323,3.677047],[101.300606,3.670762],[101.296467,3.677586],[101.282971,3.673276],[101.282072,3.668069],[101.265157,3.668069],[101.250401,3.673635],[101.245903,3.68836],[101.247342,3.696621],[101.244463,3.70129],[101.246802,3.709011],[101.250041,3.716194]]],"bbox":[100.360662,3.668069,101.752583,5.934893]}
