{"type":"Topology","objects":{"SGR_SE-02":{"type":"GeometryCollection","geometries":[{"type":"Polygon","arcs":[[0,1,2,3,4]],"properties":{"state":"Selangor","parlimen":"P.065 Kuala Selangor","code_parlimen":"P.065","dun":"N.01 Tanjong Karang","code_dun":"N.01"}},{"type":"Polygon","arcs":[[5,6,7,8,-5]],"properties":{"state":"Selangor","parlimen":"P.065 Kuala Selangor","code_parlimen":"P.065","dun":"N.02 Kuala Selangor Pekan","code_dun":"N.02"}},{"type":"Polygon","arcs":[[9,10,11,12,13,14]],"properties":{"state":"Selangor","parlimen":"P.066 Batu","code_parlimen":"P.066","dun":"N.03 Kepong","code_dun":"N.03"}},{"type":"Polygon","arcs":[[15,16,17,18,19,20,21,-15]],"properties":{"state":"Selangor","parlimen":"P.066 Batu","code_parlimen":"P.066","dun":"N.04 Penchala","code_dun":"N.04"}},{"type":"Polygon","arcs":[[22,-8,23,24,25]],"properties":{"state":"Selangor","parlimen":"P.067 Kapar","code_parlimen":"P.067","dun":"N.05 Jeram","code_dun":"N.05"}},{"type":"Polygon","arcs":[[26,27,28,29,-26]],"properties":{"state":"Selangor","parlimen":"P.067 Kapar","code_parlimen":"P.067","dun":"N.06 Sementa","code_dun":"N.06"}},{"type":"Polygon","arcs":[[-6,-4,30,31,-11,32]],"properties":{"state":"Selangor","parlimen":"P.068 Rawang","code_parlimen":"P.068","dun":"N.07 Serendah","code_dun":"N.07"}},{"type":"Polygon","arcs":[[-10,-22,33,-24,-7,-33]],"properties":{"state":"Selangor","parlimen":"P.068 Rawang","code_parlimen":"P.068","dun":"N.08 Kuang","code_dun":"N.08"}},{"type":"Polygon","arcs":[[34,35,36,37,38,39]],"properties":{"state":"Selangor","parlimen":"P.069 Langat","code_parlimen":"P.069","dun":"N.09 Kajang","code_dun":"N.09"}},{"type":"Polygon","arcs":[[40,41,-40]],"properties":{"state":"Selangor","parlimen":"P.069 Langat","code_parlimen":"P.069","dun":"N.10 Semenyih","code_dun":"N.10"}},{"type":"Polygon","arcs":[[-13,42,43,-38,44,45,46,47]],"properties":{"state":"Selangor","parlimen":"P.070 Setapak","code_parlimen":"P.070","dun":"N.11 Ampang","code_dun":"N.11"}},{"type":"Polygon","arcs":[[48,-16,-14,-48]],"properties":{"state":"Selangor","parlimen":"P.070 Setapak","code_parlimen":"P.070","dun":"N.12 Sentul","code_dun":"N.12"}},{"type":"Polygon","arcs":[[49,-45,-37,50,-20,51]],"properties":{"state":"Selangor","parlimen":"P.071 Bungsar","code_parlimen":"P.071","dun":"N.13 Pantai","code_dun":"N.13"}},{"type":"Polygon","arcs":[[-19,52,-52]],"properties":{"state":"Selangor","parlimen":"P.071 Bungsar","code_parlimen":"P.071","dun":"N.14 Salak","code_dun":"N.14"}},{"type":"Polygon","arcs":[[-46,-50,-53,-18,53]],"properties":{"state":"Selangor","parlimen":"P.072 Bukit Bintang","code_parlimen":"P.072","dun":"N.15 Bukit Nanas","code_dun":"N.15"}},{"type":"Polygon","arcs":[[-17,-49,-47,-54]],"properties":{"state":"Selangor","parlimen":"P.072 Bukit Bintang","code_parlimen":"P.072","dun":"N.16 Kampong Bahru","code_dun":"N.16"}},{"type":"Polygon","arcs":[[-21,-51,-36,54,55]],"properties":{"state":"Selangor","parlimen":"P.073 Damansara","code_parlimen":"P.073","dun":"N.17 Serdang","code_dun":"N.17"}},{"type":"Polygon","arcs":[[56,57,58,-27,-25,-34,-56]],"properties":{"state":"Selangor","parlimen":"P.073 Damansara","code_parlimen":"P.073","dun":"N.18 Bukit Raja","code_dun":"N.18"}},{"type":"MultiPolygon","arcs":[[[59]],[[60]],[[61]],[[62]],[[63]],[[64]],[[65]],[[66]],[[67]],[[68]],[[69]],[[70,71,72,-29,73]]],"properties":{"state":"Selangor","parlimen":"P.074 Klang","code_parlimen":"P.074","dun":"N.19 Port Swettenham","code_dun":"N.19"}},{"type":"Polygon","arcs":[[-28,-59,74,-74]],"properties":{"state":"Selangor","parlimen":"P.074 Klang","code_parlimen":"P.074","dun":"N.20 Kampong Jawa","code_dun":"N.20"}},{"type":"Polygon","arcs":[[-71,-75,-58,75,76]],"properties":{"state":"Selangor","parlimen":"P.075 Kuala Langat","code_parlimen":"P.075","dun":"N.21 Telok Datoh","code_dun":"N.21"}},{"type":"Polygon","arcs":[[77,78,-72,-77]],"properties":{"state":"Selangor","parlimen":"P.075 Kuala Langat","code_parlimen":"P.075","dun":"N.22 Morib","code_dun":"N.22"}},{"type":"Polygon","arcs":[[-76,-57,-55,-35,-42,79,80]],"properties":{"state":"Selangor","parlimen":"P.076 Sepang","code_parlimen":"P.076","dun":"N.23 Dengkil","code_dun":"N.23"}},{"type":"Polygon","arcs":[[81,-78,-81]],"properties":{"state":"Selangor","parlimen":"P.076 Sepang","code_parlimen":"P.076","dun":"N.24 Sungei Rawang","code_dun":"N.24"}},{"type":"Polygon","arcs":[[82,83]],"properties":{"state":"Selangor","parlimen":"P.077 Sabak Bernam","code_parlimen":"P.077","dun":"N.25 Sabak","code_dun":"N.25"}},{"type":"Polygon","arcs":[[84,85,-2,86,-84]],"properties":{"state":"Selangor","parlimen":"P.077 Sabak Bernam","code_parlimen":"P.077","dun":"N.26 Sungei Besar","code_dun":"N.26"}},{"type":"Polygon","arcs":[[-31,-3,-86,87,88]],"properties":{"state":"Selangor","parlimen":"P.078 Ulu Selangor","code_parlimen":"P.078","dun":"N.27 Ulu Bernam","code_dun":"N.27"}},{"type":"Polygon","arcs":[[89,-43,-12,-32,-89]],"properties":{"state":"Selangor","parlimen":"P.078 Ulu Selangor","code_parlimen":"P.078","dun":"N.28 Kuala Kubu","code_dun":"N.28"}}]}},"arcs":[[[101.161599,3.397553],[101.144229,3.429248],[101.122377,3.450875],[101.099964,3.485178],[101.087264,3.505498],[101.089505,3.509786],[101.071167,3.553881]],[[101.071167,3.553881],[101.072235,3.55396],[101.112098,3.569277],[101.095608,3.612456],[101.167585,3.637358],[101.309429,3.632127],[101.340393,3.607172],[101.352475,3.5954]],[[101.352475,3.5954],[101.400173,3.549785]],[[101.400173,3.549785],[101.350913,3.424152]],[[101.350913,3.424152],[101.340713,3.426999],[101.325658,3.426999],[101.313614,3.426999],[101.297556,3.426999],[101.288523,3.426999],[101.272465,3.426999],[101.262428,3.426999],[101.245366,3.426999],[101.234326,3.426999],[101.219271,3.426999],[101.21325,3.426999],[101.190166,3.426999],[101.179126,3.414956],[101.171096,3.406926],[101.161599,3.397553]],[[101.350913,3.424152],[101.355881,3.341314],[101.389386,3.341545],[101.398051,3.342585],[101.413879,3.342469],[101.425548,3.33184],[101.43352,3.331956],[101.432942,3.339581],[101.451401,3.34033],[101.450798,3.335731],[101.4496,3.33055]],[[101.4496,3.33055],[101.447527,3.325962],[101.445801,3.32214],[101.438797,3.314181],[101.435997,3.30934],[101.435402,3.305199],[101.437599,3.3006],[101.444,3.298651],[101.451202,3.298309],[101.458397,3.299009],[101.4618,3.297149],[101.463799,3.27957],[101.4674,3.275311],[101.472397,3.274859],[101.488899,3.276031],[101.491096,3.275231],[101.490545,3.231505],[101.489522,3.195004],[101.492203,3.187851]],[[101.492203,3.187851],[101.487701,3.18727],[101.483382,3.192958],[101.475195,3.193299],[101.4671,3.195461],[101.3497,3.283431],[101.343692,3.279041],[101.336529,3.276037],[101.329366,3.272802],[101.325207,3.268643],[101.320124,3.265408],[101.312729,3.263791],[101.298036,3.252442]],[[101.298036,3.252442],[101.291499,3.256917],[101.280667,3.276497],[101.25788,3.306144],[101.242005,3.317332],[101.228557,3.330944],[101.231078,3.339754],[101.208666,3.340313],[101.186813,3.349822],[101.173366,3.389536],[101.165151,3.395133],[101.161599,3.397553]],[[101.614186,3.165096],[101.617883,3.189358],[101.620656,3.195135],[101.625508,3.206457],[101.621118,3.208999],[101.611182,3.202298],[101.60425,3.200911],[101.587844,3.20276],[101.568204,3.213851],[101.558961,3.231875],[101.571352,3.237045]],[[101.571352,3.237045],[101.594921,3.246981],[101.603239,3.251371],[101.608148,3.252825],[101.608148,3.25726],[101.604055,3.271246],[101.610195,3.273975],[101.62077,3.274657],[101.625545,3.276704],[101.637826,3.271928],[101.652494,3.270564],[101.662728,3.279433],[101.668186,3.291372],[101.662899,3.297001],[101.663069,3.307405],[101.661364,3.317639],[101.662161,3.331551],[101.668855,3.341617]],[[101.668855,3.341617],[101.683643,3.338729],[101.691962,3.341502],[101.698778,3.350167],[101.701898,3.357676],[101.705017,3.364493],[101.711834,3.379512],[101.716455,3.384942],[101.722347,3.385982],[101.7272,3.383671],[101.734363,3.3757],[101.738597,3.373084]],[[101.738597,3.373084],[101.719322,3.331234],[101.706151,3.300502],[101.703609,3.288255],[101.701992,3.272311],[101.706151,3.261451],[101.70592,3.250129],[101.700374,3.233723],[101.693211,3.225405]],[[101.693211,3.225405],[101.692056,3.212927],[101.684893,3.199294]],[[101.684893,3.199294],[101.670227,3.18896],[101.669409,3.175059],[101.669409,3.162794],[101.648966,3.165247],[101.634248,3.166064],[101.614186,3.165096]],[[101.684893,3.199294],[101.679116,3.194673],[101.681773,3.179307],[101.690323,3.173299]],[[101.690323,3.173299],[101.694049,3.15181]],[[101.694049,3.15181],[101.698208,3.145109]],[[101.698208,3.145109],[101.69532,3.138292],[101.69116,3.135981],[101.688388,3.135519]],[[101.688388,3.135519],[101.679838,3.137599],[101.671982,3.142682],[101.666436,3.1443],[101.66505,3.142913],[101.660428,3.140372],[101.657193,3.139447],[101.654421,3.135519],[101.65003,3.131591],[101.642405,3.127432],[101.649799,3.122348],[101.655114,3.119807],[101.654883,3.11195],[101.654883,3.107791],[101.648875,3.103632],[101.625306,3.101552],[101.615832,3.100859]],[[101.615832,3.100859],[101.6089,3.105943],[101.600813,3.106867],[101.593188,3.108484]],[[101.593188,3.108484],[101.598964,3.11195],[101.607052,3.115648],[101.615832,3.122811],[101.620685,3.130205],[101.620916,3.135288],[101.614446,3.149614],[101.61511,3.161168],[101.614186,3.165096]],[[101.307188,3.162745],[101.305694,3.191091],[101.30364,3.204331],[101.30364,3.224657],[101.301498,3.229962],[101.298597,3.237151],[101.298036,3.252442]],[[101.492203,3.187851],[101.495662,3.185453],[101.494298,3.170443]],[[101.494298,3.170443],[101.485164,3.170642],[101.480141,3.167203],[101.475365,3.162939],[101.469907,3.16021],[101.46479,3.155604],[101.456603,3.150829],[101.452851,3.147417],[101.452339,3.141618],[101.452339,3.13309],[101.454697,3.12471],[101.451996,3.121371],[101.449997,3.11756],[101.446199,3.116375],[101.440912,3.115693],[101.441002,3.105921],[101.443199,3.092],[101.446575,3.079832],[101.449348,3.065506]],[[101.449348,3.065506],[101.436783,3.066185],[101.428221,3.070076],[101.424329,3.084865],[101.421532,3.100529],[101.419294,3.115073],[101.415938,3.129058],[101.410344,3.132974],[101.408666,3.141365],[101.404191,3.15535],[101.396359,3.160385],[101.39524,3.168217],[101.399715,3.182761],[101.394121,3.185558],[101.38573,3.185558],[101.367829,3.183321],[101.367829,3.172133],[101.353844,3.171573],[101.343215,3.171014],[101.343555,3.16659],[101.334661,3.158586],[101.320432,3.160809],[101.307188,3.162745]],[[101.449348,3.065506],[101.446806,3.057418],[101.446344,3.053028]],[[101.446344,3.053028],[101.445304,3.046385]],[[101.445304,3.046385],[101.438488,3.050429],[101.436177,3.056321],[101.432018,3.056205],[101.429476,3.055281],[101.425548,3.054819],[101.418847,3.055743],[101.41723,3.052046],[101.411453,3.048811],[101.405445,3.043266],[101.394585,3.040724],[101.391581,3.038644],[101.389271,3.034023],[101.399438,3.027091],[101.400824,3.022007],[101.395047,3.016231],[101.386036,3.018772],[101.377255,3.021776],[101.375869,3.020852],[101.377717,3.015769],[101.387653,3.006064],[101.389502,2.995897],[101.377486,2.995897],[101.356216,2.999276]],[[101.356216,2.999276],[101.360495,3.051116],[101.361819,3.067166],[101.32708,3.109688],[101.316994,3.109688],[101.307188,3.162745]],[[101.400173,3.549785],[101.407749,3.542415],[101.465285,3.48719],[101.467133,3.484417],[101.469444,3.47864],[101.469906,3.475174],[101.464591,3.459462],[101.461472,3.453569],[101.459508,3.448024],[101.460894,3.403774],[101.458468,3.397998],[101.461472,3.396958],[101.463898,3.39638],[101.467595,3.395456],[101.473719,3.39742],[101.477878,3.404121],[101.483539,3.410937],[101.500176,3.431965],[101.5011,3.442132],[101.499483,3.454147],[101.505259,3.457382]],[[101.505259,3.457382],[101.512885,3.454378],[101.52282,3.448601],[101.535991,3.440745],[101.548931,3.436355],[101.565568,3.440283],[101.57458,3.439359],[101.576659,3.419487],[101.583129,3.418563],[101.589137,3.418101],[101.605774,3.407934],[101.617558,3.406085],[101.629805,3.401926],[101.634657,3.392452],[101.645055,3.385982],[101.651063,3.378819],[101.662616,3.368883],[101.668855,3.341617]],[[101.571352,3.237045],[101.573488,3.24696],[101.587225,3.256326],[101.592844,3.258823],[101.5866,3.267565],[101.587225,3.283175],[101.587225,3.285672],[101.577234,3.288794],[101.56662,3.291916],[101.558502,3.285048],[101.547263,3.286921],[101.539146,3.297536],[101.526034,3.30378],[101.51979,3.304404],[101.518541,3.313146],[101.505429,3.318141],[101.490443,3.317516],[101.481702,3.32376],[101.470463,3.331877],[101.460473,3.328755],[101.4496,3.33055]],[[101.593188,3.108484],[101.583945,3.123735],[101.525254,3.124659],[101.52225,3.153543],[101.516011,3.154236],[101.515355,3.162434],[101.517153,3.172533],[101.514083,3.177479],[101.503337,3.178332],[101.502314,3.171509],[101.497416,3.170966],[101.494298,3.170443]],[[101.786528,2.941696],[101.791328,2.957944],[101.790635,2.97227],[101.789711,2.980126],[101.789711,2.985903],[101.783703,2.99168],[101.770532,2.995377],[101.765449,2.992373],[101.758517,2.990755],[101.748581,2.991911],[101.737489,3.001154],[101.728996,3.005251]],[[101.728996,3.005251],[101.731499,3.015501],[101.731499,3.02172],[101.730499,3.026901],[101.731003,3.03093],[101.731482,3.052913],[101.741418,3.058458],[101.742342,3.075326],[101.748398,3.08],[101.750702,3.088871]],[[101.750702,3.088871],[101.7537,3.09463],[101.753998,3.100841]],[[101.753998,3.100841],[101.760798,3.106751],[101.770734,3.111604],[101.779284,3.113452],[101.784136,3.11946],[101.797538,3.128703],[101.800773,3.14326],[101.801928,3.150654],[101.8041,3.156871],[101.806702,3.161131],[101.807297,3.16862],[101.804398,3.176791],[101.803802,3.18139],[101.805099,3.18841],[101.808998,3.195559],[101.8134,3.20339],[101.813896,3.210301],[101.815903,3.219859],[101.818703,3.22689],[101.822098,3.23414],[101.827202,3.240599],[101.830696,3.242211],[101.834503,3.255459],[101.838303,3.260991],[101.848444,3.276767]],[[101.848444,3.276767],[101.852383,3.274358],[101.888244,3.260186],[101.897956,3.264662],[101.909536,3.25944],[101.925779,3.259621],[101.927834,3.253841],[101.931569,3.254027],[101.933997,3.250298],[101.931382,3.243957],[101.934558,3.238177],[101.939227,3.236312],[101.947258,3.218783],[101.947632,3.207408],[101.945017,3.204051],[101.947258,3.191184],[101.93904,3.184471],[101.950433,3.160041],[101.95641,3.156311],[101.957157,3.145681],[101.964068,3.139527],[101.959972,3.121911]],[[101.959972,3.121911],[101.952896,3.12179],[101.941308,3.122844],[101.929194,3.122844],[101.916553,3.12337],[101.904439,3.12337],[101.891271,3.123897],[101.877577,3.120737],[101.870033,3.114767],[101.858603,3.106603],[101.847718,3.101161],[101.841187,3.085921],[101.837377,3.072859],[101.836289,3.058164],[101.84282,3.05381],[101.8352,3.046735],[101.824315,3.034761],[101.823771,3.021154],[101.818328,3.005371],[101.815607,2.988499],[101.807987,2.971082],[101.803633,2.957476],[101.810708,2.942781],[101.81724,2.930807],[101.81343,2.925909],[101.802,2.930807],[101.786528,2.941696]],[[101.959972,3.121911],[101.959212,3.11864],[101.955992,3.116496],[101.948005,3.11118],[101.948752,3.102041],[101.955289,3.094954],[101.957904,3.08078],[101.9622,3.077983],[101.958838,3.061384],[101.965562,3.055789],[101.964068,3.05094],[101.96743,3.043852],[101.968177,3.025947],[101.960145,3.024455],[101.955103,3.026134],[101.944456,3.016062],[101.9396,3.015502],[101.939787,3.010094],[101.943336,3.006363],[101.93904,2.99853],[101.930822,2.99853],[101.928207,2.977826],[101.922417,2.975028],[101.923351,2.967567],[101.881607,2.866654],[101.789819,2.869666],[101.750867,2.870945]],[[101.750867,2.870945],[101.731251,2.870831],[101.735179,2.883771],[101.742342,2.899484],[101.747656,2.904105],[101.758748,2.915427],[101.78532,2.93761],[101.786528,2.941696]],[[101.738597,3.373084],[101.742219,3.370847],[101.759549,3.374313],[101.759744,3.3743]],[[101.759744,3.3743],[101.780289,3.357519],[101.780663,3.338874],[101.797099,3.33328],[101.798219,3.323957],[101.820856,3.293638],[101.848444,3.276767]],[[101.753998,3.100841],[101.750801,3.10706],[101.746399,3.111199],[101.742302,3.114989],[101.739403,3.12143]],[[101.739403,3.12143],[101.7379,3.129601],[101.735843,3.140025],[101.742082,3.151579],[101.741158,3.156662],[101.739771,3.157586],[101.731684,3.158279],[101.723828,3.158973]],[[101.723828,3.158973],[101.715278,3.168446],[101.706266,3.174685],[101.702178,3.17433]],[[101.702178,3.17433],[101.708764,3.19198],[101.723187,3.189358],[101.729087,3.179524],[101.740888,3.17559],[101.745477,3.17559],[101.748755,3.190669],[101.747444,3.203126],[101.756623,3.206404],[101.755967,3.211649],[101.749411,3.226072],[101.742199,3.235906],[101.730399,3.22935],[101.719253,3.226072],[101.710731,3.223449],[101.700896,3.222138],[101.693211,3.225405]],[[101.702178,3.17433],[101.690323,3.173299]],[[101.729633,3.116918],[101.739403,3.12143]],[[101.750702,3.088871],[101.71704,3.085609],[101.708028,3.090923],[101.697861,3.093696],[101.691623,3.091848],[101.688388,3.093927],[101.679607,3.095545],[101.669902,3.094389],[101.666205,3.091385],[101.653958,3.082374],[101.643792,3.080756],[101.613984,3.082605],[101.615832,3.100859]],[[101.688388,3.135519],[101.68009,3.124688],[101.674421,3.113222],[101.675194,3.103946],[101.681764,3.103946],[101.690267,3.107038],[101.704181,3.102014],[101.709205,3.100468],[101.715003,3.105492],[101.722346,3.113995],[101.729633,3.116918]],[[101.698208,3.145109],[101.714498,3.13575],[101.725127,3.12593],[101.729633,3.116918]],[[101.694049,3.15181],[101.705659,3.153039],[101.713045,3.154885],[101.723828,3.158973]],[[101.728996,3.005251],[101.724503,2.999841],[101.723503,2.99696],[101.723503,2.993621],[101.721397,2.988201],[101.720901,2.984871],[101.718102,2.98187],[101.7146,2.9806],[101.709396,2.981049],[101.594077,2.983379],[101.586401,2.98372],[101.573268,2.984232]],[[101.573268,2.984232],[101.580997,3.001468],[101.581709,3.016422],[101.578861,3.027103],[101.568892,3.028527],[101.569604,3.037784],[101.569604,3.054874],[101.569604,3.065556],[101.573164,3.079085],[101.584558,3.08407],[101.590254,3.0976],[101.593188,3.108484]],[[101.573268,2.984232],[101.569175,2.978774]],[[101.569175,2.978774],[101.563546,2.977921]],[[101.563546,2.977921],[101.558259,2.981332],[101.555188,2.983891],[101.5513,2.98767],[101.546063,2.995233],[101.546799,3.004351],[101.544197,3.008381],[101.5448,3.011831],[101.543846,3.017577],[101.549475,3.018088],[101.552545,3.018429],[101.552597,3.021059],[101.554591,3.024229],[101.548963,3.028663],[101.545998,3.0291],[101.544899,3.03117],[101.543846,3.034462],[101.542482,3.038556],[101.539101,3.04033],[101.532418,3.04282],[101.527301,3.044014],[101.523037,3.049642],[101.520055,3.050024],[101.522828,3.044017],[101.520286,3.038933],[101.517051,3.037778],[101.513816,3.040319],[101.50827,3.046096],[101.4995,3.045549],[101.493189,3.046572],[101.490289,3.050154],[101.486878,3.050836],[101.482622,3.051642],[101.478463,3.046789],[101.474072,3.047251],[101.466447,3.050486],[101.461133,3.049331],[101.457898,3.045172],[101.452352,3.048407],[101.446344,3.053028]],[[101.258844,2.938743],[101.259136,2.93405],[101.259925,2.92435],[101.258011,2.914562],[101.256362,2.910812],[101.247398,2.906679],[101.242145,2.905621],[101.240312,2.904247],[101.236027,2.903708],[101.234403,2.905724],[101.234333,2.907965],[101.236222,2.914667],[101.235935,2.917578],[101.234794,2.920028],[101.235315,2.92025],[101.239503,2.922255],[101.244715,2.925597],[101.246631,2.928047],[101.249705,2.930275],[101.253359,2.934151],[101.254428,2.937314],[101.256433,2.938918],[101.2588,2.938918],[101.258844,2.938743]],[[101.231536,2.933913],[101.229415,2.943234],[101.228858,2.947076],[101.231312,2.950146],[101.238956,2.956778],[101.246169,2.962061],[101.254204,2.966537],[101.256586,2.9646],[101.256812,2.956971],[101.258209,2.952348],[101.258505,2.940092],[101.258573,2.939821],[101.257458,2.939854],[101.254784,2.938606],[101.254473,2.938161],[101.251799,2.933438],[101.24447,2.92651],[101.241107,2.923725],[101.237966,2.9223],[101.233774,2.922219],[101.23367,2.922441],[101.232258,2.923884],[101.231346,2.929065],[101.231536,2.933913]],[[101.301157,2.967268],[101.30001,2.962431],[101.298288,2.960529],[101.296215,2.957447],[101.295331,2.953878],[101.294177,2.952842],[101.292606,2.949258],[101.286515,2.938589],[101.28359,2.935591],[101.276313,2.920671],[101.272343,2.918013],[101.266778,2.917542],[101.264077,2.918643],[101.264324,2.927278],[101.262707,2.947409],[101.263116,2.947739],[101.266368,2.951126],[101.275145,2.957274],[101.279155,2.959992],[101.287041,2.963333],[101.290249,2.965784],[101.291541,2.969214],[101.294838,2.972422],[101.297244,2.974427],[101.301565,2.97465],[101.304373,2.973446],[101.301157,2.967268]],[[101.270913,2.955581],[101.270906,2.955547],[101.270763,2.955566],[101.271225,2.956873],[101.275903,2.962798],[101.278175,2.967387],[101.280224,2.968813],[101.281516,2.96908],[101.281338,2.967298],[101.280224,2.964982],[101.279378,2.961284],[101.275012,2.958254],[101.270913,2.955581]],[[101.242857,2.988105],[101.240763,2.985458],[101.222391,2.961854],[101.213634,2.952088],[101.211296,2.951476],[101.208475,2.951768],[101.205235,2.950164],[101.200195,2.949278],[101.197919,2.951219],[101.198982,2.956862],[101.203682,2.964221],[101.216209,2.980642],[101.218447,2.986942],[101.217747,2.989546],[101.217754,2.991881],[101.219369,2.993155],[101.218608,2.994524],[101.220797,2.99659],[101.225542,2.995873],[101.224724,3.000586],[101.224372,3.002243],[101.222486,3.003671],[101.232639,3.008807],[101.244503,3.014157],[101.250008,3.015406],[101.257148,3.014814],[101.259872,3.016458],[101.26167,3.011042],[101.261993,3.009435],[101.262706,3.003279],[101.25837,2.998812],[101.242857,2.988105]],[[101.269817,3.014197],[101.266616,3.006936],[101.264571,3.006235],[101.264195,3.010699],[101.262823,3.012714],[101.263124,3.016769],[101.266007,3.019235],[101.2693,3.02109],[101.269997,3.020206],[101.269817,3.014197]],[[101.271585,3.053256],[101.276385,3.046656],[101.280541,3.042563],[101.277906,3.033847],[101.264806,3.025844],[101.259698,3.02065],[101.256053,3.021328],[101.250332,3.018673],[101.243898,3.017164],[101.215934,3.004158],[101.211215,3.005175],[101.211642,3.006753],[101.208924,3.007234],[101.209244,3.011576],[101.216671,3.023228],[101.22706,3.035759],[101.230058,3.037841],[101.234007,3.043243],[101.233454,3.044873],[101.235496,3.046636],[101.237011,3.046447],[101.240859,3.052767],[101.248063,3.055746],[101.259522,3.060485],[101.268661,3.058532],[101.271585,3.053256]],[[101.281383,2.96213],[101.28018,2.961863],[101.280581,2.964581],[101.281962,2.966274],[101.282407,2.968635],[101.283566,2.969704],[101.28615,2.971085],[101.289402,2.97514],[101.291986,2.97612],[101.293056,2.975719],[101.301699,2.980397],[101.304283,2.980263],[101.305664,2.978971],[101.306154,2.97808],[101.306217,2.978004],[101.305441,2.976744],[101.304417,2.975719],[101.303856,2.975223],[101.303748,2.975318],[101.302902,2.975585],[101.298758,2.976075],[101.295417,2.974694],[101.291808,2.971219],[101.290249,2.968769],[101.289179,2.96614],[101.287531,2.964759],[101.281383,2.96213]],[[101.307691,2.979966],[101.307134,2.979818],[101.306862,2.979722],[101.306823,2.979773],[101.304238,2.981333],[101.305352,2.982847],[101.310699,2.985654],[101.312258,2.98405],[101.311055,2.982313],[101.309184,2.980798],[101.307669,2.979996],[101.307691,2.979966]],[[101.3138,2.985194],[101.312293,2.985173],[101.311723,2.986011],[101.318273,2.989263],[101.319164,2.989263],[101.321792,2.990912],[101.322728,2.991223],[101.321481,2.989218],[101.318406,2.987436],[101.316491,2.986367],[101.31502,2.985966],[101.313773,2.985253],[101.3138,2.985194]],[[101.309941,2.986501],[101.307357,2.98454],[101.302902,2.981778],[101.29515,2.978214],[101.28909,2.976164],[101.28517,2.971887],[101.282853,2.970194],[101.278487,2.968947],[101.274566,2.961907],[101.269754,2.955492],[101.26423,2.952819],[101.262296,2.952526],[101.262244,2.953177],[101.260788,2.95759],[101.262201,2.964942],[101.262491,2.977288],[101.268111,2.98574],[101.277481,3.001335],[101.283022,3.009339],[101.283529,3.012975],[101.295803,3.043338],[101.296364,3.046186],[101.299235,3.050431],[101.300293,3.053418],[101.302873,3.055228],[101.30305,3.058195],[101.305517,3.062768],[101.311258,3.064968],[101.325637,3.067978],[101.329647,3.066884],[101.335952,3.063759],[101.337981,3.054562],[101.337801,3.050246],[101.336614,3.047467],[101.336647,3.04351],[101.334173,3.03815],[101.334407,3.029528],[101.33681,3.018174],[101.335196,3.01678],[101.336398,3.014974],[101.336874,3.01029],[101.336946,3.006616],[101.337749,3.001484],[101.336355,2.998761],[101.328994,2.994213],[101.328564,2.994253],[101.324376,2.992827],[101.312347,2.98659],[101.309941,2.986501]],[[101.432213,2.950972],[101.419887,2.94691],[101.414226,2.943098],[101.409027,2.940903],[101.406947,2.938823],[101.409489,2.933971],[101.416074,2.932353],[101.424508,2.930158],[101.426704,2.926114],[101.426819,2.916063],[101.42058,2.910517],[101.41723,2.904163],[101.413648,2.898848],[101.4118,2.894689],[101.413071,2.890645],[101.417692,2.886833],[101.419656,2.884176],[101.418963,2.880825],[101.420234,2.876435],[101.423122,2.874586],[101.424508,2.874933],[101.425779,2.875857],[101.426588,2.878399],[101.426588,2.881287],[101.426241,2.886024],[101.426357,2.888566],[101.429361,2.892494],[101.430054,2.896307],[101.429014,2.89804],[101.426704,2.899542],[101.424046,2.902892],[101.424971,2.90578],[101.426935,2.90682],[101.429707,2.906589],[101.433751,2.903239],[101.436177,2.899888],[101.439297,2.899657],[101.445882,2.897809],[101.449464,2.899773],[101.454778,2.907629],[101.462635,2.910979],[101.465407,2.909015],[101.46483,2.903932],[101.462635,2.898502],[101.451659,2.888797]],[[101.451659,2.888797],[101.450157,2.884407],[101.447615,2.880016],[101.444496,2.876781],[101.442878,2.872738],[101.44103,2.867308],[101.439181,2.866383],[101.433404,2.865228],[101.430285,2.865112],[101.427743,2.866037],[101.424508,2.863726],[101.42266,2.859798],[101.422544,2.856216],[101.423584,2.850671],[101.421389,2.847205],[101.418847,2.846858],[101.41515,2.846165],[101.414341,2.843508],[101.413186,2.839002],[101.411915,2.835074],[101.413533,2.828026],[101.41515,2.822712],[101.413417,2.808848],[101.410875,2.80284],[101.404179,2.8035]],[[101.404179,2.8035],[101.355737,2.812611],[101.340324,2.82235],[101.319249,2.831461],[101.293456,2.836331],[101.283862,2.873088],[101.283562,2.881764],[101.267126,2.887546],[101.271235,2.897246],[101.27553,2.910117],[101.315126,2.976334],[101.356216,2.999276]],[[101.445304,3.046385],[101.442046,3.03069],[101.426004,3.024546],[101.415081,3.013965],[101.404159,3.002019],[101.395626,2.991779],[101.393919,2.985635],[101.389823,2.978467],[101.384362,2.972324],[101.376512,2.965838],[101.370026,2.958329],[101.367637,2.951161],[101.364565,2.939898],[101.362517,2.932047],[101.358763,2.920101],[101.361152,2.91464],[101.364907,2.90952],[101.372074,2.906107],[101.381631,2.909861],[101.385386,2.925221],[101.385386,2.936485],[101.39153,2.943994],[101.401428,2.955257],[101.408596,2.970958],[101.41747,2.97915],[101.425662,2.976761],[101.433513,2.970276],[101.440339,2.964132],[101.441022,2.958329],[101.432213,2.950972]],[[101.563546,2.977921],[101.557297,2.97686],[101.560988,2.969734],[101.547343,2.961888],[101.542226,2.967175],[101.530798,2.961888],[101.524658,2.959841],[101.518347,2.957624],[101.48884,2.957624],[101.469566,2.956089],[101.466057,2.956244],[101.458821,2.955065],[101.44944,2.953701],[101.432213,2.950972]],[[101.569175,2.978774],[101.574898,2.971251],[101.579597,2.95981],[101.582596,2.95359],[101.631686,2.866309],[101.663086,2.823058],[101.648991,2.810812],[101.637437,2.794637],[101.627732,2.780773],[101.597,2.770144]],[[101.597,2.770144],[101.588539,2.780067],[101.587524,2.795297],[101.587016,2.802912],[101.579402,2.802404],[101.569756,2.802404],[101.55605,2.801389],[101.54082,2.801389],[101.530159,2.809511],[101.515437,2.813572],[101.514929,2.818649],[101.526098,2.824741],[101.521021,2.838955],[101.515437,2.849616],[101.510868,2.857738],[101.501223,2.857231],[101.483455,2.858754],[101.479394,2.868907],[101.479394,2.874999],[101.484978,2.883121],[101.477871,2.885152],[101.470763,2.886167],[101.461626,2.887182],[101.451659,2.888797]],[[101.597,2.770144],[101.595152,2.762056],[101.523983,2.763212],[101.508733,2.748423],[101.496717,2.734097],[101.475891,2.691651],[101.475545,2.691024]],[[101.475545,2.691024],[101.474766,2.691383],[101.461712,2.705994],[101.454163,2.725631],[101.448029,2.731758],[101.449002,2.737364],[101.437678,2.757787],[101.424939,2.77491],[101.40874,2.787791],[101.404179,2.8035]],[[101.750867,2.870945],[101.753979,2.818368],[101.755162,2.798379],[101.758734,2.742817]],[[101.758734,2.742817],[101.74868,2.739514],[101.737549,2.739514],[101.722708,2.740998],[101.713803,2.73803],[101.698962,2.732836],[101.688573,2.731352],[101.675216,2.732094],[101.662601,2.731352],[101.652954,2.730609],[101.641081,2.729125],[101.62995,2.729125],[101.619561,2.728383],[101.609172,2.727641],[101.609172,2.733578],[101.60843,2.749161],[101.606204,2.760292],[101.597,2.770144]],[[101.758734,2.742817],[101.760019,2.722824],[101.760114,2.718337],[101.760485,2.700903],[101.754322,2.698291],[101.750213,2.688403],[101.751894,2.685977],[101.75152,2.682433],[101.74573,2.682433],[101.73882,2.67385],[101.739754,2.668067],[101.744049,2.665268],[101.746851,2.655753],[101.740501,2.651648],[101.731349,2.647917],[101.724252,2.635976],[101.730042,2.623849],[101.728361,2.616572],[101.725372,2.620304],[101.72145,2.621423],[101.702399,2.608549],[101.702399,2.604072],[101.710057,2.600713],[101.7151,2.594183],[101.713354,2.584392],[101.69684,2.589891],[101.692908,2.589734],[101.689133,2.58722],[101.678596,2.598061],[101.680483,2.601517],[101.660509,2.616914],[101.639591,2.622884],[101.612697,2.626027],[101.590049,2.636867],[101.590049,2.641581],[101.580927,2.649122],[101.565672,2.653207],[101.538148,2.662162],[101.475545,2.691024]],[[100.928694,3.689479],[100.927299,3.694815],[100.92309,3.710913],[100.895822,3.746512],[100.867432,3.768503],[100.848568,3.775213],[100.821673,3.775585],[100.811587,3.787326],[100.807291,3.802608],[100.817993,3.849781],[100.828412,3.851325],[100.854342,3.855167],[100.879894,3.853013],[100.931718,3.870248],[100.946114,3.86953],[100.938196,3.841881],[100.941435,3.83075],[100.964108,3.828954],[100.978504,3.816745],[100.976345,3.806332],[100.95943,3.796995],[100.95763,3.781913],[100.965705,3.773604],[100.969147,3.770062],[100.977784,3.768985],[100.984622,3.774371],[100.985342,3.793763],[100.9929,3.802022],[101.004416,3.79915],[101.02565,3.807768],[101.031048,3.794481],[101.02493,3.784067]],[[101.02493,3.784067],[101.028691,3.769118],[101.028691,3.754222],[101.028691,3.742462],[101.028691,3.732271],[101.028691,3.715023],[101.013011,3.714239],[101.000467,3.714239],[100.98322,3.715807],[100.97146,3.717375],[100.958132,3.719727],[100.950292,3.714239],[100.936181,3.700911],[100.928694,3.689479]],[[101.02493,3.784067],[101.032847,3.784067],[101.033645,3.784142],[101.044364,3.785145],[101.054801,3.796277],[101.062538,3.791609],[101.055521,3.784786],[101.053361,3.777963],[101.05768,3.769883],[101.05642,3.755698],[101.059659,3.752645],[101.063798,3.755159],[101.065238,3.763239],[101.077654,3.767369],[101.081973,3.775449],[101.088451,3.782272],[101.092049,3.779758],[101.087011,3.767548],[101.092409,3.762341],[101.101946,3.75049],[101.097808,3.749054],[101.092949,3.756775],[101.072615,3.759289],[101.079093,3.745104],[101.072615,3.736125],[101.074415,3.727866],[101.081433,3.729661],[101.083952,3.742231],[101.092049,3.740614],[101.097808,3.744385],[101.099247,3.735407],[101.102846,3.731816],[101.107345,3.733252],[101.106445,3.743487],[101.110404,3.747258],[101.118861,3.735766],[101.12318,3.735048],[101.123,3.747258],[101.132897,3.764675],[101.134696,3.751747],[101.143154,3.748515],[101.145133,3.744744],[101.132897,3.736485],[101.153951,3.728943],[101.150352,3.741692],[101.15557,3.743847],[101.163668,3.723197],[101.165647,3.749593],[101.170686,3.727866],[101.191559,3.731098],[101.175004,3.715475],[101.169966,3.720503],[101.169606,3.715296],[101.175544,3.70937],[101.18976,3.718887],[101.198037,3.716553],[101.197317,3.726609],[101.204335,3.725352],[101.202176,3.720683],[101.208834,3.714398],[101.212973,3.715835],[101.211713,3.708652],[101.216032,3.706318],[101.22089,3.712782],[101.227368,3.712782],[101.244463,3.719785],[101.250041,3.716194],[101.246802,3.709011],[101.244463,3.70129],[101.247342,3.696621],[101.245903,3.68836],[101.250401,3.673635],[101.265157,3.668069],[101.282072,3.668069],[101.282971,3.673276],[101.296467,3.677586],[101.300606,3.670762],[101.310323,3.677047],[101.310323,3.682075],[101.32094,3.690695],[101.337315,3.689438],[101.34001,3.694864],[101.343182,3.701348]],[[101.343182,3.701348],[101.347,3.69722],[101.3498,3.69247],[101.350601,3.688331],[101.3526,3.68189],[101.354719,3.676954],[101.353839,3.666695],[101.351793,3.659532],[101.349746,3.649639],[101.349064,3.64077],[101.352475,3.5954]],[[101.071167,3.553881],[101.06896,3.559187],[101.053645,3.593486],[101.050329,3.597988],[101.046695,3.602924],[101.042148,3.609099],[101.036201,3.617176],[101.035528,3.618091],[101.03527,3.618376],[101.027894,3.62654],[101.025668,3.629004],[101.025255,3.629461],[101.019364,3.634317],[100.99201,3.656861],[100.981327,3.663921],[100.981294,3.663943],[100.980858,3.66423],[100.98072,3.664321],[100.972337,3.669861],[100.964367,3.675128],[100.936976,3.686148],[100.928694,3.689479]],[[101.343182,3.701348],[101.347392,3.709729],[101.341094,3.721222],[101.337315,3.747438],[101.326158,3.755338],[101.329397,3.768805],[101.326698,3.784965],[101.337135,3.793943],[101.348831,3.794661],[101.354769,3.802202],[101.373124,3.801663],[101.380502,3.793045],[101.38572,3.78317],[101.3859,3.779938],[101.387699,3.771319],[101.391118,3.772755],[101.398676,3.769883],[101.405694,3.760905],[101.41865,3.758391],[101.420989,3.751568],[101.436285,3.752106],[101.440064,3.751029],[101.45176,3.735766],[101.456259,3.722479],[101.461837,3.714578],[101.469035,3.716732],[101.474793,3.7135],[101.478752,3.702008],[101.495667,3.699314],[101.499985,3.695364],[101.511862,3.687283],[101.51744,3.679741],[101.535794,3.678304],[101.547851,3.700033],[101.570164,3.710986],[101.570344,3.717451],[101.578801,3.720862],[101.58168,3.725352],[101.5815,3.739717],[101.590858,3.743487],[101.596256,3.752645],[101.606513,3.774012],[101.626487,3.771858],[101.623027,3.76371],[101.631992,3.760355],[101.640583,3.751596],[101.646382,3.741614],[101.655525,3.725876],[101.67607,3.720471],[101.682607,3.712643],[101.691759,3.705934],[101.697922,3.709661]],[[101.697922,3.709661],[101.693587,3.690567],[101.693587,3.676863],[101.689933,3.664074],[101.678971,3.655852],[101.668922,3.650371],[101.666181,3.633927],[101.667095,3.620224],[101.662527,3.611089],[101.657959,3.601953],[101.646083,3.590991],[101.637862,3.584596],[101.626899,3.57272],[101.615937,3.566325],[101.615937,3.552622],[101.606801,3.548055],[101.602234,3.530697],[101.604061,3.516081],[101.596752,3.499637],[101.587617,3.490502],[101.573914,3.484107],[101.560211,3.478626],[101.547421,3.472231],[101.535545,3.48228],[101.519102,3.479539],[101.51088,3.468577],[101.505259,3.457382]],[[101.697922,3.709661],[101.704833,3.70817],[101.715045,3.707331],[101.720709,3.706866],[101.730794,3.713016],[101.735837,3.710407],[101.729861,3.702206],[101.729674,3.695496],[101.734343,3.700715],[101.736958,3.694005],[101.743308,3.690091],[101.748725,3.690464],[101.766094,3.678162],[101.76927,3.670893],[101.766842,3.664742],[101.776741,3.653559],[101.783838,3.648899],[101.781783,3.637529],[101.784959,3.628582],[101.794671,3.627836],[101.796725,3.615534],[101.807558,3.609942],[101.806437,3.603604],[101.815029,3.603604],[101.815402,3.594657],[101.809799,3.587946],[101.80569,3.552155],[101.786639,3.546936],[101.764162,3.514422],[101.760865,3.509652],[101.761612,3.495857],[101.770213,3.473042],[101.788881,3.423521],[101.766094,3.398911],[101.759744,3.3743]]],"bbox":[100.807291,2.584392,101.968177,3.870248]}
