{"type":"Topology","objects":{"TRG_SE-10":{"type":"GeometryCollection","geometries":[{"type":"MultiPolygon","arcs":[[[0]],[[1]],[[2]],[[3]],[[4]],[[5,6,7]],[[8]]],"properties":{"state":"Terengganu","parlimen":"P.033 Besut","code_parlimen":"P.033","dun":"N.01 Kuala Besut","code_dun":"N.01"}},{"type":"MultiPolygon","arcs":[[[9]],[[10,11,12,13,-7]]],"properties":{"state":"Terengganu","parlimen":"P.033 Besut","code_parlimen":"P.033","dun":"N.02 Kampung Raja","code_dun":"N.02"}},{"type":"Polygon","arcs":[[-14,14,15,16,-8]],"properties":{"state":"Terengganu","parlimen":"P.033 Besut","code_parlimen":"P.033","dun":"N.03 Jertih","code_dun":"N.03"}},{"type":"Polygon","arcs":[[-16,17,18,19,20]],"properties":{"state":"Terengganu","parlimen":"P.033 Besut","code_parlimen":"P.033","dun":"N.04 Hulu Besut","code_dun":"N.04"}},{"type":"Polygon","arcs":[[-15,-13,21,-18]],"properties":{"state":"Terengganu","parlimen":"P.034 Setiu","code_parlimen":"P.034","dun":"N.05 Jabi","code_dun":"N.05"}},{"type":"MultiPolygon","arcs":[[[-19,-22,-12,22,23,24,25,26]],[[27]]],"properties":{"state":"Terengganu","parlimen":"P.034 Setiu","code_parlimen":"P.034","dun":"N.06 Permaisuri","code_dun":"N.06"}},{"type":"Polygon","arcs":[[28,29,30,-26,31]],"properties":{"state":"Terengganu","parlimen":"P.034 Setiu","code_parlimen":"P.034","dun":"N.07 Langkap","code_dun":"N.07"}},{"type":"MultiPolygon","arcs":[[[32]],[[33]],[[34]],[[35]],[[36]],[[37]],[[38]],[[39]],[[40]],[[41]],[[42]],[[43]],[[44]],[[45]],[[46]],[[47]],[[48]],[[49,50,-24]]],"properties":{"state":"Terengganu","parlimen":"P.034 Setiu","code_parlimen":"P.034","dun":"N.08 Batu Rakit","code_dun":"N.08"}},{"type":"Polygon","arcs":[[51,-32,-25,-51,52,53,54]],"properties":{"state":"Terengganu","parlimen":"P.035 Kuala Nerus","code_parlimen":"P.035","dun":"N.09 Tepuh","code_dun":"N.09"}},{"type":"Polygon","arcs":[[55,56,-29,-52,57]],"properties":{"state":"Terengganu","parlimen":"P.035 Kuala Nerus","code_parlimen":"P.035","dun":"N.10 Teluk Pasu","code_dun":"N.10"}},{"type":"Polygon","arcs":[[58,59,-54]],"properties":{"state":"Terengganu","parlimen":"P.035 Kuala Nerus","code_parlimen":"P.035","dun":"N.11 Seberang Takir","code_dun":"N.11"}},{"type":"Polygon","arcs":[[-55,-60,60,61,62,-58]],"properties":{"state":"Terengganu","parlimen":"P.035 Kuala Nerus","code_parlimen":"P.035","dun":"N.12 Bukit Tunggal","code_dun":"N.12"}},{"type":"Polygon","arcs":[[63,64,65,-56,-63,66]],"properties":{"state":"Terengganu","parlimen":"P.036 Kuala Terengganu","code_parlimen":"P.036","dun":"N.13 Wakaf Mempelam","code_dun":"N.13"}},{"type":"Polygon","arcs":[[-62,67,68,-67]],"properties":{"state":"Terengganu","parlimen":"P.036 Kuala Terengganu","code_parlimen":"P.036","dun":"N.14 Bandar","code_dun":"N.14"}},{"type":"Polygon","arcs":[[69,70,-64,-69,71,72]],"properties":{"state":"Terengganu","parlimen":"P.036 Kuala Terengganu","code_parlimen":"P.036","dun":"N.15 Ladang","code_dun":"N.15"}},{"type":"Polygon","arcs":[[73,-73,74,75]],"properties":{"state":"Terengganu","parlimen":"P.036 Kuala Terengganu","code_parlimen":"P.036","dun":"N.16 Batu Buruk","code_dun":"N.16"}},{"type":"Polygon","arcs":[[76,77,-65,-71,78,79]],"properties":{"state":"Terengganu","parlimen":"P.037 Marang","code_parlimen":"P.037","dun":"N.17 Alur Limbat","code_dun":"N.17"}},{"type":"Polygon","arcs":[[-79,-70,-74,80,81]],"properties":{"state":"Terengganu","parlimen":"P.037 Marang","code_parlimen":"P.037","dun":"N.18 Bukit Payung","code_dun":"N.18"}},{"type":"MultiPolygon","arcs":[[[-81,-76,82,83]],[[84]],[[85]]],"properties":{"state":"Terengganu","parlimen":"P.037 Marang","code_parlimen":"P.037","dun":"N.19 Ru Rendang","code_dun":"N.19"}},{"type":"Polygon","arcs":[[86,87,88,89,90,-80,-82,-84]],"properties":{"state":"Terengganu","parlimen":"P.037 Marang","code_parlimen":"P.037","dun":"N.20 Pengkalan Berangan","code_dun":"N.20"}},{"type":"Polygon","arcs":[[91,92,93,-20,-27,-31,94,95]],"properties":{"state":"Terengganu","parlimen":"P.038 Hulu Terengganu","code_parlimen":"P.038","dun":"N.21 Telemung","code_dun":"N.21"}},{"type":"Polygon","arcs":[[-95,-30,-57,-66,-78,96]],"properties":{"state":"Terengganu","parlimen":"P.038 Hulu Terengganu","code_parlimen":"P.038","dun":"N.22 Manir","code_dun":"N.22"}},{"type":"Polygon","arcs":[[-97,-77,-91,97,-96]],"properties":{"state":"Terengganu","parlimen":"P.038 Hulu Terengganu","code_parlimen":"P.038","dun":"N.23 Kuala Berang","code_dun":"N.23"}},{"type":"Polygon","arcs":[[-90,98,-92,-98]],"properties":{"state":"Terengganu","parlimen":"P.038 Hulu Terengganu","code_parlimen":"P.038","dun":"N.24 Ajil","code_dun":"N.24"}},{"type":"Polygon","arcs":[[99,100,101,102,103,-93,-99,-89,104]],"properties":{"state":"Terengganu","parlimen":"P.039 Dungun","code_parlimen":"P.039","dun":"N.25 Bukit Besi","code_dun":"N.25"}},{"type":"MultiPolygon","arcs":[[[105,-105,-88,106,107]],[[108]],[[109]]],"properties":{"state":"Terengganu","parlimen":"P.039 Dungun","code_parlimen":"P.039","dun":"N.26 Rantau Abang","code_dun":"N.26"}},{"type":"Polygon","arcs":[[110,111,-108]],"properties":{"state":"Terengganu","parlimen":"P.039 Dungun","code_parlimen":"P.039","dun":"N.27 Sura","code_dun":"N.27"}},{"type":"Polygon","arcs":[[-106,-112,112,113,-100]],"properties":{"state":"Terengganu","parlimen":"P.039 Dungun","code_parlimen":"P.039","dun":"N.28 Paka","code_dun":"N.28"}},{"type":"Polygon","arcs":[[-101,-114,114,115]],"properties":{"state":"Terengganu","parlimen":"P.040 Kemaman","code_parlimen":"P.040","dun":"N.29 Kemasik","code_dun":"N.29"}},{"type":"Polygon","arcs":[[116,-102,-116,117,118]],"properties":{"state":"Terengganu","parlimen":"P.040 Kemaman","code_parlimen":"P.040","dun":"N.30 Kijal","code_dun":"N.30"}},{"type":"Polygon","arcs":[[-119,119,120]],"properties":{"state":"Terengganu","parlimen":"P.040 Kemaman","code_parlimen":"P.040","dun":"N.31 Cukai","code_dun":"N.31"}},{"type":"Polygon","arcs":[[121,-103,-117,-121]],"properties":{"state":"Terengganu","parlimen":"P.040 Kemaman","code_parlimen":"P.040","dun":"N.32 Air Putih","code_dun":"N.32"}}]}},"arcs":[[[102.746511,5.890771],[102.746777,5.882558],[102.741717,5.881233],[102.73719,5.895539],[102.738787,5.902957],[102.744913,5.909314],[102.754234,5.913023],[102.755475,5.916039],[102.759028,5.924679],[102.760892,5.919381],[102.77048,5.914348],[102.772078,5.910639],[102.770214,5.901897],[102.775007,5.892625],[102.770746,5.884148],[102.76495,5.884148],[102.763289,5.884148],[102.753968,5.894744],[102.746511,5.890771]],[[102.714818,5.895274],[102.71615,5.897129],[102.715884,5.9215],[102.717736,5.930407],[102.71908,5.936864],[102.727868,5.938189],[102.726803,5.93342],[102.723607,5.932626],[102.722275,5.928917],[102.722463,5.928675],[102.727602,5.92203],[102.72414,5.9215],[102.723873,5.916467],[102.732129,5.912758],[102.735059,5.902427],[102.727868,5.890771],[102.714818,5.895274]],[[102.675136,5.961499],[102.675345,5.962328],[102.675669,5.963618],[102.676483,5.962576],[102.677533,5.961234],[102.675136,5.961499]],[[102.670609,5.941632],[102.668356,5.940932],[102.666348,5.940308],[102.666081,5.943222],[102.667631,5.943607],[102.668212,5.943751],[102.670609,5.941632]],[[102.684458,5.95885],[102.680915,5.962373],[102.680729,5.962558],[102.683925,5.963883],[102.684173,5.961535],[102.684458,5.95885]],[[102.457908,5.766584],[102.463116,5.771215],[102.474269,5.780214],[102.476744,5.782019],[102.488451,5.791658],[102.536335,5.847271],[102.545703,5.83858],[102.562215,5.836725]],[[102.562215,5.836725],[102.561385,5.827655],[102.560526,5.809693],[102.558574,5.801649],[102.552092,5.805632],[102.550263,5.804835],[102.549671,5.797744],[102.544126,5.8004],[102.537234,5.795529],[102.532412,5.795011],[102.528885,5.792976],[102.528975,5.789857],[102.534052,5.784468],[102.531396,5.779704]],[[102.531396,5.779704],[102.522111,5.780018],[102.513425,5.773194],[102.502657,5.769864],[102.501329,5.764632],[102.502568,5.759079],[102.506206,5.753801],[102.508222,5.748838],[102.505078,5.745654],[102.497503,5.744639],[102.491255,5.747763],[102.484383,5.747216],[102.475011,5.748856],[102.468998,5.753308],[102.462672,5.752058],[102.462828,5.757135],[102.462516,5.762445],[102.461349,5.765128],[102.457908,5.766584]],[[102.667147,5.954612],[102.664261,5.956047],[102.661287,5.957526],[102.664483,5.962293],[102.668478,5.960969],[102.66829,5.960073],[102.667147,5.954612]],[[102.613552,5.833454],[102.617272,5.829254],[102.615232,5.827634],[102.609592,5.827394],[102.608512,5.829974],[102.613552,5.833454]],[[102.562215,5.836725],[102.594973,5.81341],[102.607682,5.802439],[102.631193,5.782144],[102.658327,5.745165],[102.672545,5.727554]],[[102.672545,5.727554],[102.660757,5.721039],[102.651039,5.714885]],[[102.651039,5.714885],[102.645651,5.712776],[102.636018,5.71437],[102.630578,5.720586],[102.623315,5.72699],[102.595201,5.727927],[102.590359,5.733315],[102.586376,5.733237],[102.5813,5.738392],[102.574974,5.737454],[102.567242,5.740578]],[[102.567242,5.740578],[102.569351,5.743702],[102.576301,5.750184],[102.577004,5.753542],[102.574193,5.756197],[102.569741,5.760961],[102.561854,5.765959],[102.553576,5.769396],[102.54764,5.773847],[102.539284,5.774394],[102.534989,5.776893],[102.531396,5.779704]],[[102.567242,5.740578],[102.56365,5.742218],[102.554669,5.742531],[102.551857,5.739875],[102.552404,5.734331],[102.546313,5.734799],[102.542174,5.727614],[102.536707,5.719727],[102.536941,5.711527],[102.527648,5.71262],[102.528301,5.70428],[102.526164,5.701843],[102.521634,5.699734]],[[102.521634,5.699734],[102.520619,5.705435],[102.513903,5.710902],[102.516558,5.71754],[102.509764,5.716837],[102.509608,5.721445],[102.506952,5.723397],[102.502423,5.736517],[102.498674,5.735892],[102.492661,5.730582],[102.491099,5.733159],[102.487819,5.733628],[102.480478,5.727458],[102.480322,5.721367],[102.478369,5.718243],[102.477822,5.714572],[102.479457,5.710376],[102.47589,5.706808],[102.476261,5.699344],[102.471575,5.697157],[102.465561,5.700905],[102.462594,5.699578],[102.459548,5.70153],[102.454316,5.694267],[102.449786,5.687317],[102.445803,5.686848],[102.444403,5.68044],[102.442914,5.674197],[102.434011,5.664747],[102.427607,5.662014],[102.427216,5.658421],[102.434166,5.654227],[102.431355,5.648659],[102.430418,5.6396],[102.423936,5.637179],[102.418235,5.63265],[102.411597,5.635305],[102.407224,5.630619],[102.404347,5.623206],[102.402271,5.613879]],[[102.402271,5.613879],[102.392631,5.629668],[102.387008,5.634065],[102.390623,5.64026],[102.386607,5.65365],[102.387611,5.663243],[102.387008,5.671036],[102.385803,5.677631],[102.378975,5.684026],[102.380213,5.69327],[102.392017,5.699697],[102.396471,5.696151],[102.403598,5.712329],[102.411393,5.72075],[102.41607,5.72075],[102.417629,5.726954],[102.431725,5.745782],[102.434093,5.747262],[102.456173,5.765613],[102.457908,5.766584]],[[102.521634,5.699734],[102.522884,5.693252],[102.519448,5.686458],[102.530303,5.667637],[102.529991,5.659437],[102.541236,5.648113],[102.547406,5.63468],[102.548421,5.625494],[102.552248,5.619764],[102.558574,5.619686],[102.563572,5.614375],[102.568414,5.613672],[102.5813,5.601021],[102.586376,5.604145],[102.587973,5.600056],[102.595201,5.595788],[102.597153,5.591415],[102.603635,5.592743],[102.610347,5.588889],[102.615584,5.588916]],[[102.615584,5.588916],[102.618103,5.577876],[102.616287,5.572984],[102.622144,5.565878],[102.622066,5.558537],[102.615974,5.55143],[102.610595,5.541613],[102.611111,5.536477],[102.619957,5.53175],[102.620738,5.520348],[102.613475,5.517771],[102.605119,5.511913],[102.604104,5.504729],[102.598481,5.503948],[102.597622,5.495826],[102.590905,5.491374],[102.591296,5.485048],[102.593286,5.483029]],[[102.593286,5.483029],[102.591657,5.478376],[102.58799,5.474288],[102.587159,5.46969],[102.591212,5.464474],[102.595139,5.456823],[102.592433,5.447975],[102.587042,5.442966],[102.589332,5.438586],[102.590736,5.431286],[102.579559,5.423235],[102.576147,5.420133],[102.58622,5.406562],[102.586688,5.40008],[102.577234,5.390266],[102.576612,5.384924],[102.584566,5.37677],[102.58497,5.372278],[102.58317,5.370767],[102.57847,5.369028],[102.57287,5.369819],[102.56568,5.372356],[102.559404,5.369179],[102.55382,5.364836],[102.549701,5.361038],[102.542095,5.359861],[102.540533,5.352207],[102.533803,5.344984],[102.532255,5.340961],[102.523352,5.334948],[102.513903,5.336978],[102.508016,5.340812],[102.509567,5.346706],[102.50828,5.351895],[102.499924,5.355487],[102.484304,5.355878],[102.478507,5.361519],[102.466733,5.359626],[102.46478,5.352988],[102.45497,5.352213],[102.449317,5.356815],[102.442736,5.360107]],[[102.442736,5.360107],[102.441231,5.365399],[102.437616,5.372797],[102.428579,5.371397],[102.424562,5.379595],[102.419743,5.385193],[102.420144,5.392791],[102.415124,5.390392],[102.411509,5.391991],[102.408697,5.39719],[102.404279,5.39679],[102.398656,5.399989],[102.398054,5.402988],[102.389418,5.412184],[102.385,5.410985],[102.385,5.426979],[102.392832,5.426179],[102.401869,5.439574],[102.401869,5.443972],[102.39725,5.454768],[102.400463,5.462564],[102.39464,5.47156],[102.388414,5.476158],[102.390371,5.486069],[102.393033,5.499547],[102.386205,5.512541],[102.380783,5.518737],[102.382791,5.523735],[102.390623,5.522535],[102.398254,5.528932],[102.40207,5.539926],[102.402503,5.541854],[102.407693,5.544523],[102.402472,5.569108],[102.399861,5.577303],[102.396447,5.5821],[102.397049,5.605285],[102.402271,5.613879]],[[102.651039,5.714885],[102.655256,5.708637],[102.661106,5.69948],[102.66669,5.688389],[102.669079,5.678101],[102.670251,5.644833],[102.668855,5.6408],[102.656957,5.629759],[102.65209,5.623788],[102.649243,5.619373],[102.649712,5.613985],[102.644323,5.611642],[102.644792,5.600865],[102.641668,5.599537],[102.638388,5.601255],[102.633468,5.601411],[102.624096,5.595398],[102.615584,5.588916]],[[102.672545,5.727554],[102.673805,5.725173],[102.717482,5.681978],[102.753169,5.660246],[102.792585,5.630563],[102.833865,5.588155],[102.867155,5.56695],[102.918822,5.537262],[102.937731,5.534876],[102.940048,5.53677],[102.945188,5.540973],[102.968624,5.528514],[102.996809,5.504182]],[[102.996809,5.504182],[102.972131,5.47841],[102.936519,5.442135]],[[102.936519,5.442135],[102.924544,5.450414],[102.918479,5.454591],[102.914379,5.454903]],[[102.914379,5.454903],[102.904337,5.46183],[102.898714,5.46881],[102.901351,5.477186],[102.899955,5.486492],[102.903949,5.498823],[102.903174,5.501382],[102.901351,5.502003],[102.896853,5.504795],[102.890494,5.502313],[102.883669,5.503709],[102.87033,5.507897],[102.856705,5.516052],[102.855612,5.523393],[102.850537,5.534072],[102.848537,5.528836],[102.848973,5.521441],[102.841945,5.520894],[102.836556,5.517614],[102.83101,5.515342],[102.824031,5.510068],[102.816173,5.502542],[102.807243,5.496485],[102.803365,5.490281],[102.797352,5.486064],[102.796024,5.479191],[102.788215,5.473412],[102.787013,5.459298],[102.784544,5.454513],[102.787512,5.450374],[102.786965,5.446859],[102.794788,5.447277],[102.803053,5.450686],[102.806723,5.447094],[102.802787,5.437232],[102.804571,5.42777],[102.798133,5.422259],[102.792699,5.423814],[102.786882,5.421642],[102.783451,5.423274],[102.784013,5.432965],[102.775017,5.433896],[102.764462,5.426994],[102.763376,5.422651],[102.753895,5.417229],[102.747454,5.417737],[102.740498,5.422181],[102.736593,5.429054],[102.731595,5.428897],[102.72894,5.426633],[102.721208,5.426789],[102.720193,5.420229],[102.714492,5.410857],[102.718944,5.401954],[102.718397,5.398049],[102.713633,5.396956],[102.709338,5.399611],[102.699498,5.399924],[102.694656,5.397659],[102.687705,5.403126],[102.680989,5.399768]],[[102.680989,5.399768],[102.677475,5.403204],[102.672945,5.403204],[102.670524,5.400861],[102.665917,5.399065],[102.661777,5.394848],[102.654827,5.394223],[102.651127,5.395884],[102.649128,5.399103],[102.652328,5.405234],[102.65061,5.411638],[102.656389,5.419916],[102.652406,5.429913],[102.652328,5.438972],[102.642615,5.444196],[102.637652,5.452262],[102.635069,5.457012],[102.629994,5.457646],[102.624877,5.463103],[102.622066,5.473803],[102.615974,5.477785],[102.610117,5.482003],[102.600262,5.483082],[102.593286,5.483029]],[[102.82635,5.678112],[102.82695,5.678026],[102.827287,5.67613],[102.826095,5.67613],[102.825685,5.67613],[102.823588,5.67613],[102.824597,5.678361],[102.825358,5.678253],[102.82635,5.678112]],[[102.983962,5.231315],[102.988023,5.228035]],[[102.988023,5.228035],[102.982856,5.223509],[102.972951,5.213509],[102.963032,5.205855]],[[102.963032,5.205855],[102.95741,5.204996],[102.950706,5.208224],[102.940228,5.203591],[102.940927,5.197883],[102.934855,5.197174],[102.928826,5.192032],[102.917893,5.196093],[102.9168,5.201092],[102.911723,5.209526],[102.907272,5.211322],[102.90607,5.218599],[102.899775,5.21757],[102.89712,5.226082],[102.892772,5.231365],[102.894634,5.236329],[102.889622,5.239437],[102.887748,5.243107],[102.881891,5.245919],[102.880797,5.250292],[102.875397,5.250336],[102.871851,5.246524],[102.865959,5.255368],[102.859151,5.25919],[102.856846,5.266637],[102.851326,5.268878],[102.847138,5.268801],[102.84644,5.263915],[102.840701,5.262209],[102.840546,5.258254],[102.833495,5.257329],[102.830113,5.257164],[102.826903,5.253684],[102.82574,5.247402],[102.814416,5.242639],[102.810443,5.23802],[102.803967,5.232512],[102.797452,5.227084],[102.791654,5.225803],[102.785599,5.223896],[102.776958,5.227162],[102.769402,5.229011],[102.766934,5.234673],[102.761857,5.238578],[102.758577,5.245294],[102.754282,5.248105],[102.74918,5.251434],[102.744404,5.252633],[102.735851,5.262163],[102.726089,5.264427],[102.72523,5.273096],[102.724757,5.284748],[102.727532,5.298488],[102.724835,5.31259],[102.726463,5.321198],[102.723187,5.330427],[102.722575,5.337447],[102.71664,5.339634],[102.711642,5.344398],[102.705784,5.342133],[102.700864,5.344007],[102.689218,5.344464],[102.683449,5.350411],[102.681028,5.361657],[102.680169,5.379385],[102.679466,5.389771],[102.680989,5.399768]],[[102.914379,5.454903],[102.913324,5.451623],[102.909576,5.447718],[102.910357,5.440534],[102.913481,5.435067],[102.912543,5.424914],[102.916292,5.419448],[102.916761,5.414137],[102.914262,5.409139],[102.920822,5.40133],[102.925195,5.396175],[102.924648,5.388444],[102.92375,5.38407],[102.925937,5.377588],[102.921368,5.370794],[102.921962,5.358054],[102.92467,5.352895],[102.925664,5.347131],[102.924414,5.334167],[102.92785,5.32503],[102.923711,5.323702],[102.917424,5.320344],[102.91024,5.312378],[102.910083,5.308473],[102.91555,5.30738],[102.918362,5.30207],[102.928045,5.300351],[102.933356,5.286919],[102.930857,5.275829],[102.934762,5.27005],[102.947569,5.263803],[102.959752,5.252088],[102.971467,5.240999],[102.976465,5.236157],[102.983962,5.231315]],[[103.158246,5.626057],[103.162773,5.625792],[103.163839,5.621816],[103.159045,5.621816],[103.158246,5.626057]],[[103.14999,5.644874],[103.155849,5.641959],[103.154251,5.638249],[103.149457,5.640634],[103.14999,5.644874]],[[103.067164,5.599817],[103.068229,5.597432],[103.065299,5.594516],[103.061038,5.596107],[103.067164,5.599817]],[[103.062636,5.629502],[103.070093,5.627647],[103.072756,5.620756],[103.070892,5.61307],[103.066365,5.609889],[103.054913,5.615985],[103.057576,5.626057],[103.062636,5.629502]],[[102.987664,5.555561],[102.987439,5.55768],[102.989569,5.557903],[102.990353,5.556007],[102.987664,5.555561]],[[102.967154,5.643007],[102.968723,5.642784],[102.969844,5.641557],[102.969844,5.639772],[102.96637,5.640219],[102.967154,5.643007]],[[103.066897,5.659716],[103.069028,5.659981],[103.071425,5.656801],[103.06956,5.652295],[103.065832,5.656536],[103.066897,5.659716]],[[103.072224,5.664221],[103.070626,5.668992],[103.073289,5.668992],[103.074621,5.665546],[103.072224,5.664221]],[[102.998719,5.745313],[103.006442,5.743723],[103.008572,5.735773],[102.997653,5.730473],[102.999251,5.738688],[102.998719,5.745313]],[[103.02828,5.735243],[103.029612,5.740808],[103.032009,5.739483],[103.034139,5.735773],[103.02828,5.735243]],[[103.063701,5.771545],[103.061837,5.768631],[103.05731,5.775785],[103.060239,5.777375],[103.063701,5.771545]],[[102.891953,5.79556],[102.888479,5.799239],[102.889936,5.803922],[102.892625,5.804034],[102.892962,5.802473],[102.894419,5.801469],[102.895091,5.800131],[102.897445,5.799239],[102.898789,5.797344],[102.89991,5.794891],[102.904169,5.794445],[102.90529,5.790431],[102.903609,5.789873],[102.9026,5.787532],[102.898789,5.788089],[102.89666,5.789539],[102.893298,5.789762],[102.891393,5.791769],[102.891953,5.79556]],[[103.043993,5.775255],[103.039466,5.7787],[103.043727,5.779495],[103.043993,5.775255]],[[103.031476,5.751407],[103.029878,5.750347],[103.027481,5.754057],[103.029079,5.758562],[103.031476,5.758032],[103.030944,5.755117],[103.031476,5.751407]],[[103.014165,5.787709],[103.020291,5.783999],[103.026682,5.794863],[103.036803,5.790358],[103.046124,5.789033],[103.034139,5.77605],[103.035205,5.771545],[103.030944,5.763596],[103.019492,5.750877],[103.013899,5.748492],[102.997653,5.750082],[102.99499,5.769161],[102.988332,5.783999],[102.993925,5.791683],[102.99206,5.806521],[102.998719,5.819768],[103.008839,5.814999],[103.010703,5.818974],[103.014964,5.809435],[103.019492,5.808111],[103.018693,5.799367],[103.014165,5.787709]],[[102.984413,5.56995],[102.984525,5.572292],[102.986319,5.571958],[102.986319,5.56995],[102.984413,5.56995]],[[103.0392,5.773665],[103.042129,5.77128],[103.038401,5.771015],[103.0392,5.773665]],[[102.996809,5.504182],[103.001115,5.500414],[103.043237,5.456621]],[[103.043237,5.456621],[103.038551,5.450608],[103.038786,5.444673],[103.040689,5.439987],[103.047688,5.422494],[103.053311,5.399221],[103.055342,5.387428],[103.047923,5.382821],[103.039514,5.392817],[103.028321,5.395707],[103.022854,5.397034],[103.01645,5.397581],[103.008919,5.393825],[103.003514,5.392243],[102.998023,5.391421],[102.995697,5.383511],[102.992318,5.374465],[102.986269,5.373069],[102.981854,5.377432],[102.981307,5.383055],[102.977871,5.389303],[102.97709,5.399611],[102.9742,5.403594],[102.973654,5.417105],[102.970686,5.422806],[102.971311,5.428975],[102.966113,5.437695],[102.957117,5.438316],[102.948741,5.433817],[102.936519,5.442135]],[[103.091423,5.347453],[103.081556,5.348332],[103.07108,5.347343],[103.068955,5.349765],[103.070536,5.353125],[103.068164,5.354756],[103.064952,5.352285],[103.062086,5.344279],[103.056008,5.341265],[103.049583,5.335335],[103.045235,5.328417],[103.0397,5.327922],[103.032189,5.326242],[103.026654,5.321992],[103.018055,5.320609],[103.01341,5.314283],[103.008864,5.311813],[103.006953,5.30686],[103.000661,5.310132],[102.996609,5.30272],[102.993149,5.309144],[102.987911,5.308353],[102.986429,5.300743],[102.982377,5.298964],[102.984438,5.292874],[102.983958,5.289278],[102.986725,5.285424],[102.987219,5.279],[102.989394,5.275541],[102.988702,5.269335],[102.982377,5.270105],[102.977929,5.264867],[102.977435,5.260518],[102.979708,5.255181],[102.977435,5.251524],[102.979708,5.247077],[102.979979,5.242639],[102.984353,5.239593],[102.983962,5.231315]],[[103.043237,5.456621],[103.086072,5.417699],[103.090352,5.413562]],[[103.090352,5.413562],[103.086695,5.405359],[103.082841,5.397946],[103.080568,5.390039],[103.082742,5.38154],[103.09223,5.36454],[103.095541,5.360636]],[[103.095541,5.360636],[103.092082,5.358907],[103.08803,5.358511],[103.086251,5.354558],[103.087338,5.351494],[103.090896,5.350209],[103.091423,5.347453]],[[103.092329,5.320016],[103.087338,5.314333]],[[103.087338,5.314333],[103.083088,5.314975],[103.063914,5.314086],[103.063618,5.307069],[103.056897,5.306871],[103.055513,5.299755],[103.04731,5.301534],[103.047113,5.29511],[103.03802,5.288092],[103.029224,5.282558],[103.022736,5.275604],[103.018352,5.26882],[103.0143,5.254884],[103.005629,5.242451],[102.998783,5.237292],[102.991337,5.230996],[102.988023,5.228035]],[[103.091423,5.347453],[103.092675,5.343489],[103.099593,5.338942],[103.101768,5.334989],[103.099297,5.329553],[103.092873,5.323426],[103.092329,5.320016]],[[103.090352,5.413562],[103.107378,5.396753],[103.115634,5.397813],[103.118297,5.395692],[103.115634,5.386677],[103.131274,5.358712],[103.141894,5.347146]],[[103.141894,5.347146],[103.131665,5.352285],[103.124697,5.348974],[103.115802,5.353026],[103.10661,5.359846],[103.095541,5.360636]],[[103.141894,5.347146],[103.14392,5.346454]],[[103.14392,5.346454],[103.137074,5.34012],[103.133394,5.333457],[103.127365,5.326934],[103.120447,5.32308],[103.115308,5.324364]],[[103.115308,5.324364],[103.111651,5.325649],[103.107105,5.325748],[103.102716,5.324914],[103.098111,5.32372],[103.092329,5.320016]],[[103.123906,5.303708],[103.125191,5.2959],[103.123264,5.288933],[103.122523,5.286709]],[[103.122523,5.286709],[103.113242,5.286615],[103.10369,5.28815],[103.096183,5.290959]],[[103.096183,5.290959],[103.094317,5.29456],[103.091681,5.298752],[103.087486,5.306278],[103.087338,5.314333]],[[103.115308,5.324364],[103.114715,5.3129],[103.118372,5.305932],[103.12104,5.303758],[103.123906,5.303708]],[[103.14392,5.346454],[103.147528,5.344625],[103.145699,5.340227],[103.146638,5.336224],[103.148812,5.333358]],[[103.148812,5.333358],[103.14397,5.329454],[103.140708,5.325205],[103.136656,5.318434],[103.133691,5.313048],[103.125241,5.308255],[103.124499,5.306574],[103.123906,5.303708]],[[103.142536,5.284856],[103.139819,5.282632],[103.139868,5.279618],[103.138336,5.278184],[103.133048,5.281149],[103.130232,5.279568]],[[103.130232,5.279568],[103.127761,5.280161],[103.126575,5.283769],[103.122523,5.286709]],[[103.148812,5.333358],[103.154149,5.328664]],[[103.154149,5.328664],[103.152074,5.324908],[103.155484,5.318385],[103.150048,5.310034],[103.15153,5.303115],[103.14985,5.291651],[103.145206,5.288154],[103.142536,5.284856]],[[103.154446,5.249424],[103.150789,5.252834],[103.151184,5.258121],[103.153606,5.265534],[103.148368,5.270377],[103.149455,5.275961],[103.145205,5.278382],[103.144612,5.282928],[103.142536,5.284856]],[[103.154149,5.328664],[103.159733,5.317841],[103.184096,5.269586]],[[103.184096,5.269586],[103.181082,5.268647],[103.179204,5.265138],[103.178413,5.260889],[103.17609,5.255897],[103.171495,5.252784],[103.16769,5.25402],[103.164478,5.255947],[103.161123,5.252108],[103.158449,5.249226],[103.154446,5.249424]],[[103.05593,5.168582],[103.056498,5.173684],[103.05476,5.181969],[103.05342,5.192517],[103.05091,5.198165],[103.04711,5.198897],[103.046281,5.202751],[103.049207,5.204709],[103.049476,5.20946],[103.044993,5.21206],[103.045621,5.220307],[103.04078,5.22461],[103.038091,5.229989]],[[103.038091,5.229989],[103.033591,5.234042],[103.033881,5.250573],[103.034067,5.258689],[103.037377,5.264372],[103.043011,5.270797],[103.050226,5.270698],[103.054871,5.269808],[103.06001,5.270352],[103.065602,5.273867],[103.074341,5.28068],[103.082446,5.283151],[103.093709,5.289329],[103.096183,5.290959]],[[103.130232,5.279568],[103.12786,5.275318],[103.125438,5.272996],[103.123313,5.269536],[103.123313,5.264595],[103.121287,5.262223],[103.116494,5.262717],[103.109229,5.266571],[103.103398,5.266176],[103.100384,5.262378],[103.098763,5.256238],[103.097864,5.244877],[103.09648,5.231584]],[[103.09648,5.231584],[103.094657,5.224879],[103.094029,5.218693],[103.0894,5.212835],[103.085154,5.206681],[103.081725,5.196631],[103.072335,5.185973],[103.070722,5.177995],[103.064536,5.171988],[103.056916,5.165265],[103.05593,5.168582]],[[103.154446,5.249424],[103.151223,5.239581],[103.149251,5.233395],[103.151223,5.225775],[103.147906,5.219052]],[[103.147906,5.219052],[103.141452,5.220173],[103.134101,5.215959],[103.12657,5.213091],[103.12155,5.213629],[103.119409,5.215919],[103.119953,5.226593],[103.107203,5.228224],[103.101372,5.23109],[103.09648,5.231584]],[[103.184096,5.269586],[103.186742,5.26735],[103.187541,5.260454],[103.185411,5.263504],[103.183147,5.263239],[103.183147,5.261036],[103.183147,5.255018],[103.190471,5.241094],[103.208315,5.212053],[103.21191,5.212053],[103.216704,5.209136],[103.215239,5.204494],[103.22281,5.189325],[103.223295,5.18853],[103.230952,5.173197],[103.276054,5.080326]],[[103.276054,5.080326],[103.270675,5.078354],[103.257766,5.074231],[103.239209,5.069031],[103.238223,5.073872],[103.233273,5.077064],[103.233741,5.087229],[103.229691,5.09071],[103.222804,5.092428],[103.218143,5.095118],[103.218143,5.099421],[103.22121,5.104078],[103.222575,5.112947],[103.218481,5.114653],[103.211829,5.115847],[103.204696,5.127524],[103.204606,5.132276],[103.206399,5.136444],[103.201936,5.138362],[103.196538,5.135682],[103.192146,5.136758],[103.187215,5.147157],[103.187529,5.155763],[103.190218,5.161948],[103.189322,5.165624],[103.16207,5.164638],[103.152926,5.163741],[103.150685,5.167148],[103.149789,5.171809],[103.143782,5.177546],[103.143872,5.183553],[103.148175,5.184897],[103.148623,5.188393],[103.144679,5.192607],[103.150057,5.197717],[103.147906,5.202288],[103.145844,5.207174],[103.14553,5.213584],[103.147906,5.219052]],[[103.266906,5.23274],[103.26837,5.232873],[103.269169,5.226773],[103.270496,5.221691],[103.2709,5.220143],[103.2709,5.215236],[103.270235,5.210064],[103.267971,5.209534],[103.266373,5.212319],[103.26371,5.212982],[103.260114,5.218551],[103.261579,5.224784],[103.265974,5.228232],[103.266004,5.228377],[103.266906,5.23274]],[[103.262112,5.234464],[103.264908,5.235392],[103.26624,5.234199],[103.263361,5.232442],[103.262112,5.231679],[103.260114,5.232077],[103.261384,5.233594],[103.262112,5.234464]],[[103.276054,5.080326],[103.385958,4.881001]],[[103.385958,4.881001],[103.376411,4.876698],[103.374798,4.866837],[103.368971,4.861906],[103.36395,4.861458],[103.352476,4.855004],[103.347904,4.856438],[103.340105,4.857603],[103.338895,4.866792],[103.326524,4.875667],[103.314063,4.880059],[103.309581,4.884721],[103.305814,4.883275],[103.301423,4.875936],[103.295058,4.872171],[103.287707,4.873157]],[[103.287707,4.873157],[103.283673,4.876115],[103.283853,4.881494],[103.279328,4.888095],[103.270336,4.89078],[103.269312,4.900502],[103.26552,4.905384],[103.233607,4.917307],[103.233265,4.931464],[103.23084,4.942929],[103.231007,4.952806],[103.229476,4.960668]],[[103.229476,4.960668],[103.216126,4.966163],[103.21514,4.974859],[103.212157,4.988322],[103.208058,4.994133],[103.202264,5.00265],[103.194731,5.008205],[103.189614,5.017927],[103.181254,5.021833],[103.179889,5.028997],[103.173024,5.038804],[103.169959,5.041555],[103.167359,5.047113],[103.160367,5.051416],[103.159112,5.056167],[103.151671,5.051505],[103.137955,5.071407],[103.131501,5.072213],[103.12908,5.079833],[103.130336,5.087184],[103.126122,5.099286],[103.121281,5.103769],[103.117785,5.110044],[103.112622,5.111201],[103.105414,5.103231],[103.099446,5.101692],[103.093667,5.104037],[103.090341,5.111201],[103.086768,5.11354],[103.081838,5.112554],[103.078162,5.114167]],[[103.078162,5.114167],[103.077714,5.12349],[103.069735,5.129855],[103.063936,5.13719],[103.051358,5.153073],[103.050014,5.160066],[103.052793,5.164189],[103.05593,5.168582]],[[103.014639,5.02981],[103.015331,5.020025],[103.021953,5.00777],[103.025511,4.995416],[103.028081,4.992253],[103.023139,4.988399],[103.023732,4.984248],[103.020965,4.981085],[103.022744,4.975748],[103.01879,4.967446],[103.014244,4.966556],[103.008907,4.969423],[103.00693,4.966754],[103.008512,4.963888],[103.00782,4.952621],[103.010192,4.948272],[103.008512,4.944319],[103.008116,4.939674],[102.995169,4.939871],[102.988745,4.933447],[102.990821,4.92979],[102.986768,4.923663],[102.985385,4.919215],[102.985879,4.914175],[102.98242,4.910122],[102.979751,4.913285],[102.977873,4.912],[102.975897,4.907059],[102.971153,4.903797],[102.951781,4.906466],[102.948816,4.909529],[102.938933,4.908146],[102.936462,4.910221],[102.931817,4.910419],[102.924207,4.916942],[102.912149,4.904785],[102.911951,4.901326],[102.896237,4.883635],[102.89515,4.879385],[102.896336,4.873949],[102.892876,4.867822],[102.891196,4.860508],[102.882202,4.84934],[102.877359,4.846572],[102.868815,4.846459],[102.864906,4.842125],[102.865401,4.833427],[102.870063,4.829941],[102.876716,4.825165],[102.88072,4.822259],[102.879633,4.818504],[102.87571,4.814922],[102.873663,4.81134],[102.877359,4.809114],[102.886114,4.813387],[102.892435,4.813508]],[[102.892435,4.813508],[102.897373,4.805902],[102.897274,4.798984],[102.89085,4.792461],[102.890857,4.782326],[102.887984,4.780156],[102.892926,4.772546],[102.893121,4.767998],[102.895693,4.763157],[102.893401,4.757828],[102.891402,4.754308],[102.888478,4.750308],[102.881271,4.75018],[102.877174,4.74913],[102.872399,4.745889],[102.869403,4.743192],[102.865747,4.737361],[102.85527,4.737065],[102.851514,4.734495],[102.845545,4.734836],[102.84148,4.731306],[102.840183,4.727386],[102.841467,4.724575],[102.84598,4.718385],[102.842125,4.711269],[102.845683,4.70692],[102.846128,4.702572],[102.844349,4.693034],[102.844178,4.688429],[102.844095,4.684291],[102.844448,4.680087]],[[102.844448,4.680087],[102.84252,4.680199],[102.825476,4.681526],[102.79072,4.675819],[102.779002,4.670378],[102.774741,4.677545],[102.769415,4.672767],[102.764488,4.678076],[102.762091,4.683517],[102.7549,4.680199],[102.747842,4.682986],[102.745179,4.689489],[102.734393,4.683384],[102.729067,4.685906],[102.728401,4.688693],[102.720145,4.6944],[102.714419,4.693869],[102.70057,4.715368],[102.69258,4.713643],[102.682194,4.715368],[102.675403,4.730763],[102.665282,4.737796],[102.65969,4.751332],[102.662486,4.755711],[102.658068,4.759475],[102.664186,4.770056],[102.666525,4.780097],[102.658968,4.791753],[102.659507,4.800898],[102.65231,4.812733],[102.644032,4.813271],[102.646191,4.826002],[102.652489,4.835326],[102.65087,4.845725],[102.647811,4.850208],[102.644032,4.847877],[102.620819,4.8624],[102.614881,4.862042],[102.606244,4.874054],[102.592748,4.873158],[102.58627,4.88284],[102.571514,4.895749],[102.535885,4.907402],[102.529587,4.896107],[102.513752,4.901486],[102.506014,4.903099],[102.513212,4.919952],[102.513392,4.938239],[102.521129,4.941645],[102.52077,4.94792],[102.514831,4.948637],[102.513932,4.952401],[102.522389,4.960648],[102.509973,4.970687],[102.507634,4.979113],[102.503315,4.981622],[102.499536,4.993812],[102.501695,5.001521],[102.501335,5.001521],[102.498816,5.008153],[102.512132,5.009229],[102.52023,5.026437],[102.508713,5.048306],[102.514112,5.054579],[102.502955,5.074296],[102.499176,5.076088],[102.505294,5.083437],[102.513752,5.084154],[102.51879,5.089352],[102.52095,5.098314],[102.529227,5.108172],[102.513932,5.128066],[102.48748,5.13631],[102.484241,5.147959],[102.474884,5.157816],[102.457429,5.170003],[102.444473,5.168211],[102.437815,5.179681],[102.414422,5.180756],[102.410463,5.183265],[102.41982,5.195809],[102.422879,5.204769],[102.4209,5.223048],[102.414422,5.230037],[102.417301,5.242043],[102.415502,5.26032],[102.42018,5.27358],[102.415682,5.283614],[102.418201,5.288631],[102.415322,5.294723],[102.419101,5.300457],[102.422353,5.31961],[102.429583,5.32221],[102.429985,5.330408],[102.427575,5.337406],[102.429181,5.348004],[102.426571,5.351603],[102.428579,5.356801],[102.436377,5.35654],[102.442736,5.360107]],[[102.963032,5.205855],[102.968613,5.199093],[102.974536,5.192736],[102.981188,5.188642],[102.986867,5.184682],[102.999716,5.185078],[103.006041,5.181915]],[[103.006041,5.181915],[103.010093,5.175688],[103.013849,5.168474],[103.014442,5.162049],[103.009006,5.152858],[103.001692,5.15009],[102.988251,5.149893],[102.978367,5.14337],[102.971054,5.137637],[102.963938,5.137835],[102.958403,5.135463],[102.959194,5.129335],[102.963542,5.124591],[102.968879,5.121033],[102.967496,5.113917],[102.972437,5.110162],[102.973623,5.106406],[102.969275,5.095139],[102.972635,5.09336],[102.976588,5.085256],[102.980739,5.073],[102.980542,5.066082],[102.972042,5.050268],[102.971251,5.043844],[102.97392,5.041769],[102.986274,5.042065],[102.992204,5.044437],[103.003471,5.037618],[103.008907,5.036926],[103.014639,5.02981]],[[103.038091,5.229989],[103.034011,5.223326],[103.035098,5.218187],[103.033121,5.214925],[103.036383,5.207809],[103.035296,5.203856],[103.030947,5.199408],[103.026168,5.195176],[103.019087,5.191106],[103.01207,5.186659],[103.006041,5.181915]],[[103.078162,5.114167],[103.059708,5.112633],[103.049923,5.110359],[103.025511,5.107493],[103.020174,5.10354],[103.020965,5.096819],[103.036185,5.086145],[103.049824,5.078238],[103.063463,5.066181],[103.070382,5.055507],[103.067219,5.043054],[103.05358,5.041275],[103.04508,5.047798],[103.03915,5.047995],[103.035987,5.049577],[103.02729,5.048193],[103.020767,5.037519],[103.014639,5.02981]],[[103.229476,4.960668],[103.221863,4.954778],[103.212988,4.954151],[103.206623,4.947697],[103.20492,4.939808],[103.198179,4.933192],[103.19044,4.927173],[103.183106,4.939795],[103.170895,4.951929],[103.160705,4.950721],[103.15644,4.942704],[103.14126,4.941851],[103.131026,4.95055],[103.12028,4.948674],[103.112775,4.952256],[103.10527,4.948569],[103.104183,4.939772],[103.099587,4.930598],[103.088828,4.926499],[103.083029,4.929911],[103.079277,4.928802],[103.078459,4.920858],[103.076978,4.915094],[103.082347,4.905264],[103.085305,4.899745],[103.082751,4.893516],[103.085821,4.880041],[103.08108,4.875174],[103.081846,4.86881],[103.079006,4.864916],[103.071528,4.869546],[103.067219,4.868415],[103.066725,4.861595],[103.060226,4.864533],[103.053778,4.860656],[103.049725,4.862089],[103.048161,4.867499],[103.042115,4.868415],[103.035296,4.863473],[103.035543,4.859272],[103.038694,4.856497],[103.040682,4.852502],[103.038923,4.849034],[103.036828,4.846424],[103.034002,4.844231],[103.030911,4.841393],[103.027425,4.840341],[103.016957,4.839816],[103.010731,4.841863],[103.003274,4.843904],[102.998703,4.848466],[102.992007,4.85013],[102.987445,4.847955],[102.984595,4.847406],[102.982794,4.846016],[102.979994,4.841638],[102.979899,4.837727],[102.977332,4.833085],[102.976243,4.828436],[102.971878,4.826073],[102.966409,4.825471],[102.963934,4.827286],[102.960532,4.827965],[102.957831,4.827616],[102.956021,4.826432],[102.954419,4.824873],[102.95242,4.823362],[102.950017,4.821171],[102.947515,4.818402],[102.944715,4.816082],[102.938933,4.814946],[102.932194,4.816803],[102.929791,4.817713],[102.923794,4.821612],[102.918846,4.822189],[102.916046,4.822408],[102.914372,4.821286],[102.90907,4.819656],[102.904243,4.819498],[102.90174,4.819829],[102.899345,4.820859],[102.895644,4.82048],[102.893444,4.818965],[102.892336,4.816956],[102.892435,4.813508]],[[103.269438,4.777447],[103.265112,4.768124],[103.265327,4.758561],[103.259524,4.749534],[103.263071,4.734167],[103.259095,4.72815],[103.261781,4.71332],[103.267047,4.703649],[103.271224,4.687235],[103.272312,4.668402],[103.27919,4.64777],[103.278222,4.637346],[103.281178,4.633773],[103.286228,4.630334],[103.283434,4.621953],[103.286228,4.614538],[103.28236,4.611529],[103.282145,4.605189],[103.284401,4.599064],[103.284294,4.587136],[103.288592,4.58359],[103.289452,4.578431],[103.291386,4.575315],[103.291171,4.568975],[103.289667,4.562527],[103.293482,4.557289]],[[103.293482,4.557289],[103.293965,4.543158],[103.291171,4.537033],[103.294073,4.532734],[103.294825,4.526394],[103.29832,4.522881],[103.296472,4.508597],[103.286191,4.499566],[103.283499,4.49179],[103.285034,4.484285],[103.285972,4.477462],[103.286228,4.472772]],[[103.286228,4.472772],[103.282037,4.469118],[103.274246,4.466378],[103.26948,4.465611],[103.259471,4.462187],[103.256999,4.466862],[103.246414,4.460468],[103.235974,4.459699],[103.22546,4.459286],[103.221967,4.46525],[103.222397,4.476963],[103.214499,4.490395],[103.213048,4.497595],[103.207138,4.497864],[103.199186,4.488031],[103.189192,4.488568],[103.185903,4.482071],[103.18484,4.471751],[103.179467,4.464014],[103.175839,4.456486],[103.171354,4.448486],[103.171085,4.443382],[103.167808,4.439298],[103.160331,4.437563],[103.156578,4.432958],[103.156749,4.425112],[103.153623,4.42232],[103.150292,4.425651],[103.143952,4.425221]],[[103.143952,4.425221],[103.13745,4.431346],[103.136698,4.437955],[103.133577,4.442643],[103.129068,4.446283],[103.122947,4.447231],[103.115206,4.445853],[103.109643,4.440238],[103.105038,4.442114],[103.10086,4.436827],[103.096401,4.4314],[103.092273,4.429743],[103.086247,4.428629],[103.079691,4.424522],[103.073566,4.427585],[103.069106,4.434731],[103.063732,4.435964],[103.054115,4.43457],[103.048474,4.441286],[103.043477,4.441394],[103.036707,4.43414],[103.034289,4.426725],[103.029113,4.422978],[103.025401,4.417459],[103.024627,4.409112]],[[103.024627,4.409112],[103.017494,4.405819],[103.007907,4.416308],[103.010969,4.433833],[103.000316,4.450428],[102.994724,4.449499],[102.98993,4.451092],[102.986468,4.458261],[102.986734,4.462642],[102.976214,4.471802],[102.976747,4.47605],[102.969556,4.480697],[102.968225,4.473926],[102.9617,4.470342],[102.959036,4.472333],[102.955441,4.4722],[102.953444,4.464235],[102.955441,4.456933],[102.951313,4.452154],[102.942524,4.45003],[102.941193,4.454411],[102.934002,4.460783],[102.929608,4.467554],[102.919221,4.467288],[102.914028,4.463969],[102.912963,4.468085],[102.901644,4.468483],[102.899513,4.465563],[102.890991,4.469413],[102.878207,4.463438],[102.872482,4.469944],[102.876077,4.482157],[102.871283,4.48375],[102.855437,4.495565],[102.853573,4.492645],[102.846116,4.49822],[102.844651,4.501539],[102.846648,4.520124],[102.836661,4.535522],[102.840123,4.572955],[102.85304,4.57707],[102.854904,4.562336],[102.866356,4.561805],[102.87368,4.580521],[102.87115,4.587556],[102.859032,4.597511],[102.860364,4.604148],[102.873414,4.603617],[102.884067,4.608661],[102.878873,4.617819],[102.866356,4.627641],[102.872082,4.638259],[102.85557,4.664538],[102.844843,4.671291],[102.844448,4.680087]],[[103.287707,4.873157],[103.276127,4.855865],[103.264306,4.841895],[103.262157,4.832009],[103.256354,4.832224],[103.25399,4.827496],[103.251814,4.826905],[103.251519,4.820753],[103.249369,4.817422],[103.258504,4.809577],[103.26033,4.804204],[103.262909,4.803129],[103.263124,4.80141],[103.26033,4.797542],[103.262802,4.793351],[103.262587,4.786043],[103.269572,4.788085],[103.271076,4.783249],[103.269438,4.777447]],[[103.416362,4.752597],[103.419532,4.74717],[103.421144,4.739648],[103.420821,4.728472],[103.418672,4.727182],[103.40438,4.727505],[103.400511,4.726215],[103.400082,4.722347],[103.393312,4.719123],[103.389228,4.725141],[103.382458,4.731588],[103.380228,4.739084],[103.378187,4.749185],[103.374426,4.756277],[103.36325,4.756599],[103.359489,4.758856],[103.354653,4.757352],[103.350032,4.761113],[103.33703,4.752623],[103.334128,4.756277],[103.329937,4.768957],[103.323382,4.770784],[103.320158,4.776694],[103.309198,4.78153],[103.302535,4.778629],[103.294261,4.7811],[103.285664,4.77476],[103.275778,4.7739],[103.269438,4.777447]],[[103.385958,4.881001],[103.391024,4.872142],[103.425235,4.813567],[103.441292,4.780858]],[[103.441292,4.780858],[103.435704,4.782255],[103.429257,4.785049],[103.419908,4.787199],[103.411633,4.786661],[103.405186,4.785479],[103.396159,4.780858],[103.394816,4.775539],[103.397771,4.769199],[103.403628,4.762966],[103.409431,4.760226],[103.409914,4.752059],[103.416362,4.752597]],[[103.666588,4.845321],[103.666725,4.844974],[103.666588,4.844626],[103.666313,4.844347],[103.666382,4.843721],[103.667137,4.844069],[103.667419,4.843721],[103.667625,4.843096],[103.667625,4.842679],[103.667091,4.842159],[103.667122,4.841911],[103.667053,4.841423],[103.666153,4.841284],[103.665672,4.84184],[103.665123,4.842191],[103.664528,4.842134],[103.664246,4.842134],[103.66404,4.842481],[103.663971,4.842898],[103.663971,4.843456],[103.663834,4.843734],[103.663559,4.844151],[103.663483,4.84443],[103.663406,4.844639],[103.663277,4.844986],[103.663002,4.845125],[103.662659,4.845264],[103.661964,4.845612],[103.661682,4.84589],[103.661682,4.846451],[103.661652,4.846989],[103.661926,4.847408],[103.662415,4.847616],[103.662758,4.847825],[103.663383,4.848311],[103.665131,4.84734],[103.665268,4.846921],[103.665482,4.846713],[103.665619,4.846296],[103.665825,4.845879],[103.666168,4.845669],[103.666588,4.845321]],[[103.685768,4.807131],[103.685913,4.80671],[103.68605,4.80601],[103.686523,4.805789],[103.687225,4.805386],[103.687363,4.805181],[103.687019,4.80469],[103.687302,4.80462],[103.688133,4.80413],[103.688126,4.803578],[103.687386,4.803198],[103.686417,4.80188],[103.685791,4.80139],[103.685242,4.800552],[103.684753,4.799859],[103.685234,4.799319],[103.685097,4.798899],[103.685379,4.798484],[103.685654,4.797997],[103.685722,4.797511],[103.686134,4.797372],[103.686134,4.796953],[103.685928,4.79598],[103.68531,4.795822],[103.684822,4.795335],[103.684196,4.795196],[103.683647,4.794851],[103.68309,4.794571],[103.682716,4.79448],[103.682388,4.794049],[103.682175,4.793634],[103.681427,4.793356],[103.680664,4.793555],[103.680595,4.793972],[103.680183,4.794111],[103.680038,4.794598],[103.679207,4.794669],[103.678864,4.794877],[103.678375,4.794947],[103.677963,4.795225],[103.677689,4.795503],[103.67762,4.796032],[103.676926,4.796518],[103.676857,4.797493],[103.676788,4.79791],[103.676292,4.79858],[103.676086,4.79949],[103.675667,4.799768],[103.675186,4.799975],[103.674767,4.80046],[103.674507,4.801037],[103.674286,4.80111],[103.674156,4.80083],[103.674019,4.800344],[103.673531,4.800761],[103.672707,4.801352],[103.672768,4.801598],[103.672211,4.802083],[103.672005,4.802245],[103.672005,4.802384],[103.672211,4.80294],[103.672493,4.803476],[103.672493,4.804032],[103.672699,4.804937],[103.673111,4.805215],[103.673531,4.805632],[103.674156,4.805771],[103.674767,4.805841],[103.6754,4.80612],[103.676086,4.80612],[103.676651,4.80591],[103.677483,4.806188],[103.678101,4.806954],[103.678169,4.80751],[103.678238,4.807929],[103.678398,4.809133],[103.677986,4.809481],[103.677498,4.80962],[103.676727,4.80962],[103.676369,4.809461],[103.675751,4.809458],[103.675331,4.809876],[103.675056,4.810502],[103.675056,4.811475],[103.675133,4.812171],[103.675751,4.81259],[103.676231,4.813075],[103.676575,4.813634],[103.677132,4.814607],[103.677826,4.815234],[103.678383,4.815512],[103.678383,4.816417],[103.678452,4.81697],[103.678787,4.817321],[103.679756,4.817741],[103.680656,4.81788],[103.681152,4.817811],[103.681412,4.81746],[103.681343,4.817114],[103.681206,4.816765],[103.681137,4.816626],[103.680786,4.81607],[103.680717,4.815722],[103.680717,4.815097],[103.680733,4.814814],[103.681656,4.814839],[103.681938,4.81463],[103.682007,4.81442],[103.682083,4.814251],[103.68235,4.813652],[103.683006,4.813597],[103.683395,4.813353],[103.684021,4.813353],[103.684364,4.813493],[103.684784,4.813561],[103.685196,4.813584],[103.685677,4.813445],[103.685883,4.813096],[103.686234,4.812469],[103.686996,4.812471],[103.687553,4.81233],[103.68824,4.812123],[103.68866,4.811842],[103.689072,4.811706],[103.689415,4.812123],[103.689972,4.812123],[103.690109,4.811774],[103.690247,4.811079],[103.690529,4.810662],[103.690872,4.810381],[103.690872,4.810174],[103.690598,4.810035],[103.690323,4.809896],[103.690086,4.809668],[103.689613,4.809319],[103.68898,4.809319],[103.688492,4.80869],[103.687943,4.808693],[103.687202,4.808415],[103.686279,4.808066],[103.685791,4.807649],[103.685768,4.807131]],[[103.441292,4.780858],[103.436154,4.778801],[103.433091,4.781322],[103.428164,4.779199],[103.423503,4.770308],[103.425039,4.756062]],[[103.425039,4.756062],[103.416362,4.752597]],[[103.425039,4.756062],[103.426436,4.746391],[103.431867,4.734774],[103.448405,4.69586],[103.449603,4.688693],[103.449603,4.659097],[103.448804,4.653788],[103.442945,4.655779],[103.438684,4.648081],[103.441081,4.631225],[103.454663,4.596184]],[[103.454663,4.596184],[103.442632,4.593934],[103.412542,4.591451],[103.380255,4.590225],[103.370242,4.583946],[103.36376,4.584798],[103.363024,4.590259],[103.354875,4.590297],[103.347764,4.599164],[103.343773,4.600488],[103.340979,4.591461],[103.332866,4.58496],[103.330233,4.581467],[103.329588,4.575987],[103.318901,4.567742],[103.310538,4.568887],[103.30201,4.561041],[103.293482,4.557289]],[[103.454663,4.596184],[103.468512,4.566053],[103.473306,4.547735],[103.476768,4.528619],[103.470643,4.51561],[103.457593,4.516407],[103.450668,4.508442],[103.445076,4.468085],[103.456528,4.436488],[103.459723,4.418432],[103.455995,4.399845]],[[103.455995,4.399845],[103.454349,4.398383],[103.448405,4.396351],[103.433225,4.391575],[103.425549,4.39618],[103.408571,4.386616],[103.401841,4.387652],[103.393956,4.386885],[103.388553,4.387296],[103.382619,4.381673],[103.373485,4.377267],[103.365681,4.376906],[103.364998,4.378782],[103.369079,4.387798],[103.369456,4.401338],[103.366715,4.406389],[103.361264,4.411228],[103.356488,4.412934],[103.354953,4.415151],[103.355217,4.421594],[103.358119,4.424979],[103.369456,4.425087],[103.37389,4.426963],[103.377784,4.431857],[103.378858,4.445934],[103.372532,4.465156],[103.373726,4.471467],[103.368865,4.4757],[103.366232,4.482685],[103.362686,4.485694],[103.35742,4.484404],[103.349199,4.479998],[103.336122,4.480018],[103.332199,4.475754],[103.330233,4.462429],[103.324782,4.454667],[103.319756,4.452919],[103.313191,4.459663],[103.304833,4.460857],[103.300239,4.456555],[103.296828,4.457578],[103.296276,4.471133],[103.293482,4.473067],[103.286228,4.472772]],[[103.416093,4.258363],[103.415341,4.261587],[103.418135,4.266154],[103.416684,4.26884],[103.411414,4.270343],[103.416147,4.274697],[103.414642,4.27733],[103.409108,4.277706],[103.408034,4.282165],[103.405884,4.282219],[103.404111,4.277007],[103.400511,4.276846],[103.398362,4.279371],[103.390022,4.280947],[103.380641,4.280606],[103.336251,4.286947],[103.282736,4.299198],[103.276851,4.304741],[103.267262,4.314457],[103.257698,4.316821],[103.251787,4.325418],[103.241041,4.330898],[103.233734,4.33928],[103.226319,4.341859],[103.216648,4.352713],[103.206869,4.366467],[103.199777,4.383124],[103.193867,4.387315],[103.187527,4.381297],[103.182476,4.376246],[103.177963,4.381727],[103.175169,4.390646],[103.17173,4.399565],[103.165209,4.404016],[103.155987,4.409639],[103.148787,4.41555],[103.143952,4.425221]],[[103.455995,4.399845],[103.463985,4.375946],[103.492747,4.328943],[103.49328,4.312743],[103.48848,4.298124],[103.468778,4.238115],[103.452952,4.235259],[103.445913,4.236441]],[[103.445913,4.236441],[103.44774,4.241062],[103.441086,4.245751],[103.435628,4.250868],[103.434093,4.258202],[103.422917,4.260244],[103.416093,4.258363]],[[103.445913,4.236441],[103.438418,4.213945],[103.441781,4.202266],[103.445608,4.188978],[103.443211,4.178619],[103.437086,4.186588],[103.414967,4.181359],[103.401132,4.178088],[103.385902,4.177943],[103.345205,4.177557],[103.332155,4.189775],[103.326562,4.187385],[103.319638,4.194025],[103.317241,4.185525],[103.328426,4.160557],[103.324431,4.157104],[103.328693,4.142761],[103.324165,4.142229],[103.323632,4.125229],[103.306588,4.118057]],[[103.306588,4.118057],[103.304819,4.119203],[103.302669,4.127477],[103.299553,4.141662],[103.295255,4.157244],[103.288162,4.16079],[103.284401,4.169279],[103.287733,4.176264],[103.285476,4.182174],[103.292353,4.183679],[103.295792,4.180777],[103.30224,4.180992],[103.304926,4.185076],[103.302132,4.188192],[103.303959,4.195499],[103.299177,4.203021],[103.30412,4.209039],[103.308633,4.215272],[103.310783,4.212908],[103.316371,4.216991],[103.322818,4.212693],[103.336788,4.214842],[103.343235,4.219355],[103.353552,4.214627],[103.359784,4.210544],[103.369671,4.22043],[103.386434,4.223439],[103.395891,4.22086],[103.393527,4.208179],[103.400189,4.210114],[103.407872,4.213875],[103.410022,4.22043],[103.411956,4.228328],[103.409323,4.23714],[103.402303,4.238808],[103.396509,4.239295],[103.396939,4.243216],[103.401136,4.246505],[103.409269,4.245898],[103.413299,4.248531],[103.414427,4.255139],[103.416093,4.258363]],[[103.306588,4.118057],[103.305256,4.085914],[103.298598,4.085914],[103.305789,4.064397],[103.316175,4.063865],[103.3231,4.054833],[103.327894,4.039425],[103.322833,4.012327],[103.325497,3.993464],[103.333486,3.981243],[103.331356,3.976726],[103.334818,3.948829],[103.326562,3.929434],[103.304191,3.920666],[103.317773,3.894893],[103.312979,3.888516],[103.314045,3.885327],[103.311115,3.879481],[103.300729,3.891704],[103.300995,3.898081],[103.295178,3.908082],[103.27676,3.940062],[103.271966,3.940859],[103.263976,3.949361],[103.267172,3.959988],[103.272232,3.959988],[103.274363,3.966631],[103.264775,3.980712],[103.246399,3.991339],[103.239741,4.004091],[103.240806,4.015249],[103.224827,4.018969],[103.215772,4.00967],[103.205385,4.012858],[103.201923,4.026673],[103.201923,4.03544],[103.194998,4.038894],[103.189672,4.025079],[103.183813,4.028798],[103.163306,4.030392],[103.156115,4.042347],[103.139071,4.053771],[103.133478,4.051645],[103.127352,4.069975],[103.120961,4.071304],[103.121227,4.077679],[103.102052,4.089899],[103.095926,4.08618],[103.084741,4.095212],[103.072224,4.094415],[103.070093,4.111416],[103.051717,4.118057],[103.043993,4.114072],[103.024552,4.120448],[103.017627,4.115932],[103.008306,4.126292],[102.993658,4.128151],[102.98487,4.118322],[102.978744,4.121244],[102.962499,4.116729],[102.960634,4.11301],[102.933686,4.098882],[102.926667,4.099357],[102.916158,4.102384],[102.888461,4.137182],[102.919621,4.157636],[102.918555,4.196681],[102.910832,4.214211],[102.920153,4.225632],[102.917756,4.232803],[102.927344,4.234928],[102.930806,4.245286],[102.927877,4.26308],[102.93054,4.272641],[102.928143,4.278219],[102.937198,4.289638],[102.948384,4.285124],[102.954509,4.296012],[102.957172,4.313009],[102.963298,4.32549],[102.97688,4.337441],[103.00511,4.329208],[103.015231,4.335582],[103.00511,4.342486],[103.002447,4.380195],[103.025883,4.398252],[103.026461,4.409382],[103.024627,4.409112]]],"bbox":[102.378975,3.879481,103.690872,5.963883]}
