{"type":"Topology","objects":{"TRG_SE-08":{"type":"GeometryCollection","geometries":[{"type":"MultiPolygon","arcs":[[[0]],[[1]],[[2]],[[3]],[[4]],[[5,6,7]],[[8]]],"properties":{"state":"Terengganu","parlimen":"P.030 Besut","code_parlimen":"P.030","dun":"N.01 Kuala Besut","code_dun":"N.01"}},{"type":"MultiPolygon","arcs":[[[9]],[[10,11,12,13,-8]]],"properties":{"state":"Terengganu","parlimen":"P.030 Besut","code_parlimen":"P.030","dun":"N.02 Kampung Raja","code_dun":"N.02"}},{"type":"Polygon","arcs":[[14,15,-6,-14,16]],"properties":{"state":"Terengganu","parlimen":"P.030 Besut","code_parlimen":"P.030","dun":"N.03 Jertih","code_dun":"N.03"}},{"type":"Polygon","arcs":[[17,18,19,20,-15]],"properties":{"state":"Terengganu","parlimen":"P.030 Besut","code_parlimen":"P.030","dun":"N.04 Hulu Besut","code_dun":"N.04"}},{"type":"Polygon","arcs":[[-13,21,-18,-17]],"properties":{"state":"Terengganu","parlimen":"P.031 Setiu","code_parlimen":"P.031","dun":"N.05 Jabi","code_dun":"N.05"}},{"type":"MultiPolygon","arcs":[[[-12,22,23,24,25,-19,-22]],[[26]]],"properties":{"state":"Terengganu","parlimen":"P.031 Setiu","code_parlimen":"P.031","dun":"N.06 Permaisuri","code_dun":"N.06"}},{"type":"Polygon","arcs":[[27,28,29,-25]],"properties":{"state":"Terengganu","parlimen":"P.031 Setiu","code_parlimen":"P.031","dun":"N.07 Langkap","code_dun":"N.07"}},{"type":"MultiPolygon","arcs":[[[30]],[[31]],[[32]],[[33]],[[34]],[[35]],[[36]],[[37]],[[38]],[[39]],[[40]],[[41]],[[42]],[[43]],[[44]],[[45]],[[46]],[[-28,-24,47,48]]],"properties":{"state":"Terengganu","parlimen":"P.031 Setiu","code_parlimen":"P.031","dun":"N.08 Batu Rakit","code_dun":"N.08"}},{"type":"Polygon","arcs":[[49,50,51,52,-29,-49,53,54]],"properties":{"state":"Terengganu","parlimen":"P.032 Kuala Nerus","code_parlimen":"P.032","dun":"N.09 Tepuh","code_dun":"N.09"}},{"type":"Polygon","arcs":[[55,56,-51,57]],"properties":{"state":"Terengganu","parlimen":"P.032 Kuala Nerus","code_parlimen":"P.032","dun":"N.10 Teluk Pasu","code_dun":"N.10"}},{"type":"Polygon","arcs":[[58,59,-55]],"properties":{"state":"Terengganu","parlimen":"P.032 Kuala Nerus","code_parlimen":"P.032","dun":"N.11 Seberang Takir","code_dun":"N.11"}},{"type":"Polygon","arcs":[[-50,-60,60,61,62,-58]],"properties":{"state":"Terengganu","parlimen":"P.032 Kuala Nerus","code_parlimen":"P.032","dun":"N.12 Bukit Tunggal","code_dun":"N.12"}},{"type":"Polygon","arcs":[[63,-62,64,65,66]],"properties":{"state":"Terengganu","parlimen":"P.033 Kuala Terengganu","code_parlimen":"P.033","dun":"N.13 Bandar","code_dun":"N.13"}},{"type":"Polygon","arcs":[[67,-66,68,69]],"properties":{"state":"Terengganu","parlimen":"P.033 Kuala Terengganu","code_parlimen":"P.033","dun":"N.14 Ladang","code_dun":"N.14"}},{"type":"Polygon","arcs":[[70,71,72,-70]],"properties":{"state":"Terengganu","parlimen":"P.033 Kuala Terengganu","code_parlimen":"P.033","dun":"N.15 Batu Buruk","code_dun":"N.15"}},{"type":"Polygon","arcs":[[73,74,75,-56,-63,-64]],"properties":{"state":"Terengganu","parlimen":"P.033 Kuala Terengganu","code_parlimen":"P.033","dun":"N.16 Wakaf Mempelam","code_dun":"N.16"}},{"type":"Polygon","arcs":[[76,77,78,-75,79]],"properties":{"state":"Terengganu","parlimen":"P.034 Marang","code_parlimen":"P.034","dun":"N.17 Serada","code_dun":"N.17"}},{"type":"Polygon","arcs":[[-80,-74,-67,-68,-73,80,81]],"properties":{"state":"Terengganu","parlimen":"P.034 Marang","code_parlimen":"P.034","dun":"N.18 Bukit Payung","code_dun":"N.18"}},{"type":"MultiPolygon","arcs":[[[82]],[[-81,-72,83,84,85]],[[86]]],"properties":{"state":"Terengganu","parlimen":"P.034 Marang","code_parlimen":"P.034","dun":"N.19 Ru Rendang","code_dun":"N.19"}},{"type":"Polygon","arcs":[[87,88,-77,-82,-86]],"properties":{"state":"Terengganu","parlimen":"P.034 Marang","code_parlimen":"P.034","dun":"N.20 Binjai","code_dun":"N.20"}},{"type":"Polygon","arcs":[[89,90,-20,-26,-30,-53,91,92]],"properties":{"state":"Terengganu","parlimen":"P.035 Hulu Terengganu","code_parlimen":"P.035","dun":"N.21 Telemung","code_dun":"N.21"}},{"type":"Polygon","arcs":[[93,-92,-52,-57,-76,-79,94]],"properties":{"state":"Terengganu","parlimen":"P.035 Hulu Terengganu","code_parlimen":"P.035","dun":"N.22 Manir","code_dun":"N.22"}},{"type":"Polygon","arcs":[[95,-93,-94,96]],"properties":{"state":"Terengganu","parlimen":"P.035 Hulu Terengganu","code_parlimen":"P.035","dun":"N.23 Kuala Berang","code_dun":"N.23"}},{"type":"Polygon","arcs":[[-95,-78,-89,97,98,-97]],"properties":{"state":"Terengganu","parlimen":"P.035 Hulu Terengganu","code_parlimen":"P.035","dun":"N.24 Tanggul","code_dun":"N.24"}},{"type":"MultiPolygon","arcs":[[[99]],[[-85,100,101,102,-98,-88]],[[103]]],"properties":{"state":"Terengganu","parlimen":"P.036 Dungun","code_parlimen":"P.036","dun":"N.25 Mercang","code_dun":"N.25"}},{"type":"Polygon","arcs":[[104,105,106,-90,-96,-99,-103,107]],"properties":{"state":"Terengganu","parlimen":"P.036 Dungun","code_parlimen":"P.036","dun":"N.26 Jerangau","code_dun":"N.26"}},{"type":"Polygon","arcs":[[-102,108,109,-108]],"properties":{"state":"Terengganu","parlimen":"P.036 Dungun","code_parlimen":"P.036","dun":"N.27 Sura","code_dun":"N.27"}},{"type":"Polygon","arcs":[[110,111,112,113,-105,-110,114,115]],"properties":{"state":"Terengganu","parlimen":"P.036 Dungun","code_parlimen":"P.036","dun":"N.28 Paka","code_dun":"N.28"}},{"type":"Polygon","arcs":[[116,117,-112,118,-116]],"properties":{"state":"Terengganu","parlimen":"P.037 Kemaman","code_parlimen":"P.037","dun":"N.29 Kemasik","code_dun":"N.29"}},{"type":"Polygon","arcs":[[-113,-118,119,120,121]],"properties":{"state":"Terengganu","parlimen":"P.037 Kemaman","code_parlimen":"P.037","dun":"N.30 Kijal","code_dun":"N.30"}},{"type":"Polygon","arcs":[[122,123,-121]],"properties":{"state":"Terengganu","parlimen":"P.037 Kemaman","code_parlimen":"P.037","dun":"N.31 Cukai","code_dun":"N.31"}},{"type":"Polygon","arcs":[[-124,124,-106,-114,-122]],"properties":{"state":"Terengganu","parlimen":"P.037 Kemaman","code_parlimen":"P.037","dun":"N.32 Bukit Bandi","code_dun":"N.32"}}]}},"arcs":[[[102.759028,5.924679],[102.760892,5.919381],[102.77048,5.914348],[102.772078,5.910639],[102.770214,5.901897],[102.775007,5.892625],[102.770746,5.884148],[102.76495,5.884148],[102.763289,5.884148],[102.753968,5.894744],[102.746511,5.890771],[102.746777,5.882558],[102.741717,5.881233],[102.73719,5.895539],[102.738787,5.902957],[102.744913,5.909314],[102.754234,5.913023],[102.755475,5.916039],[102.759028,5.924679]],[[102.71908,5.936864],[102.727868,5.938189],[102.726803,5.93342],[102.723607,5.932626],[102.722275,5.928917],[102.722463,5.928675],[102.727602,5.92203],[102.72414,5.9215],[102.723873,5.916467],[102.732129,5.912758],[102.735059,5.902427],[102.727868,5.890771],[102.714818,5.895274],[102.71615,5.897129],[102.715884,5.9215],[102.717736,5.930407],[102.71908,5.936864]],[[102.675669,5.963618],[102.676483,5.962576],[102.677533,5.961234],[102.675136,5.961499],[102.675345,5.962328],[102.675669,5.963618]],[[102.666348,5.940308],[102.666081,5.943222],[102.667631,5.943607],[102.668212,5.943751],[102.670609,5.941632],[102.668356,5.940932],[102.666348,5.940308]],[[102.680729,5.962558],[102.683925,5.963883],[102.684173,5.961535],[102.684458,5.95885],[102.680915,5.962373],[102.680729,5.962558]],[[102.529789,5.779204],[102.522111,5.780018],[102.513425,5.773194],[102.500707,5.768851],[102.502568,5.759079],[102.507221,5.754426],[102.509238,5.749462],[102.49776,5.743103],[102.486825,5.746632],[102.471353,5.748609],[102.467941,5.750471],[102.4629,5.749928],[102.461814,5.756287],[102.459642,5.76063],[102.461349,5.765128],[102.459022,5.76792]],[[102.459022,5.76792],[102.463116,5.771215],[102.474269,5.780214],[102.477505,5.782782],[102.488451,5.791658],[102.536335,5.847271],[102.545703,5.83858],[102.562215,5.836725]],[[102.562215,5.836725],[102.558484,5.829032],[102.559259,5.814607],[102.559725,5.805611],[102.553676,5.802354],[102.550263,5.804835],[102.537234,5.795529],[102.531495,5.795839],[102.525679,5.793862],[102.525769,5.790743],[102.532639,5.784943],[102.529789,5.779204]],[[102.661287,5.957526],[102.664483,5.962293],[102.668478,5.960969],[102.66829,5.960073],[102.667147,5.954612],[102.664261,5.956047],[102.661287,5.957526]],[[102.613552,5.833454],[102.617272,5.829254],[102.615232,5.827634],[102.609592,5.827394],[102.608512,5.829974],[102.613552,5.833454]],[[102.562215,5.836725],[102.594973,5.81341],[102.607682,5.802439],[102.631193,5.782144],[102.658327,5.745165],[102.672545,5.727554]],[[102.672545,5.727554],[102.660757,5.721039],[102.650055,5.714835],[102.645169,5.711888]],[[102.645169,5.711888],[102.636018,5.71437],[102.63183,5.720574],[102.619266,5.723211],[102.597551,5.726623],[102.58349,5.735244],[102.575349,5.736533],[102.565173,5.740583]],[[102.565173,5.740583],[102.568003,5.743995],[102.572502,5.748493],[102.57095,5.75144],[102.566608,5.756093],[102.564591,5.761987],[102.558387,5.761832],[102.547685,5.763538],[102.539309,5.769122],[102.537758,5.775016],[102.53419,5.779514],[102.529789,5.779204]],[[102.518912,5.698394],[102.511777,5.71437],[102.504643,5.722435],[102.501696,5.733758],[102.49743,5.733293],[102.494948,5.726313],[102.492467,5.726003],[102.49014,5.732672],[102.486437,5.736899],[102.481163,5.729299],[102.480853,5.720303],[102.479147,5.715804],[102.474339,5.714098],[102.475424,5.711461],[102.479457,5.710376],[102.47589,5.706808],[102.4762,5.700604],[102.468445,5.696416],[102.46131,5.695175],[102.452314,5.69471],[102.449522,5.688351],[102.442542,5.684783],[102.444403,5.68044],[102.442852,5.671134],[102.432305,5.66586],[102.43184,5.661672],[102.434166,5.654227],[102.43184,5.639802],[102.421913,5.634684],[102.411986,5.633753],[102.404347,5.623206],[102.402271,5.613879]],[[102.402271,5.613879],[102.392631,5.629668],[102.387008,5.634065],[102.390623,5.64026],[102.386607,5.65365],[102.387611,5.663243],[102.387008,5.671036],[102.385803,5.677631],[102.378975,5.684026],[102.380213,5.69327],[102.392017,5.699697],[102.396471,5.696151],[102.403598,5.712329],[102.411393,5.72075],[102.41607,5.72075],[102.417629,5.726954],[102.430434,5.744075],[102.431882,5.746012],[102.456173,5.765613],[102.459022,5.76792]],[[102.565173,5.740583],[102.559514,5.74044],[102.553033,5.74044],[102.547745,5.733447],[102.542287,5.726112],[102.539046,5.717584],[102.530518,5.711273],[102.528301,5.70428],[102.520966,5.700527],[102.518912,5.698394]],[[102.518912,5.698394],[102.522945,5.679471],[102.533027,5.658066],[102.548111,5.636196],[102.548421,5.625494],[102.554005,5.618204],[102.562226,5.616032],[102.570031,5.609899],[102.5827,5.600677],[102.587973,5.600056],[102.594084,5.593879],[102.601817,5.59013],[102.610347,5.588889],[102.616842,5.587803]],[[102.616842,5.587803],[102.618103,5.577876],[102.618258,5.573999],[102.620816,5.565175],[102.623221,5.558178],[102.618878,5.549182],[102.612314,5.539583],[102.612829,5.534447],[102.619344,5.527157],[102.623842,5.518781],[102.618723,5.514283],[102.611123,5.511181],[102.603213,5.505442],[102.59949,5.499703],[102.600498,5.49249],[102.593286,5.483029],[102.597551,5.478453]],[[102.597551,5.478453],[102.595923,5.4738],[102.592256,5.469712],[102.591424,5.465114],[102.595477,5.459898],[102.599405,5.452247],[102.596698,5.443399],[102.591307,5.438391],[102.593597,5.43401],[102.595001,5.42671],[102.583824,5.41866],[102.580412,5.415558],[102.587857,5.40501],[102.588943,5.394773],[102.581187,5.387018],[102.580877,5.380349],[102.586998,5.372792],[102.587402,5.3683],[102.585602,5.366789],[102.580902,5.36505],[102.575302,5.365841],[102.568934,5.366389],[102.56242,5.364838],[102.556836,5.360495],[102.553966,5.356462],[102.548138,5.356035],[102.542876,5.350025],[102.538068,5.340409],[102.529992,5.332852],[102.521782,5.33118],[102.518195,5.332421],[102.511525,5.337772],[102.513076,5.343666],[102.51106,5.347776],[102.506097,5.350491],[102.496907,5.351266],[102.482016,5.358479],[102.471702,5.356307],[102.46829,5.349948],[102.458479,5.349172],[102.447777,5.354911],[102.442736,5.360107]],[[102.442736,5.360107],[102.441231,5.365399],[102.437616,5.372797],[102.428579,5.371397],[102.424562,5.379595],[102.419743,5.385193],[102.420144,5.392791],[102.415124,5.390392],[102.411509,5.391991],[102.408697,5.39719],[102.404279,5.39679],[102.398656,5.399989],[102.398054,5.402988],[102.389418,5.412184],[102.385,5.410985],[102.385,5.426979],[102.392832,5.426179],[102.401869,5.439574],[102.401869,5.443972],[102.39725,5.454768],[102.400463,5.462564],[102.39464,5.47156],[102.388414,5.476158],[102.390371,5.486069],[102.393033,5.499547],[102.386205,5.512541],[102.380783,5.518737],[102.382791,5.523735],[102.390623,5.522535],[102.398254,5.528932],[102.40207,5.539926],[102.402503,5.541854],[102.407693,5.544523],[102.402472,5.569108],[102.399861,5.577303],[102.396447,5.5821],[102.397049,5.605285],[102.402271,5.613879]],[[102.645169,5.711888],[102.653506,5.708398],[102.661106,5.69948],[102.66669,5.688389],[102.668008,5.670397],[102.669714,5.642633],[102.668318,5.6386],[102.656957,5.629759],[102.65209,5.623788],[102.648368,5.615257],[102.649066,5.610991],[102.642714,5.606245],[102.643637,5.599359],[102.640845,5.596334],[102.632013,5.597194],[102.624797,5.593327],[102.616842,5.587803]],[[102.672545,5.727554],[102.673805,5.725173],[102.717482,5.681978],[102.753169,5.660246],[102.792585,5.630563],[102.833865,5.588155],[102.867155,5.56695],[102.918822,5.537262],[102.937731,5.534876],[102.940048,5.53677]],[[102.940048,5.53677],[102.94464,5.533206],[102.941383,5.526226],[102.935023,5.528087],[102.931534,5.523646],[102.92626,5.517385],[102.918427,5.515524],[102.915635,5.508079],[102.909508,5.504123],[102.906406,5.499237],[102.90121,5.496678]],[[102.90121,5.496678],[102.899388,5.497299],[102.89489,5.500091],[102.88853,5.497609],[102.881706,5.499005],[102.868367,5.503193],[102.856811,5.509552],[102.851072,5.520409],[102.848574,5.529368],[102.846574,5.524132],[102.843162,5.515446],[102.836182,5.514671],[102.83401,5.510793],[102.829047,5.510638],[102.822067,5.505364],[102.81819,5.49947],[102.807332,5.49187],[102.803455,5.485666],[102.799112,5.482874],[102.786858,5.471861],[102.787013,5.459298],[102.787808,5.443709],[102.794788,5.447277],[102.803629,5.447587],[102.806421,5.441693],[102.802078,5.433317],[102.803862,5.423856],[102.80076,5.419823],[102.792927,5.420133],[102.78711,5.417962],[102.782767,5.420909],[102.784241,5.429285],[102.775245,5.430215],[102.765783,5.423235],[102.764697,5.418892],[102.757097,5.411447],[102.750428,5.415635],[102.742207,5.419048],[102.734447,5.424733],[102.725456,5.423391],[102.721184,5.416901],[102.719562,5.408811],[102.722819,5.399039],[102.720121,5.395011],[102.713933,5.399227],[102.706065,5.400122],[102.699995,5.399451],[102.690329,5.399899],[102.680438,5.401689]],[[102.680438,5.401689],[102.673417,5.395239],[102.668115,5.392808],[102.66225,5.388414],[102.658145,5.387534],[102.654445,5.389195],[102.652446,5.392414],[102.654495,5.400202],[102.655115,5.408268],[102.660195,5.415868],[102.655852,5.422227],[102.652905,5.431999],[102.644684,5.437117],[102.639721,5.445183],[102.633191,5.451035],[102.629994,5.457646],[102.625761,5.467208],[102.617715,5.473257],[102.612519,5.47698],[102.604528,5.478507],[102.597551,5.478453]],[[102.82695,5.678026],[102.827287,5.67613],[102.826095,5.67613],[102.825685,5.67613],[102.823588,5.67613],[102.824597,5.678361],[102.825358,5.678253],[102.82635,5.678112],[102.82695,5.678026]],[[102.90121,5.496678],[102.901986,5.494119],[102.897992,5.481788],[102.899388,5.472482],[102.896751,5.464106],[102.902374,5.457126],[102.909752,5.453687],[102.923662,5.445338],[102.935915,5.436342],[102.947858,5.428742]],[[102.947858,5.428742],[102.950883,5.404855],[102.955226,5.381589],[102.943748,5.380349],[102.931029,5.376781],[102.928393,5.378798],[102.927617,5.385157],[102.923584,5.388879],[102.920637,5.387639],[102.92405,5.368561],[102.918931,5.361891],[102.921103,5.352274],[102.92467,5.352895],[102.926221,5.350413],[102.92405,5.345915],[102.923584,5.33056],[102.929013,5.317686],[102.919552,5.324976],[102.912417,5.335213],[102.909004,5.341727],[102.906057,5.340797],[102.905592,5.336143],[102.897216,5.325596],[102.882171,5.314584],[102.88093,5.308534],[102.875191,5.305277],[102.861697,5.312567],[102.856578,5.313188],[102.842852,5.305122],[102.834321,5.293954],[102.835251,5.286665],[102.833235,5.269138],[102.833855,5.257349],[102.834049,5.252308]],[[102.834049,5.252308],[102.827457,5.248664],[102.826294,5.242382],[102.810997,5.232999],[102.804521,5.227492],[102.798006,5.222063],[102.792208,5.220782],[102.785906,5.222492],[102.778449,5.22464],[102.769402,5.229011],[102.764038,5.235945],[102.762565,5.241606],[102.756671,5.24339],[102.752373,5.247697],[102.747597,5.248896],[102.741083,5.256419],[102.731078,5.259754],[102.728715,5.268209],[102.726018,5.280072],[102.728793,5.293813],[102.726095,5.307914],[102.727724,5.316522],[102.724447,5.325751],[102.725068,5.330947],[102.717979,5.336113],[102.712601,5.338181],[102.700251,5.33816],[102.690479,5.339788],[102.684275,5.347544],[102.682414,5.377944],[102.680438,5.401689]],[[103.162773,5.625792],[103.163839,5.621816],[103.159045,5.621816],[103.158246,5.626057],[103.162773,5.625792]],[[103.155849,5.641959],[103.154251,5.638249],[103.149457,5.640634],[103.14999,5.644874],[103.155849,5.641959]],[[103.068229,5.597432],[103.065299,5.594516],[103.061038,5.596107],[103.067164,5.599817],[103.068229,5.597432]],[[103.062636,5.629502],[103.070093,5.627647],[103.072756,5.620756],[103.070892,5.61307],[103.066365,5.609889],[103.054913,5.615985],[103.057576,5.626057],[103.062636,5.629502]],[[102.989569,5.557903],[102.990353,5.556007],[102.987664,5.555561],[102.987439,5.55768],[102.989569,5.557903]],[[102.968723,5.642784],[102.969844,5.641557],[102.969844,5.639772],[102.96637,5.640219],[102.967154,5.643007],[102.968723,5.642784]],[[103.069028,5.659981],[103.071425,5.656801],[103.06956,5.652295],[103.065832,5.656536],[103.066897,5.659716],[103.069028,5.659981]],[[103.073289,5.668992],[103.074621,5.665546],[103.072224,5.664221],[103.070626,5.668992],[103.073289,5.668992]],[[103.006442,5.743723],[103.008572,5.735773],[102.997653,5.730473],[102.999251,5.738688],[102.998719,5.745313],[103.006442,5.743723]],[[103.032009,5.739483],[103.034139,5.735773],[103.02828,5.735243],[103.029612,5.740808],[103.032009,5.739483]],[[103.060239,5.777375],[103.063701,5.771545],[103.061837,5.768631],[103.05731,5.775785],[103.060239,5.777375]],[[102.892625,5.804034],[102.892962,5.802473],[102.894419,5.801469],[102.895091,5.800131],[102.897445,5.799239],[102.898789,5.797344],[102.89991,5.794891],[102.904169,5.794445],[102.90529,5.790431],[102.903609,5.789873],[102.9026,5.787532],[102.898789,5.788089],[102.89666,5.789539],[102.893298,5.789762],[102.891393,5.791769],[102.891953,5.79556],[102.888479,5.799239],[102.889936,5.803922],[102.892625,5.804034]],[[103.043993,5.775255],[103.039466,5.7787],[103.043727,5.779495],[103.043993,5.775255]],[[103.031476,5.758032],[103.030944,5.755117],[103.031476,5.751407],[103.029878,5.750347],[103.027481,5.754057],[103.029079,5.758562],[103.031476,5.758032]],[[102.99499,5.769161],[102.988332,5.783999],[102.993925,5.791683],[102.99206,5.806521],[102.998719,5.819768],[103.008839,5.814999],[103.010703,5.818974],[103.014964,5.809435],[103.019492,5.808111],[103.018693,5.799367],[103.014165,5.787709],[103.020291,5.783999],[103.026682,5.794863],[103.036803,5.790358],[103.046124,5.789033],[103.034139,5.77605],[103.035205,5.771545],[103.030944,5.763596],[103.019492,5.750877],[103.013899,5.748492],[102.997653,5.750082],[102.99499,5.769161]],[[102.986319,5.571958],[102.986319,5.56995],[102.984413,5.56995],[102.984525,5.572292],[102.986319,5.571958]],[[103.042129,5.77128],[103.038401,5.771015],[103.0392,5.773665],[103.042129,5.77128]],[[102.940048,5.53677],[102.945188,5.540973],[102.968624,5.528514],[103.001115,5.500414],[103.041387,5.457747]],[[103.041387,5.457747],[103.035028,5.450844],[103.031383,5.444407],[103.040689,5.439987],[103.045343,5.424244],[103.049143,5.398341],[103.051159,5.381124],[103.047979,5.378953],[103.037432,5.388724],[103.026323,5.392757],[103.020772,5.392941],[103.014896,5.392477],[103.006838,5.389733],[103.001432,5.38815],[102.995941,5.387328],[102.993615,5.379418],[102.990668,5.369957],[102.984619,5.368561],[102.980741,5.370422],[102.977949,5.3819],[102.978569,5.391982],[102.976708,5.394308],[102.971745,5.416488],[102.96523,5.432619],[102.956234,5.43324],[102.947858,5.428742]],[[103.0936,5.347625],[103.089507,5.344896],[103.087865,5.338756]],[[103.087865,5.338756],[103.076949,5.341144],[103.069956,5.339438],[103.064498,5.337903],[103.063133,5.336709],[103.059274,5.332274],[103.047505,5.319994],[103.039488,5.315047],[103.033433,5.315559],[103.029169,5.315729],[103.025544,5.312659],[103.016504,5.313512],[103.013264,5.308907],[103.006953,5.30686],[103.004053,5.301061],[102.998595,5.302937],[102.994501,5.299014],[102.985291,5.303108],[102.985461,5.297991],[102.984438,5.292874],[102.978809,5.293385],[102.985291,5.286051],[102.984779,5.280763],[102.988702,5.269335],[102.986485,5.263195],[102.97898,5.262001],[102.977274,5.255008],[102.980003,5.250573],[102.978127,5.247332],[102.98205,5.236416],[102.98819,5.220383]],[[102.98819,5.220383],[102.983023,5.215857],[102.970967,5.205573],[102.966357,5.194847]],[[102.966357,5.194847],[102.952351,5.199811],[102.944372,5.196974],[102.940649,5.190237],[102.934577,5.189528],[102.928548,5.184386],[102.920038,5.189351],[102.914365,5.199811],[102.907095,5.213818],[102.90089,5.212399],[102.896635,5.218427],[102.893798,5.226583],[102.89566,5.231547],[102.889543,5.23332],[102.883958,5.242363],[102.876423,5.245554],[102.872877,5.241742],[102.865076,5.25043],[102.858693,5.25433],[102.856388,5.261777],[102.852352,5.264097],[102.848164,5.264019],[102.847466,5.259133],[102.841727,5.257427],[102.841572,5.253472],[102.834049,5.252308]],[[103.041387,5.457747],[103.086072,5.417699],[103.087097,5.416691]],[[103.087097,5.416691],[103.084219,5.405106],[103.081106,5.398284],[103.077695,5.389414],[103.079571,5.378327],[103.086906,5.362806],[103.0936,5.347625]],[[103.098184,5.321529],[103.093579,5.320335],[103.088292,5.318458],[103.083857,5.310612]],[[103.083857,5.310612],[103.069356,5.313348],[103.063901,5.30976],[103.056737,5.30089],[103.054178,5.294579],[103.047526,5.296285],[103.046939,5.290322],[103.035415,5.285003],[103.028939,5.280721],[103.018882,5.264436],[103.011967,5.252912],[103.005629,5.242451],[103.000487,5.234473],[102.991504,5.223344],[102.98819,5.220383]],[[103.087865,5.338756],[103.09456,5.331166],[103.096607,5.326219],[103.098184,5.321529]],[[103.087097,5.416691],[103.107378,5.396753],[103.115634,5.397813],[103.118297,5.395692],[103.115634,5.386677],[103.131274,5.358712],[103.141764,5.345834]],[[103.141764,5.345834],[103.13275,5.346182],[103.12104,5.342679],[103.117526,5.346859],[103.0936,5.347625]],[[103.141764,5.345834],[103.143043,5.344726]],[[103.143043,5.344726],[103.137074,5.34012],[103.129398,5.333298],[103.125646,5.322723],[103.119676,5.319482],[103.112341,5.317606]],[[103.112341,5.317606],[103.10876,5.321188],[103.104076,5.321539],[103.098184,5.321529]],[[103.120742,5.296541],[103.118183,5.302169],[103.114492,5.303823],[103.111109,5.311479],[103.112341,5.317606]],[[103.143043,5.344726],[103.149724,5.345578],[103.155316,5.340275],[103.156382,5.335767],[103.149835,5.332133]],[[103.149835,5.332133],[103.143896,5.326305],[103.134686,5.322382],[103.132639,5.315218],[103.128716,5.308054],[103.129228,5.298843]],[[103.129228,5.298843],[103.127266,5.297138],[103.124878,5.295944],[103.120742,5.296541]],[[103.138609,5.283663],[103.134515,5.295432],[103.129228,5.298843]],[[103.149835,5.332133],[103.157491,5.318779]],[[103.157491,5.318779],[103.151742,5.317265],[103.143555,5.312659],[103.145772,5.299867],[103.145431,5.293726],[103.145206,5.288154],[103.141849,5.28571],[103.138609,5.283663]],[[103.157491,5.318779],[103.186742,5.26735],[103.187541,5.260454],[103.185411,5.263504],[103.183147,5.263239],[103.183147,5.261036]],[[103.183147,5.261036],[103.180824,5.262939],[103.176474,5.262172],[103.173063,5.258931],[103.171016,5.254155],[103.169652,5.247332],[103.161123,5.252108],[103.156689,5.246991],[103.151572,5.24665]],[[103.151572,5.24665],[103.149184,5.261489],[103.149184,5.27087],[103.140314,5.274793],[103.138609,5.283663]],[[103.120742,5.296541],[103.12006,5.292959],[103.116137,5.284772]],[[103.116137,5.284772],[103.109143,5.280849],[103.099592,5.282384],[103.093963,5.286477]],[[103.093963,5.286477],[103.091404,5.288695],[103.086458,5.293982],[103.083729,5.300805],[103.083857,5.310612]],[[103.09537,5.231256],[103.092982,5.226139],[103.093323,5.219828],[103.0894,5.212835],[103.081725,5.196631],[103.07439,5.186739],[103.069444,5.177869],[103.065862,5.171046],[103.061768,5.163883],[103.053752,5.164053]],[[103.053752,5.164053],[103.053002,5.173684],[103.051264,5.181969],[103.047394,5.18775],[103.04297,5.192982],[103.04711,5.198897],[103.046281,5.202751],[103.042836,5.2029],[103.039083,5.214328],[103.036184,5.221662]],[[103.036184,5.221662],[103.033591,5.234042],[103.033881,5.250573],[103.034563,5.257907],[103.038486,5.263366],[103.04565,5.266265],[103.054837,5.266954],[103.059722,5.266777],[103.066203,5.269847],[103.07196,5.273173],[103.081189,5.278992],[103.091489,5.284848],[103.093963,5.286477]],[[103.116137,5.284772],[103.116179,5.281019],[103.121978,5.274964],[103.123258,5.270103],[103.115497,5.26473],[103.112938,5.260125],[103.117373,5.255264],[103.119676,5.251596],[103.118397,5.247673],[103.113194,5.251852],[103.104878,5.257886],[103.096423,5.258635],[103.093409,5.254837],[103.091788,5.248697],[103.093835,5.240936],[103.09537,5.231256]],[[103.151572,5.24665],[103.150037,5.239657],[103.146284,5.23147],[103.146625,5.224135],[103.146284,5.217483],[103.145822,5.214895],[103.143043,5.208784],[103.143896,5.200085]],[[103.143896,5.200085],[103.141764,5.198337],[103.133236,5.197996],[103.121467,5.197143],[103.117203,5.200554],[103.117714,5.206524],[103.115838,5.21437],[103.116861,5.22324],[103.103728,5.223922],[103.097587,5.225628],[103.09537,5.231256]],[[103.2709,5.220143],[103.2709,5.215236],[103.270235,5.210064],[103.267971,5.209534],[103.266373,5.212319],[103.26371,5.212982],[103.260114,5.218551],[103.261579,5.224784],[103.265974,5.228232],[103.266004,5.228377],[103.266906,5.23274],[103.26837,5.232873],[103.269169,5.226773],[103.270496,5.221691],[103.2709,5.220143]],[[103.183147,5.261036],[103.183147,5.255018],[103.190471,5.241094],[103.208315,5.212053],[103.21191,5.212053],[103.216704,5.209136],[103.215239,5.204494],[103.22281,5.189325]],[[103.22281,5.189325],[103.21417,5.186483],[103.206238,5.181536],[103.222868,5.137615],[103.187902,5.136763]],[[103.187902,5.136763],[103.184832,5.137615],[103.183382,5.147423],[103.183809,5.158595],[103.16624,5.158339],[103.153874,5.158297],[103.148502,5.168189],[103.142191,5.177571],[103.146284,5.184052],[103.143214,5.190534],[103.146625,5.197356],[103.143896,5.200085]],[[103.262112,5.231679],[103.260114,5.232077],[103.261384,5.233594],[103.262112,5.234464],[103.264908,5.235392],[103.26624,5.234199],[103.263361,5.232442],[103.262112,5.231679]],[[103.187902,5.136763],[103.193531,5.130452],[103.197454,5.132498],[103.201889,5.131816],[103.202571,5.119535],[103.207347,5.109984],[103.213999,5.10879],[103.218093,5.107084],[103.216728,5.098215],[103.21417,5.092245],[103.220651,5.087981],[103.229691,5.09071],[103.23549,5.088663],[103.233273,5.077064],[103.239925,5.0757],[103.240437,5.069048],[103.214681,5.05762],[103.174406,5.041198]],[[103.174406,5.041198],[103.159247,5.043974],[103.155665,5.053185],[103.148672,5.046362],[103.137756,5.064442],[103.128716,5.071777],[103.126669,5.083887],[103.115671,5.104264],[103.110508,5.105421],[103.097332,5.095912],[103.092001,5.098257],[103.088675,5.105421],[103.081333,5.110098],[103.081512,5.116508],[103.069271,5.117664],[103.065649,5.126912],[103.05985,5.134247],[103.048774,5.149959],[103.048251,5.155568],[103.052515,5.160002],[103.053752,5.164053]],[[102.893291,4.811151],[102.899432,4.800917],[102.899127,4.796997],[102.893736,4.787285],[102.892439,4.782326],[102.891836,4.777265],[102.893121,4.767998],[102.897413,4.758776],[102.896513,4.755204],[102.894514,4.751685],[102.892019,4.749035],[102.884383,4.747557],[102.880286,4.746507],[102.87551,4.743266],[102.868346,4.74156],[102.868858,4.734738],[102.863229,4.73559],[102.857259,4.733032],[102.85129,4.733373],[102.844591,4.728682],[102.843294,4.724762],[102.843195,4.720963],[102.846343,4.715122],[102.845149,4.708811],[102.845347,4.705473],[102.846347,4.700983],[102.84549,4.693119],[102.84532,4.688514],[102.844095,4.684291],[102.845167,4.670336]],[[102.845167,4.670336],[102.843186,4.67144],[102.84252,4.680199],[102.825476,4.681526],[102.79072,4.675819],[102.779002,4.670378],[102.774741,4.677545],[102.769415,4.672767],[102.764488,4.678076],[102.762091,4.683517],[102.7549,4.680199],[102.747842,4.682986],[102.745179,4.689489],[102.734393,4.683384],[102.729067,4.685906],[102.728401,4.688693],[102.720145,4.6944],[102.714419,4.693869],[102.70057,4.715368],[102.69258,4.713643],[102.682194,4.715368],[102.675403,4.730763],[102.665282,4.737796],[102.65969,4.751332],[102.662486,4.755711],[102.658068,4.759475],[102.664186,4.770056],[102.666525,4.780097],[102.658968,4.791753],[102.659507,4.800898],[102.65231,4.812733],[102.644032,4.813271],[102.646191,4.826002],[102.652489,4.835326],[102.65087,4.845725],[102.647811,4.850208],[102.644032,4.847877],[102.620819,4.8624],[102.614881,4.862042],[102.606244,4.874054],[102.592748,4.873158],[102.58627,4.88284],[102.571514,4.895749],[102.535885,4.907402],[102.529587,4.896107],[102.513752,4.901486],[102.506014,4.903099],[102.513212,4.919952],[102.513392,4.938239],[102.521129,4.941645],[102.52077,4.94792],[102.514831,4.948637],[102.513932,4.952401],[102.522389,4.960648],[102.509973,4.970687],[102.507634,4.979113],[102.503315,4.981622],[102.499536,4.993812],[102.501695,5.001521],[102.501335,5.001521],[102.498816,5.008153],[102.512132,5.009229],[102.52023,5.026437],[102.508713,5.048306],[102.514112,5.054579],[102.502955,5.074296],[102.499176,5.076088],[102.505294,5.083437],[102.513752,5.084154],[102.51879,5.089352],[102.52095,5.098314],[102.529227,5.108172],[102.513932,5.128066],[102.48748,5.13631],[102.484241,5.147959],[102.474884,5.157816],[102.457429,5.170003],[102.444473,5.168211],[102.437815,5.179681],[102.414422,5.180756],[102.410463,5.183265],[102.41982,5.195809],[102.422879,5.204769],[102.4209,5.223048],[102.414422,5.230037],[102.417301,5.242043],[102.415502,5.26032],[102.42018,5.27358],[102.415682,5.283614],[102.418201,5.288631],[102.415322,5.294723],[102.419101,5.300457],[102.422353,5.31961],[102.429583,5.32221],[102.429985,5.330408],[102.427575,5.337406],[102.429181,5.348004],[102.426571,5.351603],[102.428579,5.356801],[102.436377,5.35654],[102.442736,5.360107]],[[102.966357,5.194847],[102.970258,5.19068],[102.976315,5.184137],[102.982967,5.180044],[102.987743,5.173733],[102.992177,5.177315],[103.006676,5.175268]],[[103.006676,5.175268],[103.010153,5.170747],[103.012645,5.164693],[103.014604,5.157749],[103.011802,5.149987],[103.008211,5.144566],[103.006846,5.141666],[103.005652,5.13365],[103.006164,5.127339],[103.008552,5.119663],[103.001388,5.105677],[103.003776,5.090326],[103.004252,5.068037],[102.993391,5.056998],[102.986803,5.056998],[102.980749,5.058601],[102.977901,5.052191],[102.97434,5.044891],[102.969176,5.037769],[102.969705,5.031353],[102.966635,5.02453],[102.9622,5.025212],[102.960154,5.017537],[102.955207,5.016172],[102.952777,5.011737],[102.945101,5.013102],[102.946124,5.007814],[102.933844,5.002697],[102.925998,4.99144],[102.919346,4.990758],[102.913674,4.98547],[102.8944,4.968243],[102.888771,4.955109],[102.892865,4.947434],[102.890136,4.942829],[102.880925,4.94027],[102.877002,4.932253],[102.883654,4.923213],[102.885872,4.915879],[102.875979,4.898652],[102.866768,4.894047],[102.875126,4.885859],[102.873079,4.880231],[102.877173,4.878013],[102.875979,4.870167],[102.87018,4.869144],[102.869497,4.860104],[102.873079,4.851064],[102.868815,4.846459],[102.877088,4.843218],[102.868389,4.839977],[102.866513,4.832984],[102.871118,4.826843],[102.87777,4.822068],[102.881181,4.816098],[102.877258,4.812516],[102.875211,4.808934],[102.881011,4.806717],[102.887663,4.810981],[102.893291,4.811151]],[[103.031919,5.20081],[103.027144,5.194329],[103.026802,5.18853],[103.017933,5.186653],[103.011793,5.181195],[103.006676,5.175268]],[[103.036184,5.221662],[103.034819,5.214797],[103.027826,5.213603],[103.026973,5.208656],[103.031919,5.20081]],[[103.112948,4.952272],[103.103344,4.935238],[103.099946,4.92825],[103.089187,4.924152],[103.083388,4.927563],[103.079635,4.926454],[103.079411,4.917719],[103.07793,4.911956],[103.082706,4.902916],[103.08407,4.895923],[103.082706,4.8891],[103.085776,4.875625],[103.082023,4.872043],[103.07995,4.861785],[103.072472,4.866415],[103.067668,4.858464],[103.061169,4.861402],[103.052771,4.856351],[103.049104,4.864368],[103.041855,4.863003],[103.034947,4.857631],[103.039637,4.853366],[103.039637,4.847767],[103.039866,4.845903],[103.038051,4.84272],[103.034946,4.8411],[103.032794,4.838015],[103.029307,4.836963],[103.021003,4.835628],[103.014777,4.837674],[103.008722,4.839039],[103.002156,4.843388],[102.994854,4.846476],[102.990898,4.842877],[102.988048,4.842328],[102.986247,4.840938],[102.983447,4.83656],[102.980785,4.828007],[102.977701,4.823932],[102.974689,4.822577],[102.969684,4.822217],[102.967387,4.822208],[102.963985,4.822887],[102.961284,4.822538],[102.958789,4.821726],[102.957187,4.820168],[102.955188,4.818657],[102.952785,4.816465],[102.950282,4.813696],[102.947482,4.811377],[102.942386,4.809867],[102.940089,4.809746],[102.937686,4.810657],[102.931689,4.814555],[102.922298,4.817111],[102.919498,4.81733],[102.916096,4.816751],[102.910793,4.815121],[102.907696,4.81442],[102.905193,4.81475],[102.902798,4.81578],[102.897892,4.816919],[102.894993,4.81656],[102.893192,4.814599],[102.893291,4.811151]],[[103.031919,5.20081],[103.038913,5.189041],[103.040618,5.176419],[103.036525,5.163797],[103.039595,5.148105],[103.041983,5.136166],[103.041536,5.131648],[103.046165,5.127375],[103.045948,5.12107],[103.022069,5.102308],[103.024628,5.092245],[103.030768,5.080987],[103.037373,5.079086],[103.047522,5.077098],[103.05817,5.073783],[103.064683,5.064701],[103.073585,5.060428],[103.07866,5.045783],[103.08596,5.040798],[103.100738,5.024417],[103.112073,5.02304],[103.11622,5.017532],[103.117325,5.00927],[103.117163,4.985113],[103.122193,4.982798],[103.12433,4.973183],[103.111154,4.96072],[103.112948,4.952272]],[[103.174406,5.041198],[103.168287,5.035276],[103.175153,5.025468],[103.176517,5.018304],[103.18658,5.01404],[103.191697,5.004318],[103.200908,5.001077],[103.203637,4.992378],[103.210801,4.986749],[103.211995,4.973957],[103.215577,4.962529],[103.23067,4.95431]],[[103.23067,4.95431],[103.212677,4.951954],[103.206707,4.939161],[103.198179,4.933192],[103.189992,4.924663],[103.182657,4.937285],[103.170845,4.949324],[103.160654,4.948116],[103.15639,4.9401],[103.14121,4.939247],[103.13666,4.950749],[103.125977,4.947722],[103.112948,4.952272]],[[103.679756,4.817741],[103.680656,4.81788],[103.681152,4.817811],[103.681412,4.81746],[103.681343,4.817114],[103.681206,4.816765],[103.681137,4.816626],[103.680786,4.81607],[103.680717,4.815722],[103.680717,4.815097],[103.680733,4.814814],[103.681656,4.814839],[103.681938,4.81463],[103.682007,4.81442],[103.682083,4.814251],[103.68235,4.813652],[103.683006,4.813597],[103.683395,4.813353],[103.684021,4.813353],[103.684364,4.813493],[103.684784,4.813561],[103.685196,4.813584],[103.685677,4.813445],[103.685883,4.813096],[103.686234,4.812469],[103.686996,4.812471],[103.687553,4.81233],[103.68824,4.812123],[103.68866,4.811842],[103.689072,4.811706],[103.689415,4.812123],[103.689972,4.812123],[103.690109,4.811774],[103.690247,4.811079],[103.690529,4.810662],[103.690872,4.810381],[103.690872,4.810174],[103.690598,4.810035],[103.690323,4.809896],[103.690086,4.809668],[103.689613,4.809319],[103.68898,4.809319],[103.688492,4.80869],[103.687943,4.808693],[103.687202,4.808415],[103.686279,4.808066],[103.685791,4.807649],[103.685768,4.807131],[103.685913,4.80671],[103.68605,4.80601],[103.686523,4.805789],[103.687225,4.805386],[103.687363,4.805181],[103.687019,4.80469],[103.687302,4.80462],[103.688133,4.80413],[103.688126,4.803578],[103.687386,4.803198],[103.686417,4.80188],[103.685791,4.80139],[103.685242,4.800552],[103.684753,4.799859],[103.685234,4.799319],[103.685097,4.798899],[103.685379,4.798484],[103.685654,4.797997],[103.685722,4.797511],[103.686134,4.797372],[103.686134,4.796953],[103.685928,4.79598],[103.68531,4.795822],[103.684822,4.795335],[103.684196,4.795196],[103.683647,4.794851],[103.68309,4.794571],[103.682716,4.79448],[103.682388,4.794049],[103.682175,4.793634],[103.681427,4.793356],[103.680664,4.793555],[103.680595,4.793972],[103.680183,4.794111],[103.680038,4.794598],[103.679207,4.794669],[103.678864,4.794877],[103.678375,4.794947],[103.677963,4.795225],[103.677689,4.795503],[103.67762,4.796032],[103.676926,4.796518],[103.676857,4.797493],[103.676788,4.79791],[103.676292,4.79858],[103.676086,4.79949],[103.675667,4.799768],[103.675186,4.799975],[103.674767,4.80046],[103.674507,4.801037],[103.674286,4.80111],[103.674156,4.80083],[103.674019,4.800344],[103.673531,4.800761],[103.672707,4.801352],[103.672768,4.801598],[103.672211,4.802083],[103.672005,4.802245],[103.672005,4.802384],[103.672211,4.80294],[103.672493,4.803476],[103.672493,4.804032],[103.672699,4.804937],[103.673111,4.805215],[103.673531,4.805632],[103.674156,4.805771],[103.674767,4.805841],[103.6754,4.80612],[103.676086,4.80612],[103.676651,4.80591],[103.677483,4.806188],[103.678101,4.806954],[103.678169,4.80751],[103.678238,4.807929],[103.678398,4.809133],[103.677986,4.809481],[103.677498,4.80962],[103.676727,4.80962],[103.676369,4.809461],[103.675751,4.809458],[103.675331,4.809876],[103.675056,4.810502],[103.675056,4.811475],[103.675133,4.812171],[103.675751,4.81259],[103.676231,4.813075],[103.676575,4.813634],[103.677132,4.814607],[103.677826,4.815234],[103.678383,4.815512],[103.678383,4.816417],[103.678452,4.81697],[103.678787,4.817321],[103.679756,4.817741]],[[103.22281,5.189325],[103.223295,5.18853],[103.230952,5.173197],[103.276893,5.078633],[103.387417,4.878318],[103.391024,4.872142],[103.425235,4.813567],[103.441747,4.780128],[103.436154,4.778801],[103.433091,4.781322],[103.428164,4.779199]],[[103.428164,4.779199],[103.423766,4.783203],[103.410662,4.783946],[103.405159,4.780711],[103.397236,4.777506],[103.3919,4.777123],[103.392429,4.768247],[103.387806,4.766036],[103.381212,4.76522]],[[103.381212,4.76522],[103.373905,4.77013],[103.368959,4.776953],[103.359066,4.787869],[103.350324,4.796909],[103.343672,4.807996],[103.343843,4.81823],[103.342308,4.833922],[103.341284,4.85132],[103.336508,4.864112],[103.323716,4.871958],[103.317234,4.878269],[103.307341,4.878099],[103.301031,4.86957],[103.289773,4.867353],[103.280856,4.882919],[103.271864,4.885604],[103.27084,4.895326],[103.261799,4.899142],[103.234231,4.910331],[103.23067,4.95431]],[[103.665131,4.84734],[103.665268,4.846921],[103.665482,4.846713],[103.665619,4.846296],[103.665825,4.845879],[103.666168,4.845669],[103.666588,4.845321],[103.666725,4.844974],[103.666588,4.844626],[103.666313,4.844347],[103.666382,4.843721],[103.667137,4.844069],[103.667419,4.843721],[103.667625,4.843096],[103.667625,4.842679],[103.667091,4.842159],[103.667122,4.841911],[103.667053,4.841423],[103.666153,4.841284],[103.665672,4.84184],[103.665123,4.842191],[103.664528,4.842134],[103.664246,4.842134],[103.66404,4.842481],[103.663971,4.842898],[103.663971,4.843456],[103.663834,4.843734],[103.663559,4.844151],[103.663483,4.84443],[103.663406,4.844639],[103.663277,4.844986],[103.663002,4.845125],[103.662659,4.845264],[103.661964,4.845612],[103.661682,4.84589],[103.661682,4.846451],[103.661652,4.846989],[103.661926,4.847408],[103.662415,4.847616],[103.662758,4.847825],[103.663383,4.848311],[103.665131,4.84734]],[[103.37237,4.75205],[103.349514,4.756485],[103.336551,4.749321],[103.330922,4.762966],[103.311648,4.775929],[103.292545,4.776953],[103.285893,4.769107],[103.270883,4.772859],[103.262185,4.75151],[103.263378,4.73107],[103.262897,4.712339],[103.271224,4.687235],[103.273441,4.663697],[103.279582,4.639988],[103.253144,4.644252],[103.237281,4.645617],[103.227559,4.641011],[103.221078,4.644764],[103.215961,4.643911],[103.208626,4.648004],[103.20368,4.645787],[103.198051,4.644423],[103.189352,4.635212],[103.178436,4.62873],[103.180142,4.615085],[103.174683,4.601099],[103.175707,4.581995],[103.169566,4.574149],[103.153874,4.567327],[103.145005,4.569373],[103.139547,4.565621],[103.134089,4.568009],[103.123514,4.549247],[103.123172,4.539695],[103.13136,4.528437],[103.131018,4.520933],[103.122831,4.508652],[103.124537,4.493983],[103.114985,4.490913],[103.112938,4.482384],[103.120102,4.474197],[103.124196,4.46294],[103.12249,4.4568],[103.129313,4.452024],[103.128199,4.439286]],[[103.128199,4.439286],[103.121564,4.442318],[103.11799,4.442117],[103.112427,4.436502],[103.107821,4.438378],[103.096279,4.42704],[103.090253,4.425927],[103.085307,4.421663],[103.079507,4.422686],[103.075821,4.428143],[103.067738,4.433261],[103.060063,4.431726],[103.055699,4.435451],[103.05017,4.438208],[103.041471,4.433432],[103.040448,4.425756],[103.033926,4.422748],[103.025356,4.416132],[103.024627,4.409112]],[[103.024627,4.409112],[103.017494,4.405819],[103.007907,4.416308],[103.010969,4.433833],[103.000316,4.450428],[102.994724,4.449499],[102.98993,4.451092],[102.986468,4.458261],[102.986734,4.462642],[102.976214,4.471802],[102.976747,4.47605],[102.969556,4.480697],[102.968225,4.473926],[102.9617,4.470342],[102.959036,4.472333],[102.955441,4.4722],[102.953444,4.464235],[102.955441,4.456933],[102.951313,4.452154],[102.942524,4.45003],[102.941193,4.454411],[102.934002,4.460783],[102.929608,4.467554],[102.919221,4.467288],[102.914028,4.463969],[102.912963,4.468085],[102.901644,4.468483],[102.899513,4.465563],[102.890991,4.469413],[102.878207,4.463438],[102.872482,4.469944],[102.876077,4.482157],[102.871283,4.48375],[102.855437,4.495565],[102.853573,4.492645],[102.846116,4.49822],[102.844651,4.501539],[102.846648,4.520124],[102.836661,4.535522],[102.840123,4.572955],[102.85304,4.57707],[102.854904,4.562336],[102.866356,4.561805],[102.87368,4.580521],[102.87115,4.587556],[102.859032,4.597511],[102.860364,4.604148],[102.873414,4.603617],[102.884067,4.608661],[102.878873,4.617819],[102.866356,4.627641],[102.872082,4.638259],[102.85557,4.664538],[102.845167,4.670336]],[[103.381212,4.76522],[103.379022,4.760067],[103.368703,4.766548],[103.365974,4.759896],[103.373052,4.755547],[103.37237,4.75205]],[[103.428164,4.779199],[103.423503,4.770308],[103.425954,4.747879],[103.425962,4.747843]],[[103.425962,4.747843],[103.425635,4.747771],[103.407296,4.74884],[103.37851,4.737722],[103.37237,4.75205]],[[103.284085,4.491646],[103.289427,4.47758]],[[103.289427,4.47758],[103.288195,4.474709],[103.288451,4.470018]],[[103.288451,4.470018],[103.284528,4.465157],[103.276341,4.464049],[103.271565,4.462343],[103.263463,4.460893],[103.256896,4.462769],[103.248011,4.458636],[103.244865,4.456926],[103.234912,4.454721],[103.222195,4.457477],[103.215837,4.466848],[103.209202,4.491654],[103.205608,4.493583],[103.195655,4.48559],[103.185426,4.482558],[103.183214,4.470431],[103.177132,4.459406],[103.174644,4.452791],[103.169944,4.447003],[103.167456,4.440939],[103.164968,4.437356],[103.158886,4.432395],[103.160015,4.422175],[103.154557,4.418593]],[[103.154557,4.418593],[103.15268,4.423027],[103.147222,4.421833],[103.145063,4.421369],[103.138981,4.425504],[103.128199,4.439286]],[[103.425962,4.747843],[103.431867,4.734774],[103.448405,4.69586],[103.449603,4.688693],[103.449603,4.659097],[103.448804,4.653788],[103.442945,4.655779],[103.438684,4.648081],[103.441081,4.631225],[103.454663,4.596184]],[[103.454663,4.596184],[103.442372,4.590108],[103.411747,4.588683],[103.378986,4.586191],[103.369982,4.580119],[103.3635,4.580972],[103.362818,4.587453],[103.355313,4.588136],[103.34815,4.595982],[103.344397,4.595641],[103.340815,4.585918],[103.331946,4.579437],[103.332116,4.57432],[103.318642,4.563915],[103.312672,4.56545],[103.304143,4.557604],[103.295615,4.553852],[103.295124,4.538651],[103.291029,4.534912],[103.299576,4.521202],[103.297083,4.50767],[103.285866,4.499124],[103.284085,4.491646]],[[103.454663,4.596184],[103.468512,4.566053],[103.473306,4.547735],[103.476768,4.528619],[103.470643,4.51561],[103.457593,4.516407],[103.450668,4.508442],[103.445076,4.468085],[103.456528,4.436488],[103.459723,4.418432],[103.455995,4.399845]],[[103.455995,4.399845],[103.455777,4.394969],[103.446907,4.393946],[103.431727,4.38917],[103.424052,4.393775],[103.410236,4.383882],[103.400343,4.385247],[103.395908,4.383541],[103.386356,4.382688],[103.376293,4.374672],[103.364183,4.374501],[103.3635,4.376377],[103.3664,4.398722],[103.360089,4.407591],[103.355313,4.409297],[103.353778,4.411514],[103.353949,4.420725],[103.3693,4.421066],[103.373734,4.422942],[103.37834,4.432323],[103.377146,4.445798],[103.371347,4.46132],[103.372541,4.46763],[103.368276,4.474624],[103.362307,4.481105],[103.351731,4.478547],[103.342862,4.474965],[103.335528,4.474624],[103.331605,4.47036],[103.328705,4.456885],[103.324782,4.454667],[103.319835,4.449892],[103.316254,4.457567],[103.307896,4.458761],[103.300561,4.453815],[103.29715,4.454838],[103.297491,4.468995],[103.295786,4.471042],[103.288451,4.470018]],[[103.289427,4.47758],[103.287257,4.481532],[103.284085,4.491646]],[[103.455995,4.399845],[103.463985,4.375946],[103.492747,4.328943],[103.49328,4.312743],[103.48848,4.298124],[103.468778,4.238115],[103.452194,4.233364],[103.443744,4.230944]],[[103.443744,4.230944],[103.443974,4.234719],[103.439573,4.239924],[103.434115,4.245041],[103.43258,4.252376],[103.424745,4.254572],[103.4145,4.256128]],[[103.4145,4.256128],[103.416888,4.260563],[103.411089,4.263633],[103.411259,4.266533],[103.414841,4.267386],[103.415523,4.271138],[103.410406,4.272161],[103.409383,4.278302],[103.404436,4.278984],[103.401878,4.27489],[103.397614,4.274208],[103.38883,4.276511],[103.379448,4.27617],[103.281543,4.294761],[103.275659,4.300305],[103.269177,4.306616],[103.260308,4.312244],[103.244445,4.325037],[103.232847,4.336977],[103.215278,4.358468],[103.202486,4.38013],[103.193616,4.379618],[103.189182,4.372113],[103.181847,4.374842],[103.180824,4.385929],[103.1798,4.392581],[103.176389,4.398039],[103.163597,4.403156],[103.161379,4.407932],[103.156945,4.41032],[103.154557,4.418593]],[[103.443744,4.230944],[103.438418,4.213945],[103.441781,4.202266],[103.445608,4.188978],[103.443211,4.178619],[103.437086,4.186588]],[[103.437086,4.186588],[103.431215,4.191142],[103.419446,4.203082],[103.408871,4.213657],[103.412794,4.219968],[103.413135,4.228667],[103.401509,4.234274],[103.393942,4.236856],[103.394373,4.240777],[103.400343,4.241971],[103.405427,4.244245],[103.412561,4.246628],[103.4145,4.256128]],[[103.437086,4.186588],[103.414967,4.181359],[103.401132,4.178088],[103.385902,4.177943],[103.345205,4.177557],[103.332155,4.189775],[103.326562,4.187385],[103.319638,4.194025],[103.317241,4.185525],[103.328426,4.160557],[103.324431,4.157104],[103.328693,4.142761],[103.324165,4.142229],[103.323632,4.125229],[103.306588,4.118057],[103.305256,4.085914],[103.298598,4.085914],[103.305789,4.064397],[103.316175,4.063865],[103.3231,4.054833],[103.327894,4.039425],[103.322833,4.012327],[103.325497,3.993464],[103.333486,3.981243],[103.331356,3.976726],[103.334818,3.948829],[103.326562,3.929434],[103.304191,3.920666],[103.317773,3.894893],[103.312979,3.888516],[103.314045,3.885327],[103.311115,3.879481],[103.300729,3.891704],[103.300995,3.898081],[103.295389,3.906271],[103.27676,3.940062],[103.271966,3.940859],[103.263976,3.949361],[103.267172,3.959988],[103.272232,3.959988],[103.274363,3.966631],[103.264775,3.980712],[103.246399,3.991339],[103.239741,4.004091],[103.240806,4.015249],[103.224827,4.018969],[103.215772,4.00967],[103.205385,4.012858],[103.201923,4.026673],[103.201923,4.03544],[103.194998,4.038894],[103.189672,4.025079],[103.183813,4.028798],[103.163306,4.030392],[103.156115,4.042347],[103.139071,4.053771],[103.133478,4.051645],[103.127352,4.069975],[103.120961,4.071304],[103.121227,4.077679],[103.102052,4.089899],[103.095926,4.08618],[103.084741,4.095212],[103.072224,4.094415],[103.070093,4.111416],[103.051717,4.118057],[103.043993,4.114072],[103.024552,4.120448],[103.017627,4.115932],[103.008306,4.126292],[102.993658,4.128151],[102.98487,4.118322],[102.978744,4.121244],[102.962499,4.116729],[102.960634,4.11301],[102.931605,4.098931],[102.916158,4.102384],[102.888461,4.137182],[102.919621,4.157636],[102.918555,4.196681],[102.910832,4.214211],[102.920153,4.225632],[102.917756,4.232803],[102.927344,4.234928],[102.930806,4.245286],[102.927877,4.26308],[102.93054,4.272641],[102.928143,4.278219],[102.937198,4.289638],[102.948384,4.285124],[102.954509,4.296012],[102.957172,4.313009],[102.963298,4.32549],[102.97688,4.337441],[103.00511,4.329208],[103.015231,4.335582],[103.00511,4.342486],[103.002447,4.380195],[103.025883,4.398252],[103.026461,4.409382],[103.024627,4.409112]]],"bbox":[102.378975,3.879481,103.690872,5.963883]}
